{"type":"FeatureCollection","features":[{"type":"Feature","properties":{"codarea":"2305803","centroide":[-40.66989352036322,-4.36886327179995],"codigo_ibge":2305803,"nome_ig":"Alegria"},"geometry":{"type":"MultiPolygon","coordinates":[[[[-40.6823,-4.2121],[-40.6973,-4.2412],[-40.6935,-4.2684],[-40.7017,-4.2899],[-40.6641,-4.3088],[-40.6474,-4.2959],[-40.6195,-4.3108],[-40.6079,-4.3048],[-40.5589,-4.3144],[-40.4785,-4.2938],[-40.4946,-4.321],[-40.5123,-4.3265],[-40.5222,-4.3522],[-40.5414,-4.3686],[-40.5653,-4.4195],[-40.5547,-4.4403],[-40.5837,-4.4719],[-40.5801,-4.4894],[-40.5989,-4.5329],[-40.5886,-4.5581],[-40.609,-4.5549],[-40.6425,-4.5097],[-40.6574,-4.4641],[-40.6796,-4.4322],[-40.6953,-4.4517],[-40.7072,-4.483],[-40.7939,-4.4236],[-40.7831,-4.3879],[-40.7708,-4.3814],[-40.7772,-4.3621],[-40.8002,-4.3639],[-40.8031,-4.3451],[-40.7882,-4.3194],[-40.7924,-4.2879],[-40.803,-4.2667],[-40.7777,-4.234],[-40.7378,-4.2209],[-40.7291,-4.2016],[-40.6823,-4.2121]]]]}}]}