{
  "type": "FeatureCollection",
  "nome_ig": "Altos de Pinto Bandeira",
  "municipios_lista": "bento goncalves;farroupilha;pinto bandeira",
  "features": [
    {
      "type": "Feature",
      "geometry": {
        "type": "Polygon",
        "coordinates": [
          [
            [
              -51.504,
              -29.0818
            ],
            [
              -51.5036,
              -29.0827
            ],
            [
              -51.5012,
              -29.0836
            ],
            [
              -51.4999,
              -29.0852
            ],
            [
              -51.4978,
              -29.0842
            ],
            [
              -51.4946,
              -29.0844
            ],
            [
              -51.4933,
              -29.0856
            ],
            [
              -51.4931,
              -29.0877
            ],
            [
              -51.4944,
              -29.088
            ],
            [
              -51.4964,
              -29.0867
            ],
            [
              -51.4973,
              -29.0875
            ],
            [
              -51.4976,
              -29.0911
            ],
            [
              -51.4985,
              -29.0932
            ],
            [
              -51.498,
              -29.0954
            ],
            [
              -51.4988,
              -29.0966
            ],
            [
              -51.5008,
              -29.0968
            ],
            [
              -51.5007,
              -29.0994
            ],
            [
              -51.5017,
              -29.1021
            ],
            [
              -51.5014,
              -29.1028
            ],
            [
              -51.4985,
              -29.1051
            ],
            [
              -51.4974,
              -29.107
            ],
            [
              -51.4977,
              -29.1091
            ],
            [
              -51.4987,
              -29.1112
            ],
            [
              -51.503,
              -29.113
            ],
            [
              -51.5045,
              -29.1143
            ],
            [
              -51.5114,
              -29.1139
            ],
            [
              -51.5114,
              -29.1221
            ],
            [
              -51.4866,
              -29.1222
            ],
            [
              -51.4833,
              -29.1257
            ],
            [
              -51.4807,
              -29.1268
            ],
            [
              -51.479,
              -29.128
            ],
            [
              -51.4771,
              -29.1309
            ],
            [
              -51.4761,
              -29.1317
            ],
            [
              -51.4737,
              -29.1322
            ],
            [
              -51.4738,
              -29.1338
            ],
            [
              -51.4765,
              -29.1349
            ],
            [
              -51.4766,
              -29.1367
            ],
            [
              -51.4752,
              -29.1382
            ],
            [
              -51.4751,
              -29.1394
            ],
            [
              -51.4764,
              -29.1405
            ],
            [
              -51.4787,
              -29.1414
            ],
            [
              -51.4805,
              -29.1454
            ],
            [
              -51.4798,
              -29.1464
            ],
            [
              -51.4774,
              -29.1466
            ],
            [
              -51.4752,
              -29.1453
            ],
            [
              -51.4738,
              -29.146
            ],
            [
              -51.4739,
              -29.1494
            ],
            [
              -51.4673,
              -29.1547
            ],
            [
              -51.4686,
              -29.1566
            ],
            [
              -51.4671,
              -29.1619
            ],
            [
              -51.4681,
              -29.1639
            ],
            [
              -51.4661,
              -29.166
            ],
            [
              -51.4653,
              -29.1659
            ],
            [
              -51.4626,
              -29.1629
            ],
            [
              -51.4607,
              -29.1631
            ],
            [
              -51.4587,
              -29.1656
            ],
            [
              -51.4582,
              -29.1687
            ],
            [
              -51.4515,
              -29.1682
            ],
            [
              -51.4233,
              -29.165
            ],
            [
              -51.4234,
              -29.1579
            ],
            [
              -51.4232,
              -29.1562
            ],
            [
              -51.4232,
              -29.1272
            ],
            [
              -51.4116,
              -29.1273
            ],
            [
              -51.4129,
              -29.0875
            ],
            [
              -51.4257,
              -29.0877
            ],
            [
              -51.4259,
              -29.078
            ],
            [
              -51.4273,
              -29.0779
            ],
            [
              -51.4271,
              -29.0763
            ],
            [
              -51.426,
              -29.0737
            ],
            [
              -51.4268,
              -29.07
            ],
            [
              -51.4223,
              -29.0691
            ],
            [
              -51.4221,
              -29.0598
            ],
            [
              -51.4278,
              -29.0618
            ],
            [
              -51.433,
              -29.0634
            ],
            [
              -51.4364,
              -29.0631
            ],
            [
              -51.4389,
              -29.0616
            ],
            [
              -51.4409,
              -29.0594
            ],
            [
              -51.4442,
              -29.0523
            ],
            [
              -51.4453,
              -29.0501
            ],
            [
              -51.4463,
              -29.0471
            ],
            [
              -51.4479,
              -29.0436
            ],
            [
              -51.4502,
              -29.0382
            ],
            [
              -51.454,
              -29.0337
            ],
            [
              -51.4581,
              -29.0276
            ],
            [
              -51.4588,
              -29.0261
            ],
            [
              -51.4592,
              -29.023
            ],
            [
              -51.4599,
              -29.0207
            ],
            [
              -51.462,
              -29.0182
            ],
            [
              -51.4658,
              -29.0165
            ],
            [
              -51.4697,
              -29.0161
            ],
            [
              -51.4749,
              -29.0173
            ],
            [
              -51.477,
              -29.0187
            ],
            [
              -51.4772,
              -29.0219
            ],
            [
              -51.4791,
              -29.0255
            ],
            [
              -51.4817,
              -29.0295
            ],
            [
              -51.4837,
              -29.0316
            ],
            [
              -51.4867,
              -29.0331
            ],
            [
              -51.4892,
              -29.033
            ],
            [
              -51.4917,
              -29.0325
            ],
            [
              -51.498,
              -29.0297
            ],
            [
              -51.5033,
              -29.0277
            ],
            [
              -51.5072,
              -29.0258
            ],
            [
              -51.5122,
              -29.0247
            ],
            [
              -51.515,
              -29.0255
            ],
            [
              -51.5177,
              -29.0269
            ],
            [
              -51.5197,
              -29.0287
            ],
            [
              -51.5212,
              -29.0308
            ],
            [
              -51.5218,
              -29.033
            ],
            [
              -51.5222,
              -29.0391
            ],
            [
              -51.5208,
              -29.0433
            ],
            [
              -51.5198,
              -29.0448
            ],
            [
              -51.5179,
              -29.0461
            ],
            [
              -51.5154,
              -29.0469
            ],
            [
              -51.5126,
              -29.0485
            ],
            [
              -51.5031,
              -29.0513
            ],
            [
              -51.5007,
              -29.0523
            ],
            [
              -51.4985,
              -29.0539
            ],
            [
              -51.4977,
              -29.0561
            ],
            [
              -51.4978,
              -29.0585
            ],
            [
              -51.499,
              -29.0644
            ],
            [
              -51.4991,
              -29.0663
            ],
            [
              -51.4999,
              -29.0689
            ],
            [
              -51.5005,
              -29.073
            ],
            [
              -51.5012,
              -29.0741
            ],
            [
              -51.501,
              -29.0754
            ],
            [
              -51.5016,
              -29.0782
            ],
            [
              -51.504,
              -29.0818
            ]
          ]
        ]
      },
      "properties": {
        "codarea": "4314548",
        "nome_municipio": "Pinto Bandeira",
        "codigo_ibge": 4314548
      }
    },
    {
      "type": "Feature",
      "geometry": {
        "type": "Polygon",
        "coordinates": [
          [
            [
              -51.4911,
              -29.2602
            ],
            [
              -51.4859,
              -29.2593
            ],
            [
              -51.4779,
              -29.2586
            ],
            [
              -51.476,
              -29.2578
            ],
            [
              -51.4726,
              -29.2542
            ],
            [
              -51.4713,
              -29.2544
            ],
            [
              -51.4611,
              -29.255
            ],
            [
              -51.4609,
              -29.262
            ],
            [
              -51.459,
              -29.2628
            ],
            [
              -51.459,
              -29.271
            ],
            [
              -51.4495,
              -29.2709
            ],
            [
              -51.4481,
              -29.2681
            ],
            [
              -51.4434,
              -29.2687
            ],
            [
              -51.4425,
              -29.2707
            ],
            [
              -51.44,
              -29.2707
            ],
            [
              -51.44,
              -29.2751
            ],
            [
              -51.4389,
              -29.275
            ],
            [
              -51.4391,
              -29.2807
            ],
            [
              -51.4386,
              -29.2807
            ],
            [
              -51.4388,
              -29.2907
            ],
            [
              -51.4302,
              -29.2907
            ],
            [
              -51.4121,
              -29.2908
            ],
            [
              -51.3774,
              -29.2909
            ],
            [
              -51.371,
              -29.2908
            ],
            [
              -51.354,
              -29.2909
            ],
            [
              -51.3556,
              -29.3213
            ],
            [
              -51.3537,
              -29.3275
            ],
            [
              -51.3527,
              -29.3331
            ],
            [
              -51.3365,
              -29.333
            ],
            [
              -51.3094,
              -29.3232
            ],
            [
              -51.3043,
              -29.323
            ],
            [
              -51.3015,
              -29.3191
            ],
            [
              -51.2987,
              -29.3176
            ],
            [
              -51.2912,
              -29.3178
            ],
            [
              -51.2858,
              -29.319
            ],
            [
              -51.2828,
              -29.3186
            ],
            [
              -51.2697,
              -29.3128
            ],
            [
              -51.2638,
              -29.3131
            ],
            [
              -51.2584,
              -29.3115
            ],
            [
              -51.2596,
              -29.3105
            ],
            [
              -51.2599,
              -29.3088
            ],
            [
              -51.2638,
              -29.3088
            ],
            [
              -51.2655,
              -29.3075
            ],
            [
              -51.2683,
              -29.3072
            ],
            [
              -51.2719,
              -29.3044
            ],
            [
              -51.2769,
              -29.3042
            ],
            [
              -51.2798,
              -29.2996
            ],
            [
              -51.2795,
              -29.2963
            ],
            [
              -51.2784,
              -29.2949
            ],
            [
              -51.2667,
              -29.2951
            ],
            [
              -51.2655,
              -29.2495
            ],
            [
              -51.2657,
              -29.2459
            ],
            [
              -51.2834,
              -29.2455
            ],
            [
              -51.2887,
              -29.2454
            ],
            [
              -51.2886,
              -29.2202
            ],
            [
              -51.2885,
              -29.2102
            ],
            [
              -51.2886,
              -29.1938
            ],
            [
              -51.2939,
              -29.1939
            ],
            [
              -51.2941,
              -29.1735
            ],
            [
              -51.295,
              -29.1736
            ],
            [
              -51.2947,
              -29.154
            ],
            [
              -51.2929,
              -29.1538
            ],
            [
              -51.2928,
              -29.1484
            ],
            [
              -51.2935,
              -29.1134
            ],
            [
              -51.32,
              -29.1142
            ],
            [
              -51.3334,
              -29.1147
            ],
            [
              -51.3337,
              -29.1149
            ],
            [
              -51.3432,
              -29.1149
            ],
            [
              -51.3435,
              -29.1135
            ],
            [
              -51.3455,
              -29.1102
            ],
            [
              -51.3415,
              -29.1098
            ],
            [
              -51.3426,
              -29.1079
            ],
            [
              -51.3438,
              -29.1074
            ],
            [
              -51.3473,
              -29.1089
            ],
            [
              -51.3499,
              -29.1088
            ],
            [
              -51.3516,
              -29.1064
            ],
            [
              -51.3556,
              -29.1062
            ],
            [
              -51.3583,
              -29.1045
            ],
            [
              -51.3583,
              -29.1039
            ],
            [
              -51.3559,
              -29.1019
            ],
            [
              -51.3545,
              -29.1
            ],
            [
              -51.355,
              -29.0988
            ],
            [
              -51.3594,
              -29.0975
            ],
            [
              -51.3616,
              -29.094
            ],
            [
              -51.3612,
              -29.0919
            ],
            [
              -51.3617,
              -29.0908
            ],
            [
              -51.365,
              -29.0866
            ],
            [
              -51.367,
              -29.0847
            ],
            [
              -51.3676,
              -29.0786
            ],
            [
              -51.3698,
              -29.0746
            ],
            [
              -51.3698,
              -29.0736
            ],
            [
              -51.368,
              -29.0712
            ],
            [
              -51.3696,
              -29.0701
            ],
            [
              -51.3704,
              -29.0686
            ],
            [
              -51.3734,
              -29.0685
            ],
            [
              -51.3775,
              -29.0674
            ],
            [
              -51.38,
              -29.0673
            ],
            [
              -51.385,
              -29.0659
            ],
            [
              -51.3913,
              -29.0623
            ],
            [
              -51.3951,
              -29.0589
            ],
            [
              -51.4015,
              -29.056
            ],
            [
              -51.4044,
              -29.0556
            ],
            [
              -51.4057,
              -29.0562
            ],
            [
              -51.4085,
              -29.0566
            ],
            [
              -51.4221,
              -29.0598
            ],
            [
              -51.4223,
              -29.0691
            ],
            [
              -51.4268,
              -29.07
            ],
            [
              -51.426,
              -29.0737
            ],
            [
              -51.4271,
              -29.0763
            ],
            [
              -51.4273,
              -29.0779
            ],
            [
              -51.4259,
              -29.078
            ],
            [
              -51.4257,
              -29.0877
            ],
            [
              -51.4129,
              -29.0875
            ],
            [
              -51.4116,
              -29.1273
            ],
            [
              -51.4232,
              -29.1272
            ],
            [
              -51.4232,
              -29.1562
            ],
            [
              -51.3885,
              -29.156
            ],
            [
              -51.3882,
              -29.1758
            ],
            [
              -51.3909,
              -29.1758
            ],
            [
              -51.3907,
              -29.1971
            ],
            [
              -51.4538,
              -29.1975
            ],
            [
              -51.4848,
              -29.1994
            ],
            [
              -51.485,
              -29.1983
            ],
            [
              -51.4877,
              -29.1983
            ],
            [
              -51.4916,
              -29.1979
            ],
            [
              -51.4915,
              -29.2103
            ],
            [
              -51.4916,
              -29.2124
            ],
            [
              -51.4914,
              -29.2354
            ],
            [
              -51.4911,
              -29.2502
            ],
            [
              -51.4911,
              -29.2602
            ]
          ]
        ]
      },
      "properties": {
        "codarea": "4307906",
        "nome_municipio": "Farroupilha",
        "codigo_ibge": 4307906
      }
    },
    {
      "type": "Feature",
      "geometry": {
        "type": "Polygon",
        "coordinates": [
          [
            [
              -51.6541,
              -29.1981
            ],
            [
              -51.6411,
              -29.198
            ],
            [
              -51.6323,
              -29.1978
            ],
            [
              -51.6177,
              -29.1976
            ],
            [
              -51.602,
              -29.1973
            ],
            [
              -51.583,
              -29.1971
            ],
            [
              -51.5728,
              -29.1971
            ],
            [
              -51.5727,
              -29.1969
            ],
            [
              -51.5561,
              -29.1967
            ],
            [
              -51.5469,
              -29.1969
            ],
            [
              -51.5232,
              -29.1968
            ],
            [
              -51.523,
              -29.199
            ],
            [
              -51.5019,
              -29.1982
            ],
            [
              -51.502,
              -29.1977
            ],
            [
              -51.4916,
              -29.1979
            ],
            [
              -51.4877,
              -29.1983
            ],
            [
              -51.485,
              -29.1983
            ],
            [
              -51.4848,
              -29.1994
            ],
            [
              -51.4538,
              -29.1975
            ],
            [
              -51.3907,
              -29.1971
            ],
            [
              -51.3909,
              -29.1758
            ],
            [
              -51.3882,
              -29.1758
            ],
            [
              -51.3885,
              -29.156
            ],
            [
              -51.4232,
              -29.1562
            ],
            [
              -51.4234,
              -29.1579
            ],
            [
              -51.4233,
              -29.165
            ],
            [
              -51.4515,
              -29.1682
            ],
            [
              -51.4582,
              -29.1687
            ],
            [
              -51.4587,
              -29.1656
            ],
            [
              -51.4607,
              -29.1631
            ],
            [
              -51.4626,
              -29.1629
            ],
            [
              -51.4653,
              -29.1659
            ],
            [
              -51.4661,
              -29.166
            ],
            [
              -51.4681,
              -29.1639
            ],
            [
              -51.4671,
              -29.1619
            ],
            [
              -51.4686,
              -29.1566
            ],
            [
              -51.4673,
              -29.1547
            ],
            [
              -51.4739,
              -29.1494
            ],
            [
              -51.4738,
              -29.146
            ],
            [
              -51.4752,
              -29.1453
            ],
            [
              -51.4774,
              -29.1466
            ],
            [
              -51.4798,
              -29.1464
            ],
            [
              -51.4805,
              -29.1454
            ],
            [
              -51.4787,
              -29.1414
            ],
            [
              -51.4764,
              -29.1405
            ],
            [
              -51.4751,
              -29.1394
            ],
            [
              -51.4752,
              -29.1382
            ],
            [
              -51.4766,
              -29.1367
            ],
            [
              -51.4765,
              -29.1349
            ],
            [
              -51.4738,
              -29.1338
            ],
            [
              -51.4737,
              -29.1322
            ],
            [
              -51.4761,
              -29.1317
            ],
            [
              -51.4771,
              -29.1309
            ],
            [
              -51.479,
              -29.128
            ],
            [
              -51.4807,
              -29.1268
            ],
            [
              -51.4833,
              -29.1257
            ],
            [
              -51.4866,
              -29.1222
            ],
            [
              -51.5114,
              -29.1221
            ],
            [
              -51.5114,
              -29.1139
            ],
            [
              -51.5045,
              -29.1143
            ],
            [
              -51.503,
              -29.113
            ],
            [
              -51.4987,
              -29.1112
            ],
            [
              -51.4977,
              -29.1091
            ],
            [
              -51.4974,
              -29.107
            ],
            [
              -51.4985,
              -29.1051
            ],
            [
              -51.5014,
              -29.1028
            ],
            [
              -51.5017,
              -29.1021
            ],
            [
              -51.5007,
              -29.0994
            ],
            [
              -51.5008,
              -29.0968
            ],
            [
              -51.4988,
              -29.0966
            ],
            [
              -51.498,
              -29.0954
            ],
            [
              -51.4985,
              -29.0932
            ],
            [
              -51.4976,
              -29.0911
            ],
            [
              -51.4973,
              -29.0875
            ],
            [
              -51.4964,
              -29.0867
            ],
            [
              -51.4944,
              -29.088
            ],
            [
              -51.4931,
              -29.0877
            ],
            [
              -51.4933,
              -29.0856
            ],
            [
              -51.4946,
              -29.0844
            ],
            [
              -51.4978,
              -29.0842
            ],
            [
              -51.4999,
              -29.0852
            ],
            [
              -51.5012,
              -29.0836
            ],
            [
              -51.5036,
              -29.0827
            ],
            [
              -51.504,
              -29.0818
            ],
            [
              -51.5057,
              -29.0815
            ],
            [
              -51.5104,
              -29.0819
            ],
            [
              -51.5123,
              -29.0811
            ],
            [
              -51.5149,
              -29.0809
            ],
            [
              -51.5198,
              -29.0792
            ],
            [
              -51.523,
              -29.0764
            ],
            [
              -51.5283,
              -29.0705
            ],
            [
              -51.529,
              -29.0686
            ],
            [
              -51.531,
              -29.0652
            ],
            [
              -51.5323,
              -29.0614
            ],
            [
              -51.5339,
              -29.0591
            ],
            [
              -51.536,
              -29.0572
            ],
            [
              -51.5395,
              -29.056
            ],
            [
              -51.5429,
              -29.0565
            ],
            [
              -51.5465,
              -29.0567
            ],
            [
              -51.5513,
              -29.0556
            ],
            [
              -51.5541,
              -29.0537
            ],
            [
              -51.5558,
              -29.0518
            ],
            [
              -51.5565,
              -29.0498
            ],
            [
              -51.5569,
              -29.047
            ],
            [
              -51.5566,
              -29.0448
            ],
            [
              -51.5532,
              -29.0431
            ],
            [
              -51.5472,
              -29.0389
            ],
            [
              -51.5439,
              -29.0359
            ],
            [
              -51.5426,
              -29.0336
            ],
            [
              -51.541,
              -29.0321
            ],
            [
              -51.5357,
              -29.0257
            ],
            [
              -51.5343,
              -29.0231
            ],
            [
              -51.5338,
              -29.0215
            ],
            [
              -51.5351,
              -29.0192
            ],
            [
              -51.5391,
              -29.0173
            ],
            [
              -51.5448,
              -29.016
            ],
            [
              -51.5487,
              -29.0157
            ],
            [
              -51.5532,
              -29.0157
            ],
            [
              -51.5557,
              -29.0173
            ],
            [
              -51.5598,
              -29.0223
            ],
            [
              -51.563,
              -29.028
            ],
            [
              -51.5639,
              -29.0306
            ],
            [
              -51.5645,
              -29.0339
            ],
            [
              -51.5646,
              -29.0364
            ],
            [
              -51.5642,
              -29.0417
            ],
            [
              -51.5644,
              -29.0439
            ],
            [
              -51.5661,
              -29.0456
            ],
            [
              -51.5709,
              -29.0473
            ],
            [
              -51.5761,
              -29.0482
            ],
            [
              -51.5801,
              -29.0483
            ],
            [
              -51.5892,
              -29.0457
            ],
            [
              -51.5948,
              -29.0447
            ],
            [
              -51.5983,
              -29.045
            ],
            [
              -51.6015,
              -29.0461
            ],
            [
              -51.6029,
              -29.0474
            ],
            [
              -51.6038,
              -29.0494
            ],
            [
              -51.6039,
              -29.0518
            ],
            [
              -51.6036,
              -29.0546
            ],
            [
              -51.602,
              -29.0582
            ],
            [
              -51.6013,
              -29.0617
            ],
            [
              -51.6019,
              -29.0639
            ],
            [
              -51.6039,
              -29.0645
            ],
            [
              -51.6086,
              -29.0609
            ],
            [
              -51.611,
              -29.0579
            ],
            [
              -51.6135,
              -29.0536
            ],
            [
              -51.6154,
              -29.0462
            ],
            [
              -51.6171,
              -29.0425
            ],
            [
              -51.6197,
              -29.0409
            ],
            [
              -51.6235,
              -29.0409
            ],
            [
              -51.6275,
              -29.0431
            ],
            [
              -51.6312,
              -29.0443
            ],
            [
              -51.6334,
              -29.0439
            ],
            [
              -51.6348,
              -29.0419
            ],
            [
              -51.6346,
              -29.0386
            ],
            [
              -51.6317,
              -29.0335
            ],
            [
              -51.6294,
              -29.0285
            ],
            [
              -51.6289,
              -29.0246
            ],
            [
              -51.6293,
              -29.0207
            ],
            [
              -51.6321,
              -29.0155
            ],
            [
              -51.6339,
              -29.0143
            ],
            [
              -51.637,
              -29.0136
            ],
            [
              -51.6423,
              -29.0131
            ],
            [
              -51.6481,
              -29.0133
            ],
            [
              -51.6518,
              -29.0142
            ],
            [
              -51.6553,
              -29.017
            ],
            [
              -51.6571,
              -29.0203
            ],
            [
              -51.6578,
              -29.0248
            ],
            [
              -51.6599,
              -29.0316
            ],
            [
              -51.6626,
              -29.039
            ],
            [
              -51.6647,
              -29.0438
            ],
            [
              -51.6667,
              -29.0467
            ],
            [
              -51.6707,
              -29.0513
            ],
            [
              -51.6751,
              -29.0544
            ],
            [
              -51.6783,
              -29.058
            ],
            [
              -51.6791,
              -29.0603
            ],
            [
              -51.6782,
              -29.0637
            ],
            [
              -51.6762,
              -29.065
            ],
            [
              -51.6746,
              -29.0649
            ],
            [
              -51.6707,
              -29.0636
            ],
            [
              -51.6622,
              -29.0621
            ],
            [
              -51.6494,
              -29.0606
            ],
            [
              -51.6449,
              -29.0608
            ],
            [
              -51.6426,
              -29.0614
            ],
            [
              -51.6407,
              -29.0623
            ],
            [
              -51.6393,
              -29.0635
            ],
            [
              -51.6348,
              -29.0702
            ],
            [
              -51.6337,
              -29.0731
            ],
            [
              -51.6332,
              -29.0759
            ],
            [
              -51.6331,
              -29.0791
            ],
            [
              -51.6335,
              -29.0828
            ],
            [
              -51.6342,
              -29.0858
            ],
            [
              -51.6352,
              -29.088
            ],
            [
              -51.6375,
              -29.0889
            ],
            [
              -51.64,
              -29.0878
            ],
            [
              -51.6435,
              -29.088
            ],
            [
              -51.6479,
              -29.0874
            ],
            [
              -51.6521,
              -29.0857
            ],
            [
              -51.6559,
              -29.0827
            ],
            [
              -51.6673,
              -29.0733
            ],
            [
              -51.6699,
              -29.0722
            ],
            [
              -51.6753,
              -29.0709
            ],
            [
              -51.6779,
              -29.0713
            ],
            [
              -51.6793,
              -29.0724
            ],
            [
              -51.6808,
              -29.0759
            ],
            [
              -51.6817,
              -29.0803
            ],
            [
              -51.6815,
              -29.0872
            ],
            [
              -51.6817,
              -29.089
            ],
            [
              -51.6723,
              -29.0887
            ],
            [
              -51.6724,
              -29.0937
            ],
            [
              -51.6618,
              -29.0937
            ],
            [
              -51.6493,
              -29.0938
            ],
            [
              -51.6492,
              -29.099
            ],
            [
              -51.6377,
              -29.0991
            ],
            [
              -51.6377,
              -29.1097
            ],
            [
              -51.627,
              -29.1099
            ],
            [
              -51.6262,
              -29.1251
            ],
            [
              -51.615,
              -29.1253
            ],
            [
              -51.6148,
              -29.1448
            ],
            [
              -51.6041,
              -29.145
            ],
            [
              -51.6038,
              -29.1582
            ],
            [
              -51.5957,
              -29.1584
            ],
            [
              -51.5888,
              -29.1582
            ],
            [
              -51.5884,
              -29.1675
            ],
            [
              -51.5954,
              -29.1676
            ],
            [
              -51.6168,
              -29.1673
            ],
            [
              -51.6167,
              -29.1872
            ],
            [
              -51.6255,
              -29.1872
            ],
            [
              -51.6326,
              -29.1879
            ],
            [
              -51.6449,
              -29.188
            ],
            [
              -51.6655,
              -29.1881
            ],
            [
              -51.6622,
              -29.1895
            ],
            [
              -51.6615,
              -29.1917
            ],
            [
              -51.6588,
              -29.1934
            ],
            [
              -51.6571,
              -29.1935
            ],
            [
              -51.6542,
              -29.1945
            ],
            [
              -51.6541,
              -29.1981
            ]
          ]
        ]
      },
      "properties": {
        "codarea": "4302105",
        "nome_municipio": "Bento Gonçalves",
        "codigo_ibge": 4302105
      }
    }
  ]
}