{"type":"FeatureCollection","features":[{"type":"Feature","properties":{"codarea":"4308201","centroide":[-51.22165802582062,-29.031232921226664],"codigo_ibge":4308201,"nome_ig":"Altos Montes"},"geometry":{"type":"Polygon","coordinates":[[[-51.1849,-28.9423],[-51.1673,-28.9509],[-51.1524,-28.9724],[-51.1225,-28.9822],[-51.128,-29.0067],[-51.1131,-29.0328],[-51.1105,-29.0798],[-51.1452,-29.0803],[-51.1447,-29.0875],[-51.1946,-29.0862],[-51.3071,-29.0883],[-51.2858,-29.1046],[-51.2928,-29.1134],[-51.3431,-29.1145],[-51.3575,-29.1037],[-51.3705,-29.0691],[-51.3575,-29.0592],[-51.3309,-29.0666],[-51.3172,-29.048],[-51.2596,-29.0374],[-51.2464,-29.0295],[-51.2748,-29.029],[-51.2757,-28.9647],[-51.2633,-28.9637],[-51.237,-28.9398],[-51.214,-28.943],[-51.194,-28.9297],[-51.1849,-28.9423]]]}},{"type":"Feature","properties":{"codarea":"4313086","centroide":[-51.316482500188314,-29.00132071706572],"codigo_ibge":4313086,"nome_ig":"Altos Montes"},"geometry":{"type":"Polygon","coordinates":[[[-51.2633,-28.9637],[-51.2757,-28.9647],[-51.2748,-29.029],[-51.2464,-29.0295],[-51.2596,-29.0374],[-51.3172,-29.048],[-51.3309,-29.0666],[-51.3575,-29.0592],[-51.3567,-29.0204],[-51.3844,-29.0052],[-51.3621,-28.9731],[-51.3435,-28.9749],[-51.3402,-28.9638],[-51.3104,-28.9565],[-51.2833,-28.9268],[-51.2649,-28.9369],[-51.2715,-28.9552],[-51.2633,-28.9637]]]}}]}