{"type":"FeatureCollection","features":[{"type":"Feature","properties":{"codarea":"4101200","centroide":[-48.72238091291715,-25.305150550052915],"codigo_ibge":4101200,"nome_ig":"Antonina"},"geometry":{"type":"Polygon","coordinates":[[[-48.6435,-25.1309],[-48.6574,-25.1653],[-48.6274,-25.1892],[-48.6398,-25.241],[-48.6191,-25.2744],[-48.6306,-25.2915],[-48.6071,-25.2955],[-48.5853,-25.2881],[-48.5771,-25.2965],[-48.6016,-25.351],[-48.5845,-25.3599],[-48.5975,-25.3682],[-48.5675,-25.4033],[-48.5965,-25.4252],[-48.6154,-25.4515],[-48.6838,-25.5025],[-48.7083,-25.4968],[-48.7198,-25.4837],[-48.7847,-25.4786],[-48.8189,-25.443],[-48.8345,-25.3878],[-48.8291,-25.3763],[-48.8495,-25.3682],[-48.8414,-25.3369],[-48.8529,-25.3211],[-48.8448,-25.3099],[-48.8305,-25.3029],[-48.8401,-25.2633],[-48.8311,-25.2529],[-48.8335,-25.193],[-48.8456,-25.1632],[-48.8196,-25.1322],[-48.7848,-25.1263],[-48.7493,-25.0889],[-48.7017,-25.1066],[-48.6821,-25.1204],[-48.6836,-25.1425],[-48.6622,-25.1264],[-48.6435,-25.1309]]]}}]}