{"type":"FeatureCollection","features":[{"type":"Feature","properties":{"codarea":"2301000","centroide":[-38.39423621849378,-3.976336547588788],"codigo_ibge":2301000,"nome_ig":"Aquiraz"},"geometry":{"type":"MultiPolygon","coordinates":[[[[-38.4017,-3.8237],[-38.3604,-3.8849],[-38.3186,-3.9265],[-38.2782,-3.9413],[-38.2228,-4.0066],[-38.2334,-4.0225],[-38.2532,-4.0286],[-38.2924,-4.021],[-38.3099,-4.012],[-38.3705,-4.0649],[-38.3725,-4.0789],[-38.3838,-4.0715],[-38.4446,-4.0712],[-38.4745,-4.0617],[-38.5065,-4.0598],[-38.5358,-4.0413],[-38.5161,-4.0152],[-38.5156,-3.9617],[-38.5089,-3.9371],[-38.4852,-3.9245],[-38.4711,-3.9271],[-38.4636,-3.9136],[-38.4515,-3.9232],[-38.433,-3.8864],[-38.4158,-3.8796],[-38.4143,-3.8556],[-38.422,-3.8354],[-38.4093,-3.819],[-38.4017,-3.8237]]]]}}]}