{
  "type": "FeatureCollection",
  "nome_ig": "Areia - PB",
  "municipios_lista": "alagoinha;arara;areia",
  "features": [
    {
      "type": "Feature",
      "geometry": {
        "type": "Polygon",
        "coordinates": [
          [
            [
              -35.6496,
              -6.9106
            ],
            [
              -35.6508,
              -6.9092
            ],
            [
              -35.6528,
              -6.9096
            ],
            [
              -35.6557,
              -6.9111
            ],
            [
              -35.6561,
              -6.91
            ],
            [
              -35.6586,
              -6.9082
            ],
            [
              -35.659,
              -6.9071
            ],
            [
              -35.6606,
              -6.9062
            ],
            [
              -35.6614,
              -6.9048
            ],
            [
              -35.6637,
              -6.9058
            ],
            [
              -35.6651,
              -6.9046
            ],
            [
              -35.6655,
              -6.9029
            ],
            [
              -35.6688,
              -6.9005
            ],
            [
              -35.6726,
              -6.8988
            ],
            [
              -35.6723,
              -6.8977
            ],
            [
              -35.674,
              -6.8957
            ],
            [
              -35.6754,
              -6.895
            ],
            [
              -35.6765,
              -6.8927
            ],
            [
              -35.6781,
              -6.8912
            ],
            [
              -35.6811,
              -6.8909
            ],
            [
              -35.6815,
              -6.8902
            ],
            [
              -35.736,
              -6.8841
            ],
            [
              -35.737,
              -6.8837
            ],
            [
              -35.7385,
              -6.8843
            ],
            [
              -35.7401,
              -6.8857
            ],
            [
              -35.7411,
              -6.8852
            ],
            [
              -35.74,
              -6.8835
            ],
            [
              -35.7403,
              -6.8825
            ],
            [
              -35.7426,
              -6.8819
            ],
            [
              -35.7423,
              -6.878
            ],
            [
              -35.7418,
              -6.8773
            ],
            [
              -35.7429,
              -6.8758
            ],
            [
              -35.7445,
              -6.8747
            ],
            [
              -35.7479,
              -6.8752
            ],
            [
              -35.7498,
              -6.8747
            ],
            [
              -35.7524,
              -6.8752
            ],
            [
              -35.7531,
              -6.8758
            ],
            [
              -35.7567,
              -6.8768
            ],
            [
              -35.7581,
              -6.8766
            ],
            [
              -35.7596,
              -6.8755
            ],
            [
              -35.7605,
              -6.8765
            ],
            [
              -35.7661,
              -6.8777
            ],
            [
              -35.7676,
              -6.8777
            ],
            [
              -35.7692,
              -6.8787
            ],
            [
              -35.7706,
              -6.8773
            ],
            [
              -35.7731,
              -6.8761
            ],
            [
              -35.7745,
              -6.8765
            ],
            [
              -35.779,
              -6.8749
            ],
            [
              -35.7804,
              -6.8748
            ],
            [
              -35.7828,
              -6.8752
            ],
            [
              -35.7831,
              -6.8738
            ],
            [
              -35.7862,
              -6.8731
            ],
            [
              -35.787,
              -6.8722
            ],
            [
              -35.7911,
              -6.8698
            ],
            [
              -35.7947,
              -6.8681
            ],
            [
              -35.7979,
              -6.8674
            ],
            [
              -35.8006,
              -6.8659
            ],
            [
              -35.801,
              -6.8644
            ],
            [
              -35.8022,
              -6.8647
            ],
            [
              -35.8031,
              -6.8659
            ],
            [
              -35.8037,
              -6.8675
            ],
            [
              -35.807,
              -6.871
            ],
            [
              -35.8074,
              -6.8737
            ],
            [
              -35.7928,
              -6.8976
            ],
            [
              -35.7896,
              -6.9013
            ],
            [
              -35.787,
              -6.9037
            ],
            [
              -35.7863,
              -6.906
            ],
            [
              -35.7851,
              -6.9075
            ],
            [
              -35.7855,
              -6.9088
            ],
            [
              -35.787,
              -6.9095
            ],
            [
              -35.7901,
              -6.9122
            ],
            [
              -35.7903,
              -6.9133
            ],
            [
              -35.7894,
              -6.9163
            ],
            [
              -35.7912,
              -6.9186
            ],
            [
              -35.789,
              -6.9187
            ],
            [
              -35.7872,
              -6.9201
            ],
            [
              -35.7846,
              -6.9192
            ],
            [
              -35.7837,
              -6.9201
            ],
            [
              -35.7861,
              -6.922
            ],
            [
              -35.7857,
              -6.925
            ],
            [
              -35.7841,
              -6.9262
            ],
            [
              -35.7834,
              -6.9275
            ],
            [
              -35.7856,
              -6.9289
            ],
            [
              -35.7862,
              -6.9304
            ],
            [
              -35.7854,
              -6.9326
            ],
            [
              -35.789,
              -6.9333
            ],
            [
              -35.79,
              -6.9343
            ],
            [
              -35.7892,
              -6.9367
            ],
            [
              -35.7873,
              -6.938
            ],
            [
              -35.7877,
              -6.9386
            ],
            [
              -35.7876,
              -6.9421
            ],
            [
              -35.7868,
              -6.9436
            ],
            [
              -35.7874,
              -6.9449
            ],
            [
              -35.7861,
              -6.9462
            ],
            [
              -35.7854,
              -6.9487
            ],
            [
              -35.7848,
              -6.949
            ],
            [
              -35.7838,
              -6.9511
            ],
            [
              -35.7827,
              -6.952
            ],
            [
              -35.7819,
              -6.9537
            ],
            [
              -35.7795,
              -6.9563
            ],
            [
              -35.7756,
              -6.9588
            ],
            [
              -35.7748,
              -6.9616
            ],
            [
              -35.7769,
              -7.0212
            ],
            [
              -35.7777,
              -7.0229
            ],
            [
              -35.7806,
              -7.0242
            ],
            [
              -35.7804,
              -7.0264
            ],
            [
              -35.78,
              -7.0274
            ],
            [
              -35.7773,
              -7.0282
            ],
            [
              -35.771,
              -7.0306
            ],
            [
              -35.7688,
              -7.0316
            ],
            [
              -35.7679,
              -7.0331
            ],
            [
              -35.7666,
              -7.0336
            ],
            [
              -35.7645,
              -7.0331
            ],
            [
              -35.7632,
              -7.0335
            ],
            [
              -35.7603,
              -7.0302
            ],
            [
              -35.7594,
              -7.0304
            ],
            [
              -35.7579,
              -7.0286
            ],
            [
              -35.7561,
              -7.0287
            ],
            [
              -35.7552,
              -7.0281
            ],
            [
              -35.7539,
              -7.0285
            ],
            [
              -35.7539,
              -7.0307
            ],
            [
              -35.7529,
              -7.0317
            ],
            [
              -35.7505,
              -7.0309
            ],
            [
              -35.7486,
              -7.0294
            ],
            [
              -35.7446,
              -7.0301
            ],
            [
              -35.743,
              -7.03
            ],
            [
              -35.7413,
              -7.0288
            ],
            [
              -35.7393,
              -7.0269
            ],
            [
              -35.7388,
              -7.0259
            ],
            [
              -35.7371,
              -7.0252
            ],
            [
              -35.7359,
              -7.0231
            ],
            [
              -35.7337,
              -7.0208
            ],
            [
              -35.7315,
              -7.0217
            ],
            [
              -35.7301,
              -7.0231
            ],
            [
              -35.7291,
              -7.0234
            ],
            [
              -35.7272,
              -7.0226
            ],
            [
              -35.7268,
              -7.0238
            ],
            [
              -35.7257,
              -7.0245
            ],
            [
              -35.7191,
              -7.0255
            ],
            [
              -35.7191,
              -7.0268
            ],
            [
              -35.7174,
              -7.0269
            ],
            [
              -35.7169,
              -7.0233
            ],
            [
              -35.7158,
              -7.0231
            ],
            [
              -35.7146,
              -7.0246
            ],
            [
              -35.7137,
              -7.0226
            ],
            [
              -35.7125,
              -7.0225
            ],
            [
              -35.6878,
              -7.0298
            ],
            [
              -35.6863,
              -7.0285
            ],
            [
              -35.6857,
              -7.0268
            ],
            [
              -35.6845,
              -7.0268
            ],
            [
              -35.6778,
              -7.0283
            ],
            [
              -35.6766,
              -7.028
            ],
            [
              -35.6761,
              -7.0266
            ],
            [
              -35.6746,
              -7.0251
            ],
            [
              -35.6715,
              -7.0201
            ],
            [
              -35.6709,
              -7.0181
            ],
            [
              -35.6717,
              -7.0164
            ],
            [
              -35.6715,
              -7.0148
            ],
            [
              -35.6705,
              -7.0129
            ],
            [
              -35.6711,
              -7.0102
            ],
            [
              -35.6682,
              -7.0096
            ],
            [
              -35.6663,
              -7.0089
            ],
            [
              -35.6629,
              -7.0084
            ],
            [
              -35.6608,
              -7.0091
            ],
            [
              -35.6584,
              -7.008
            ],
            [
              -35.6587,
              -7.0062
            ],
            [
              -35.6586,
              -7.0041
            ],
            [
              -35.6575,
              -7.001
            ],
            [
              -35.6613,
              -6.9965
            ],
            [
              -35.6627,
              -6.9942
            ],
            [
              -35.6633,
              -6.9905
            ],
            [
              -35.6664,
              -6.988
            ],
            [
              -35.6667,
              -6.9864
            ],
            [
              -35.6656,
              -6.9853
            ],
            [
              -35.6637,
              -6.9867
            ],
            [
              -35.6613,
              -6.986
            ],
            [
              -35.6596,
              -6.9867
            ],
            [
              -35.6582,
              -6.9865
            ],
            [
              -35.6569,
              -6.985
            ],
            [
              -35.6552,
              -6.9859
            ],
            [
              -35.6527,
              -6.986
            ],
            [
              -35.6515,
              -6.9857
            ],
            [
              -35.6483,
              -6.9871
            ],
            [
              -35.6471,
              -6.9863
            ],
            [
              -35.6453,
              -6.9838
            ],
            [
              -35.6438,
              -6.9831
            ],
            [
              -35.6413,
              -6.9831
            ],
            [
              -35.6373,
              -6.985
            ],
            [
              -35.6358,
              -6.9865
            ],
            [
              -35.634,
              -6.9871
            ],
            [
              -35.6315,
              -6.9866
            ],
            [
              -35.6295,
              -6.9868
            ],
            [
              -35.6303,
              -6.9817
            ],
            [
              -35.6302,
              -6.9795
            ],
            [
              -35.6284,
              -6.9775
            ],
            [
              -35.6254,
              -6.9772
            ],
            [
              -35.6247,
              -6.9742
            ],
            [
              -35.6195,
              -6.9715
            ],
            [
              -35.6185,
              -6.9731
            ],
            [
              -35.6138,
              -6.9762
            ],
            [
              -35.6103,
              -6.973
            ],
            [
              -35.6074,
              -6.9699
            ],
            [
              -35.6048,
              -6.9693
            ],
            [
              -35.6017,
              -6.9694
            ],
            [
              -35.5984,
              -6.967
            ],
            [
              -35.5978,
              -6.9653
            ],
            [
              -35.5967,
              -6.964
            ],
            [
              -35.5978,
              -6.9631
            ],
            [
              -35.5993,
              -6.9635
            ],
            [
              -35.6027,
              -6.9626
            ],
            [
              -35.602,
              -6.9608
            ],
            [
              -35.6029,
              -6.9593
            ],
            [
              -35.6015,
              -6.9586
            ],
            [
              -35.6009,
              -6.9565
            ],
            [
              -35.5997,
              -6.9558
            ],
            [
              -35.5982,
              -6.9558
            ],
            [
              -35.5941,
              -6.954
            ],
            [
              -35.5935,
              -6.9519
            ],
            [
              -35.5932,
              -6.9494
            ],
            [
              -35.5814,
              -6.9406
            ],
            [
              -35.5714,
              -6.9409
            ],
            [
              -35.584,
              -6.9217
            ],
            [
              -35.6126,
              -6.9161
            ],
            [
              -35.6128,
              -6.9171
            ],
            [
              -35.6144,
              -6.9167
            ],
            [
              -35.6165,
              -6.9138
            ],
            [
              -35.6184,
              -6.9148
            ],
            [
              -35.6196,
              -6.9135
            ],
            [
              -35.6207,
              -6.9135
            ],
            [
              -35.6218,
              -6.9143
            ],
            [
              -35.6228,
              -6.9167
            ],
            [
              -35.6257,
              -6.9173
            ],
            [
              -35.6275,
              -6.9162
            ],
            [
              -35.63,
              -6.9132
            ],
            [
              -35.6302,
              -6.9119
            ],
            [
              -35.6346,
              -6.9117
            ],
            [
              -35.6365,
              -6.9125
            ],
            [
              -35.6381,
              -6.9127
            ],
            [
              -35.6387,
              -6.9111
            ],
            [
              -35.6408,
              -6.9104
            ],
            [
              -35.6427,
              -6.911
            ],
            [
              -35.6452,
              -6.9106
            ],
            [
              -35.6469,
              -6.9114
            ],
            [
              -35.6474,
              -6.9106
            ],
            [
              -35.6496,
              -6.9106
            ]
          ]
        ]
      },
      "properties": {
        "codarea": "2501104",
        "nome_municipio": "Areia",
        "codigo_ibge": 2501104
      }
    },
    {
      "type": "Feature",
      "geometry": {
        "type": "Polygon",
        "coordinates": [
          [
            [
              -35.8031,
              -6.8659
            ],
            [
              -35.8022,
              -6.8647
            ],
            [
              -35.801,
              -6.8644
            ],
            [
              -35.8006,
              -6.8659
            ],
            [
              -35.7979,
              -6.8674
            ],
            [
              -35.7947,
              -6.8681
            ],
            [
              -35.7911,
              -6.8698
            ],
            [
              -35.787,
              -6.8722
            ],
            [
              -35.7862,
              -6.8731
            ],
            [
              -35.7831,
              -6.8738
            ],
            [
              -35.7828,
              -6.8752
            ],
            [
              -35.7804,
              -6.8748
            ],
            [
              -35.779,
              -6.8749
            ],
            [
              -35.7745,
              -6.8765
            ],
            [
              -35.7731,
              -6.8761
            ],
            [
              -35.7706,
              -6.8773
            ],
            [
              -35.7692,
              -6.8787
            ],
            [
              -35.7676,
              -6.8777
            ],
            [
              -35.7661,
              -6.8777
            ],
            [
              -35.7605,
              -6.8765
            ],
            [
              -35.7596,
              -6.8755
            ],
            [
              -35.7581,
              -6.8766
            ],
            [
              -35.7567,
              -6.8768
            ],
            [
              -35.7531,
              -6.8758
            ],
            [
              -35.7524,
              -6.8752
            ],
            [
              -35.7498,
              -6.8747
            ],
            [
              -35.7479,
              -6.8752
            ],
            [
              -35.7445,
              -6.8747
            ],
            [
              -35.7429,
              -6.8758
            ],
            [
              -35.7418,
              -6.8773
            ],
            [
              -35.7423,
              -6.878
            ],
            [
              -35.7426,
              -6.8819
            ],
            [
              -35.7403,
              -6.8825
            ],
            [
              -35.74,
              -6.8835
            ],
            [
              -35.7411,
              -6.8852
            ],
            [
              -35.7401,
              -6.8857
            ],
            [
              -35.7385,
              -6.8843
            ],
            [
              -35.737,
              -6.8837
            ],
            [
              -35.736,
              -6.8841
            ],
            [
              -35.6815,
              -6.8902
            ],
            [
              -35.6811,
              -6.8909
            ],
            [
              -35.6781,
              -6.8912
            ],
            [
              -35.6765,
              -6.8927
            ],
            [
              -35.6754,
              -6.895
            ],
            [
              -35.674,
              -6.8957
            ],
            [
              -35.6723,
              -6.8977
            ],
            [
              -35.6726,
              -6.8988
            ],
            [
              -35.6688,
              -6.9005
            ],
            [
              -35.6655,
              -6.9029
            ],
            [
              -35.6651,
              -6.9046
            ],
            [
              -35.6637,
              -6.9058
            ],
            [
              -35.6614,
              -6.9048
            ],
            [
              -35.6606,
              -6.9062
            ],
            [
              -35.659,
              -6.9071
            ],
            [
              -35.6586,
              -6.9082
            ],
            [
              -35.6561,
              -6.91
            ],
            [
              -35.6557,
              -6.9111
            ],
            [
              -35.6528,
              -6.9096
            ],
            [
              -35.6508,
              -6.9092
            ],
            [
              -35.6496,
              -6.9106
            ],
            [
              -35.6458,
              -6.8831
            ],
            [
              -35.648,
              -6.8821
            ],
            [
              -35.6495,
              -6.8822
            ],
            [
              -35.65,
              -6.8835
            ],
            [
              -35.6523,
              -6.8832
            ],
            [
              -35.6532,
              -6.8815
            ],
            [
              -35.6526,
              -6.8802
            ],
            [
              -35.6534,
              -6.8772
            ],
            [
              -35.6544,
              -6.8749
            ],
            [
              -35.6568,
              -6.874
            ],
            [
              -35.6572,
              -6.873
            ],
            [
              -35.6565,
              -6.8708
            ],
            [
              -35.657,
              -6.8683
            ],
            [
              -35.6585,
              -6.8684
            ],
            [
              -35.6622,
              -6.8668
            ],
            [
              -35.6645,
              -6.8678
            ],
            [
              -35.6658,
              -6.8674
            ],
            [
              -35.6684,
              -6.8657
            ],
            [
              -35.6709,
              -6.8656
            ],
            [
              -35.674,
              -6.867
            ],
            [
              -35.6751,
              -6.8669
            ],
            [
              -35.6772,
              -6.8683
            ],
            [
              -35.6789,
              -6.8668
            ],
            [
              -35.6795,
              -6.8654
            ],
            [
              -35.681,
              -6.8642
            ],
            [
              -35.6824,
              -6.8641
            ],
            [
              -35.6848,
              -6.8648
            ],
            [
              -35.6856,
              -6.8636
            ],
            [
              -35.6886,
              -6.8619
            ],
            [
              -35.6908,
              -6.8619
            ],
            [
              -35.6916,
              -6.8602
            ],
            [
              -35.6928,
              -6.8597
            ],
            [
              -35.6923,
              -6.8574
            ],
            [
              -35.6934,
              -6.8559
            ],
            [
              -35.6962,
              -6.8549
            ],
            [
              -35.6973,
              -6.8507
            ],
            [
              -35.697,
              -6.8496
            ],
            [
              -35.6979,
              -6.8483
            ],
            [
              -35.6998,
              -6.8468
            ],
            [
              -35.701,
              -6.8465
            ],
            [
              -35.7048,
              -6.8434
            ],
            [
              -35.7064,
              -6.8417
            ],
            [
              -35.7094,
              -6.8414
            ],
            [
              -35.7109,
              -6.8417
            ],
            [
              -35.7102,
              -6.8396
            ],
            [
              -35.7102,
              -6.8374
            ],
            [
              -35.7087,
              -6.8363
            ],
            [
              -35.7069,
              -6.8359
            ],
            [
              -35.7048,
              -6.8368
            ],
            [
              -35.7035,
              -6.8367
            ],
            [
              -35.7012,
              -6.838
            ],
            [
              -35.6996,
              -6.8384
            ],
            [
              -35.6998,
              -6.8371
            ],
            [
              -35.7017,
              -6.8357
            ],
            [
              -35.7038,
              -6.8335
            ],
            [
              -35.7047,
              -6.8309
            ],
            [
              -35.7038,
              -6.8289
            ],
            [
              -35.6997,
              -6.8263
            ],
            [
              -35.6975,
              -6.8222
            ],
            [
              -35.6952,
              -6.82
            ],
            [
              -35.6919,
              -6.8188
            ],
            [
              -35.691,
              -6.8183
            ],
            [
              -35.6925,
              -6.8184
            ],
            [
              -35.6983,
              -6.8158
            ],
            [
              -35.7002,
              -6.8143
            ],
            [
              -35.7017,
              -6.8149
            ],
            [
              -35.7024,
              -6.816
            ],
            [
              -35.7048,
              -6.816
            ],
            [
              -35.7069,
              -6.8169
            ],
            [
              -35.709,
              -6.8194
            ],
            [
              -35.7094,
              -6.8209
            ],
            [
              -35.7115,
              -6.8204
            ],
            [
              -35.7116,
              -6.8193
            ],
            [
              -35.7133,
              -6.818
            ],
            [
              -35.7151,
              -6.8199
            ],
            [
              -35.7154,
              -6.8213
            ],
            [
              -35.7166,
              -6.8223
            ],
            [
              -35.7184,
              -6.8225
            ],
            [
              -35.7195,
              -6.825
            ],
            [
              -35.7207,
              -6.8248
            ],
            [
              -35.7231,
              -6.8219
            ],
            [
              -35.7253,
              -6.8204
            ],
            [
              -35.7267,
              -6.8184
            ],
            [
              -35.7299,
              -6.8169
            ],
            [
              -35.7312,
              -6.818
            ],
            [
              -35.7324,
              -6.8178
            ],
            [
              -35.7326,
              -6.8162
            ],
            [
              -35.7357,
              -6.8143
            ],
            [
              -35.7372,
              -6.8149
            ],
            [
              -35.736,
              -6.8162
            ],
            [
              -35.7364,
              -6.817
            ],
            [
              -35.7402,
              -6.8148
            ],
            [
              -35.7404,
              -6.8132
            ],
            [
              -35.743,
              -6.8139
            ],
            [
              -35.7442,
              -6.8161
            ],
            [
              -35.743,
              -6.8175
            ],
            [
              -35.7469,
              -6.8193
            ],
            [
              -35.749,
              -6.8187
            ],
            [
              -35.7501,
              -6.8191
            ],
            [
              -35.7502,
              -6.8206
            ],
            [
              -35.7532,
              -6.8231
            ],
            [
              -35.7516,
              -6.8238
            ],
            [
              -35.752,
              -6.8278
            ],
            [
              -35.7534,
              -6.8277
            ],
            [
              -35.7544,
              -6.8268
            ],
            [
              -35.7567,
              -6.8261
            ],
            [
              -35.7579,
              -6.8248
            ],
            [
              -35.7603,
              -6.8239
            ],
            [
              -35.7602,
              -6.8223
            ],
            [
              -35.7608,
              -6.8211
            ],
            [
              -35.7627,
              -6.8213
            ],
            [
              -35.7625,
              -6.8229
            ],
            [
              -35.7634,
              -6.8241
            ],
            [
              -35.7631,
              -6.8253
            ],
            [
              -35.764,
              -6.8272
            ],
            [
              -35.765,
              -6.8258
            ],
            [
              -35.7663,
              -6.8258
            ],
            [
              -35.7671,
              -6.827
            ],
            [
              -35.7668,
              -6.8279
            ],
            [
              -35.765,
              -6.8284
            ],
            [
              -35.7664,
              -6.8306
            ],
            [
              -35.7656,
              -6.8315
            ],
            [
              -35.7667,
              -6.8329
            ],
            [
              -35.768,
              -6.8314
            ],
            [
              -35.77,
              -6.8331
            ],
            [
              -35.7723,
              -6.8308
            ],
            [
              -35.774,
              -6.8311
            ],
            [
              -35.774,
              -6.8296
            ],
            [
              -35.775,
              -6.8286
            ],
            [
              -35.7766,
              -6.8254
            ],
            [
              -35.7774,
              -6.8248
            ],
            [
              -35.7816,
              -6.8254
            ],
            [
              -35.7828,
              -6.8252
            ],
            [
              -35.7858,
              -6.8276
            ],
            [
              -35.7863,
              -6.8286
            ],
            [
              -35.7885,
              -6.8288
            ],
            [
              -35.79,
              -6.8293
            ],
            [
              -35.7881,
              -6.8312
            ],
            [
              -35.7895,
              -6.8335
            ],
            [
              -35.7921,
              -6.8335
            ],
            [
              -35.7936,
              -6.8363
            ],
            [
              -35.7953,
              -6.8362
            ],
            [
              -35.7952,
              -6.835
            ],
            [
              -35.7965,
              -6.8349
            ],
            [
              -35.7972,
              -6.8368
            ],
            [
              -35.8009,
              -6.8376
            ],
            [
              -35.8013,
              -6.8363
            ],
            [
              -35.8026,
              -6.8348
            ],
            [
              -35.8045,
              -6.8363
            ],
            [
              -35.8059,
              -6.8358
            ],
            [
              -35.8078,
              -6.8361
            ],
            [
              -35.8074,
              -6.8374
            ],
            [
              -35.811,
              -6.8394
            ],
            [
              -35.8112,
              -6.8407
            ],
            [
              -35.8134,
              -6.8434
            ],
            [
              -35.8126,
              -6.8455
            ],
            [
              -35.8137,
              -6.8462
            ],
            [
              -35.8151,
              -6.8458
            ],
            [
              -35.8132,
              -6.8492
            ],
            [
              -35.8115,
              -6.85
            ],
            [
              -35.8114,
              -6.8513
            ],
            [
              -35.8103,
              -6.8527
            ],
            [
              -35.8082,
              -6.8519
            ],
            [
              -35.8074,
              -6.8537
            ],
            [
              -35.8061,
              -6.8538
            ],
            [
              -35.8058,
              -6.8552
            ],
            [
              -35.8062,
              -6.8572
            ],
            [
              -35.81,
              -6.8593
            ],
            [
              -35.8097,
              -6.8603
            ],
            [
              -35.8117,
              -6.8609
            ],
            [
              -35.8118,
              -6.8615
            ],
            [
              -35.81,
              -6.8637
            ],
            [
              -35.8075,
              -6.8653
            ],
            [
              -35.8031,
              -6.8659
            ]
          ]
        ]
      },
      "properties": {
        "codarea": "2500908",
        "nome_municipio": "Arara",
        "codigo_ibge": 2500908
      }
    },
    {
      "type": "Feature",
      "geometry": {
        "type": "Polygon",
        "coordinates": [
          [
            [
              -35.5932,
              -6.9494
            ],
            [
              -35.5904,
              -6.9515
            ],
            [
              -35.5882,
              -6.9524
            ],
            [
              -35.5876,
              -6.9537
            ],
            [
              -35.5879,
              -6.9577
            ],
            [
              -35.587,
              -6.9591
            ],
            [
              -35.5878,
              -6.9618
            ],
            [
              -35.587,
              -6.9642
            ],
            [
              -35.5858,
              -6.9621
            ],
            [
              -35.5824,
              -6.9605
            ],
            [
              -35.581,
              -6.9603
            ],
            [
              -35.5792,
              -6.9609
            ],
            [
              -35.5774,
              -6.959
            ],
            [
              -35.5746,
              -6.96
            ],
            [
              -35.5731,
              -6.9628
            ],
            [
              -35.5731,
              -6.9639
            ],
            [
              -35.5722,
              -6.9657
            ],
            [
              -35.5731,
              -6.9676
            ],
            [
              -35.5718,
              -6.9689
            ],
            [
              -35.5704,
              -6.9694
            ],
            [
              -35.5683,
              -6.9727
            ],
            [
              -35.5677,
              -6.9731
            ],
            [
              -35.5649,
              -6.9771
            ],
            [
              -35.5633,
              -6.9779
            ],
            [
              -35.5592,
              -6.9792
            ],
            [
              -35.5365,
              -7.0076
            ],
            [
              -35.5357,
              -7.0082
            ],
            [
              -35.535,
              -7.01
            ],
            [
              -35.5333,
              -7.0109
            ],
            [
              -35.531,
              -7.0131
            ],
            [
              -35.5302,
              -7.0129
            ],
            [
              -35.5276,
              -7.0162
            ],
            [
              -35.527,
              -7.0173
            ],
            [
              -35.5249,
              -7.0188
            ],
            [
              -35.5241,
              -7.0207
            ],
            [
              -35.5241,
              -7.0228
            ],
            [
              -35.523,
              -7.0264
            ],
            [
              -35.5232,
              -7.0274
            ],
            [
              -35.5215,
              -7.0299
            ],
            [
              -35.5197,
              -7.0297
            ],
            [
              -35.5186,
              -7.0309
            ],
            [
              -35.5175,
              -7.0334
            ],
            [
              -35.5162,
              -7.0333
            ],
            [
              -35.5148,
              -7.0314
            ],
            [
              -35.514,
              -7.0309
            ],
            [
              -35.4789,
              -6.9909
            ],
            [
              -35.4592,
              -6.9633
            ],
            [
              -35.4588,
              -6.9614
            ],
            [
              -35.4577,
              -6.9605
            ],
            [
              -35.4573,
              -6.9589
            ],
            [
              -35.4578,
              -6.9579
            ],
            [
              -35.4637,
              -6.955
            ],
            [
              -35.4648,
              -6.9533
            ],
            [
              -35.4657,
              -6.9488
            ],
            [
              -35.4657,
              -6.9463
            ],
            [
              -35.4679,
              -6.9418
            ],
            [
              -35.4699,
              -6.9388
            ],
            [
              -35.4714,
              -6.936
            ],
            [
              -35.4709,
              -6.9329
            ],
            [
              -35.4722,
              -6.9289
            ],
            [
              -35.4722,
              -6.9271
            ],
            [
              -35.4714,
              -6.9237
            ],
            [
              -35.5313,
              -6.9227
            ],
            [
              -35.5649,
              -6.909
            ],
            [
              -35.584,
              -6.9217
            ],
            [
              -35.5714,
              -6.9409
            ],
            [
              -35.5814,
              -6.9406
            ],
            [
              -35.5932,
              -6.9494
            ]
          ]
        ]
      },
      "properties": {
        "codarea": "2500502",
        "nome_municipio": "Alagoinha",
        "codigo_ibge": 2500502
      }
    }
  ]
}