{"type":"FeatureCollection","features":[{"type":"Feature","properties":{"codarea":"1300300","centroide":[-59.52760634241879,-3.7884950809432096],"codigo_ibge":1300300,"nome_ig":"Autazes"},"geometry":{"type":"Polygon","coordinates":[[[-58.9196,-3.5438],[-58.9699,-3.5971],[-59.0075,-3.6107],[-59.0945,-3.6837],[-59.1029,-3.6957],[-59.0926,-3.7154],[-59.0602,-3.7562],[-59.0519,-3.7771],[-59.0579,-3.808],[-59.0866,-3.8587],[-59.1186,-3.8792],[-59.1764,-3.8926],[-59.2082,-3.92],[-59.5004,-3.9191],[-59.5259,-3.9258],[-59.5278,-3.9556],[-59.5575,-3.9826],[-59.5587,-4.0214],[-59.5817,-4.0576],[-59.5875,-4.0767],[-59.5797,-4.117],[-59.5861,-4.1407],[-59.6201,-4.1985],[-59.6441,-4.2019],[-59.6754,-4.1887],[-59.6944,-4.2122],[-59.9289,-4.2128],[-59.9475,-4.2253],[-59.939,-4.2464],[-59.9671,-4.2577],[-59.9768,-4.2494],[-59.9889,-4.2637],[-59.9697,-4.3103],[-59.9679,-4.3397],[-59.9488,-4.3618],[-59.954,-4.3885],[-59.9969,-4.3967],[-60.0227,-4.4108],[-60.0256,-4.4205],[-60.0505,-4.4143],[-60.0468,-4.3862],[-60.0695,-4.3793],[-60.0839,-4.406],[-60.1008,-4.4073],[-60.1089,-4.3946],[-60.1299,-4.3866],[-60.1364,-4.3743],[-60.1216,-4.3589],[-60.1236,-4.338],[-60.1501,-4.3437],[-60.1709,-4.3321],[-60.1713,-4.3177],[-60.1916,-4.3076],[-60.184,-4.2954],[-60.2054,-4.2738],[-60.2178,-4.2747],[-60.2177,-4.2938],[-60.2357,-4.2684],[-60.2617,-4.2506],[-60.2608,-4.236],[-60.2761,-4.235],[-60.2669,-4.2093],[-60.287,-4.1645],[-60.1998,-4.1498],[-60.1731,-4.1373],[-60.149,-4.1652],[-60.1491,-4.18],[-60.1312,-4.1928],[-60.0998,-4.1518],[-60.1,-4.1272],[-60.1165,-4.099],[-60.118,-4.023],[-60.1057,-4.0043],[-60.0841,-4.0004],[-60.0748,-3.9717],[-60.0629,-3.9621],[-60.0159,-3.96],[-60.0004,-3.9487],[-59.9796,-3.9636],[-59.9519,-3.9651],[-59.9459,-3.9766],[-59.9144,-3.9849],[-59.9065,-3.9678],[-59.9094,-3.946],[-59.895,-3.9174],[-59.8719,-3.9047],[-59.8677,-3.8876],[-59.84,-3.8465],[-59.8287,-3.8386],[-59.8352,-3.7863],[-59.8325,-3.7527],[-59.8219,-3.7092],[-59.811,-3.6954],[-59.7872,-3.5003],[-59.775,-3.4636],[-59.7382,-3.4718],[-59.7154,-3.4604],[-59.6987,-3.4718],[-59.6781,-3.4703],[-59.6683,-3.4861],[-59.6269,-3.5002],[-59.6054,-3.5218],[-59.5878,-3.5493],[-59.5441,-3.5392],[-59.5417,-3.52],[-59.5152,-3.4926],[-59.4867,-3.5003],[-59.4527,-3.4932],[-59.4261,-3.5002],[-59.3977,-3.4974],[-59.3997,-3.4785],[-59.3903,-3.4635],[-59.349,-3.4425],[-59.3306,-3.4157],[-59.3023,-3.3936],[-59.2761,-3.3872],[-59.2522,-3.3736],[-59.2335,-3.3502],[-59.2341,-3.2433],[-59.1737,-3.2754],[-59.126,-3.2876],[-59.0392,-3.2496],[-59.0061,-3.2439],[-58.9575,-3.29],[-58.8949,-3.3728],[-58.8545,-3.401],[-58.8256,-3.4032],[-58.7873,-3.3866],[-58.7998,-3.4369],[-58.825,-3.4639],[-58.8446,-3.4473],[-58.874,-3.4764],[-58.9196,-3.5438]]]}}]}