{"type":"FeatureCollection","features":[{"type":"Feature","properties":{"codarea":"1600303","centroide":[-50.701772540974595,0.5543179259576944],"codigo_ibge":1600303,"nome_ig":"Bailique"},"geometry":{"type":"MultiPolygon","coordinates":[[[[-50.0939,0.702],[-50.1569,0.7051],[-50.2105,0.699],[-50.2717,0.6882],[-50.3285,0.6743],[-50.3585,0.66],[-50.4098,0.6233],[-50.4471,0.6674],[-50.439,0.6957],[-50.4514,0.7054],[-50.4566,0.7299],[-50.4855,0.7317],[-50.5037,0.7438],[-50.4979,0.755],[-50.5355,0.7586],[-50.5702,0.7701],[-50.5684,0.7438],[-50.6138,0.7526],[-50.6207,0.7343],[-50.6259,0.688],[-50.6233,0.6689],[-50.6317,0.6248],[-50.6551,0.5927],[-50.6733,0.6299],[-50.7017,0.6089],[-50.7124,0.6419],[-50.747,0.643],[-50.7519,0.6579],[-50.7721,0.6707],[-50.7776,0.6958],[-50.8089,0.7215],[-50.8271,0.7515],[-50.8501,0.7554],[-50.8909,0.6747],[-50.9079,0.6861],[-50.9405,0.6699],[-50.9254,0.6489],[-50.91,0.6017],[-50.9067,0.5679],[-50.8666,0.5781],[-50.845,0.5664],[-50.8474,0.5567],[-50.82,0.5494],[-50.801,0.522],[-50.7796,0.545],[-50.7627,0.5347],[-50.7656,0.5206],[-50.7456,0.4725],[-50.7311,0.4744],[-50.7285,0.4577],[-50.7088,0.4497],[-50.7076,0.4196],[-50.6833,0.4142],[-50.6893,0.3985],[-50.7143,0.3836],[-50.684,0.3804],[-50.6856,0.3389],[-50.7041,0.3421],[-50.7047,0.2985],[-50.6448,0.2087],[-50.6478,0.2053],[-50.6681,0.185],[-50.7435,0.1304],[-50.7847,0.1121],[-50.921,0.0761],[-50.9748,0.0417],[-50.9969,0.0034],[-51.0173,-0.0107],[-51.0656,-0.0762],[-51.0808,-0.0864],[-51.1183,-0.0975],[-51.1406,-0.0567],[-51.145,-0.0335],[-51.1095,-0.0059],[-51.1223,0.0018],[-51.2031,0.0019],[-51.204,0.0086],[-51.2351,0.0176],[-51.2294,0.0331],[-51.2487,0.0327],[-51.2361,0.0569],[-51.2238,0.0592],[-51.193,0.1026],[-51.186,0.134],[-51.1909,0.1565],[-51.2271,0.1744],[-51.2536,0.1742],[-51.2704,0.1638],[-51.2714,0.1771],[-51.2899,0.2028],[-51.3171,0.2184],[-51.3392,0.2405],[-51.3438,0.2628],[-51.3642,0.2979],[-51.3856,0.3128],[-51.3898,0.337],[-51.4154,0.3673],[-51.4461,0.3712],[-51.4576,0.393],[-51.4639,0.4269],[-51.4876,0.4284],[-51.4754,0.448],[-51.4931,0.4679],[-51.4742,0.476],[-51.4708,0.4946],[-51.4464,0.5098],[-51.4255,0.5035],[-51.4114,0.4842],[-51.3685,0.4869],[-51.3337,0.4668],[-51.3101,0.4745],[-51.2768,0.4538],[-51.2628,0.4536],[-51.2473,0.4323],[-51.2386,0.4073],[-51.2173,0.3982],[-51.2057,0.3617],[-51.2123,0.343],[-51.2063,0.317],[-51.1713,0.3078],[-51.1615,0.3174],[-51.1393,0.3089],[-51.1288,0.3157],[-51.1366,0.3345],[-51.1169,0.375],[-51.1167,0.3929],[-51.0936,0.4278],[-51.061,0.4423],[-51.0482,0.4233],[-51.0302,0.428],[-51.033,0.4533],[-51.0143,0.4572],[-51.0018,0.4964],[-50.976,0.5029],[-50.9409,0.4964],[-50.9251,0.5146],[-50.9516,0.524],[-50.9875,0.5476],[-51.0003,0.5725],[-50.988,0.6259],[-50.9956,0.6449],[-50.9909,0.668],[-50.9739,0.6962],[-50.9131,0.728],[-50.9046,0.742],[-50.9157,0.7675],[-50.9,0.7866],[-50.8865,0.7732],[-50.8868,0.798],[-50.8482,0.819],[-50.8182,0.8263],[-50.8042,0.8407],[-50.7861,0.8386],[-50.7687,0.8224],[-50.7179,0.8169],[-50.6832,0.8336],[-50.665,0.8497],[-50.6582,0.8731],[-50.6418,0.8753],[-50.6156,0.8611],[-50.6129,0.8922],[-50.6029,0.89],[-50.5881,0.8628],[-50.5754,0.8846],[-50.559,0.8704],[-50.5344,0.8732],[-50.506,0.9068],[-50.4957,0.9286],[-50.4655,0.9175],[-50.4196,0.961],[-50.401,0.9354],[-50.3812,0.9244],[-50.3605,0.94],[-50.3417,0.9255],[-50.3294,0.9437],[-50.3072,0.9443],[-50.1861,1.0504],[-50.193,1.0588],[-50.1874,1.0852],[-50.176,1.1001],[-50.1487,1.1026],[-50.1393,1.1295],[-50.1129,1.1389],[-50.0919,1.1574],[-50.069,1.2022],[-50.0672,1.2167],[-50.0418,1.2142],[-49.9878,1.2218],[-49.9008,1.2404],[-49.8919,1.2025],[-49.918,1.1369],[-49.9419,1.1024],[-49.9489,1.0398],[-49.9407,0.9935],[-49.9766,0.9586],[-49.9954,0.9278],[-50.0155,0.8816],[-50.0516,0.8508],[-50.0618,0.8255],[-50.0535,0.8061],[-50.0655,0.8086],[-50.0685,0.7922],[-50.093,0.7821],[-50.0939,0.702]]]]}}]}