{"type":"FeatureCollection","features":[{"type":"Feature","properties":{"codarea":"3506508","centroide":[-50.35118269591137,-21.261839639056348],"codigo_ibge":3506508,"nome_ig":"Birigui"},"geometry":{"type":"MultiPolygon","coordinates":[[[[-50.2529,-21.117],[-50.2587,-21.1287],[-50.2473,-21.1442],[-50.2506,-21.159],[-50.2397,-21.1895],[-50.2486,-21.2131],[-50.2619,-21.2247],[-50.2552,-21.2402],[-50.2688,-21.2604],[-50.2886,-21.262],[-50.312,-21.2989],[-50.3132,-21.3532],[-50.3333,-21.3731],[-50.3461,-21.4011],[-50.3431,-21.4536],[-50.3779,-21.4449],[-50.4041,-21.4653],[-50.419,-21.4654],[-50.4225,-21.4456],[-50.418,-21.418],[-50.4458,-21.3921],[-50.458,-21.3699],[-50.4614,-21.3415],[-50.4522,-21.3321],[-50.4657,-21.3077],[-50.4665,-21.2971],[-50.3904,-21.2516],[-50.4035,-21.2325],[-50.3928,-21.2151],[-50.3871,-21.1653],[-50.3562,-21.1263],[-50.3469,-21.0602],[-50.3098,-21.0774],[-50.2729,-21.0748],[-50.2754,-21.096],[-50.2529,-21.117]]]]}}]}