{"type":"FeatureCollection","features":[{"type":"Feature","properties":{"codarea":"4102901","centroide":[-51.52525106570271,-26.170519615802306],"codigo_ibge":4102901,"nome_ig":"Bituruna"},"geometry":{"type":"Polygon","coordinates":[[[-51.6192,-26.0037],[-51.6142,-26.014],[-51.5788,-26.0185],[-51.581,-26.0426],[-51.5538,-26.0509],[-51.5608,-26.0707],[-51.5514,-26.0831],[-51.5328,-26.0665],[-51.5051,-26.0582],[-51.4816,-26.0803],[-51.4382,-26.0719],[-51.412,-26.0875],[-51.4062,-26.0595],[-51.3823,-26.0793],[-51.3718,-26.0976],[-51.3629,-26.0781],[-51.3414,-26.0938],[-51.3442,-26.1119],[-51.3294,-26.1224],[-51.3062,-26.124],[-51.2776,-26.0961],[-51.2616,-26.1011],[-51.2664,-26.1193],[-51.2846,-26.129],[-51.2812,-26.1411],[-51.2789,-26.1523],[-51.2941,-26.1706],[-51.2821,-26.1788],[-51.2784,-26.2058],[-51.2866,-26.2444],[-51.3194,-26.2565],[-51.329,-26.2709],[-51.3657,-26.2944],[-51.3819,-26.3254],[-51.4054,-26.3418],[-51.4282,-26.348],[-51.4313,-26.3688],[-51.443,-26.3808],[-51.4619,-26.3602],[-51.4544,-26.329],[-51.4704,-26.3139],[-51.5347,-26.2973],[-51.5746,-26.3104],[-51.5778,-26.2934],[-51.6007,-26.2859],[-51.6041,-26.2948],[-51.6319,-26.2893],[-51.6324,-26.2712],[-51.6437,-26.2653],[-51.6797,-26.2689],[-51.6826,-26.2873],[-51.6936,-26.246],[-51.7076,-26.2583],[-51.7254,-26.2588],[-51.7395,-26.2657],[-51.7449,-26.2517],[-51.7771,-26.2553],[-51.7788,-26.2429],[-51.7469,-26.2331],[-51.6961,-26.1041],[-51.7383,-26.0493],[-51.7228,-26.0078],[-51.7395,-25.9946],[-51.7321,-25.9827],[-51.743,-25.9706],[-51.7141,-25.9217],[-51.6953,-25.9155],[-51.6808,-25.9328],[-51.7111,-25.9662],[-51.7096,-25.978],[-51.6778,-25.9952],[-51.6676,-26.0102],[-51.6431,-25.9973],[-51.6192,-26.0037]]]}}]}