{"type":"FeatureCollection","features":[{"type":"Feature","properties":{"codarea":"4200309","centroide":[-49.72081031830824,-27.326673505529325],"codigo_ibge":4200309,"nome_ig":"Blumenau"},"geometry":{"type":"MultiPolygon","coordinates":[[[[-49.6896,-27.2443],[-49.6988,-27.25],[-49.6903,-27.2896],[-49.6803,-27.2907],[-49.6919,-27.3049],[-49.6671,-27.3409],[-49.6589,-27.3885],[-49.693,-27.3901],[-49.7271,-27.3886],[-49.7499,-27.3952],[-49.7663,-27.3754],[-49.764,-27.3444],[-49.7716,-27.3414],[-49.759,-27.314],[-49.7593,-27.2688],[-49.7798,-27.2612],[-49.7782,-27.2516],[-49.7537,-27.2437],[-49.7328,-27.2624],[-49.6896,-27.2443]]]]}},{"type":"Feature","properties":{"codarea":"4201901","centroide":[-49.58912001615092,-27.329176297235982],"codigo_ibge":4201901,"nome_ig":"Blumenau"},"geometry":{"type":"MultiPolygon","coordinates":[[[[-49.5268,-27.272],[-49.5098,-27.2773],[-49.4891,-27.2982],[-49.4806,-27.3046],[-49.4937,-27.3148],[-49.5017,-27.3402],[-49.5646,-27.3983],[-49.6132,-27.3924],[-49.6328,-27.3964],[-49.6589,-27.3885],[-49.6671,-27.3409],[-49.6919,-27.3049],[-49.6803,-27.2907],[-49.6399,-27.2753],[-49.6256,-27.2839],[-49.6052,-27.2779],[-49.5811,-27.26],[-49.5599,-27.2769],[-49.5268,-27.272]]]]}},{"type":"Feature","properties":{"codarea":"4202206","centroide":[-49.434281751654716,-26.800777440726087],"codigo_ibge":4202206,"nome_ig":"Blumenau"},"geometry":{"type":"MultiPolygon","coordinates":[[[[-49.3341,-26.746],[-49.3278,-26.7728],[-49.3303,-26.8076],[-49.3565,-26.8306],[-49.3832,-26.8646],[-49.4014,-26.8675],[-49.4119,-26.9012],[-49.434,-26.9152],[-49.4646,-26.94],[-49.4863,-26.9374],[-49.5072,-26.9203],[-49.5105,-26.9077],[-49.5433,-26.8909],[-49.5502,-26.8561],[-49.5305,-26.8436],[-49.5202,-26.7967],[-49.4925,-26.7899],[-49.4687,-26.7664],[-49.4535,-26.7654],[-49.4487,-26.7148],[-49.4733,-26.6953],[-49.4711,-26.6776],[-49.4878,-26.661],[-49.4836,-26.6483],[-49.4497,-26.6473],[-49.4423,-26.6564],[-49.4164,-26.6611],[-49.379,-26.6939],[-49.3671,-26.6954],[-49.3543,-26.722],[-49.3396,-26.7244],[-49.3341,-26.746]]]]}},{"type":"Feature","properties":{"codarea":"4202404","centroide":[-49.09710357710345,-26.884497967529065],"codigo_ibge":4202404,"nome_ig":"Blumenau"},"geometry":{"type":"MultiPolygon","coordinates":[[[[-49.0356,-26.7723],[-49.0305,-26.7777],[-49.0547,-26.7806],[-49.053,-26.7983],[-49.0386,-26.8268],[-49.0439,-26.8777],[-49.0106,-26.9074],[-49.0293,-26.9225],[-49.0281,-26.9335],[-49.057,-26.9545],[-49.0412,-26.9853],[-49.0594,-27.0023],[-49.054,-27.0344],[-49.0653,-27.0414],[-49.0583,-27.0607],[-49.0601,-27.0993],[-49.0852,-27.1216],[-49.104,-27.1149],[-49.1399,-27.1325],[-49.1551,-27.119],[-49.1564,-27.0974],[-49.1409,-27.0917],[-49.1283,-27.0331],[-49.1373,-27.0133],[-49.1513,-27.0113],[-49.1618,-26.9941],[-49.1576,-26.9521],[-49.1761,-26.9166],[-49.159,-26.8868],[-49.1805,-26.8772],[-49.1739,-26.8694],[-49.1939,-26.8544],[-49.1984,-26.8365],[-49.1862,-26.837],[-49.1862,-26.837],[-49.1281,-26.8325],[-49.1279,-26.8073],[-49.1197,-26.7922],[-49.1272,-26.7527],[-49.1074,-26.7433],[-49.1298,-26.7097],[-49.1273,-26.6805],[-49.1303,-26.6353],[-49.1304,-26.6222],[-49.1144,-26.6133],[-49.1134,-26.6545],[-49.0467,-26.6506],[-49.0176,-26.6832],[-49.049,-26.7086],[-49.0398,-26.7342],[-49.0502,-26.7428],[-49.0356,-26.7723]]]]}},{"type":"Feature","properties":{"codarea":"4205159","centroide":[-49.55336279844327,-26.705016426791452],"codigo_ibge":4205159,"nome_ig":"Blumenau"},"geometry":{"type":"MultiPolygon","coordinates":[[[[-49.4878,-26.661],[-49.4711,-26.6776],[-49.4733,-26.6953],[-49.4487,-26.7148],[-49.4535,-26.7654],[-49.4687,-26.7664],[-49.4925,-26.7899],[-49.5202,-26.7967],[-49.5305,-26.8436],[-49.5502,-26.8561],[-49.5632,-26.8222],[-49.5641,-26.7851],[-49.5748,-26.7771],[-49.6076,-26.7846],[-49.6446,-26.7796],[-49.66,-26.7403],[-49.6694,-26.7379],[-49.6819,-26.7023],[-49.6537,-26.6927],[-49.6174,-26.7039],[-49.6139,-26.6839],[-49.6228,-26.6653],[-49.6194,-26.6425],[-49.5992,-26.6401],[-49.5852,-26.6232],[-49.5803,-26.5796],[-49.5648,-26.5652],[-49.5264,-26.5657],[-49.5076,-26.5788],[-49.508,-26.5974],[-49.4853,-26.611],[-49.4968,-26.6252],[-49.5027,-26.6511],[-49.4878,-26.661]]]]}},{"type":"Feature","properties":{"codarea":"4205902","centroide":[-48.965766751438856,-26.930271634546898],"codigo_ibge":4205902,"nome_ig":"Blumenau"},"geometry":{"type":"MultiPolygon","coordinates":[[[[-49.0305,-26.7777],[-49.0146,-26.7891],[-48.999,-26.7872],[-49.0007,-26.8017],[-48.9861,-26.8071],[-48.9836,-26.8236],[-48.9658,-26.8373],[-48.9362,-26.8419],[-48.8881,-26.8933],[-48.8717,-26.8958],[-48.8639,-26.9099],[-48.8464,-26.9069],[-48.8535,-26.9203],[-48.8435,-26.9649],[-48.8661,-27.0031],[-48.8791,-26.998],[-48.9345,-27.0272],[-48.9632,-27.0206],[-48.9999,-27.0334],[-49.0247,-27.0492],[-49.0415,-27.045],[-49.0583,-27.0607],[-49.0653,-27.0414],[-49.054,-27.0344],[-49.0594,-27.0023],[-49.0412,-26.9853],[-49.057,-26.9545],[-49.0281,-26.9335],[-49.0293,-26.9225],[-49.0106,-26.9074],[-49.0439,-26.8777],[-49.0386,-26.8268],[-49.053,-26.7983],[-49.0547,-26.7806],[-49.0305,-26.7777]]]]}},{"type":"Feature","properties":{"codarea":"4206900","centroide":[-49.52820424565532,-27.01797276713224],"codigo_ibge":4206900,"nome_ig":"Blumenau"},"geometry":{"type":"MultiPolygon","coordinates":[[[[-49.4646,-26.94],[-49.46,-26.985],[-49.4679,-27.0045],[-49.4712,-27.0668],[-49.4565,-27.0835],[-49.4585,-27.0996],[-49.4957,-27.0791],[-49.5157,-27.0841],[-49.5016,-27.1089],[-49.5184,-27.1134],[-49.5168,-27.1328],[-49.5465,-27.1152],[-49.5918,-27.1278],[-49.5942,-27.0984],[-49.585,-27.0863],[-49.5793,-27.0736],[-49.601,-27.0129],[-49.5807,-27.0003],[-49.5745,-26.9811],[-49.5776,-26.9534],[-49.5437,-26.9123],[-49.5433,-26.8909],[-49.5105,-26.9077],[-49.5072,-26.9203],[-49.4863,-26.9374],[-49.4646,-26.94]]]]}},{"type":"Feature","properties":{"codarea":"4207502","centroide":[-49.223642222186434,-26.99493132158588],"codigo_ibge":4207502,"nome_ig":"Blumenau"},"geometry":{"type":"MultiPolygon","coordinates":[[[[-49.1984,-26.8365],[-49.1939,-26.8544],[-49.1739,-26.8694],[-49.1805,-26.8772],[-49.159,-26.8868],[-49.1761,-26.9166],[-49.1576,-26.9521],[-49.1618,-26.9941],[-49.1513,-27.0113],[-49.1373,-27.0133],[-49.1283,-27.0331],[-49.1409,-27.0917],[-49.1564,-27.0974],[-49.1551,-27.119],[-49.1855,-27.14],[-49.1932,-27.1554],[-49.2115,-27.1585],[-49.2197,-27.1633],[-49.2294,-27.1579],[-49.2495,-27.1217],[-49.2496,-27.1066],[-49.2691,-27.0731],[-49.2713,-27.0536],[-49.2831,-27.0572],[-49.3128,-27.0337],[-49.3173,-27.0208],[-49.3001,-26.9968],[-49.3153,-26.9594],[-49.2892,-26.95],[-49.2968,-26.9226],[-49.3176,-26.8997],[-49.3054,-26.8469],[-49.2841,-26.8795],[-49.2558,-26.8699],[-49.2069,-26.831],[-49.1984,-26.8365]]]]}},{"type":"Feature","properties":{"codarea":"4209508","centroide":[-49.73244196237874,-27.207991540786157],"codigo_ibge":4209508,"nome_ig":"Blumenau"},"geometry":{"type":"MultiPolygon","coordinates":[[[[-49.6896,-27.2443],[-49.7328,-27.2624],[-49.7537,-27.2437],[-49.7782,-27.2516],[-49.8014,-27.2487],[-49.7944,-27.2393],[-49.7944,-27.2393],[-49.7873,-27.241],[-49.7577,-27.2017],[-49.7508,-27.1748],[-49.7566,-27.1573],[-49.7422,-27.1449],[-49.7173,-27.1431],[-49.7015,-27.176],[-49.7051,-27.1856],[-49.6845,-27.1975],[-49.6981,-27.2158],[-49.6896,-27.2443]]]]}},{"type":"Feature","properties":{"codarea":"4209904","centroide":[-49.506838956330064,-27.18793221412672],"codigo_ibge":4209904,"nome_ig":"Blumenau"},"geometry":{"type":"MultiPolygon","coordinates":[[[[-49.4957,-27.0791],[-49.4668,-27.1057],[-49.4661,-27.1324],[-49.4558,-27.1567],[-49.4635,-27.1706],[-49.4359,-27.1848],[-49.4558,-27.1996],[-49.4624,-27.2252],[-49.4474,-27.2554],[-49.4524,-27.2715],[-49.4891,-27.2982],[-49.5098,-27.2773],[-49.5268,-27.272],[-49.5508,-27.2332],[-49.5433,-27.2174],[-49.5761,-27.1701],[-49.572,-27.1431],[-49.5907,-27.1426],[-49.5918,-27.1278],[-49.5465,-27.1152],[-49.5168,-27.1328],[-49.5184,-27.1134],[-49.5016,-27.1089],[-49.5157,-27.0841],[-49.4957,-27.0791]]]]}},{"type":"Feature","properties":{"codarea":"4213203","centroide":[-49.173607067627046,-26.72875477038671],"codigo_ibge":4213203,"nome_ig":"Blumenau"},"geometry":{"type":"MultiPolygon","coordinates":[[[[-49.1303,-26.6353],[-49.1273,-26.6805],[-49.1298,-26.7097],[-49.1074,-26.7433],[-49.1272,-26.7527],[-49.1197,-26.7922],[-49.1279,-26.8073],[-49.1281,-26.8325],[-49.1862,-26.837],[-49.1862,-26.837],[-49.1984,-26.8365],[-49.2069,-26.831],[-49.2096,-26.8046],[-49.1992,-26.7865],[-49.2139,-26.7549],[-49.2346,-26.7522],[-49.2297,-26.7046],[-49.2165,-26.6205],[-49.2221,-26.6203],[-49.1962,-26.6218],[-49.1762,-26.6137],[-49.1636,-26.6477],[-49.1303,-26.6353]]]]}},{"type":"Feature","properties":{"codarea":"4214003","centroide":[-49.714939003653086,-27.062278060364314],"codigo_ibge":4214003,"nome_ig":"Blumenau"},"geometry":{"type":"MultiPolygon","coordinates":[[[[-49.601,-27.0129],[-49.5793,-27.0736],[-49.585,-27.0863],[-49.6142,-27.0799],[-49.638,-27.1086],[-49.6539,-27.1026],[-49.666,-27.116],[-49.7087,-27.1323],[-49.7173,-27.1431],[-49.7422,-27.1449],[-49.7456,-27.1348],[-49.7729,-27.1387],[-49.8013,-27.1269],[-49.805,-27.117],[-49.8311,-27.1141],[-49.8333,-27.0881],[-49.8447,-27.0588],[-49.8446,-27.0236],[-49.8462,-27.0118],[-49.7719,-27.0201],[-49.7538,-27.0467],[-49.7307,-27.0585],[-49.7374,-27.0336],[-49.7219,-27.0305],[-49.696,-27.0425],[-49.6815,-27.0296],[-49.6656,-27.033],[-49.6616,-27.0197],[-49.6794,-27.0154],[-49.7034,-27.0244],[-49.7067,-27.0156],[-49.6913,-26.9929],[-49.675,-26.9988],[-49.6864,-26.969],[-49.6808,-26.9533],[-49.6901,-26.9247],[-49.6753,-26.9481],[-49.6558,-26.9583],[-49.6323,-26.9951],[-49.601,-27.0129]]]]}},{"type":"Feature","properties":{"codarea":"4214805","centroide":[-49.629274086758016,-27.19602317281691],"codigo_ibge":4214805,"nome_ig":"Blumenau"},"geometry":{"type":"MultiPolygon","coordinates":[[[[-49.585,-27.0863],[-49.5942,-27.0984],[-49.5918,-27.1278],[-49.5907,-27.1426],[-49.572,-27.1431],[-49.5761,-27.1701],[-49.5433,-27.2174],[-49.5508,-27.2332],[-49.5268,-27.272],[-49.5599,-27.2769],[-49.5811,-27.26],[-49.6052,-27.2779],[-49.6256,-27.2839],[-49.6399,-27.2753],[-49.6803,-27.2907],[-49.6903,-27.2896],[-49.6988,-27.25],[-49.6896,-27.2443],[-49.6981,-27.2158],[-49.6845,-27.1975],[-49.7051,-27.1856],[-49.7015,-27.176],[-49.7173,-27.1431],[-49.7087,-27.1323],[-49.666,-27.116],[-49.6539,-27.1026],[-49.638,-27.1086],[-49.6142,-27.0799],[-49.585,-27.0863]]]]}},{"type":"Feature","properties":{"codarea":"4214706","centroide":[-49.36884441591579,-26.618095797743504],"codigo_ibge":4214706,"nome_ig":"Blumenau"},"geometry":{"type":"MultiPolygon","coordinates":[[[[-49.2904,-26.5487],[-49.2972,-26.5708],[-49.2848,-26.6073],[-49.2221,-26.6203],[-49.2165,-26.6205],[-49.2297,-26.7046],[-49.2346,-26.7522],[-49.2139,-26.7549],[-49.2238,-26.7728],[-49.2724,-26.7636],[-49.3341,-26.746],[-49.3396,-26.7244],[-49.3543,-26.722],[-49.3671,-26.6954],[-49.379,-26.6939],[-49.4164,-26.6611],[-49.4423,-26.6564],[-49.4497,-26.6473],[-49.4836,-26.6483],[-49.4878,-26.661],[-49.5027,-26.6511],[-49.4968,-26.6252],[-49.4853,-26.611],[-49.508,-26.5974],[-49.5076,-26.5788],[-49.5264,-26.5657],[-49.5648,-26.5652],[-49.5629,-26.5482],[-49.5485,-26.5368],[-49.5507,-26.5239],[-49.5284,-26.5263],[-49.4922,-26.5083],[-49.4514,-26.5001],[-49.4399,-26.4885],[-49.4168,-26.5099],[-49.3919,-26.4947],[-49.3661,-26.4905],[-49.3567,-26.5133],[-49.3227,-26.5415],[-49.2904,-26.5487]]]]}},{"type":"Feature","properties":{"codarea":"4215109","centroide":[-49.35113735814244,-26.896407312716363],"codigo_ibge":4215109,"nome_ig":"Blumenau"},"geometry":{"type":"MultiPolygon","coordinates":[[[[-49.3054,-26.8469],[-49.3176,-26.8997],[-49.2968,-26.9226],[-49.2892,-26.95],[-49.3153,-26.9594],[-49.3382,-26.9662],[-49.39,-26.9302],[-49.4075,-26.9333],[-49.434,-26.9152],[-49.4119,-26.9012],[-49.4014,-26.8675],[-49.3832,-26.8646],[-49.3565,-26.8306],[-49.3303,-26.8076],[-49.3054,-26.8469]]]]}},{"type":"Feature","properties":{"codarea":"4218202","centroide":[-49.26898774666069,-26.808900453937458],"codigo_ibge":4218202,"nome_ig":"Blumenau"},"geometry":{"type":"MultiPolygon","coordinates":[[[[-49.2139,-26.7549],[-49.1992,-26.7865],[-49.2096,-26.8046],[-49.2069,-26.831],[-49.2558,-26.8699],[-49.2841,-26.8795],[-49.3054,-26.8469],[-49.3303,-26.8076],[-49.3278,-26.7728],[-49.3341,-26.746],[-49.2724,-26.7636],[-49.2238,-26.7728],[-49.2139,-26.7549]]]]}}]}