{"type":"FeatureCollection","features":[{"type":"Feature","properties":{"codarea":"1300680","centroide":[-57.66987106409446,-3.137943459318802],"codigo_ibge":1300680,"nome_ig":"Boa Vista do Ramos"},"geometry":{"type":"Polygon","coordinates":[[[-57.3701,-3.5139],[-57.4349,-3.5002],[-57.4653,-3.4611],[-57.4874,-3.4433],[-57.498,-3.4178],[-57.5012,-3.3863],[-57.5096,-3.3701],[-57.5159,-3.3245],[-57.5287,-3.3169],[-57.5674,-3.3214],[-57.5894,-3.3399],[-57.602,-3.3155],[-57.6218,-3.3061],[-57.6286,-3.2904],[-57.6254,-3.2571],[-57.6366,-3.2481],[-57.6384,-3.2118],[-57.6275,-3.1692],[-57.6097,-3.1684],[-57.6161,-3.1337],[-57.7958,-3.1335],[-57.7942,-3.1665],[-57.8033,-3.1817],[-57.8093,-3.2249],[-57.8256,-3.2454],[-57.8349,-3.2777],[-57.8621,-3.2818],[-57.8779,-3.2933],[-57.9006,-3.2843],[-57.9508,-3.3441],[-58.0291,-3.3409],[-58.0424,-3.3488],[-58.0622,-3.3392],[-58.0704,-3.3063],[-58.0745,-3.29],[-58.0648,-3.2757],[-58.0658,-3.2151],[-58.043,-3.2105],[-58.0209,-3.1752],[-58.0131,-3.1491],[-57.9928,-3.1338],[-57.8909,-2.9526],[-57.8701,-2.9659],[-57.8354,-2.9636],[-57.82,-2.9556],[-57.7986,-2.9722],[-57.7819,-2.9951],[-57.7571,-2.9837],[-57.742,-2.9547],[-57.714,-2.9651],[-57.6766,-2.9416],[-57.6475,-2.9421],[-57.6262,-2.9084],[-57.6013,-2.8896],[-57.5772,-2.8378],[-57.5547,-2.8249],[-57.5397,-2.8335],[-57.5173,-2.8123],[-57.4937,-2.8001],[-57.4467,-2.8371],[-57.4821,-2.8714],[-57.4672,-2.949],[-57.4105,-2.941],[-57.3944,-2.9163],[-57.3782,-2.9217],[-57.3631,-2.9114],[-57.3502,-2.9206],[-57.3603,-2.9504],[-57.3882,-2.9834],[-57.4032,-2.9912],[-57.4165,-3.0194],[-57.4295,-3.0067],[-57.4583,-3.0215],[-57.4594,-3.0344],[-57.456,-3.2663],[-57.4226,-3.2886],[-57.4037,-3.2763],[-57.3939,-3.2958],[-57.392,-3.3237],[-57.3739,-3.3327],[-57.3629,-3.3798],[-57.367,-3.4046],[-57.3586,-3.4386],[-57.3717,-3.4781],[-57.3701,-3.5139]]]}}]}