{"type":"FeatureCollection","features":[{"type":"Feature","properties":{"codarea":"2903904","centroide":[-43.293352146592404,-13.276581975164508],"codigo_ibge":2903904,"nome_ig":"Bom Jesus da Lapa"},"geometry":{"type":"MultiPolygon","coordinates":[[[[-42.9126,-13.1799],[-42.9227,-13.1828],[-42.9151,-13.2052],[-42.9232,-13.2464],[-42.9145,-13.2615],[-42.9125,-13.295],[-42.9475,-13.2905],[-42.9564,-13.3054],[-42.96,-13.334],[-43.1165,-13.3239],[-43.1294,-13.4275],[-43.1631,-13.4416],[-43.1876,-13.519],[-43.2418,-13.611],[-43.4394,-13.8761],[-43.4523,-13.8751],[-43.4832,-13.849],[-43.48,-13.833],[-43.5115,-13.8148],[-43.5182,-13.7924],[-43.5419,-13.7967],[-43.5376,-13.7723],[-43.5271,-13.7695],[-43.4993,-13.7333],[-43.4875,-13.6715],[-43.468,-13.6084],[-43.4584,-13.5965],[-43.4413,-13.5452],[-43.4502,-13.5424],[-43.4433,-13.4932],[-43.4313,-13.4469],[-43.4343,-13.4147],[-43.4572,-13.3753],[-43.4632,-13.3324],[-43.4539,-13.301],[-43.4323,-13.2586],[-43.4404,-13.256],[-43.6291,-13.2682],[-43.705,-13.2895],[-43.706,-13.1878],[-43.6962,-13.1708],[-43.678,-13.1687],[-43.6402,-13.1847],[-43.6191,-13.1756],[-43.6093,-13.1513],[-43.5631,-13.1461],[-43.5453,-13.151],[-43.5219,-13.1299],[-43.4897,-13.1368],[-43.4637,-13.1323],[-43.4521,-13.1467],[-43.4529,-13.0952],[-43.4604,-13.0632],[-43.4541,-13.0398],[-43.421,-13.016],[-43.4061,-12.9978],[-43.4096,-12.9807],[-43.4001,-12.9319],[-43.4043,-12.895],[-43.3949,-12.8731],[-43.3605,-12.868],[-43.3436,-12.8446],[-43.3472,-12.8211],[-43.3329,-12.7932],[-43.3052,-12.7614],[-43.28,-12.7433],[-43.254,-12.7037],[-43.2221,-12.6908],[-43.2023,-12.6891],[-43.2181,-12.7345],[-43.2647,-12.8077],[-43.2781,-12.8203],[-43.2855,-12.8442],[-43.2513,-12.8757],[-43.2498,-12.8874],[-43.2293,-12.8959],[-43.1908,-12.9226],[-43.1872,-12.941],[-43.1647,-12.9764],[-43.1528,-12.9765],[-43.1258,-13.0027],[-43.127,-13.0167],[-43.1052,-13.0316],[-43.0947,-13.0276],[-43.0739,-13.0648],[-43.0544,-13.0695],[-43.0489,-13.0832],[-43.0293,-13.0931],[-43.009,-13.0868],[-42.9925,-13.098],[-42.971,-13.0958],[-42.9136,-13.1569],[-42.9126,-13.1799]]]]}}]}