{"type":"FeatureCollection","features":[{"type":"Feature","properties":{"codarea":"2400109","centroide":[-36.650141304369136,-6.409156513938322],"codigo_ibge":2400109,"nome_ig":"Caicó"},"geometry":{"type":"Polygon","coordinates":[[[-36.6045,-6.2903],[-36.5649,-6.3122],[-36.5479,-6.3443],[-36.5424,-6.3729],[-36.5043,-6.3864],[-36.5309,-6.452],[-36.5282,-6.4792],[-36.5456,-6.4841],[-36.5813,-6.4743],[-36.6258,-6.5112],[-36.6797,-6.5793],[-36.6789,-6.5513],[-36.695,-6.5578],[-36.7035,-6.5381],[-36.7611,-6.5156],[-36.7743,-6.4729],[-36.7612,-6.4785],[-36.7422,-6.3929],[-36.7524,-6.3538],[-36.7391,-6.3364],[-36.7541,-6.3205],[-36.7432,-6.3075],[-36.7163,-6.3009],[-36.7095,-6.2769],[-36.6756,-6.2699],[-36.6625,-6.2785],[-36.632,-6.2686],[-36.6262,-6.2855],[-36.6045,-6.2903]]]}},{"type":"Feature","properties":{"codarea":"2402006","centroide":[-37.037835888168395,-6.467530352140639],"codigo_ibge":2402006,"nome_ig":"Caicó"},"geometry":{"type":"Polygon","coordinates":[[[-36.9573,-6.1907],[-36.9269,-6.2157],[-36.924,-6.2389],[-36.8953,-6.2394],[-36.9095,-6.2432],[-36.9178,-6.2675],[-36.9292,-6.2753],[-36.9237,-6.2943],[-36.9021,-6.3184],[-36.9028,-6.3417],[-36.8863,-6.3428],[-36.8733,-6.3796],[-36.8608,-6.3887],[-36.8741,-6.4186],[-36.9048,-6.4479],[-36.9577,-6.4916],[-36.9627,-6.5099],[-36.9513,-6.5222],[-36.9402,-6.5612],[-36.9513,-6.5703],[-36.9368,-6.5776],[-36.9806,-6.6171],[-36.9798,-6.6415],[-37.0035,-6.7096],[-37.0352,-6.7341],[-37.0597,-6.7207],[-37.065,-6.7074],[-37.1028,-6.6847],[-37.1122,-6.6548],[-37.1347,-6.6498],[-37.1504,-6.6261],[-37.1803,-6.6139],[-37.2183,-6.6197],[-37.2308,-6.5694],[-37.2169,-6.5593],[-37.2134,-6.5274],[-37.1996,-6.5147],[-37.2058,-6.4997],[-37.1953,-6.4467],[-37.1884,-6.439],[-37.1403,-6.4484],[-37.1408,-6.4279],[-37.1019,-6.4176],[-37.0728,-6.3924],[-37.0816,-6.3542],[-37.0753,-6.3074],[-37.0808,-6.2905],[-37.0486,-6.2363],[-37.0457,-6.2239],[-37.0031,-6.2216],[-36.9736,-6.1925],[-36.9573,-6.1907]]]}},{"type":"Feature","properties":{"codarea":"2403004","centroide":[-36.82498724426748,-6.356014255597415],"codigo_ibge":2403004,"nome_ig":"Caicó"},"geometry":{"type":"Polygon","coordinates":[[[-36.7541,-6.3205],[-36.7391,-6.3364],[-36.7524,-6.3538],[-36.7422,-6.3929],[-36.7612,-6.4785],[-36.7743,-6.4729],[-36.8031,-6.4635],[-36.8207,-6.4372],[-36.8436,-6.4375],[-36.8741,-6.4186],[-36.8608,-6.3887],[-36.8733,-6.3796],[-36.8863,-6.3428],[-36.9028,-6.3417],[-36.9021,-6.3184],[-36.9237,-6.2943],[-36.9292,-6.2753],[-36.9178,-6.2675],[-36.9095,-6.2432],[-36.8953,-6.2394],[-36.8609,-6.2628],[-36.8376,-6.2698],[-36.8143,-6.3036],[-36.7728,-6.2983],[-36.7541,-6.3205]]]}},{"type":"Feature","properties":{"codarea":"2404804","centroide":[-37.18780061443022,-6.774273317921066],"codigo_ibge":2404804,"nome_ig":"Caicó"},"geometry":{"type":"Polygon","coordinates":[[[-37.0754,-6.7541],[-37.1276,-6.7655],[-37.1522,-6.7983],[-37.1926,-6.8261],[-37.2345,-6.8246],[-37.2551,-6.811],[-37.2578,-6.7794],[-37.2739,-6.7667],[-37.2639,-6.7321],[-37.2043,-6.7617],[-37.1576,-6.7396],[-37.0939,-6.7236],[-37.0754,-6.7541]]]}},{"type":"Feature","properties":{"codarea":"2405702","centroide":[-36.80626683156065,-6.588318729241469],"codigo_ibge":2405702,"nome_ig":"Caicó"},"geometry":{"type":"Polygon","coordinates":[[[-36.6797,-6.5793],[-36.669,-6.6103],[-36.6977,-6.6196],[-36.7222,-6.6467],[-36.7444,-6.652],[-36.7648,-6.6691],[-36.8166,-6.6795],[-36.8445,-6.6537],[-36.8664,-6.6557],[-36.8705,-6.6305],[-36.9025,-6.6139],[-36.9309,-6.5775],[-36.9368,-6.5776],[-36.9513,-6.5703],[-36.9402,-6.5612],[-36.9513,-6.5222],[-36.9392,-6.5133],[-36.9246,-6.5228],[-36.8959,-6.5182],[-36.8807,-6.5279],[-36.836,-6.5386],[-36.8084,-6.5337],[-36.791,-6.5209],[-36.7803,-6.5261],[-36.7611,-6.5156],[-36.7035,-6.5381],[-36.695,-6.5578],[-36.6789,-6.5513],[-36.6797,-6.5793]]]}},{"type":"Feature","properties":{"codarea":"2406106","centroide":[-37.02071720512681,-6.057615056525212],"codigo_ibge":2406106,"nome_ig":"Caicó"},"geometry":{"type":"Polygon","coordinates":[[[-36.8937,-5.9749],[-36.8684,-5.9735],[-36.8489,-6.0103],[-36.8553,-6.0442],[-36.8993,-6.0859],[-36.9211,-6.082],[-36.934,-6.0889],[-36.9244,-6.1319],[-36.9018,-6.1342],[-36.8941,-6.1452],[-36.8921,-6.1766],[-36.9114,-6.1863],[-36.9255,-6.1821],[-36.9573,-6.1907],[-36.9736,-6.1925],[-37.0031,-6.2216],[-37.0457,-6.2239],[-37.0629,-6.2182],[-37.07,-6.2374],[-37.097,-6.2311],[-37.1165,-6.2061],[-37.1319,-6.2084],[-37.1291,-6.1925],[-37.1407,-6.1809],[-37.1266,-6.1568],[-37.1569,-6.1524],[-37.175,-6.1421],[-37.1669,-6.1103],[-37.1739,-6.048],[-37.1623,-6.0211],[-37.1544,-5.9925],[-37.1221,-5.9548],[-37.0669,-5.9846],[-37.0355,-5.891],[-37.0153,-5.8708],[-37.0096,-5.8371],[-36.9774,-5.8136],[-36.966,-5.8462],[-36.942,-5.8583],[-36.938,-5.8707],[-36.9722,-5.9048],[-36.9647,-5.9246],[-36.9513,-5.9296],[-36.9365,-5.9683],[-36.9189,-5.9656],[-36.8937,-5.9749]]]}},{"type":"Feature","properties":{"codarea":"2408508","centroide":[-36.92149778379888,-6.6845953503976325],"codigo_ibge":2408508,"nome_ig":"Caicó"},"geometry":{"type":"Polygon","coordinates":[[[-36.8166,-6.6795],[-36.8426,-6.6746],[-36.8507,-6.6896],[-36.8413,-6.6986],[-36.835,-6.731],[-36.9102,-6.7569],[-36.9571,-6.7904],[-36.959,-6.7833],[-36.9692,-6.7704],[-36.9776,-6.7218],[-37.0035,-6.7096],[-36.9798,-6.6415],[-36.9806,-6.6171],[-36.9368,-6.5776],[-36.9309,-6.5775],[-36.9025,-6.6139],[-36.8705,-6.6305],[-36.8664,-6.6557],[-36.8445,-6.6537],[-36.8166,-6.6795]]]}},{"type":"Feature","properties":{"codarea":"2411809","centroide":[-37.15118681369405,-6.321389777115314],"codigo_ibge":2411809,"nome_ig":"Caicó"},"geometry":{"type":"Polygon","coordinates":[[[-37.0457,-6.2239],[-37.0486,-6.2363],[-37.0808,-6.2905],[-37.0753,-6.3074],[-37.0816,-6.3542],[-37.0728,-6.3924],[-37.1019,-6.4176],[-37.1408,-6.4279],[-37.1403,-6.4484],[-37.1884,-6.439],[-37.2204,-6.4303],[-37.2608,-6.4043],[-37.2195,-6.368],[-37.2166,-6.2454],[-37.2214,-6.2341],[-37.193,-6.2122],[-37.163,-6.2013],[-37.1407,-6.1809],[-37.1291,-6.1925],[-37.1319,-6.2084],[-37.1165,-6.2061],[-37.097,-6.2311],[-37.07,-6.2374],[-37.0629,-6.2182],[-37.0457,-6.2239]]]}},{"type":"Feature","properties":{"codarea":"2412104","centroide":[-37.188252566169155,-6.690133850922877],"codigo_ibge":2412104,"nome_ig":"Caicó"},"geometry":{"type":"Polygon","coordinates":[[[-37.0352,-6.7341],[-37.0754,-6.7541],[-37.0939,-6.7236],[-37.1576,-6.7396],[-37.2043,-6.7617],[-37.2639,-6.7321],[-37.2901,-6.713],[-37.2837,-6.6939],[-37.3142,-6.6889],[-37.3016,-6.6522],[-37.2514,-6.6468],[-37.2183,-6.6197],[-37.1803,-6.6139],[-37.1504,-6.6261],[-37.1347,-6.6498],[-37.1122,-6.6548],[-37.1028,-6.6847],[-37.065,-6.7074],[-37.0597,-6.7207],[-37.0352,-6.7341]]]}},{"type":"Feature","properties":{"codarea":"2412401","centroide":[-36.85849042434883,-6.486933681347593],"codigo_ibge":2412401,"nome_ig":"Caicó"},"geometry":{"type":"Polygon","coordinates":[[[-36.7743,-6.4729],[-36.7611,-6.5156],[-36.7803,-6.5261],[-36.791,-6.5209],[-36.8084,-6.5337],[-36.836,-6.5386],[-36.8807,-6.5279],[-36.8959,-6.5182],[-36.9246,-6.5228],[-36.9392,-6.5133],[-36.9513,-6.5222],[-36.9627,-6.5099],[-36.9577,-6.4916],[-36.9048,-6.4479],[-36.8741,-6.4186],[-36.8436,-6.4375],[-36.8207,-6.4372],[-36.8031,-6.4635],[-36.7743,-6.4729]]]}},{"type":"Feature","properties":{"codarea":"2413409","centroide":[-37.35979956070003,-6.587245527934773],"codigo_ibge":2413409,"nome_ig":"Caicó"},"geometry":{"type":"Polygon","coordinates":[[[-37.3184,-6.4546],[-37.2602,-6.5235],[-37.2541,-6.545],[-37.2308,-6.5694],[-37.2183,-6.6197],[-37.2514,-6.6468],[-37.3016,-6.6522],[-37.3142,-6.6889],[-37.3384,-6.7006],[-37.4073,-6.6971],[-37.4846,-6.71],[-37.4661,-6.6599],[-37.4774,-6.6374],[-37.4803,-6.6052],[-37.4748,-6.5644],[-37.4823,-6.5477],[-37.4647,-6.5326],[-37.4192,-6.5331],[-37.3957,-6.51],[-37.3909,-6.4528],[-37.3812,-6.437],[-37.3184,-6.4546]]]}},{"type":"Feature","properties":{"codarea":"2414308","centroide":[-37.24717709820484,-6.477465232400306],"codigo_ibge":2414308,"nome_ig":"Caicó"},"geometry":{"type":"Polygon","coordinates":[[[-37.1884,-6.439],[-37.1953,-6.4467],[-37.2058,-6.4997],[-37.1996,-6.5147],[-37.2134,-6.5274],[-37.2169,-6.5593],[-37.2308,-6.5694],[-37.2541,-6.545],[-37.2602,-6.5235],[-37.3184,-6.4546],[-37.2608,-6.4043],[-37.2204,-6.4303],[-37.1884,-6.439]]]}}]}