{"type":"FeatureCollection","features":[{"type":"Feature","properties":{"codarea":"4300661","centroide":[-51.50505297060771,-28.595298386467956],"codigo_ibge":4300661,"nome_ig":"Campos de Cima da Serra"},"geometry":{"type":"Polygon","coordinates":[[[-51.4001,-28.5416],[-51.4114,-28.5638],[-51.3978,-28.567],[-51.4072,-28.5862],[-51.402,-28.6408],[-51.4262,-28.675],[-51.4446,-28.6754],[-51.4679,-28.6504],[-51.4887,-28.6533],[-51.4954,-28.6662],[-51.5318,-28.6675],[-51.5562,-28.6808],[-51.5616,-28.6928],[-51.5903,-28.6884],[-51.6086,-28.6734],[-51.5962,-28.6697],[-51.6149,-28.629],[-51.6027,-28.6131],[-51.6142,-28.5968],[-51.5988,-28.5854],[-51.6111,-28.553],[-51.5997,-28.5374],[-51.5871,-28.5209],[-51.5491,-28.525],[-51.5315,-28.5472],[-51.485,-28.523],[-51.4745,-28.5269],[-51.4684,-28.5008],[-51.4558,-28.4863],[-51.4214,-28.5021],[-51.419,-28.5195],[-51.4012,-28.5152],[-51.418,-28.5315],[-51.4001,-28.5416]]]}},{"type":"Feature","properties":{"codarea":"4201000","centroide":[-51.079453438150956,-27.73032509749727],"codigo_ibge":4201000,"nome_ig":"Campos de Cima da Serra"},"geometry":{"type":"MultiPolygon","coordinates":[[[[-51.1786,-27.5946],[-51.186,-27.6135],[-51.1664,-27.6266],[-51.1432,-27.6126],[-51.1027,-27.6345],[-51.0809,-27.6347],[-51.0894,-27.654],[-51.07,-27.6473],[-51.046,-27.6542],[-51.048,-27.6405],[-50.9988,-27.6394],[-51.003,-27.665],[-50.9649,-27.654],[-50.9612,-27.6459],[-50.9406,-27.6558],[-50.9469,-27.6722],[-50.9296,-27.6681],[-50.9096,-27.6814],[-50.915,-27.7157],[-50.9272,-27.742],[-50.9542,-27.7587],[-50.961,-27.7494],[-50.9592,-27.782],[-50.9346,-27.8183],[-50.9969,-27.8224],[-51.0208,-27.8382],[-51.042,-27.8715],[-51.0534,-27.8688],[-51.0795,-27.8581],[-51.0765,-27.8418],[-51.0958,-27.8277],[-51.1272,-27.8326],[-51.1346,-27.8036],[-51.1588,-27.8023],[-51.1866,-27.7784],[-51.2191,-27.77],[-51.2363,-27.7797],[-51.2455,-27.7614],[-51.274,-27.7499],[-51.2732,-27.7355],[-51.2225,-27.7231],[-51.2084,-27.67],[-51.1934,-27.6574],[-51.1983,-27.6363],[-51.2123,-27.6194],[-51.1985,-27.5973],[-51.1786,-27.5946]]]]}},{"type":"Feature","properties":{"codarea":"4202438","centroide":[-49.90939568538257,-27.763147084908436],"codigo_ibge":4202438,"nome_ig":"Campos de Cima da Serra"},"geometry":{"type":"MultiPolygon","coordinates":[[[[-49.8393,-27.6778],[-49.8423,-27.7],[-49.8123,-27.7009],[-49.7995,-27.7158],[-49.7985,-27.7361],[-49.7738,-27.7337],[-49.7608,-27.7513],[-49.7814,-27.7635],[-49.7549,-27.7894],[-49.7785,-27.8034],[-49.8064,-27.8532],[-49.8081,-27.8669],[-49.8354,-27.8855],[-49.849,-27.8851],[-49.8696,-27.901],[-49.8783,-27.8969],[-49.911,-27.8554],[-49.9044,-27.8451],[-49.9221,-27.8419],[-49.9555,-27.8487],[-49.9898,-27.8268],[-49.9948,-27.7933],[-50.0347,-27.8111],[-50.0691,-27.8106],[-50.0791,-27.8011],[-50.0755,-27.7824],[-50.0432,-27.7715],[-50.0323,-27.7577],[-50.0322,-27.7247],[-50.0238,-27.684],[-50.0035,-27.6742],[-50.001,-27.6402],[-50.0085,-27.6221],[-49.9855,-27.6191],[-49.9728,-27.6322],[-49.9911,-27.6409],[-49.9568,-27.6593],[-49.9555,-27.6401],[-49.9368,-27.6476],[-49.9094,-27.6712],[-49.9178,-27.6503],[-49.8851,-27.6651],[-49.8635,-27.6915],[-49.8531,-27.6688],[-49.8393,-27.6778]]]]}},{"type":"Feature","properties":{"codarea":"4202503","centroide":[-49.653145824983724,-28.361066022140058],"codigo_ibge":4202503,"nome_ig":"Campos de Cima da Serra"},"geometry":{"type":"MultiPolygon","coordinates":[[[[-49.4745,-28.1255],[-49.4884,-28.1273],[-49.4956,-28.1474],[-49.5107,-28.1551],[-49.5147,-28.1759],[-49.5305,-28.1877],[-49.5303,-28.2261],[-49.5507,-28.2395],[-49.5339,-28.2419],[-49.5323,-28.2541],[-49.5482,-28.2723],[-49.5278,-28.2681],[-49.524,-28.308],[-49.536,-28.3141],[-49.5352,-28.3321],[-49.5605,-28.3729],[-49.5437,-28.383],[-49.5673,-28.4133],[-49.5607,-28.4344],[-49.5348,-28.4355],[-49.5628,-28.4669],[-49.5524,-28.4841],[-49.5688,-28.5041],[-49.5909,-28.5011],[-49.603,-28.5197],[-49.6454,-28.5421],[-49.6556,-28.5611],[-49.6459,-28.589],[-49.6529,-28.6022],[-49.685,-28.621],[-49.7031,-28.6289],[-49.6918,-28.619],[-49.7101,-28.6043],[-49.7123,-28.5722],[-49.725,-28.5708],[-49.7305,-28.5515],[-49.7465,-28.5496],[-49.7467,-28.5353],[-49.7268,-28.5189],[-49.7465,-28.5068],[-49.7482,-28.4939],[-49.7654,-28.5012],[-49.7674,-28.4595],[-49.7805,-28.4712],[-49.7909,-28.4964],[-49.8162,-28.469],[-49.8031,-28.4568],[-49.8124,-28.4387],[-49.8311,-28.4252],[-49.8112,-28.4216],[-49.7831,-28.429],[-49.7543,-28.418],[-49.7696,-28.4135],[-49.7708,-28.3955],[-49.8068,-28.3852],[-49.8052,-28.3666],[-49.7831,-28.3656],[-49.7644,-28.3488],[-49.774,-28.3312],[-49.7738,-28.285],[-49.7556,-28.2491],[-49.7319,-28.2393],[-49.7113,-28.2212],[-49.6722,-28.2304],[-49.6664,-28.2144],[-49.6695,-28.1848],[-49.6598,-28.1851],[-49.6444,-28.1644],[-49.612,-28.1626],[-49.5775,-28.149],[-49.5639,-28.1154],[-49.5453,-28.1251],[-49.5116,-28.1271],[-49.4796,-28.1187],[-49.4745,-28.1255]]]]}},{"type":"Feature","properties":{"codarea":"4202537","centroide":[-52.39094725431678,-26.74246195196688],"codigo_ibge":4202537,"nome_ig":"Campos de Cima da Serra"},"geometry":{"type":"MultiPolygon","coordinates":[[[[-52.3617,-26.759],[-52.3553,-26.7845],[-52.3696,-26.7939],[-52.4071,-26.7843],[-52.416,-26.7953],[-52.4402,-26.7713],[-52.4295,-26.7673],[-52.422,-26.7485],[-52.4053,-26.7463],[-52.4239,-26.7234],[-52.4166,-26.6992],[-52.3879,-26.7075],[-52.3932,-26.6838],[-52.3681,-26.6714],[-52.3646,-26.7137],[-52.3541,-26.7216],[-52.3708,-26.7486],[-52.3617,-26.759]]]]}},{"type":"Feature","properties":{"codarea":"4202602","centroide":[-49.56373819835596,-27.78520546253864],"codigo_ibge":4202602,"nome_ig":"Campos de Cima da Serra"},"geometry":{"type":"MultiPolygon","coordinates":[[[[-49.5078,-27.6004],[-49.5104,-27.6342],[-49.5042,-27.6531],[-49.4689,-27.6863],[-49.4583,-27.7097],[-49.4728,-27.7302],[-49.4587,-27.7608],[-49.4358,-27.7578],[-49.4209,-27.7816],[-49.3819,-27.8143],[-49.3573,-27.8124],[-49.3394,-27.8359],[-49.3195,-27.8294],[-49.2964,-27.8749],[-49.2818,-27.8735],[-49.3,-27.9011],[-49.3169,-27.9026],[-49.33,-27.9236],[-49.3607,-27.9237],[-49.3808,-27.942],[-49.4123,-27.9523],[-49.428,-27.9352],[-49.4411,-27.9431],[-49.4529,-27.9316],[-49.493,-27.9314],[-49.5188,-27.9146],[-49.5552,-27.9113],[-49.5791,-27.8985],[-49.6072,-27.9011],[-49.6455,-27.8798],[-49.6562,-27.8593],[-49.6909,-27.8336],[-49.7156,-27.8382],[-49.7516,-27.8549],[-49.7608,-27.8159],[-49.7843,-27.8307],[-49.7785,-27.8034],[-49.7549,-27.7894],[-49.7814,-27.7635],[-49.7608,-27.7513],[-49.7738,-27.7337],[-49.7985,-27.7361],[-49.7995,-27.7158],[-49.8123,-27.7009],[-49.8423,-27.7],[-49.8393,-27.6778],[-49.8182,-27.6882],[-49.795,-27.6646],[-49.7872,-27.6716],[-49.7649,-27.6572],[-49.7428,-27.6685],[-49.7301,-27.6548],[-49.7149,-27.6447],[-49.6895,-27.6524],[-49.6517,-27.6423],[-49.6239,-27.6176],[-49.639,-27.645],[-49.6376,-27.6593],[-49.618,-27.6589],[-49.588,-27.6437],[-49.5807,-27.6297],[-49.548,-27.6131],[-49.5078,-27.6004]]]]}},{"type":"Feature","properties":{"codarea":"4303608","centroide":[-50.13712230253672,-29.063201735901192],"codigo_ibge":4303608,"nome_ig":"Campos de Cima da Serra"},"geometry":{"type":"Polygon","coordinates":[[[-49.9508,-28.8934],[-49.965,-28.9255],[-49.9557,-28.9488],[-49.9573,-28.9629],[-49.9336,-28.9658],[-49.9278,-28.9794],[-49.9424,-28.9822],[-49.9659,-29.0217],[-49.9407,-29.0223],[-49.9609,-29.0508],[-50.0017,-29.0694],[-49.9573,-29.0633],[-49.9567,-29.0679],[-49.9561,-29.0849],[-49.9682,-29.0842],[-49.9689,-29.116],[-49.9922,-29.1209],[-49.9843,-29.1367],[-50.0134,-29.1268],[-50.009,-29.1567],[-50.0287,-29.1718],[-50.0174,-29.1818],[-50.0732,-29.1879],[-50.0906,-29.1645],[-50.0632,-29.1552],[-50.0968,-29.1589],[-50.0982,-29.1805],[-50.0847,-29.1982],[-50.0924,-29.2242],[-50.1127,-29.2387],[-50.113,-29.2252],[-50.0932,-29.2127],[-50.1378,-29.1937],[-50.1347,-29.215],[-50.1482,-29.2199],[-50.141,-29.2383],[-50.1769,-29.2494],[-50.1397,-29.2531],[-50.1491,-29.2824],[-50.1658,-29.282],[-50.1712,-29.2946],[-50.2029,-29.2976],[-50.2493,-29.2767],[-50.2678,-29.2909],[-50.2984,-29.2937],[-50.3039,-29.2707],[-50.3143,-29.269],[-50.3322,-29.2413],[-50.3243,-29.2211],[-50.3579,-29.1892],[-50.3605,-29.1712],[-50.3526,-29.1363],[-50.3658,-29.1367],[-50.3581,-29.1167],[-50.3366,-29.1097],[-50.3002,-29.1184],[-50.2631,-29.1403],[-50.2473,-29.1322],[-50.2405,-29.1026],[-50.2194,-29.0966],[-50.2024,-29.104],[-50.1933,-29.0738],[-50.1841,-29.0704],[-50.2108,-29.0506],[-50.2273,-29.0469],[-50.2338,-29.0101],[-50.2393,-29.0232],[-50.2701,-29.0152],[-50.2688,-28.9956],[-50.2553,-28.9947],[-50.2456,-28.9605],[-50.2539,-28.9288],[-50.2241,-28.9323],[-50.217,-28.9194],[-50.1891,-28.93],[-50.1594,-28.9064],[-50.1679,-28.8842],[-50.1823,-28.8848],[-50.1786,-28.8691],[-50.1936,-28.8399],[-50.1916,-28.8242],[-50.158,-28.836],[-50.1612,-28.8226],[-50.1281,-28.8205],[-50.0863,-28.832],[-50.089,-28.8474],[-50.0582,-28.8397],[-50.0145,-28.8689],[-50.0084,-28.8894],[-49.9744,-28.902],[-49.9508,-28.8934]]]}},{"type":"Feature","properties":{"codarea":"4303673","centroide":[-51.09915467243536,-28.72616733267048],"codigo_ibge":4303673,"nome_ig":"Campos de Cima da Serra"},"geometry":{"type":"Polygon","coordinates":[[[-50.9578,-28.7908],[-50.962,-28.7953],[-50.9763,-28.8145],[-50.9994,-28.819],[-51.0189,-28.8418],[-51.0426,-28.8357],[-51.052,-28.8639],[-51.0722,-28.8626],[-51.0968,-28.8414],[-51.1148,-28.8572],[-51.1086,-28.8684],[-51.1268,-28.8775],[-51.144,-28.8838],[-51.16,-28.8739],[-51.1742,-28.8559],[-51.1584,-28.8417],[-51.1746,-28.8179],[-51.2101,-28.8102],[-51.1865,-28.7819],[-51.2072,-28.7158],[-51.1902,-28.698],[-51.1581,-28.7015],[-51.1424,-28.6699],[-51.1457,-28.6536],[-51.1639,-28.6459],[-51.167,-28.6295],[-51.2163,-28.6206],[-51.2212,-28.6061],[-51.2588,-28.5955],[-51.2558,-28.5888],[-51.2276,-28.5812],[-51.1792,-28.5924],[-51.1743,-28.576],[-51.1532,-28.5825],[-51.1527,-28.5649],[-51.1451,-28.5553],[-51.1327,-28.5679],[-51.1172,-28.5555],[-51.1005,-28.575],[-51.0757,-28.6238],[-51.043,-28.6191],[-51.026,-28.6243],[-51.0044,-28.6587],[-51.002,-28.6778],[-51.0206,-28.6827],[-51.0028,-28.7094],[-50.9929,-28.7439],[-50.9712,-28.7447],[-50.9801,-28.7606],[-50.9777,-28.7825],[-50.9578,-28.7908]]]}},{"type":"Feature","properties":{"codarea":"4203402","centroide":[-50.771819332717186,-27.846895944394923],"codigo_ibge":4203402,"nome_ig":"Campos de Cima da Serra"},"geometry":{"type":"MultiPolygon","coordinates":[[[[-50.6413,-27.7143],[-50.6301,-27.7297],[-50.6405,-27.7595],[-50.6272,-27.7654],[-50.6299,-27.7855],[-50.6114,-27.7912],[-50.6186,-27.8057],[-50.6056,-27.8331],[-50.618,-27.8469],[-50.6217,-27.8697],[-50.65,-27.9075],[-50.6489,-27.9204],[-50.6259,-27.93],[-50.6302,-27.9497],[-50.6558,-27.9864],[-50.7096,-28.0006],[-50.7224,-28.0134],[-50.7489,-28.0153],[-50.7417,-28.0305],[-50.7788,-28.0269],[-50.7921,-28.0156],[-50.8331,-28.0516],[-50.8391,-28.043],[-50.8752,-28.0413],[-50.8896,-28.0229],[-50.9241,-28.0104],[-50.9239,-27.9716],[-50.9428,-27.9683],[-50.9783,-27.9482],[-50.9606,-27.9457],[-50.9612,-27.9344],[-50.9264,-27.9283],[-50.9263,-27.9037],[-50.8921,-27.8964],[-50.8575,-27.7738],[-50.8432,-27.7633],[-50.854,-27.7322],[-50.8474,-27.6975],[-50.8626,-27.636],[-50.8569,-27.6223],[-50.8752,-27.6015],[-50.852,-27.6019],[-50.8151,-27.6173],[-50.8027,-27.599],[-50.7998,-27.6145],[-50.7814,-27.6346],[-50.756,-27.6233],[-50.7583,-27.6378],[-50.7186,-27.6482],[-50.7265,-27.6645],[-50.714,-27.6764],[-50.697,-27.6693],[-50.7059,-27.6855],[-50.6775,-27.7151],[-50.6637,-27.7096],[-50.6529,-27.7267],[-50.6413,-27.7143]]]]}},{"type":"Feature","properties":{"codarea":"4203253","centroide":[-50.607442577435066,-28.062655488184916],"codigo_ibge":4203253,"nome_ig":"Campos de Cima da Serra"},"geometry":{"type":"MultiPolygon","coordinates":[[[[-50.6956,-28.2699],[-50.749,-28.2485],[-50.7621,-28.1914],[-50.7888,-28.1983],[-50.7834,-28.1749],[-50.792,-28.1551],[-50.7847,-28.1439],[-50.816,-28.1416],[-50.8341,-28.1177],[-50.8589,-28.1397],[-50.8752,-28.1307],[-50.8691,-28.1164],[-50.8759,-28.095],[-50.9029,-28.0884],[-50.8858,-28.0717],[-50.8752,-28.0413],[-50.8391,-28.043],[-50.8331,-28.0516],[-50.7921,-28.0156],[-50.7788,-28.0269],[-50.7417,-28.0305],[-50.7489,-28.0153],[-50.7224,-28.0134],[-50.7096,-28.0006],[-50.6558,-27.9864],[-50.6302,-27.9497],[-50.6259,-27.93],[-50.6489,-27.9204],[-50.65,-27.9075],[-50.6217,-27.8697],[-50.618,-27.8469],[-50.6056,-27.8331],[-50.5775,-27.8408],[-50.5367,-27.8746],[-50.5202,-27.8742],[-50.4692,-27.856],[-50.4365,-27.8726],[-50.4272,-27.8633],[-50.3902,-27.882],[-50.362,-27.9165],[-50.373,-27.9398],[-50.3716,-27.9647],[-50.3974,-27.9742],[-50.4105,-27.9996],[-50.3889,-28.0228],[-50.4013,-28.0478],[-50.4288,-28.0599],[-50.4483,-28.0827],[-50.4726,-28.0836],[-50.4904,-28.1093],[-50.5215,-28.1292],[-50.5231,-28.1574],[-50.5048,-28.1939],[-50.5182,-28.2193],[-50.539,-28.2229],[-50.5444,-28.2508],[-50.5606,-28.2517],[-50.5847,-28.2769],[-50.5888,-28.2658],[-50.633,-28.2963],[-50.6734,-28.2823],[-50.666,-28.2548],[-50.6956,-28.2699]]]]}},{"type":"Feature","properties":{"codarea":"4304622","centroide":[-51.38923018094646,-28.152716717169792],"codigo_ibge":4304622,"nome_ig":"Campos de Cima da Serra"},"geometry":{"type":"Polygon","coordinates":[[[-51.2443,-28.1537],[-51.2541,-28.1784],[-51.2952,-28.1906],[-51.3271,-28.2213],[-51.334,-28.2359],[-51.3582,-28.234],[-51.3881,-28.2432],[-51.3978,-28.2748],[-51.3884,-28.2968],[-51.4143,-28.2955],[-51.4258,-28.3176],[-51.4129,-28.3361],[-51.4381,-28.3503],[-51.4585,-28.3462],[-51.4724,-28.3011],[-51.4467,-28.2581],[-51.449,-28.2369],[-51.4826,-28.2047],[-51.492,-28.183],[-51.5103,-28.1707],[-51.5142,-28.1536],[-51.5006,-28.1554],[-51.4942,-28.1379],[-51.5112,-28.086],[-51.5138,-28.0618],[-51.482,-28.0532],[-51.4226,-28.0676],[-51.4014,-28.0376],[-51.3778,-28.0158],[-51.3483,-27.9975],[-51.3439,-28.0366],[-51.3198,-28.0496],[-51.3043,-28.0672],[-51.2774,-28.0634],[-51.255,-28.085],[-51.2611,-28.1338],[-51.2443,-28.1537]]]}},{"type":"Feature","properties":{"codarea":"4305108","centroide":[-51.02451258931839,-29.102764145624985],"codigo_ibge":4305108,"nome_ig":"Campos de Cima da Serra"},"geometry":{"type":"Polygon","coordinates":[[[-50.8492,-28.8327],[-50.8196,-28.8375],[-50.8276,-28.8565],[-50.8183,-28.869],[-50.7945,-28.8746],[-50.7992,-28.8866],[-50.8202,-28.8935],[-50.8058,-28.9091],[-50.8109,-28.93],[-50.7874,-28.9415],[-50.8161,-28.9524],[-50.8137,-28.9697],[-50.8003,-28.9641],[-50.7861,-28.9785],[-50.7826,-29],[-50.7992,-29.0253],[-50.8138,-29.0284],[-50.8228,-29.0542],[-50.8604,-29.0646],[-50.8941,-29.0647],[-50.9101,-29.0752],[-50.9445,-29.0718],[-50.9392,-29.0812],[-50.9089,-29.0835],[-50.9026,-29.0989],[-50.9127,-29.1184],[-50.8753,-29.1169],[-50.841,-29.1279],[-50.8447,-29.1592],[-50.8342,-29.1786],[-50.8601,-29.2263],[-50.8597,-29.2487],[-50.8825,-29.2716],[-50.8901,-29.2881],[-50.9094,-29.2875],[-50.9196,-29.3082],[-50.9259,-29.2912],[-50.9491,-29.2894],[-50.948,-29.3111],[-50.9686,-29.2983],[-50.9842,-29.3043],[-50.9854,-29.3207],[-51.001,-29.3174],[-51.0306,-29.2936],[-51.049,-29.3077],[-51.0698,-29.2917],[-51.0886,-29.2909],[-51.0998,-29.3176],[-51.119,-29.3083],[-51.142,-29.3424],[-51.1796,-29.3251],[-51.2122,-29.3585],[-51.2275,-29.3441],[-51.2165,-29.3366],[-51.2667,-29.295],[-51.2657,-29.2458],[-51.2886,-29.2454],[-51.2885,-29.1937],[-51.2938,-29.1939],[-51.2928,-29.1134],[-51.2858,-29.1046],[-51.3071,-29.0883],[-51.1946,-29.0862],[-51.1447,-29.0875],[-51.1452,-29.0803],[-51.1105,-29.0798],[-51.1131,-29.0328],[-51.0328,-29.0336],[-51.037,-29.0273],[-50.9857,-29.0253],[-50.9697,-29.0116],[-50.9185,-29.0253],[-50.9218,-29.0035],[-50.9372,-28.9992],[-50.9574,-28.9609],[-50.9787,-28.9459],[-51.0553,-28.9178],[-51.0738,-28.887],[-51.0912,-28.8792],[-51.1268,-28.8775],[-51.1086,-28.8684],[-51.1148,-28.8572],[-51.0968,-28.8414],[-51.0722,-28.8626],[-51.052,-28.8639],[-51.0426,-28.8357],[-51.0189,-28.8418],[-50.9994,-28.819],[-50.9763,-28.8145],[-50.962,-28.7953],[-50.9315,-28.8075],[-50.9141,-28.8017],[-50.8906,-28.8063],[-50.8846,-28.8388],[-50.8492,-28.8327]]]}},{"type":"Feature","properties":{"codarea":"4204178","centroide":[-50.9328822892716,-27.776468620376146],"codigo_ibge":4204178,"nome_ig":"Campos de Cima da Serra"},"geometry":{"type":"MultiPolygon","coordinates":[[[[-50.9339,-27.5799],[-50.9014,-27.5734],[-50.8864,-27.6086],[-50.8752,-27.6015],[-50.8569,-27.6223],[-50.8626,-27.636],[-50.8474,-27.6975],[-50.854,-27.7322],[-50.8432,-27.7633],[-50.8575,-27.7738],[-50.8921,-27.8964],[-50.9263,-27.9037],[-50.9264,-27.9283],[-50.9612,-27.9344],[-50.9606,-27.9457],[-50.9783,-27.9482],[-50.9936,-27.946],[-51.0015,-27.9631],[-51.0189,-27.957],[-51.0199,-27.9224],[-51.0559,-27.9036],[-51.0566,-27.8867],[-51.0534,-27.8688],[-51.042,-27.8715],[-51.0208,-27.8382],[-50.9969,-27.8224],[-50.9346,-27.8183],[-50.9592,-27.782],[-50.961,-27.7494],[-50.9542,-27.7587],[-50.9272,-27.742],[-50.915,-27.7157],[-50.9096,-27.6814],[-50.9296,-27.6681],[-50.9469,-27.6722],[-50.9406,-27.6558],[-50.9612,-27.6459],[-50.9912,-27.6217],[-50.989,-27.6056],[-50.9556,-27.5956],[-50.9721,-27.5777],[-50.9525,-27.5694],[-50.9339,-27.5799]]]]}},{"type":"Feature","properties":{"codarea":"4204558","centroide":[-50.378835194962335,-27.59745953071456],"codigo_ibge":4204558,"nome_ig":"Campos de Cima da Serra"},"geometry":{"type":"MultiPolygon","coordinates":[[[[-50.4864,-27.4586],[-50.4694,-27.4776],[-50.4922,-27.4824],[-50.4682,-27.4865],[-50.4508,-27.5004],[-50.4479,-27.4777],[-50.4019,-27.4752],[-50.3774,-27.5],[-50.3917,-27.5246],[-50.395,-27.5466],[-50.4115,-27.5475],[-50.3755,-27.5625],[-50.3672,-27.5354],[-50.3586,-27.5403],[-50.3249,-27.5259],[-50.2962,-27.5225],[-50.2696,-27.5381],[-50.2699,-27.525],[-50.2506,-27.5168],[-50.2101,-27.5534],[-50.2077,-27.5751],[-50.1907,-27.5926],[-50.1978,-27.6327],[-50.2736,-27.6759],[-50.3115,-27.678],[-50.2997,-27.7002],[-50.31,-27.7486],[-50.3282,-27.7497],[-50.3764,-27.7415],[-50.3948,-27.7254],[-50.4117,-27.7068],[-50.4306,-27.712],[-50.4377,-27.6949],[-50.4273,-27.6817],[-50.4842,-27.6537],[-50.4958,-27.6281],[-50.5235,-27.6319],[-50.5063,-27.6207],[-50.5118,-27.5963],[-50.537,-27.6065],[-50.5237,-27.5838],[-50.5491,-27.5288],[-50.5696,-27.5043],[-50.5421,-27.4848],[-50.5262,-27.4917],[-50.5344,-27.4706],[-50.5135,-27.4567],[-50.5004,-27.4673],[-50.4864,-27.4586]]]]}},{"type":"Feature","properties":{"codarea":"4307401","centroide":[-51.170093298083984,-28.03754578172653],"codigo_ibge":4307401,"nome_ig":"Campos de Cima da Serra"},"geometry":{"type":"Polygon","coordinates":[[[-51.0566,-27.8867],[-51.0559,-27.9036],[-51.0199,-27.9224],[-51.0189,-27.957],[-51.0015,-27.9631],[-50.9904,-27.9949],[-51.0112,-28.0027],[-51.034,-28.0283],[-51.0271,-28.0583],[-51.0429,-28.0665],[-51.0349,-28.085],[-51.0408,-28.1506],[-51.0624,-28.1837],[-51.0343,-28.2076],[-51.0111,-28.2058],[-51.038,-28.2277],[-51.0812,-28.2329],[-51.1035,-28.2105],[-51.1028,-28.1936],[-51.1235,-28.1996],[-51.1537,-28.1761],[-51.1753,-28.1892],[-51.2134,-28.1819],[-51.2443,-28.1537],[-51.2611,-28.1338],[-51.255,-28.085],[-51.2774,-28.0634],[-51.3043,-28.0672],[-51.3198,-28.0496],[-51.3439,-28.0366],[-51.3483,-27.9975],[-51.3346,-27.9823],[-51.3548,-27.9859],[-51.3586,-27.9757],[-51.3398,-27.9694],[-51.3325,-27.9312],[-51.3623,-27.926],[-51.3658,-27.8953],[-51.3775,-27.8804],[-51.359,-27.8628],[-51.3542,-27.8709],[-51.3252,-27.8758],[-51.2919,-27.8659],[-51.2772,-27.8425],[-51.2671,-27.8592],[-51.2726,-27.8775],[-51.2527,-27.8993],[-51.2616,-27.9331],[-51.2398,-27.9795],[-51.2136,-27.9842],[-51.2019,-27.9602],[-51.1667,-27.9579],[-51.1361,-27.933],[-51.1139,-27.9365],[-51.1083,-27.9149],[-51.0716,-27.9026],[-51.0724,-27.8845],[-51.0566,-27.8867]]]}},{"type":"Feature","properties":{"codarea":"4310439","centroide":[-51.29854118866483,-28.717481290303002],"codigo_ibge":4310439,"nome_ig":"Campos de Cima da Serra"},"geometry":{"type":"Polygon","coordinates":[[[-51.2558,-28.5888],[-51.2588,-28.5955],[-51.2212,-28.6061],[-51.2163,-28.6206],[-51.167,-28.6295],[-51.1639,-28.6459],[-51.1457,-28.6536],[-51.1424,-28.6699],[-51.1581,-28.7015],[-51.1902,-28.698],[-51.2072,-28.7158],[-51.1865,-28.7819],[-51.2101,-28.8102],[-51.1746,-28.8179],[-51.1584,-28.8417],[-51.1742,-28.8559],[-51.2042,-28.8463],[-51.2338,-28.8182],[-51.2632,-28.8222],[-51.3175,-28.8396],[-51.3182,-28.8512],[-51.3373,-28.8283],[-51.3644,-28.8354],[-51.411,-28.8006],[-51.4392,-28.8065],[-51.4353,-28.7931],[-51.4592,-28.7893],[-51.4324,-28.7722],[-51.4346,-28.7478],[-51.4241,-28.7444],[-51.4403,-28.7162],[-51.4341,-28.6886],[-51.4446,-28.6754],[-51.4262,-28.675],[-51.402,-28.6408],[-51.3816,-28.6502],[-51.3828,-28.6357],[-51.3686,-28.633],[-51.3601,-28.6087],[-51.3399,-28.6077],[-51.3474,-28.5898],[-51.3035,-28.5831],[-51.2558,-28.5888]]]}},{"type":"Feature","properties":{"codarea":"4311122","centroide":[-50.360924374790855,-28.947894267083708],"codigo_ibge":4311122,"nome_ig":"Campos de Cima da Serra"},"geometry":{"type":"Polygon","coordinates":[[[-50.2118,-28.8229],[-50.2154,-28.8377],[-50.1936,-28.8399],[-50.1786,-28.8691],[-50.1823,-28.8848],[-50.1679,-28.8842],[-50.1594,-28.9064],[-50.1891,-28.93],[-50.217,-28.9194],[-50.2241,-28.9323],[-50.2539,-28.9288],[-50.2456,-28.9605],[-50.2553,-28.9947],[-50.2688,-28.9956],[-50.2701,-29.0152],[-50.2393,-29.0232],[-50.2338,-29.0101],[-50.2273,-29.0469],[-50.2108,-29.0506],[-50.1841,-29.0704],[-50.1933,-29.0738],[-50.2024,-29.104],[-50.2194,-29.0966],[-50.2405,-29.1026],[-50.2473,-29.1322],[-50.2631,-29.1403],[-50.3002,-29.1184],[-50.3366,-29.1097],[-50.3581,-29.1167],[-50.3708,-29.1066],[-50.4122,-29.1189],[-50.4219,-29.1298],[-50.4445,-29.129],[-50.4392,-29.088],[-50.4317,-29.0752],[-50.4436,-29.0477],[-50.4561,-29.0373],[-50.464,-28.995],[-50.4631,-28.9605],[-50.4755,-28.9373],[-50.5155,-28.9107],[-50.5151,-28.8998],[-50.5354,-28.8874],[-50.5618,-28.8875],[-50.5516,-28.8634],[-50.5725,-28.8636],[-50.5637,-28.8513],[-50.5829,-28.8551],[-50.5788,-28.8437],[-50.6042,-28.8325],[-50.6046,-28.8101],[-50.5952,-28.8182],[-50.5732,-28.7964],[-50.5775,-28.7781],[-50.5568,-28.7826],[-50.5626,-28.7958],[-50.5437,-28.8026],[-50.5522,-28.8103],[-50.5372,-28.83],[-50.5262,-28.7999],[-50.5185,-28.81],[-50.4944,-28.8058],[-50.4916,-28.8168],[-50.4623,-28.8197],[-50.4607,-28.8006],[-50.4404,-28.7882],[-50.4294,-28.7999],[-50.4325,-28.8209],[-50.4039,-28.8072],[-50.3949,-28.8237],[-50.3681,-28.8359],[-50.3687,-28.8237],[-50.3299,-28.8091],[-50.3132,-28.8408],[-50.2842,-28.8233],[-50.2734,-28.8396],[-50.2603,-28.8197],[-50.2423,-28.8257],[-50.2118,-28.8229]]]}},{"type":"Feature","properties":{"codarea":"4209300","centroide":[-50.34063523055474,-28.019802827730363],"codigo_ibge":4209300,"nome_ig":"Campos de Cima da Serra"},"geometry":{"type":"MultiPolygon","coordinates":[[[[-50.001,-27.6402],[-50.0035,-27.6742],[-50.0238,-27.684],[-50.0322,-27.7247],[-50.0323,-27.7577],[-50.0432,-27.7715],[-50.0755,-27.7824],[-50.0791,-27.8011],[-50.0691,-27.8106],[-50.0728,-27.8395],[-50.097,-27.8549],[-50.1609,-27.8602],[-50.1703,-27.8693],[-50.2018,-27.8633],[-50.2141,-27.8745],[-50.215,-27.8947],[-50.1932,-27.9152],[-50.1826,-27.9424],[-50.1965,-27.9668],[-50.2015,-27.9937],[-50.1918,-28.0886],[-50.2004,-28.1105],[-50.1895,-28.1397],[-50.1728,-28.1618],[-50.1878,-28.1665],[-50.1673,-28.1988],[-50.1876,-28.2138],[-50.2167,-28.2069],[-50.2321,-28.2191],[-50.2174,-28.233],[-50.2293,-28.2431],[-50.2176,-28.2511],[-50.2456,-28.2572],[-50.2448,-28.2898],[-50.2309,-28.3016],[-50.2714,-28.3098],[-50.2785,-28.3228],[-50.2652,-28.3296],[-50.2787,-28.3488],[-50.2872,-28.3453],[-50.3352,-28.3662],[-50.3354,-28.3817],[-50.3777,-28.3723],[-50.3861,-28.3868],[-50.4067,-28.3951],[-50.405,-28.4234],[-50.4247,-28.4333],[-50.4568,-28.4106],[-50.4989,-28.413],[-50.5312,-28.406],[-50.5309,-28.4286],[-50.5661,-28.4124],[-50.5931,-28.3815],[-50.624,-28.393],[-50.6281,-28.3661],[-50.6652,-28.3379],[-50.6585,-28.3242],[-50.6776,-28.3],[-50.6952,-28.2885],[-50.6956,-28.2699],[-50.666,-28.2548],[-50.6734,-28.2823],[-50.633,-28.2963],[-50.5888,-28.2658],[-50.5847,-28.2769],[-50.5606,-28.2517],[-50.5444,-28.2508],[-50.539,-28.2229],[-50.5182,-28.2193],[-50.5048,-28.1939],[-50.5231,-28.1574],[-50.5215,-28.1292],[-50.4904,-28.1093],[-50.4726,-28.0836],[-50.4483,-28.0827],[-50.4288,-28.0599],[-50.4013,-28.0478],[-50.3889,-28.0228],[-50.4105,-27.9996],[-50.3974,-27.9742],[-50.3716,-27.9647],[-50.373,-27.9398],[-50.362,-27.9165],[-50.3902,-27.882],[-50.4272,-27.8633],[-50.4365,-27.8726],[-50.4692,-27.856],[-50.5202,-27.8742],[-50.5367,-27.8746],[-50.5775,-27.8408],[-50.6056,-27.8331],[-50.6186,-27.8057],[-50.6114,-27.7912],[-50.6299,-27.7855],[-50.6272,-27.7654],[-50.6405,-27.7595],[-50.6301,-27.7297],[-50.6413,-27.7143],[-50.6052,-27.7287],[-50.5953,-27.7083],[-50.5748,-27.7152],[-50.5829,-27.7282],[-50.5545,-27.7241],[-50.5428,-27.7345],[-50.5565,-27.7496],[-50.5451,-27.7638],[-50.5122,-27.7867],[-50.4956,-27.7686],[-50.4337,-27.773],[-50.3945,-27.7497],[-50.3948,-27.7254],[-50.3764,-27.7415],[-50.3282,-27.7497],[-50.31,-27.7486],[-50.2997,-27.7002],[-50.3115,-27.678],[-50.2736,-27.6759],[-50.1978,-27.6327],[-50.1882,-27.6523],[-50.1621,-27.665],[-50.1537,-27.6518],[-50.1379,-27.7087],[-50.1354,-27.6955],[-50.1057,-27.676],[-50.0809,-27.6266],[-50.0539,-27.6177],[-50.0463,-27.5783],[-50.0278,-27.5711],[-50.0125,-27.5772],[-50.0289,-27.5921],[-50.0141,-27.6024],[-50.0196,-27.6159],[-50.001,-27.6402]]]]}},{"type":"Feature","properties":{"codarea":"4311304","centroide":[-51.50157474433616,-28.226924276176636],"codigo_ibge":4311304,"nome_ig":"Campos de Cima da Serra"},"geometry":{"type":"Polygon","coordinates":[[[-51.359,-27.8628],[-51.3775,-27.8804],[-51.3658,-27.8953],[-51.3623,-27.926],[-51.3325,-27.9312],[-51.3398,-27.9694],[-51.3586,-27.9757],[-51.3548,-27.9859],[-51.3346,-27.9823],[-51.3483,-27.9975],[-51.3778,-28.0158],[-51.4014,-28.0376],[-51.4226,-28.0676],[-51.482,-28.0532],[-51.5138,-28.0618],[-51.5112,-28.086],[-51.4942,-28.1379],[-51.5006,-28.1554],[-51.5142,-28.1536],[-51.5103,-28.1707],[-51.492,-28.183],[-51.4826,-28.2047],[-51.449,-28.2369],[-51.4467,-28.2581],[-51.4724,-28.3011],[-51.4585,-28.3462],[-51.4381,-28.3503],[-51.4129,-28.3361],[-51.4258,-28.3176],[-51.4143,-28.2955],[-51.3884,-28.2968],[-51.3407,-28.3215],[-51.3234,-28.3495],[-51.3486,-28.3712],[-51.3378,-28.3862],[-51.3483,-28.3912],[-51.3344,-28.4185],[-51.3607,-28.4212],[-51.3463,-28.4464],[-51.3806,-28.4707],[-51.3695,-28.4847],[-51.3693,-28.503],[-51.3538,-28.5078],[-51.3774,-28.5184],[-51.3706,-28.5304],[-51.4001,-28.5416],[-51.418,-28.5315],[-51.4012,-28.5152],[-51.419,-28.5195],[-51.4214,-28.5021],[-51.4558,-28.4863],[-51.4684,-28.5008],[-51.4745,-28.5269],[-51.485,-28.523],[-51.5315,-28.5472],[-51.5491,-28.525],[-51.5871,-28.5209],[-51.5997,-28.5374],[-51.6242,-28.516],[-51.6136,-28.5037],[-51.6194,-28.4798],[-51.6142,-28.4471],[-51.5724,-28.4196],[-51.5478,-28.4217],[-51.5191,-28.4126],[-51.4987,-28.3981],[-51.5223,-28.3856],[-51.5397,-28.3597],[-51.5297,-28.3339],[-51.5447,-28.3136],[-51.594,-28.3013],[-51.6356,-28.2524],[-51.6523,-28.2124],[-51.6695,-28.2061],[-51.6576,-28.1733],[-51.6936,-28.1505],[-51.6787,-28.1353],[-51.6225,-28.1307],[-51.6344,-28.1131],[-51.6144,-28.1116],[-51.6111,-28.0906],[-51.6304,-28.0801],[-51.6136,-28.0637],[-51.6334,-28.0477],[-51.6581,-28.0269],[-51.6754,-28.026],[-51.6509,-28.0129],[-51.6459,-27.9931],[-51.6765,-27.9831],[-51.6362,-27.9662],[-51.6158,-27.9692],[-51.5857,-27.9742],[-51.5743,-27.9878],[-51.5437,-27.9908],[-51.5257,-27.9839],[-51.5092,-27.9553],[-51.4601,-27.9492],[-51.4579,-27.929],[-51.4321,-27.9131],[-51.4186,-27.9167],[-51.4037,-27.8862],[-51.3925,-27.8895],[-51.3774,-27.8491],[-51.359,-27.8628]]]}},{"type":"Feature","properties":{"codarea":"4312377","centroide":[-50.805468407697376,-28.700401039495297],"codigo_ibge":4312377,"nome_ig":"Campos de Cima da Serra"},"geometry":{"type":"Polygon","coordinates":[[[-50.7266,-28.5997],[-50.6829,-28.6268],[-50.679,-28.6802],[-50.6853,-28.7051],[-50.6744,-28.7389],[-50.6804,-28.7599],[-50.6949,-28.7703],[-50.706,-28.7953],[-50.7458,-28.7933],[-50.7563,-28.7721],[-50.7635,-28.7876],[-50.7984,-28.8002],[-50.7876,-28.815],[-50.8155,-28.826],[-50.8464,-28.813],[-50.8492,-28.8327],[-50.8846,-28.8388],[-50.8906,-28.8063],[-50.9141,-28.8017],[-50.9315,-28.8075],[-50.962,-28.7953],[-50.9578,-28.7908],[-50.9546,-28.7752],[-50.9173,-28.7399],[-50.8993,-28.7389],[-50.9058,-28.7113],[-50.8967,-28.7151],[-50.9006,-28.6839],[-50.9125,-28.6618],[-50.9029,-28.6392],[-50.8897,-28.632],[-50.8989,-28.6189],[-50.8711,-28.6086],[-50.8638,-28.5734],[-50.8284,-28.5533],[-50.7861,-28.5582],[-50.7725,-28.5833],[-50.7466,-28.5973],[-50.7266,-28.5997]]]}},{"type":"Feature","properties":{"codarea":"4312617","centroide":[-51.23021544968615,-28.385439292600214],"codigo_ibge":4312617,"nome_ig":"Campos de Cima da Serra"},"geometry":{"type":"Polygon","coordinates":[[[-51.0812,-28.2329],[-51.0619,-28.2538],[-51.0646,-28.2851],[-51.0871,-28.3087],[-51.063,-28.3188],[-51.0349,-28.3596],[-51.0375,-28.3764],[-51.0559,-28.3909],[-51.048,-28.4058],[-51.0644,-28.4015],[-51.0841,-28.4146],[-51.1028,-28.4084],[-51.0723,-28.4644],[-51.0904,-28.4588],[-51.1564,-28.475],[-51.1548,-28.4881],[-51.133,-28.4928],[-51.1229,-28.5069],[-51.1434,-28.5153],[-51.1527,-28.5649],[-51.1532,-28.5825],[-51.1743,-28.576],[-51.1792,-28.5924],[-51.2276,-28.5812],[-51.2558,-28.5888],[-51.3035,-28.5831],[-51.3474,-28.5898],[-51.3399,-28.6077],[-51.3601,-28.6087],[-51.3686,-28.633],[-51.3828,-28.6357],[-51.3816,-28.6502],[-51.402,-28.6408],[-51.4072,-28.5862],[-51.3978,-28.567],[-51.4114,-28.5638],[-51.4001,-28.5416],[-51.3706,-28.5304],[-51.3774,-28.5184],[-51.3538,-28.5078],[-51.3693,-28.503],[-51.3695,-28.4847],[-51.3806,-28.4707],[-51.3463,-28.4464],[-51.3607,-28.4212],[-51.3344,-28.4185],[-51.3483,-28.3912],[-51.3378,-28.3862],[-51.3486,-28.3712],[-51.3234,-28.3495],[-51.3407,-28.3215],[-51.3884,-28.2968],[-51.3978,-28.2748],[-51.3881,-28.2432],[-51.3582,-28.234],[-51.334,-28.2359],[-51.3271,-28.2213],[-51.2952,-28.1906],[-51.2541,-28.1784],[-51.2443,-28.1537],[-51.2134,-28.1819],[-51.1753,-28.1892],[-51.1537,-28.1761],[-51.1235,-28.1996],[-51.1028,-28.1936],[-51.1035,-28.2105],[-51.0812,-28.2329]]]}},{"type":"Feature","properties":{"codarea":"4211751","centroide":[-49.971053136519146,-27.516959609769863],"codigo_ibge":4211751,"nome_ig":"Campos de Cima da Serra"},"geometry":{"type":"MultiPolygon","coordinates":[[[[-49.9554,-27.4033],[-49.9075,-27.4323],[-49.8931,-27.4569],[-49.8892,-27.4973],[-49.8494,-27.4937],[-49.8515,-27.5041],[-49.832,-27.5291],[-49.8342,-27.539],[-49.7765,-27.5861],[-49.7646,-27.5812],[-49.7333,-27.6194],[-49.7396,-27.6335],[-49.7301,-27.6548],[-49.7428,-27.6685],[-49.7649,-27.6572],[-49.7872,-27.6716],[-49.795,-27.6646],[-49.8182,-27.6882],[-49.8393,-27.6778],[-49.8531,-27.6688],[-49.8635,-27.6915],[-49.8851,-27.6651],[-49.9178,-27.6503],[-49.9094,-27.6712],[-49.9368,-27.6476],[-49.9555,-27.6401],[-49.9568,-27.6593],[-49.9911,-27.6409],[-49.9728,-27.6322],[-49.9855,-27.6191],[-50.0085,-27.6221],[-50.001,-27.6402],[-50.0196,-27.6159],[-50.0141,-27.6024],[-50.0289,-27.5921],[-50.0125,-27.5772],[-50.0278,-27.5711],[-50.0463,-27.5783],[-50.0535,-27.5659],[-50.0887,-27.566],[-50.1004,-27.5603],[-50.0936,-27.5405],[-50.1131,-27.5303],[-50.1267,-27.5384],[-50.1391,-27.5278],[-50.1325,-27.5151],[-50.1502,-27.5026],[-50.1445,-27.4867],[-50.1572,-27.465],[-50.1785,-27.4608],[-50.1815,-27.4453],[-50.1674,-27.4431],[-50.1477,-27.4023],[-50.143,-27.3715],[-50.1277,-27.3494],[-50.1104,-27.3455],[-50.0892,-27.3086],[-50.0752,-27.3035],[-50.0632,-27.3246],[-50.0475,-27.3164],[-50.0262,-27.3284],[-50.028,-27.3421],[-50.0428,-27.3348],[-50.0486,-27.3571],[-50.033,-27.357],[-50.0339,-27.3728],[-50.0111,-27.3866],[-50.017,-27.3995],[-49.9879,-27.419],[-49.9874,-27.4034],[-49.9711,-27.4124],[-49.9554,-27.4033]]]]}},{"type":"Feature","properties":{"codarea":"4211892","centroide":[-50.07316287876868,-27.96407899117921],"codigo_ibge":4211892,"nome_ig":"Campos de Cima da Serra"},"geometry":{"type":"MultiPolygon","coordinates":[[[[-49.8696,-27.901],[-49.8676,-27.9106],[-49.9334,-27.936],[-49.9442,-27.9501],[-49.9639,-27.954],[-49.9664,-27.9957],[-50.0009,-28.004],[-49.9985,-28.0322],[-50.0186,-28.0462],[-50.0156,-28.0699],[-50.0421,-28.0679],[-50.0552,-28.094],[-50.0728,-28.1013],[-50.0594,-28.113],[-50.0974,-28.1237],[-50.1146,-28.1358],[-50.1046,-28.1583],[-50.1436,-28.1525],[-50.1525,-28.1429],[-50.1728,-28.1618],[-50.1895,-28.1397],[-50.2004,-28.1105],[-50.1918,-28.0886],[-50.2015,-27.9937],[-50.1965,-27.9668],[-50.1826,-27.9424],[-50.1932,-27.9152],[-50.215,-27.8947],[-50.2141,-27.8745],[-50.2018,-27.8633],[-50.1703,-27.8693],[-50.1609,-27.8602],[-50.097,-27.8549],[-50.0728,-27.8395],[-50.0691,-27.8106],[-50.0347,-27.8111],[-49.9948,-27.7933],[-49.9898,-27.8268],[-49.9555,-27.8487],[-49.9221,-27.8419],[-49.9044,-27.8451],[-49.911,-27.8554],[-49.8783,-27.8969],[-49.8696,-27.901]]]]}},{"type":"Feature","properties":{"codarea":"4212056","centroide":[-50.162408098449085,-27.563492085302865],"codigo_ibge":4212056,"nome_ig":"Campos de Cima da Serra"},"geometry":{"type":"MultiPolygon","coordinates":[[[[-50.1815,-27.4453],[-50.1785,-27.4608],[-50.1572,-27.465],[-50.1445,-27.4867],[-50.1502,-27.5026],[-50.1325,-27.5151],[-50.1391,-27.5278],[-50.1267,-27.5384],[-50.1131,-27.5303],[-50.0936,-27.5405],[-50.1004,-27.5603],[-50.0887,-27.566],[-50.0535,-27.5659],[-50.0463,-27.5783],[-50.0539,-27.6177],[-50.0809,-27.6266],[-50.1057,-27.676],[-50.1354,-27.6955],[-50.1379,-27.7087],[-50.1537,-27.6518],[-50.1621,-27.665],[-50.1882,-27.6523],[-50.1978,-27.6327],[-50.1907,-27.5926],[-50.2077,-27.5751],[-50.2101,-27.5534],[-50.2506,-27.5168],[-50.2699,-27.525],[-50.2913,-27.5163],[-50.2994,-27.4964],[-50.2719,-27.4951],[-50.282,-27.4808],[-50.266,-27.4459],[-50.2503,-27.4552],[-50.2459,-27.4755],[-50.2221,-27.4834],[-50.2256,-27.4708],[-50.2108,-27.4545],[-50.1935,-27.4598],[-50.1815,-27.4453]]]]}},{"type":"Feature","properties":{"codarea":"4314464","centroide":[-51.22075096139751,-27.853224619488714],"codigo_ibge":4314464,"nome_ig":"Campos de Cima da Serra"},"geometry":{"type":"Polygon","coordinates":[[[-51.2732,-27.7355],[-51.274,-27.7499],[-51.2455,-27.7614],[-51.2363,-27.7797],[-51.2191,-27.77],[-51.1866,-27.7784],[-51.1588,-27.8023],[-51.1346,-27.8036],[-51.1272,-27.8326],[-51.0958,-27.8277],[-51.0765,-27.8418],[-51.0795,-27.8581],[-51.0534,-27.8688],[-51.0566,-27.8867],[-51.0724,-27.8845],[-51.0716,-27.9026],[-51.1083,-27.9149],[-51.1139,-27.9365],[-51.1361,-27.933],[-51.1667,-27.9579],[-51.2019,-27.9602],[-51.2136,-27.9842],[-51.2398,-27.9795],[-51.2616,-27.9331],[-51.2527,-27.8993],[-51.2726,-27.8775],[-51.2671,-27.8592],[-51.2772,-27.8425],[-51.2919,-27.8659],[-51.3252,-27.8758],[-51.3542,-27.8709],[-51.359,-27.8628],[-51.3774,-27.8491],[-51.3779,-27.8241],[-51.3497,-27.787],[-51.3347,-27.7905],[-51.3371,-27.7661],[-51.3302,-27.7513],[-51.2975,-27.7508],[-51.3088,-27.7194],[-51.2798,-27.7226],[-51.2732,-27.7355]]]}},{"type":"Feature","properties":{"codarea":"4213302","centroide":[-50.299471967817794,-27.410823431487838],"codigo_ibge":4213302,"nome_ig":"Campos de Cima da Serra"},"geometry":{"type":"MultiPolygon","coordinates":[[[[-50.1299,-27.2746],[-50.1003,-27.2982],[-50.0752,-27.3035],[-50.0892,-27.3086],[-50.1104,-27.3455],[-50.1277,-27.3494],[-50.143,-27.3715],[-50.1477,-27.4023],[-50.1674,-27.4431],[-50.1815,-27.4453],[-50.1935,-27.4598],[-50.2108,-27.4545],[-50.2256,-27.4708],[-50.2221,-27.4834],[-50.2459,-27.4755],[-50.2503,-27.4552],[-50.266,-27.4459],[-50.282,-27.4808],[-50.2719,-27.4951],[-50.2994,-27.4964],[-50.2913,-27.5163],[-50.2699,-27.525],[-50.2696,-27.5381],[-50.2962,-27.5225],[-50.3249,-27.5259],[-50.3586,-27.5403],[-50.3672,-27.5354],[-50.3755,-27.5625],[-50.4115,-27.5475],[-50.395,-27.5466],[-50.3917,-27.5246],[-50.3774,-27.5],[-50.4019,-27.4752],[-50.4479,-27.4777],[-50.4508,-27.5004],[-50.4682,-27.4865],[-50.4922,-27.4824],[-50.4694,-27.4776],[-50.4864,-27.4586],[-50.4769,-27.4405],[-50.487,-27.435],[-50.4737,-27.3788],[-50.463,-27.3683],[-50.4439,-27.3592],[-50.4284,-27.3651],[-50.3999,-27.3611],[-50.3833,-27.3494],[-50.3595,-27.3463],[-50.2349,-27.3533],[-50.2061,-27.3447],[-50.1849,-27.3145],[-50.1897,-27.2762],[-50.1756,-27.2705],[-50.1299,-27.2746]]]]}},{"type":"Feature","properties":{"codarea":"4215059","centroide":[-49.75431518525571,-27.91469610408623],"codigo_ibge":4215059,"nome_ig":"Campos de Cima da Serra"},"geometry":{"type":"MultiPolygon","coordinates":[[[[-49.6072,-27.9011],[-49.6525,-27.9065],[-49.701,-27.9167],[-49.7151,-27.942],[-49.7111,-28.0077],[-49.7163,-28.0284],[-49.7451,-28.0309],[-49.7762,-27.9964],[-49.7931,-27.9929],[-49.8094,-27.9639],[-49.8207,-27.9712],[-49.8555,-27.9504],[-49.8431,-27.9387],[-49.8676,-27.9106],[-49.8696,-27.901],[-49.849,-27.8851],[-49.8354,-27.8855],[-49.8081,-27.8669],[-49.8064,-27.8532],[-49.7785,-27.8034],[-49.7843,-27.8307],[-49.7608,-27.8159],[-49.7516,-27.8549],[-49.7156,-27.8382],[-49.6909,-27.8336],[-49.6562,-27.8593],[-49.6455,-27.8798],[-49.6072,-27.9011]]]]}},{"type":"Feature","properties":{"codarea":"4318200","centroide":[-50.560141861699215,-29.199841627207036],"codigo_ibge":4318200,"nome_ig":"Campos de Cima da Serra"},"geometry":{"type":"Polygon","coordinates":[[[-50.706,-28.7953],[-50.69,-28.8023],[-50.6558,-28.7986],[-50.6639,-28.8148],[-50.6196,-28.8166],[-50.6046,-28.8101],[-50.6042,-28.8325],[-50.5788,-28.8437],[-50.5829,-28.8551],[-50.5637,-28.8513],[-50.5725,-28.8636],[-50.5516,-28.8634],[-50.5618,-28.8875],[-50.5354,-28.8874],[-50.5151,-28.8998],[-50.5155,-28.9107],[-50.4755,-28.9373],[-50.4631,-28.9605],[-50.464,-28.995],[-50.4561,-29.0373],[-50.4436,-29.0477],[-50.4317,-29.0752],[-50.4392,-29.088],[-50.4445,-29.129],[-50.4219,-29.1298],[-50.4122,-29.1189],[-50.3708,-29.1066],[-50.3581,-29.1167],[-50.3658,-29.1367],[-50.3526,-29.1363],[-50.3605,-29.1712],[-50.3579,-29.1892],[-50.3243,-29.2211],[-50.3322,-29.2413],[-50.3143,-29.269],[-50.3039,-29.2707],[-50.2984,-29.2937],[-50.2678,-29.2909],[-50.2493,-29.2767],[-50.2029,-29.2976],[-50.1712,-29.2946],[-50.1658,-29.282],[-50.1491,-29.2824],[-50.1307,-29.3038],[-50.1277,-29.2817],[-50.1125,-29.3039],[-50.0585,-29.3272],[-50.0679,-29.3425],[-50.0509,-29.339],[-50.041,-29.355],[-50.0601,-29.3648],[-50.082,-29.3513],[-50.0849,-29.332],[-50.1086,-29.3237],[-50.1372,-29.3382],[-50.1572,-29.3375],[-50.1835,-29.3613],[-50.2062,-29.3615],[-50.1911,-29.3409],[-50.2164,-29.3268],[-50.2427,-29.3362],[-50.2386,-29.3616],[-50.2479,-29.3786],[-50.2317,-29.3808],[-50.2399,-29.3955],[-50.219,-29.39],[-50.2213,-29.4095],[-50.2084,-29.4141],[-50.2464,-29.4178],[-50.2144,-29.4428],[-50.1991,-29.4844],[-50.1644,-29.4766],[-50.1883,-29.5059],[-50.1683,-29.5362],[-50.1798,-29.5329],[-50.2081,-29.5051],[-50.1971,-29.4952],[-50.222,-29.4906],[-50.2775,-29.4904],[-50.2823,-29.5061],[-50.2926,-29.4868],[-50.2648,-29.4669],[-50.2924,-29.4679],[-50.2832,-29.4507],[-50.3237,-29.4387],[-50.3171,-29.4564],[-50.3233,-29.4735],[-50.3483,-29.4946],[-50.4062,-29.5193],[-50.4221,-29.5201],[-50.4328,-29.5385],[-50.5529,-29.5388],[-50.5729,-29.553],[-50.5899,-29.5538],[-50.6309,-29.5591],[-50.6513,-29.5026],[-50.661,-29.5068],[-50.6743,-29.4877],[-50.6738,-29.472],[-50.6885,-29.4835],[-50.6878,-29.4751],[-50.7157,-29.453],[-50.6831,-29.452],[-50.6572,-29.4223],[-50.6444,-29.4127],[-50.645,-29.3783],[-50.6819,-29.3622],[-50.6744,-29.3373],[-50.6921,-29.3229],[-50.7114,-29.3343],[-50.7439,-29.3273],[-50.7629,-29.3031],[-50.7615,-29.2773],[-50.7984,-29.2766],[-50.8159,-29.2581],[-50.8548,-29.2623],[-50.8597,-29.2487],[-50.8601,-29.2263],[-50.8342,-29.1786],[-50.8447,-29.1592],[-50.841,-29.1279],[-50.8753,-29.1169],[-50.9127,-29.1184],[-50.9026,-29.0989],[-50.9089,-29.0835],[-50.9392,-29.0812],[-50.9445,-29.0718],[-50.9101,-29.0752],[-50.8941,-29.0647],[-50.8604,-29.0646],[-50.8228,-29.0542],[-50.8138,-29.0284],[-50.7992,-29.0253],[-50.7826,-29],[-50.7861,-28.9785],[-50.8003,-28.9641],[-50.8137,-28.9697],[-50.8161,-28.9524],[-50.7874,-28.9415],[-50.8109,-28.93],[-50.8058,-28.9091],[-50.8202,-28.8935],[-50.7992,-28.8866],[-50.7945,-28.8746],[-50.8183,-28.869],[-50.8276,-28.8565],[-50.8196,-28.8375],[-50.8492,-28.8327],[-50.8464,-28.813],[-50.8155,-28.826],[-50.7876,-28.815],[-50.7984,-28.8002],[-50.7635,-28.7876],[-50.7563,-28.7721],[-50.7458,-28.7933],[-50.706,-28.7953]]]}},{"type":"Feature","properties":{"codarea":"4216503","centroide":[-50.01411040460193,-28.298047181917987],"codigo_ibge":4216503,"nome_ig":"Campos de Cima da Serra"},"geometry":{"type":"MultiPolygon","coordinates":[[[[-49.8489,-28.1027],[-49.8153,-28.1189],[-49.7914,-28.1111],[-49.7763,-28.1446],[-49.7591,-28.1524],[-49.7354,-28.1808],[-49.6849,-28.2125],[-49.6722,-28.2304],[-49.7113,-28.2212],[-49.7319,-28.2393],[-49.7556,-28.2491],[-49.7738,-28.285],[-49.774,-28.3312],[-49.7644,-28.3488],[-49.7831,-28.3656],[-49.8052,-28.3666],[-49.8068,-28.3852],[-49.7708,-28.3955],[-49.7696,-28.4135],[-49.7543,-28.418],[-49.7831,-28.429],[-49.8112,-28.4216],[-49.8311,-28.4252],[-49.8124,-28.4387],[-49.8031,-28.4568],[-49.8162,-28.469],[-49.8124,-28.4849],[-49.8666,-28.4886],[-49.8635,-28.4628],[-49.8777,-28.4551],[-49.8542,-28.4446],[-49.8984,-28.445],[-49.8888,-28.4594],[-49.9044,-28.4646],[-49.9285,-28.4512],[-49.9384,-28.4581],[-49.9284,-28.4714],[-49.9459,-28.4817],[-49.9522,-28.4507],[-49.9672,-28.4559],[-49.9707,-28.4402],[-49.9886,-28.4452],[-49.9885,-28.4569],[-50.0202,-28.4525],[-50.0271,-28.4742],[-50.0686,-28.4792],[-50.0863,-28.4726],[-50.1004,-28.4863],[-50.1069,-28.4733],[-50.1222,-28.4762],[-50.1265,-28.4627],[-50.1113,-28.4454],[-50.1275,-28.4403],[-50.1601,-28.4632],[-50.1393,-28.4932],[-50.1626,-28.4953],[-50.162,-28.4798],[-50.1784,-28.4518],[-50.2032,-28.4435],[-50.2158,-28.4603],[-50.2357,-28.457],[-50.2468,-28.4282],[-50.2642,-28.4429],[-50.2502,-28.447],[-50.2736,-28.457],[-50.3013,-28.4392],[-50.3389,-28.4387],[-50.3368,-28.4544],[-50.352,-28.4572],[-50.3509,-28.4248],[-50.3674,-28.4208],[-50.3811,-28.447],[-50.3968,-28.4327],[-50.4247,-28.4333],[-50.405,-28.4234],[-50.4067,-28.3951],[-50.3861,-28.3868],[-50.3777,-28.3723],[-50.3354,-28.3817],[-50.3352,-28.3662],[-50.2872,-28.3453],[-50.2787,-28.3488],[-50.2652,-28.3296],[-50.2785,-28.3228],[-50.2714,-28.3098],[-50.2309,-28.3016],[-50.2448,-28.2898],[-50.2456,-28.2572],[-50.2176,-28.2511],[-50.2293,-28.2431],[-50.2174,-28.233],[-50.2321,-28.2191],[-50.2167,-28.2069],[-50.1876,-28.2138],[-50.1673,-28.1988],[-50.1878,-28.1665],[-50.1728,-28.1618],[-50.1525,-28.1429],[-50.1436,-28.1525],[-50.1046,-28.1583],[-50.1146,-28.1358],[-50.0974,-28.1237],[-50.0594,-28.113],[-50.0728,-28.1013],[-50.0552,-28.094],[-50.0212,-28.1006],[-50.0128,-28.0878],[-49.9912,-28.1038],[-49.9257,-28.0955],[-49.9055,-28.1115],[-49.8982,-28.092],[-49.8821,-28.1096],[-49.8655,-28.0957],[-49.8489,-28.1027]]]]}},{"type":"Feature","properties":{"codarea":"4216800","centroide":[-50.65243886404153,-27.598159590317614],"codigo_ibge":4216800,"nome_ig":"Campos de Cima da Serra"},"geometry":{"type":"MultiPolygon","coordinates":[[[[-50.5696,-27.5043],[-50.5491,-27.5288],[-50.5237,-27.5838],[-50.537,-27.6065],[-50.5118,-27.5963],[-50.5063,-27.6207],[-50.5235,-27.6319],[-50.4958,-27.6281],[-50.4842,-27.6537],[-50.4273,-27.6817],[-50.4377,-27.6949],[-50.4306,-27.712],[-50.4117,-27.7068],[-50.3948,-27.7254],[-50.3945,-27.7497],[-50.4337,-27.773],[-50.4956,-27.7686],[-50.5122,-27.7867],[-50.5451,-27.7638],[-50.5565,-27.7496],[-50.5428,-27.7345],[-50.5545,-27.7241],[-50.5829,-27.7282],[-50.5748,-27.7152],[-50.5953,-27.7083],[-50.6052,-27.7287],[-50.6413,-27.7143],[-50.6529,-27.7267],[-50.6637,-27.7096],[-50.6775,-27.7151],[-50.7059,-27.6855],[-50.697,-27.6693],[-50.714,-27.6764],[-50.7265,-27.6645],[-50.7186,-27.6482],[-50.7583,-27.6378],[-50.756,-27.6233],[-50.7814,-27.6346],[-50.7998,-27.6145],[-50.8027,-27.599],[-50.8151,-27.6173],[-50.852,-27.6019],[-50.8752,-27.6015],[-50.8864,-27.6086],[-50.9014,-27.5734],[-50.9339,-27.5799],[-50.9349,-27.5707],[-50.9618,-27.5548],[-50.913,-27.5562],[-50.9155,-27.5398],[-50.9037,-27.5361],[-50.8969,-27.561],[-50.8865,-27.5356],[-50.8721,-27.5432],[-50.8507,-27.5098],[-50.8317,-27.5148],[-50.8263,-27.5032],[-50.8053,-27.496],[-50.8052,-27.4833],[-50.8314,-27.4782],[-50.8236,-27.4513],[-50.808,-27.4697],[-50.8068,-27.457],[-50.7866,-27.4596],[-50.7807,-27.4488],[-50.795,-27.4352],[-50.7826,-27.4302],[-50.7666,-27.44],[-50.7541,-27.4221],[-50.7504,-27.4492],[-50.7358,-27.4381],[-50.7132,-27.4497],[-50.7154,-27.4264],[-50.6893,-27.4268],[-50.6893,-27.4431],[-50.6763,-27.4376],[-50.6704,-27.4704],[-50.6488,-27.4524],[-50.6341,-27.4682],[-50.6347,-27.4537],[-50.6047,-27.4697],[-50.565,-27.4665],[-50.5757,-27.4864],[-50.5696,-27.5043]]]]}},{"type":"Feature","properties":{"codarea":"4318622","centroide":[-49.96163128378092,-28.648048476295294],"codigo_ibge":4318622,"nome_ig":"Campos de Cima da Serra"},"geometry":{"type":"Polygon","coordinates":[[[-49.8162,-28.469],[-49.7909,-28.4964],[-49.7805,-28.4712],[-49.7674,-28.4595],[-49.7654,-28.5012],[-49.7482,-28.4939],[-49.7465,-28.5068],[-49.7268,-28.5189],[-49.7467,-28.5353],[-49.7465,-28.5496],[-49.7305,-28.5515],[-49.725,-28.5708],[-49.7123,-28.5722],[-49.7101,-28.6043],[-49.6918,-28.619],[-49.7031,-28.6289],[-49.7043,-28.63],[-49.7159,-28.6237],[-49.7569,-28.6273],[-49.7569,-28.6155],[-49.7795,-28.6292],[-49.7825,-28.6098],[-49.798,-28.6176],[-49.819,-28.6428],[-49.8245,-28.6657],[-49.8386,-28.6658],[-49.834,-28.6932],[-49.8404,-28.7132],[-49.8463,-28.7044],[-49.8718,-28.7029],[-49.868,-28.7219],[-49.8891,-28.7457],[-49.8825,-28.7173],[-49.8971,-28.726],[-49.906,-28.7076],[-49.9346,-28.7256],[-49.9217,-28.7455],[-49.9444,-28.7519],[-49.9613,-28.7721],[-49.9647,-28.8283],[-49.9578,-28.8291],[-49.957,-28.8617],[-49.969,-28.877],[-49.9411,-28.8762],[-49.9508,-28.8934],[-49.9744,-28.902],[-50.0084,-28.8894],[-50.0145,-28.8689],[-50.0582,-28.8397],[-50.089,-28.8474],[-50.0863,-28.832],[-50.1281,-28.8205],[-50.1612,-28.8226],[-50.158,-28.836],[-50.1916,-28.8242],[-50.1936,-28.8399],[-50.2154,-28.8377],[-50.2118,-28.8229],[-50.1966,-28.7955],[-50.1946,-28.7708],[-50.1772,-28.7366],[-50.1587,-28.7122],[-50.1479,-28.713],[-50.128,-28.6902],[-50.1056,-28.6814],[-50.0978,-28.6685],[-50.1101,-28.6452],[-50.1006,-28.6384],[-50.0221,-28.6354],[-50.0373,-28.6196],[-50.0389,-28.5935],[-50.0255,-28.5728],[-50.0481,-28.5589],[-50.0646,-28.5113],[-50.0726,-28.508],[-50.0686,-28.4792],[-50.0271,-28.4742],[-50.0202,-28.4525],[-49.9885,-28.4569],[-49.9886,-28.4452],[-49.9707,-28.4402],[-49.9672,-28.4559],[-49.9522,-28.4507],[-49.9459,-28.4817],[-49.9284,-28.4714],[-49.9384,-28.4581],[-49.9285,-28.4512],[-49.9044,-28.4646],[-49.8888,-28.4594],[-49.8984,-28.445],[-49.8542,-28.4446],[-49.8777,-28.4551],[-49.8635,-28.4628],[-49.8666,-28.4886],[-49.8124,-28.4849],[-49.8162,-28.469]]]}},{"type":"Feature","properties":{"codarea":"4218905","centroide":[-49.576767430337796,-28.038123544343172],"codigo_ibge":4218905,"nome_ig":"Campos de Cima da Serra"},"geometry":{"type":"MultiPolygon","coordinates":[[[[-49.3,-27.9011],[-49.3086,-27.9403],[-49.3108,-27.9709],[-49.324,-27.9837],[-49.3499,-27.9958],[-49.3555,-28.0287],[-49.3719,-28.044],[-49.3732,-28.0659],[-49.3994,-28.0806],[-49.395,-28.1116],[-49.4366,-28.1173],[-49.4411,-28.1322],[-49.4742,-28.1344],[-49.4745,-28.1255],[-49.4796,-28.1187],[-49.5116,-28.1271],[-49.5453,-28.1251],[-49.5639,-28.1154],[-49.5775,-28.149],[-49.612,-28.1626],[-49.6444,-28.1644],[-49.6598,-28.1851],[-49.6695,-28.1848],[-49.6664,-28.2144],[-49.6722,-28.2304],[-49.6849,-28.2125],[-49.7354,-28.1808],[-49.7591,-28.1524],[-49.7763,-28.1446],[-49.7914,-28.1111],[-49.8153,-28.1189],[-49.8489,-28.1027],[-49.8223,-28.079],[-49.8138,-28.0586],[-49.7907,-28.0473],[-49.7708,-28.0245],[-49.7451,-28.0309],[-49.7163,-28.0284],[-49.7111,-28.0077],[-49.7151,-27.942],[-49.701,-27.9167],[-49.6525,-27.9065],[-49.6072,-27.9011],[-49.5791,-27.8985],[-49.5552,-27.9113],[-49.5188,-27.9146],[-49.493,-27.9314],[-49.4529,-27.9316],[-49.4411,-27.9431],[-49.428,-27.9352],[-49.4123,-27.9523],[-49.3808,-27.942],[-49.3607,-27.9237],[-49.33,-27.9236],[-49.3169,-27.9026],[-49.3,-27.9011]]]]}},{"type":"Feature","properties":{"codarea":"4218954","centroide":[-49.900447541624494,-28.023561372446387],"codigo_ibge":4218954,"nome_ig":"Campos de Cima da Serra"},"geometry":{"type":"MultiPolygon","coordinates":[[[[-49.7451,-28.0309],[-49.7708,-28.0245],[-49.7907,-28.0473],[-49.8138,-28.0586],[-49.8223,-28.079],[-49.8489,-28.1027],[-49.8655,-28.0957],[-49.8821,-28.1096],[-49.8982,-28.092],[-49.9055,-28.1115],[-49.9257,-28.0955],[-49.9912,-28.1038],[-50.0128,-28.0878],[-50.0212,-28.1006],[-50.0552,-28.094],[-50.0421,-28.0679],[-50.0156,-28.0699],[-50.0186,-28.0462],[-49.9985,-28.0322],[-50.0009,-28.004],[-49.9664,-27.9957],[-49.9639,-27.954],[-49.9442,-27.9501],[-49.9334,-27.936],[-49.8676,-27.9106],[-49.8431,-27.9387],[-49.8555,-27.9504],[-49.8207,-27.9712],[-49.8094,-27.9639],[-49.7931,-27.9929],[-49.7762,-27.9964],[-49.7451,-28.0309]]]]}},{"type":"Feature","properties":{"codarea":"4322509","centroide":[-50.923825616265276,-28.37063343476801],"codigo_ibge":4322509,"nome_ig":"Campos de Cima da Serra"},"geometry":{"type":"Polygon","coordinates":[[[-50.9783,-27.9482],[-50.9428,-27.9683],[-50.9239,-27.9716],[-50.9241,-28.0104],[-50.8896,-28.0229],[-50.8752,-28.0413],[-50.8858,-28.0717],[-50.9029,-28.0884],[-50.8759,-28.095],[-50.8691,-28.1164],[-50.8752,-28.1307],[-50.8589,-28.1397],[-50.8341,-28.1177],[-50.816,-28.1416],[-50.7847,-28.1439],[-50.792,-28.1551],[-50.7834,-28.1749],[-50.7888,-28.1983],[-50.7621,-28.1914],[-50.749,-28.2485],[-50.7622,-28.2624],[-50.7435,-28.2727],[-50.7645,-28.2894],[-50.7414,-28.2953],[-50.7387,-28.322],[-50.7128,-28.3301],[-50.7229,-28.338],[-50.7088,-28.3627],[-50.7218,-28.3884],[-50.7166,-28.3963],[-50.7208,-28.4638],[-50.7264,-28.5006],[-50.7382,-28.5103],[-50.7383,-28.5573],[-50.7266,-28.5997],[-50.7466,-28.5973],[-50.7725,-28.5833],[-50.7861,-28.5582],[-50.8284,-28.5533],[-50.8638,-28.5734],[-50.8711,-28.6086],[-50.8989,-28.6189],[-50.8897,-28.632],[-50.9029,-28.6392],[-50.9125,-28.6618],[-50.9006,-28.6839],[-50.8967,-28.7151],[-50.9058,-28.7113],[-50.8993,-28.7389],[-50.9173,-28.7399],[-50.9546,-28.7752],[-50.9578,-28.7908],[-50.9777,-28.7825],[-50.9801,-28.7606],[-50.9712,-28.7447],[-50.9929,-28.7439],[-51.0028,-28.7094],[-51.0206,-28.6827],[-51.002,-28.6778],[-51.0044,-28.6587],[-51.026,-28.6243],[-51.043,-28.6191],[-51.0757,-28.6238],[-51.1005,-28.575],[-51.1172,-28.5555],[-51.1327,-28.5679],[-51.1451,-28.5553],[-51.1527,-28.5649],[-51.1434,-28.5153],[-51.1229,-28.5069],[-51.133,-28.4928],[-51.1548,-28.4881],[-51.1564,-28.475],[-51.0904,-28.4588],[-51.0723,-28.4644],[-51.1028,-28.4084],[-51.0841,-28.4146],[-51.0644,-28.4015],[-51.048,-28.4058],[-51.0559,-28.3909],[-51.0375,-28.3764],[-51.0349,-28.3596],[-51.063,-28.3188],[-51.0871,-28.3087],[-51.0646,-28.2851],[-51.0619,-28.2538],[-51.0812,-28.2329],[-51.038,-28.2277],[-51.0111,-28.2058],[-51.0343,-28.2076],[-51.0624,-28.1837],[-51.0408,-28.1506],[-51.0349,-28.085],[-51.0429,-28.0665],[-51.0271,-28.0583],[-51.034,-28.0283],[-51.0112,-28.0027],[-50.9904,-27.9949],[-51.0015,-27.9631],[-50.9936,-27.946],[-50.9783,-27.9482]]]}}]}