{"type":"FeatureCollection","features":[{"type":"Feature","properties":{"codarea":"4300034","centroide":[-54.13898249791309,-31.690931946029146],"codigo_ibge":4300034,"nome_ig":"Campanha Gaúcha"},"geometry":{"type":"Polygon","coordinates":[[[-53.9576,-31.4938],[-53.9772,-31.5113],[-53.9917,-31.5384],[-53.9577,-31.6144],[-53.9675,-31.6567],[-53.9629,-31.704],[-53.9798,-31.75],[-53.9758,-31.7702],[-53.9512,-31.7707],[-53.9454,-31.7825],[-53.9157,-31.7902],[-53.9063,-31.8084],[-53.9283,-31.8059],[-53.9077,-31.8386],[-53.914,-31.8557],[-53.9311,-31.8746],[-53.9353,-31.9122],[-53.9524,-31.9198],[-53.9475,-31.9546],[-53.9709,-31.9432],[-53.9632,-31.9219],[-54.0043,-31.9146],[-54.0264,-31.8969],[-54.0516,-31.9041],[-54.0813,-31.9296],[-54.1014,-31.927],[-54.1055,-31.9123],[-54.1405,-31.8948],[-54.1554,-31.8761],[-54.4541,-31.6532],[-54.4379,-31.6541],[-54.4041,-31.6324],[-54.3753,-31.5932],[-54.336,-31.5894],[-54.313,-31.5536],[-54.2939,-31.5467],[-54.2748,-31.5102],[-54.2229,-31.5164],[-54.1862,-31.4876],[-54.1425,-31.4824],[-54.1133,-31.4298],[-54.0938,-31.4363],[-54.0938,-31.4473],[-54.0709,-31.4565],[-54.0693,-31.4717],[-54.0283,-31.5067],[-54.0412,-31.523],[-54.0144,-31.5376],[-53.9931,-31.5248],[-53.9576,-31.4938]]]}},{"type":"Feature","properties":{"codarea":"4300406","centroide":[-55.834922585485536,-29.764061725148505],"codigo_ibge":4300406,"nome_ig":"Campanha Gaúcha"},"geometry":{"type":"Polygon","coordinates":[[[-55.8501,-29.4112],[-55.8332,-29.4143],[-55.8292,-29.4288],[-55.7791,-29.4204],[-55.7717,-29.4334],[-55.7479,-29.4397],[-55.7423,-29.4504],[-55.7709,-29.4547],[-55.7572,-29.4727],[-55.7608,-29.4945],[-55.7406,-29.4936],[-55.7269,-29.4828],[-55.7304,-29.4632],[-55.7169,-29.4622],[-55.7109,-29.4944],[-55.6889,-29.4934],[-55.6892,-29.5216],[-55.6711,-29.5134],[-55.6594,-29.537],[-55.6899,-29.5491],[-55.6915,-29.5644],[-55.6745,-29.5523],[-55.6575,-29.56],[-55.6257,-29.5612],[-55.613,-29.5796],[-55.5475,-29.6028],[-55.5515,-29.6176],[-55.5345,-29.6292],[-55.5396,-29.6622],[-55.4877,-29.6554],[-55.4693,-29.6472],[-55.4409,-29.6615],[-55.4132,-29.6605],[-55.411,-29.6201],[-55.3781,-29.6148],[-55.3555,-29.62],[-55.3262,-29.6422],[-55.2928,-29.6306],[-55.2752,-29.6172],[-55.2434,-29.6203],[-55.2328,-29.635],[-55.2125,-29.6361],[-55.2128,-29.651],[-55.1958,-29.6659],[-55.1916,-29.6967],[-55.1426,-29.6956],[-55.1256,-29.7009],[-55.1267,-29.7518],[-55.1208,-29.7685],[-55.1114,-29.8004],[-55.1244,-29.8206],[-55.1493,-29.8271],[-55.1405,-29.8522],[-55.1519,-29.8555],[-55.1518,-29.8752],[-55.1632,-29.8743],[-55.1935,-29.9143],[-55.2291,-29.9281],[-55.2446,-29.9872],[-55.2673,-30.0164],[-55.2693,-30.039],[-55.3131,-30.0809],[-55.3842,-30.0746],[-55.4126,-30.0882],[-55.4432,-30.0929],[-55.466,-30.0737],[-55.501,-30.1051],[-55.5067,-30.1422],[-55.5384,-30.1632],[-55.5751,-30.1499],[-55.6061,-30.1443],[-55.6611,-30.1032],[-55.6715,-30.1036],[-55.6758,-30.123],[-55.6507,-30.1497],[-55.6726,-30.1763],[-55.6517,-30.1799],[-55.6739,-30.1981],[-55.6435,-30.2125],[-55.6519,-30.2307],[-55.6757,-30.2263],[-55.7209,-30.2328],[-55.7451,-30.2309],[-55.768,-30.1685],[-55.7972,-30.172],[-55.8569,-30.137],[-55.8725,-30.1351],[-55.8785,-30.099],[-55.8744,-30.0687],[-55.9,-30.085],[-55.9876,-30.0954],[-56.03,-30.0715],[-56.0432,-30.0479],[-56.0825,-30.0792],[-56.1211,-30.0801],[-56.1502,-30.055],[-56.1555,-30.0325],[-56.1845,-30.0014],[-56.2447,-29.9765],[-56.2472,-29.9581],[-56.2782,-29.9318],[-56.2926,-29.8979],[-56.3161,-29.8594],[-56.351,-29.8486],[-56.3721,-29.8098],[-56.3662,-29.7838],[-56.3713,-29.7443],[-56.3948,-29.7223],[-56.4002,-29.6934],[-56.3617,-29.6701],[-56.3668,-29.6406],[-56.3829,-29.6257],[-56.3762,-29.5957],[-56.4094,-29.5682],[-56.423,-29.543],[-56.461,-29.5285],[-56.4682,-29.5046],[-56.463,-29.4828],[-56.4827,-29.4662],[-56.5118,-29.4772],[-56.5362,-29.4542],[-56.5757,-29.4408],[-56.613,-29.4553],[-56.6272,-29.4411],[-56.6256,-29.4264],[-56.6604,-29.4233],[-56.6345,-29.417],[-56.6069,-29.4223],[-56.6058,-29.3915],[-56.5933,-29.405],[-56.5712,-29.3925],[-56.5255,-29.3958],[-56.5097,-29.3883],[-56.4817,-29.3933],[-56.4784,-29.4089],[-56.4605,-29.4204],[-56.43,-29.4273],[-56.3738,-29.4088],[-56.3635,-29.3977],[-56.2966,-29.4167],[-56.2564,-29.3997],[-56.2198,-29.4001],[-56.2078,-29.3846],[-56.178,-29.3772],[-56.1758,-29.3466],[-56.1819,-29.3221],[-56.1704,-29.3109],[-56.1491,-29.3147],[-56.1334,-29.3271],[-56.1222,-29.357],[-56.0948,-29.3697],[-56.0775,-29.3553],[-56.0777,-29.3321],[-56.0546,-29.32],[-56.0496,-29.2973],[-56.0378,-29.2959],[-55.9983,-29.335],[-55.9792,-29.3409],[-55.9556,-29.3619],[-55.9357,-29.3515],[-55.911,-29.3537],[-55.919,-29.3724],[-55.9088,-29.3879],[-55.8656,-29.4226],[-55.8501,-29.4112]]]}},{"type":"Feature","properties":{"codarea":"4301602","centroide":[-54.01653957287832,-31.23693968080685],"codigo_ibge":4301602,"nome_ig":"Campanha Gaúcha"},"geometry":{"type":"Polygon","coordinates":[[[-53.4431,-30.9641],[-53.438,-30.992],[-53.4578,-30.994],[-53.4508,-31.0049],[-53.4843,-31.038],[-53.475,-31.0586],[-53.4895,-31.0772],[-53.4804,-31.1136],[-53.499,-31.1321],[-53.4888,-31.1538],[-53.5216,-31.1765],[-53.5048,-31.1795],[-53.5172,-31.2034],[-53.5335,-31.2516],[-53.5363,-31.2392],[-53.5547,-31.2368],[-53.5687,-31.2721],[-53.6056,-31.2848],[-53.6064,-31.3116],[-53.6249,-31.3189],[-53.617,-31.329],[-53.6507,-31.3381],[-53.6727,-31.3304],[-53.6862,-31.337],[-53.719,-31.3267],[-53.7404,-31.3291],[-53.7652,-31.3121],[-53.7336,-31.2388],[-53.7746,-31.2321],[-53.8195,-31.2436],[-53.8619,-31.2205],[-53.9035,-31.2279],[-53.931,-31.2468],[-53.958,-31.2506],[-53.9842,-31.2619],[-53.9964,-31.2802],[-53.9977,-31.3001],[-54.0126,-31.3141],[-53.9543,-31.346],[-53.9868,-31.378],[-53.999,-31.3793],[-53.9662,-31.4013],[-53.96,-31.4206],[-53.923,-31.4522],[-53.9367,-31.4783],[-53.9576,-31.4938],[-53.9931,-31.5248],[-54.0144,-31.5376],[-54.0412,-31.523],[-54.0283,-31.5067],[-54.0693,-31.4717],[-54.0709,-31.4565],[-54.0938,-31.4473],[-54.0938,-31.4363],[-54.1133,-31.4298],[-54.1425,-31.4824],[-54.1862,-31.4876],[-54.2229,-31.5164],[-54.2748,-31.5102],[-54.2939,-31.5467],[-54.313,-31.5536],[-54.336,-31.5894],[-54.3753,-31.5932],[-54.4041,-31.6324],[-54.4379,-31.6541],[-54.4541,-31.6532],[-54.4536,-31.6299],[-54.4657,-31.61],[-54.4729,-31.5703],[-54.4901,-31.5519],[-54.5156,-31.5101],[-54.5774,-31.481],[-54.5868,-31.4565],[-54.6703,-31.454],[-54.7012,-31.4356],[-54.6498,-31.3956],[-54.6478,-31.3754],[-54.6308,-31.3574],[-54.5871,-31.3701],[-54.5633,-31.3685],[-54.5563,-31.3438],[-54.5042,-31.3082],[-54.4504,-31.3003],[-54.423,-31.3013],[-54.4068,-31.2654],[-54.4054,-31.2323],[-54.3738,-31.2133],[-54.3654,-31.1996],[-54.3196,-31.1874],[-54.3123,-31.1609],[-54.2658,-31.1614],[-54.2147,-31.1495],[-54.1694,-31.1429],[-54.1675,-31.1589],[-54.1461,-31.1614],[-54.1204,-31.1405],[-54.1049,-31.1406],[-54.0936,-31.1264],[-54.0971,-31.1072],[-54.0771,-31.0931],[-54.039,-31.0811],[-54.0258,-31.0671],[-53.9755,-31.042],[-53.9534,-31.0402],[-53.9583,-31.0201],[-53.9366,-31.0328],[-53.925,-31.0144],[-53.946,-31.0002],[-53.9417,-30.9811],[-53.9149,-30.9651],[-53.9348,-30.964],[-53.9234,-30.9398],[-53.8948,-30.9453],[-53.8696,-30.9251],[-53.8872,-30.9169],[-53.8411,-30.9157],[-53.8267,-30.9052],[-53.7945,-30.9093],[-53.7828,-30.8903],[-53.738,-30.8699],[-53.7207,-30.875],[-53.6986,-30.8526],[-53.6666,-30.8517],[-53.6672,-30.8427],[-53.6522,-30.8405],[-53.6604,-30.8714],[-53.61,-30.8635],[-53.6006,-30.8576],[-53.5986,-30.8866],[-53.6098,-30.8976],[-53.588,-30.8966],[-53.6015,-30.9189],[-53.59,-30.9247],[-53.5738,-30.908],[-53.5662,-30.9296],[-53.5428,-30.9273],[-53.5572,-30.9422],[-53.5261,-30.9519],[-53.5218,-30.9351],[-53.5017,-30.9408],[-53.4967,-30.9614],[-53.482,-30.9673],[-53.4639,-30.9544],[-53.4431,-30.9641]]]}},{"type":"Feature","properties":{"codarea":"4301875","centroide":[-57.33591801754181,-30.15165994546718],"codigo_ibge":4301875,"nome_ig":"Campanha Gaúcha"},"geometry":{"type":"Polygon","coordinates":[[[-57.1152,-30.1136],[-57.1057,-30.1351],[-57.1291,-30.1408],[-57.1447,-30.1716],[-57.1672,-30.1963],[-57.1593,-30.2398],[-57.1962,-30.2645],[-57.2042,-30.2851],[-57.25,-30.2891],[-57.2585,-30.2671],[-57.2845,-30.2937],[-57.3113,-30.2581],[-57.3195,-30.2697],[-57.352,-30.2844],[-57.3649,-30.271],[-57.3787,-30.2794],[-57.3894,-30.3024],[-57.4185,-30.3026],[-57.4164,-30.2779],[-57.4522,-30.276],[-57.466,-30.2651],[-57.49,-30.269],[-57.5002,-30.2888],[-57.5254,-30.2854],[-57.5508,-30.2726],[-57.5679,-30.2522],[-57.5578,-30.2133],[-57.6033,-30.1896],[-57.6263,-30.1866],[-57.6451,-30.1936],[-57.6396,-30.1767],[-57.588,-30.1783],[-57.5256,-30.1513],[-57.4646,-30.1103],[-57.4537,-30.0815],[-57.4175,-30.0383],[-57.3963,-30.0227],[-57.3519,-30.008],[-57.3281,-29.9719],[-57.3064,-29.9533],[-57.2827,-29.9517],[-57.2573,-29.9783],[-57.2418,-30.006],[-57.167,-30.0577],[-57.1361,-30.0644],[-57.134,-30.0882],[-57.1152,-30.1136]]]}},{"type":"Feature","properties":{"codarea":"4304358","centroide":[-53.745548902166355,-31.55494201335736],"codigo_ibge":4304358,"nome_ig":"Campanha Gaúcha"},"geometry":{"type":"Polygon","coordinates":[[[-53.6507,-31.3381],[-53.6257,-31.3642],[-53.6155,-31.3852],[-53.5613,-31.3916],[-53.573,-31.4424],[-53.6015,-31.4605],[-53.6037,-31.4741],[-53.5878,-31.4929],[-53.585,-31.5254],[-53.5762,-31.5351],[-53.5993,-31.5724],[-53.5873,-31.5809],[-53.6227,-31.6049],[-53.6344,-31.6074],[-53.6687,-31.5914],[-53.6841,-31.5933],[-53.6873,-31.6188],[-53.7074,-31.6291],[-53.6986,-31.6477],[-53.7401,-31.652],[-53.7612,-31.6441],[-53.7718,-31.6506],[-53.7633,-31.7389],[-53.7993,-31.761],[-53.8,-31.7874],[-53.809,-31.8056],[-53.8361,-31.8284],[-53.8461,-31.8247],[-53.8789,-31.8489],[-53.914,-31.8557],[-53.9077,-31.8386],[-53.9283,-31.8059],[-53.9063,-31.8084],[-53.9248,-31.7737],[-53.8998,-31.7353],[-53.9032,-31.7256],[-53.8889,-31.6939],[-53.8896,-31.6659],[-53.8808,-31.6623],[-53.8615,-31.6299],[-53.8492,-31.6251],[-53.8375,-31.5881],[-53.8391,-31.5511],[-53.8269,-31.5461],[-53.825,-31.4958],[-53.8301,-31.4679],[-53.8057,-31.4628],[-53.7812,-31.4385],[-53.8009,-31.3739],[-53.7911,-31.3439],[-53.7776,-31.3363],[-53.7652,-31.3121],[-53.7404,-31.3291],[-53.719,-31.3267],[-53.6862,-31.337],[-53.6727,-31.3304],[-53.6507,-31.3381]]]}},{"type":"Feature","properties":{"codarea":"4306601","centroide":[-54.66474595998741,-31.056893648617272],"codigo_ibge":4306601,"nome_ig":"Campanha Gaúcha"},"geometry":{"type":"Polygon","coordinates":[[[-54.6896,-30.6286],[-54.6736,-30.645],[-54.6712,-30.6609],[-54.696,-30.6827],[-54.6792,-30.6937],[-54.6961,-30.7085],[-54.723,-30.7132],[-54.7107,-30.7291],[-54.7206,-30.7348],[-54.7087,-30.7591],[-54.6857,-30.7518],[-54.6713,-30.7711],[-54.6605,-30.7667],[-54.6292,-30.7872],[-54.6013,-30.7829],[-54.5797,-30.807],[-54.558,-30.815],[-54.5452,-30.8372],[-54.5356,-30.8717],[-54.5154,-30.8647],[-54.4838,-30.8871],[-54.4672,-30.8752],[-54.4348,-30.874],[-54.4459,-30.881],[-54.3892,-30.8944],[-54.3769,-30.8813],[-54.3678,-30.8975],[-54.3497,-30.8893],[-54.3487,-30.9074],[-54.2801,-30.9248],[-54.2586,-30.9378],[-54.2376,-30.9297],[-54.2259,-30.9423],[-54.1912,-30.9479],[-54.1645,-30.9591],[-54.1399,-30.9789],[-54.1189,-30.9813],[-54.0864,-30.9532],[-54.061,-30.9653],[-54.0345,-30.9626],[-53.9884,-30.9888],[-53.9566,-30.978],[-53.9417,-30.9811],[-53.946,-31.0002],[-53.925,-31.0144],[-53.9366,-31.0328],[-53.9583,-31.0201],[-53.9534,-31.0402],[-53.9755,-31.042],[-54.0258,-31.0671],[-54.039,-31.0811],[-54.0771,-31.0931],[-54.0971,-31.1072],[-54.0936,-31.1264],[-54.1049,-31.1406],[-54.1204,-31.1405],[-54.1461,-31.1614],[-54.1675,-31.1589],[-54.1694,-31.1429],[-54.2147,-31.1495],[-54.2658,-31.1614],[-54.3123,-31.1609],[-54.3196,-31.1874],[-54.3654,-31.1996],[-54.3738,-31.2133],[-54.4054,-31.2323],[-54.4068,-31.2654],[-54.423,-31.3013],[-54.4504,-31.3003],[-54.5042,-31.3082],[-54.5563,-31.3438],[-54.5633,-31.3685],[-54.5871,-31.3701],[-54.6308,-31.3574],[-54.6478,-31.3754],[-54.6498,-31.3956],[-54.7012,-31.4356],[-54.752,-31.4244],[-54.7893,-31.4348],[-54.7965,-31.43],[-54.8364,-31.4419],[-54.8615,-31.4179],[-54.8579,-31.408],[-54.8782,-31.3981],[-54.8859,-31.3772],[-54.9324,-31.385],[-54.9386,-31.354],[-54.9592,-31.3524],[-54.9577,-31.3244],[-54.9828,-31.3113],[-54.9856,-31.2924],[-55.0024,-31.2692],[-55.0318,-31.2697],[-55.0357,-31.2839],[-55.08,-31.2105],[-55.0677,-31.1593],[-55.0948,-31.1193],[-55.0908,-31.0986],[-55.0994,-31.0876],[-55.1176,-31.0083],[-55.1454,-30.985],[-55.1274,-30.9411],[-55.1107,-30.9324],[-55.107,-30.9124],[-55.0649,-30.8962],[-55.0399,-30.8767],[-55.0294,-30.8531],[-55.0399,-30.7935],[-55.0243,-30.7781],[-55.0311,-30.7614],[-55.0113,-30.7242],[-54.9734,-30.7339],[-54.9258,-30.7193],[-54.8478,-30.7356],[-54.8107,-30.7141],[-54.7994,-30.701],[-54.7786,-30.6948],[-54.7729,-30.6635],[-54.7233,-30.617],[-54.7243,-30.5996],[-54.7035,-30.5986],[-54.6873,-30.6177],[-54.6896,-30.6286]]]}},{"type":"Feature","properties":{"codarea":"4309654","centroide":[-53.889414739568,-31.448314015763273],"codigo_ibge":4309654,"nome_ig":"Campanha Gaúcha"},"geometry":{"type":"Polygon","coordinates":[[[-53.7652,-31.3121],[-53.7776,-31.3363],[-53.7911,-31.3439],[-53.8009,-31.3739],[-53.7812,-31.4385],[-53.8057,-31.4628],[-53.8301,-31.4679],[-53.825,-31.4958],[-53.8269,-31.5461],[-53.8391,-31.5511],[-53.8375,-31.5881],[-53.8492,-31.6251],[-53.8615,-31.6299],[-53.8808,-31.6623],[-53.8896,-31.6659],[-53.8889,-31.6939],[-53.9032,-31.7256],[-53.8998,-31.7353],[-53.9248,-31.7737],[-53.9063,-31.8084],[-53.9157,-31.7902],[-53.9454,-31.7825],[-53.9512,-31.7707],[-53.9758,-31.7702],[-53.9798,-31.75],[-53.9629,-31.704],[-53.9675,-31.6567],[-53.9577,-31.6144],[-53.9917,-31.5384],[-53.9772,-31.5113],[-53.9576,-31.4938],[-53.9367,-31.4783],[-53.923,-31.4522],[-53.96,-31.4206],[-53.9662,-31.4013],[-53.999,-31.3793],[-53.9868,-31.378],[-53.9543,-31.346],[-54.0126,-31.3141],[-53.9977,-31.3001],[-53.9964,-31.2802],[-53.9842,-31.2619],[-53.958,-31.2506],[-53.931,-31.2468],[-53.9035,-31.2279],[-53.8619,-31.2205],[-53.8195,-31.2436],[-53.7746,-31.2321],[-53.7336,-31.2388],[-53.7652,-31.3121]]]}},{"type":"Feature","properties":{"codarea":"4310603","centroide":[-56.17503208069527,-29.21365563314831],"codigo_ibge":4310603,"nome_ig":"Campanha Gaúcha"},"geometry":{"type":"Polygon","coordinates":[[[-56.0815,-28.8566],[-56.097,-28.9197],[-56.1876,-29.0142],[-56.2687,-29.0951],[-56.2612,-29.1089],[-56.1797,-29.1335],[-56.1838,-29.1542],[-56.1711,-29.1607],[-56.1117,-29.1529],[-56.0508,-29.1499],[-55.9123,-29.1563],[-55.8549,-29.1369],[-55.8088,-29.1276],[-55.7309,-29.1234],[-55.6925,-29.1079],[-55.6471,-29.1079],[-55.6271,-29.0933],[-55.5765,-29.0943],[-55.5323,-29.0719],[-55.5081,-29.1033],[-55.477,-29.1706],[-55.4803,-29.1985],[-55.5417,-29.1968],[-55.5594,-29.2038],[-55.5685,-29.2236],[-55.587,-29.2124],[-55.6418,-29.2464],[-55.6451,-29.2769],[-55.6701,-29.278],[-55.6732,-29.2891],[-55.6937,-29.2857],[-55.6978,-29.3032],[-55.7363,-29.3369],[-55.7567,-29.328],[-55.7725,-29.3421],[-55.7986,-29.3446],[-55.8005,-29.3621],[-55.8254,-29.3646],[-55.8139,-29.3895],[-55.8461,-29.3969],[-55.8501,-29.4112],[-55.8656,-29.4226],[-55.9088,-29.3879],[-55.919,-29.3724],[-55.911,-29.3537],[-55.9357,-29.3515],[-55.9556,-29.3619],[-55.9792,-29.3409],[-55.9983,-29.335],[-56.0378,-29.2959],[-56.0496,-29.2973],[-56.0546,-29.32],[-56.0777,-29.3321],[-56.0775,-29.3553],[-56.0948,-29.3697],[-56.1222,-29.357],[-56.1334,-29.3271],[-56.1491,-29.3147],[-56.1704,-29.3109],[-56.1819,-29.3221],[-56.1758,-29.3466],[-56.178,-29.3772],[-56.2078,-29.3846],[-56.2198,-29.4001],[-56.2564,-29.3997],[-56.2966,-29.4167],[-56.3635,-29.3977],[-56.3738,-29.4088],[-56.43,-29.4273],[-56.4605,-29.4204],[-56.4784,-29.4089],[-56.4817,-29.3933],[-56.5097,-29.3883],[-56.5255,-29.3958],[-56.5712,-29.3925],[-56.5933,-29.405],[-56.6058,-29.3915],[-56.6069,-29.4223],[-56.6345,-29.417],[-56.6604,-29.4233],[-56.6744,-29.4235],[-56.6819,-29.4065],[-56.7031,-29.4001],[-56.7799,-29.4199],[-56.7731,-29.3869],[-56.7587,-29.3709],[-56.7129,-29.3673],[-56.6999,-29.3564],[-56.6645,-29.2949],[-56.6492,-29.2549],[-56.6547,-29.2237],[-56.6458,-29.2002],[-56.6169,-29.171],[-56.5887,-29.1198],[-56.5501,-29.1166],[-56.503,-29.0886],[-56.4304,-29.0795],[-56.4131,-29.0619],[-56.3991,-29.0173],[-56.4161,-29.0007],[-56.4063,-28.9725],[-56.3789,-28.948],[-56.3441,-28.94],[-56.3232,-28.9247],[-56.2978,-28.9298],[-56.2815,-28.9429],[-56.2706,-28.9354],[-56.2318,-28.9375],[-56.2098,-28.9272],[-56.1966,-28.8982],[-56.1787,-28.9009],[-56.1793,-28.8875],[-56.1601,-28.8627],[-56.1321,-28.8663],[-56.1033,-28.849],[-56.0815,-28.8566]]]}},{"type":"Feature","properties":{"codarea":"4311502","centroide":[-54.152835246517476,-30.771728813559154],"codigo_ibge":4311502,"nome_ig":"Campanha Gaúcha"},"geometry":{"type":"Polygon","coordinates":[[[-53.8453,-30.4835],[-53.8188,-30.519],[-53.7657,-30.5197],[-53.7451,-30.5137],[-53.7489,-30.5331],[-53.7389,-30.5417],[-53.7382,-30.5699],[-53.7538,-30.5776],[-53.7727,-30.606],[-53.7748,-30.6202],[-53.8037,-30.6329],[-53.7947,-30.6712],[-53.7972,-30.7056],[-53.8114,-30.7089],[-53.8038,-30.7291],[-53.8209,-30.7514],[-53.8035,-30.7653],[-53.8051,-30.7879],[-53.7854,-30.7999],[-53.7684,-30.7978],[-53.7629,-30.7788],[-53.7472,-30.7726],[-53.7071,-30.801],[-53.6998,-30.8163],[-53.6672,-30.8427],[-53.6666,-30.8517],[-53.6986,-30.8526],[-53.7207,-30.875],[-53.738,-30.8699],[-53.7828,-30.8903],[-53.7945,-30.9093],[-53.8267,-30.9052],[-53.8411,-30.9157],[-53.8872,-30.9169],[-53.8696,-30.9251],[-53.8948,-30.9453],[-53.9234,-30.9398],[-53.9348,-30.964],[-53.9149,-30.9651],[-53.9417,-30.9811],[-53.9566,-30.978],[-53.9884,-30.9888],[-54.0345,-30.9626],[-54.061,-30.9653],[-54.0864,-30.9532],[-54.1189,-30.9813],[-54.1399,-30.9789],[-54.1645,-30.9591],[-54.1912,-30.9479],[-54.2259,-30.9423],[-54.2376,-30.9297],[-54.2586,-30.9378],[-54.2801,-30.9248],[-54.3487,-30.9074],[-54.3497,-30.8893],[-54.3678,-30.8975],[-54.3769,-30.8813],[-54.3892,-30.8944],[-54.4459,-30.881],[-54.4348,-30.874],[-54.4672,-30.8752],[-54.4838,-30.8871],[-54.5154,-30.8647],[-54.5356,-30.8717],[-54.5452,-30.8372],[-54.558,-30.815],[-54.5797,-30.807],[-54.6013,-30.7829],[-54.6292,-30.7872],[-54.6605,-30.7667],[-54.6713,-30.7711],[-54.6857,-30.7518],[-54.7087,-30.7591],[-54.7206,-30.7348],[-54.7107,-30.7291],[-54.723,-30.7132],[-54.6961,-30.7085],[-54.6792,-30.6937],[-54.696,-30.6827],[-54.6712,-30.6609],[-54.6736,-30.645],[-54.6896,-30.6286],[-54.6757,-30.605],[-54.603,-30.6225],[-54.5805,-30.6117],[-54.5477,-30.6215],[-54.5266,-30.614],[-54.504,-30.6313],[-54.4558,-30.6207],[-54.439,-30.6228],[-54.4145,-30.6399],[-54.4099,-30.6548],[-54.3745,-30.682],[-54.3566,-30.703],[-54.3522,-30.7309],[-54.33,-30.7351],[-54.322,-30.7187],[-54.3082,-30.7312],[-54.2788,-30.7301],[-54.2477,-30.7499],[-54.2324,-30.7431],[-54.2138,-30.7579],[-54.1943,-30.7585],[-54.1573,-30.7778],[-54.1425,-30.7618],[-54.1453,-30.7349],[-54.1366,-30.7106],[-54.0584,-30.6869],[-54.0376,-30.7001],[-54.0181,-30.6934],[-54.0127,-30.6631],[-54.0025,-30.6481],[-53.9812,-30.6394],[-53.9865,-30.6162],[-53.9624,-30.59],[-53.9344,-30.5744],[-53.9206,-30.5479],[-53.882,-30.5163],[-53.8872,-30.4971],[-53.8588,-30.4762],[-53.8453,-30.4835]]]}},{"type":"Feature","properties":{"codarea":"4311718","centroide":[-55.774760695077745,-29.065830222662562],"codigo_ibge":4311718,"nome_ig":"Campanha Gaúcha"},"geometry":{"type":"Polygon","coordinates":[[[-55.2929,-28.9915],[-55.279,-29.0101],[-55.2704,-29.0405],[-55.246,-29.056],[-55.2728,-29.057],[-55.274,-29.0895],[-55.2854,-29.1048],[-55.2695,-29.1214],[-55.2683,-29.1425],[-55.2831,-29.1749],[-55.2791,-29.1821],[-55.3001,-29.2025],[-55.3125,-29.2047],[-55.3163,-29.2156],[-55.3448,-29.2211],[-55.3437,-29.2077],[-55.3618,-29.2068],[-55.367,-29.2309],[-55.4018,-29.2341],[-55.3931,-29.2075],[-55.4236,-29.2139],[-55.4481,-29.2057],[-55.4591,-29.2151],[-55.4622,-29.1993],[-55.4803,-29.1985],[-55.477,-29.1706],[-55.5081,-29.1033],[-55.5323,-29.0719],[-55.5765,-29.0943],[-55.6271,-29.0933],[-55.6471,-29.1079],[-55.6925,-29.1079],[-55.7309,-29.1234],[-55.8088,-29.1276],[-55.8549,-29.1369],[-55.9123,-29.1563],[-56.0508,-29.1499],[-56.1117,-29.1529],[-56.1711,-29.1607],[-56.1838,-29.1542],[-56.1797,-29.1335],[-56.2612,-29.1089],[-56.2687,-29.0951],[-56.1876,-29.0142],[-56.097,-28.9197],[-56.0815,-28.8566],[-56.055,-28.8916],[-56.0668,-28.9113],[-56.0518,-28.9189],[-56.0214,-28.9169],[-55.9952,-28.9444],[-55.966,-28.9431],[-55.9141,-28.9485],[-55.8601,-28.9691],[-55.8508,-28.9649],[-55.8178,-28.9927],[-55.7731,-28.9803],[-55.7666,-28.9857],[-55.7262,-28.9822],[-55.7184,-28.9984],[-55.6957,-29.0022],[-55.67,-29.0199],[-55.6231,-29.0082],[-55.5843,-29.0195],[-55.5748,-29.0051],[-55.5236,-29.0051],[-55.5046,-29.0006],[-55.4915,-29.0548],[-55.4652,-29.0822],[-55.4125,-29.0474],[-55.3931,-29.0003],[-55.3746,-28.9891],[-55.3856,-28.976],[-55.3732,-28.9718],[-55.3183,-28.9924],[-55.2929,-28.9915]]]}},{"type":"Feature","properties":{"codarea":"4315305","centroide":[-56.15181513523692,-30.27971034182092],"codigo_ibge":4315305,"nome_ig":"Campanha Gaúcha"},"geometry":{"type":"Polygon","coordinates":[[[-55.6757,-30.2263],[-55.6592,-30.2463],[-55.6903,-30.2569],[-55.6732,-30.2795],[-55.6832,-30.287],[-55.6596,-30.3065],[-55.6765,-30.3195],[-55.6726,-30.352],[-55.6863,-30.3565],[-55.6875,-30.3779],[-55.677,-30.3872],[-55.7088,-30.4067],[-55.7452,-30.3967],[-55.7678,-30.3979],[-55.7709,-30.4088],[-55.8109,-30.4256],[-55.8627,-30.4339],[-55.9425,-30.4238],[-56.0245,-30.4425],[-56.0645,-30.4374],[-56.087,-30.4532],[-56.1295,-30.4567],[-56.1543,-30.4693],[-56.173,-30.4677],[-56.1828,-30.4829],[-56.2185,-30.4958],[-56.2348,-30.5103],[-56.2451,-30.5025],[-56.2579,-30.5257],[-56.2898,-30.5322],[-56.2906,-30.5219],[-56.3114,-30.5312],[-56.3312,-30.5293],[-56.3362,-30.5108],[-56.3571,-30.4916],[-56.378,-30.5014],[-56.3955,-30.4848],[-56.4177,-30.431],[-56.4399,-30.4325],[-56.4534,-30.4207],[-56.4445,-30.4116],[-56.4621,-30.3844],[-56.4913,-30.3981],[-56.5194,-30.3598],[-56.5469,-30.3582],[-56.5519,-30.3441],[-56.537,-30.3341],[-56.5409,-30.3146],[-56.5557,-30.3203],[-56.5765,-30.3022],[-56.5743,-30.2913],[-56.6209,-30.293],[-56.6072,-30.2813],[-56.6159,-30.2615],[-56.6275,-30.2668],[-56.6404,-30.2554],[-56.6249,-30.2454],[-56.652,-30.2195],[-56.6581,-30.2012],[-56.6508,-30.1883],[-56.6252,-30.183],[-56.6139,-30.1584],[-56.6001,-30.148],[-56.5621,-30.1455],[-56.5467,-30.1343],[-56.5127,-30.159],[-56.5005,-30.1475],[-56.4821,-30.1504],[-56.4396,-30.1369],[-56.4336,-30.1248],[-56.4059,-30.1162],[-56.3584,-30.113],[-56.3205,-30.1201],[-56.2804,-30.1144],[-56.2309,-30.0917],[-56.1818,-30.0859],[-56.1502,-30.055],[-56.1211,-30.0801],[-56.0825,-30.0792],[-56.0432,-30.0479],[-56.03,-30.0715],[-55.9876,-30.0954],[-55.9,-30.085],[-55.8744,-30.0687],[-55.8785,-30.099],[-55.8725,-30.1351],[-55.8569,-30.137],[-55.7972,-30.172],[-55.768,-30.1685],[-55.7451,-30.2309],[-55.7209,-30.2328],[-55.6757,-30.2263]]]}},{"type":"Feature","properties":{"codarea":"4316402","centroide":[-55.11004222685474,-30.325488155371023],"codigo_ibge":4316402,"nome_ig":"Campanha Gaúcha"},"geometry":{"type":"Polygon","coordinates":[[[-54.7022,-30.0294],[-54.6995,-30.0557],[-54.6696,-30.0969],[-54.6551,-30.1086],[-54.6313,-30.1069],[-54.6279,-30.1205],[-54.6488,-30.1518],[-54.6637,-30.154],[-54.6672,-30.1747],[-54.6915,-30.2002],[-54.6909,-30.2136],[-54.675,-30.2247],[-54.698,-30.2719],[-54.727,-30.2927],[-54.8131,-30.2684],[-54.8719,-30.2703],[-54.8628,-30.294],[-54.8368,-30.3135],[-54.8292,-30.3299],[-54.8034,-30.324],[-54.8079,-30.3376],[-54.784,-30.3505],[-54.7841,-30.3747],[-54.794,-30.3862],[-54.7782,-30.3898],[-54.7688,-30.4165],[-54.7587,-30.4136],[-54.7373,-30.4292],[-54.7447,-30.4484],[-54.7128,-30.4651],[-54.7192,-30.4961],[-54.7111,-30.5008],[-54.7468,-30.5125],[-54.7352,-30.5307],[-54.7347,-30.5592],[-54.7195,-30.5787],[-54.7243,-30.5996],[-54.7233,-30.617],[-54.7729,-30.6635],[-54.7786,-30.6948],[-54.7994,-30.701],[-54.8107,-30.7141],[-54.8478,-30.7356],[-54.9258,-30.7193],[-54.9734,-30.7339],[-55.0113,-30.7242],[-55.0197,-30.711],[-55.0122,-30.6985],[-55.025,-30.6766],[-55.0366,-30.6735],[-55.0289,-30.6501],[-55.0464,-30.6437],[-55.055,-30.6278],[-55.0451,-30.6186],[-55.0377,-30.5827],[-55.0535,-30.5756],[-55.0433,-30.564],[-55.035,-30.5267],[-55.0543,-30.5069],[-55.0241,-30.4992],[-55.0094,-30.5088],[-54.9843,-30.4932],[-54.9717,-30.4597],[-54.9835,-30.4479],[-54.9996,-30.473],[-55.0203,-30.4735],[-55.0605,-30.4427],[-55.0939,-30.4419],[-55.1461,-30.4615],[-55.172,-30.4899],[-55.2041,-30.5056],[-55.2194,-30.5066],[-55.2509,-30.5272],[-55.3504,-30.5027],[-55.3549,-30.4879],[-55.4038,-30.4594],[-55.4169,-30.4307],[-55.4418,-30.4155],[-55.5123,-30.4038],[-55.5207,-30.3865],[-55.5423,-30.3903],[-55.5548,-30.3823],[-55.5986,-30.3859],[-55.5941,-30.3715],[-55.6179,-30.3636],[-55.6096,-30.3457],[-55.6314,-30.323],[-55.6235,-30.306],[-55.6398,-30.3028],[-55.6537,-30.2809],[-55.6732,-30.2795],[-55.6903,-30.2569],[-55.6592,-30.2463],[-55.6757,-30.2263],[-55.6519,-30.2307],[-55.6435,-30.2125],[-55.6739,-30.1981],[-55.6517,-30.1799],[-55.6726,-30.1763],[-55.6507,-30.1497],[-55.6758,-30.123],[-55.6715,-30.1036],[-55.6611,-30.1032],[-55.6061,-30.1443],[-55.5751,-30.1499],[-55.5384,-30.1632],[-55.5067,-30.1422],[-55.501,-30.1051],[-55.466,-30.0737],[-55.4432,-30.0929],[-55.4126,-30.0882],[-55.3842,-30.0746],[-55.3131,-30.0809],[-55.2959,-30.0888],[-55.2914,-30.1028],[-55.2779,-30.0828],[-55.2516,-30.0792],[-55.188,-30.0789],[-55.1772,-30.0444],[-55.1425,-30.0541],[-55.1297,-30.0409],[-55.1005,-30.0462],[-55.0848,-30.093],[-55.071,-30.1129],[-55.0767,-30.1234],[-55.0614,-30.1443],[-55.0041,-30.1261],[-54.996,-30.1067],[-54.9729,-30.0869],[-54.9608,-30.0893],[-54.9318,-30.0627],[-54.8956,-30.0926],[-54.8749,-30.094],[-54.8165,-30.1077],[-54.7761,-30.0794],[-54.7718,-30.052],[-54.7587,-30.0394],[-54.7522,-30.0174],[-54.7283,-30.0299],[-54.7022,-30.0294]]]}},{"type":"Feature","properties":{"codarea":"4317103","centroide":[-55.56105891286227,-30.738591235582454],"codigo_ibge":4317103,"nome_ig":"Campanha Gaúcha"},"geometry":{"type":"Polygon","coordinates":[[[-55.0113,-30.7242],[-55.0311,-30.7614],[-55.0243,-30.7781],[-55.0399,-30.7935],[-55.0294,-30.8531],[-55.0399,-30.8767],[-55.0649,-30.8962],[-55.107,-30.9124],[-55.1107,-30.9324],[-55.1274,-30.9411],[-55.1454,-30.985],[-55.1176,-31.0083],[-55.0994,-31.0876],[-55.0908,-31.0986],[-55.0948,-31.1193],[-55.0677,-31.1593],[-55.08,-31.2105],[-55.0357,-31.2839],[-55.0388,-31.3005],[-55.06,-31.3154],[-55.0573,-31.3317],[-55.0744,-31.332],[-55.109,-31.3076],[-55.1365,-31.3013],[-55.1635,-31.2856],[-55.1837,-31.2653],[-55.2137,-31.2632],[-55.2467,-31.2522],[-55.2501,-31.2061],[-55.2628,-31.1946],[-55.2827,-31.1939],[-55.2718,-31.1728],[-55.2907,-31.1628],[-55.2941,-31.1443],[-55.3186,-31.1451],[-55.3384,-31.1336],[-55.3274,-31.0881],[-55.3601,-31.0674],[-55.3513,-31.0376],[-55.3625,-31.0389],[-55.3738,-31.019],[-55.4049,-31.0273],[-55.4066,-31.0187],[-55.437,-31.0047],[-55.4245,-30.9856],[-55.4443,-30.9584],[-55.4783,-30.9538],[-55.4864,-30.9282],[-55.5041,-30.9247],[-55.5101,-30.9017],[-55.5459,-30.8905],[-55.5635,-30.8686],[-55.5672,-30.8454],[-55.5786,-30.8329],[-55.6067,-30.8496],[-55.6378,-30.8462],[-55.6631,-30.8738],[-55.6421,-30.9116],[-55.6634,-30.9331],[-55.6661,-30.9539],[-55.7039,-30.9552],[-55.7187,-30.9416],[-55.7283,-30.9794],[-55.7443,-30.9787],[-55.7531,-30.9981],[-55.7731,-30.997],[-55.7665,-31.01],[-55.7808,-31.0171],[-55.8121,-31.0146],[-55.8297,-31.0436],[-55.8552,-31.0451],[-55.8707,-31.0715],[-55.8908,-31.0771],[-55.8986,-31.0667],[-55.9258,-31.0768],[-55.9302,-31.0862],[-55.9792,-31.0731],[-55.9926,-31.085],[-56.0074,-31.0765],[-56.0181,-31.0363],[-56.018,-31.0107],[-56.0056,-30.9732],[-56.0152,-30.945],[-56.0054,-30.9223],[-56.0066,-30.8911],[-55.9903,-30.8664],[-55.9915,-30.8485],[-56.0043,-30.8398],[-56.0236,-30.7857],[-56.0391,-30.7752],[-56.0621,-30.775],[-56.0631,-30.7527],[-56.0727,-30.7453],[-56.0883,-30.7575],[-56.1073,-30.732],[-56.1267,-30.7405],[-56.1283,-30.7202],[-56.1507,-30.7047],[-56.138,-30.687],[-56.1666,-30.6634],[-56.1645,-30.6431],[-56.1813,-30.6313],[-56.1709,-30.6145],[-56.1876,-30.6046],[-56.214,-30.6084],[-56.2344,-30.5869],[-56.2256,-30.5788],[-56.245,-30.5737],[-56.2618,-30.5846],[-56.2567,-30.5669],[-56.2766,-30.5606],[-56.2898,-30.5322],[-56.2579,-30.5257],[-56.2451,-30.5025],[-56.2348,-30.5103],[-56.2185,-30.4958],[-56.1828,-30.4829],[-56.173,-30.4677],[-56.1543,-30.4693],[-56.1295,-30.4567],[-56.087,-30.4532],[-56.0645,-30.4374],[-56.0245,-30.4425],[-55.9425,-30.4238],[-55.8627,-30.4339],[-55.8109,-30.4256],[-55.7709,-30.4088],[-55.7678,-30.3979],[-55.7452,-30.3967],[-55.7088,-30.4067],[-55.677,-30.3872],[-55.6875,-30.3779],[-55.6863,-30.3565],[-55.6726,-30.352],[-55.6765,-30.3195],[-55.6596,-30.3065],[-55.6832,-30.287],[-55.6732,-30.2795],[-55.6537,-30.2809],[-55.6398,-30.3028],[-55.6235,-30.306],[-55.6314,-30.323],[-55.6096,-30.3457],[-55.6179,-30.3636],[-55.5941,-30.3715],[-55.5986,-30.3859],[-55.5548,-30.3823],[-55.5423,-30.3903],[-55.5207,-30.3865],[-55.5123,-30.4038],[-55.4418,-30.4155],[-55.4169,-30.4307],[-55.4038,-30.4594],[-55.3549,-30.4879],[-55.3504,-30.5027],[-55.2509,-30.5272],[-55.2194,-30.5066],[-55.2041,-30.5056],[-55.172,-30.4899],[-55.1461,-30.4615],[-55.0939,-30.4419],[-55.0605,-30.4427],[-55.0203,-30.4735],[-54.9996,-30.473],[-54.9835,-30.4479],[-54.9717,-30.4597],[-54.9843,-30.4932],[-55.0094,-30.5088],[-55.0241,-30.4992],[-55.0543,-30.5069],[-55.035,-30.5267],[-55.0433,-30.564],[-55.0535,-30.5756],[-55.0377,-30.5827],[-55.0451,-30.6186],[-55.055,-30.6278],[-55.0464,-30.6437],[-55.0289,-30.6501],[-55.0366,-30.6735],[-55.025,-30.6766],[-55.0122,-30.6985],[-55.0197,-30.711],[-55.0113,-30.7242]]]}},{"type":"Feature","properties":{"codarea":"4322400","centroide":[-56.7291279758998,-29.84036185237524],"codigo_ibge":4322400,"nome_ig":"Campanha Gaúcha"},"geometry":{"type":"Polygon","coordinates":[[[-56.6604,-29.4233],[-56.6256,-29.4264],[-56.6272,-29.4411],[-56.613,-29.4553],[-56.5757,-29.4408],[-56.5362,-29.4542],[-56.5118,-29.4772],[-56.4827,-29.4662],[-56.463,-29.4828],[-56.4682,-29.5046],[-56.461,-29.5285],[-56.423,-29.543],[-56.4094,-29.5682],[-56.3762,-29.5957],[-56.3829,-29.6257],[-56.3668,-29.6406],[-56.3617,-29.6701],[-56.4002,-29.6934],[-56.3948,-29.7223],[-56.3713,-29.7443],[-56.3662,-29.7838],[-56.3721,-29.8098],[-56.351,-29.8486],[-56.3161,-29.8594],[-56.2926,-29.8979],[-56.2782,-29.9318],[-56.2472,-29.9581],[-56.2447,-29.9765],[-56.1845,-30.0014],[-56.1555,-30.0325],[-56.1502,-30.055],[-56.1818,-30.0859],[-56.2309,-30.0917],[-56.2804,-30.1144],[-56.3205,-30.1201],[-56.3584,-30.113],[-56.4059,-30.1162],[-56.4336,-30.1248],[-56.4396,-30.1369],[-56.4821,-30.1504],[-56.5005,-30.1475],[-56.5127,-30.159],[-56.5467,-30.1343],[-56.5621,-30.1455],[-56.6001,-30.148],[-56.6139,-30.1584],[-56.6252,-30.183],[-56.6508,-30.1883],[-56.6581,-30.2012],[-56.6855,-30.1961],[-56.6962,-30.205],[-56.7048,-30.1792],[-56.784,-30.1511],[-56.7802,-30.1266],[-56.7994,-30.1222],[-56.8046,-30.1059],[-56.8503,-30.0888],[-56.8891,-30.0897],[-56.9026,-30.1123],[-56.9177,-30.0962],[-56.9555,-30.1011],[-56.9844,-30.0874],[-57.0238,-30.0875],[-57.0448,-30.1057],[-57.0678,-30.1012],[-57.0664,-30.0852],[-57.0953,-30.115],[-57.1152,-30.1136],[-57.134,-30.0882],[-57.1361,-30.0644],[-57.167,-30.0577],[-57.2418,-30.006],[-57.2573,-29.9783],[-57.2827,-29.9517],[-57.3064,-29.9533],[-57.3281,-29.9719],[-57.324,-29.9217],[-57.3296,-29.8876],[-57.3245,-29.8728],[-57.2978,-29.8347],[-57.2354,-29.7807],[-57.221,-29.7763],[-57.1806,-29.7812],[-57.1319,-29.7701],[-57.0997,-29.7483],[-57.0211,-29.6833],[-57.0009,-29.6519],[-56.9711,-29.6434],[-56.9678,-29.6017],[-56.9509,-29.5806],[-56.9295,-29.5662],[-56.9021,-29.534],[-56.8608,-29.5073],[-56.822,-29.49],[-56.7969,-29.449],[-56.7795,-29.4373],[-56.7799,-29.4199],[-56.7031,-29.4001],[-56.6819,-29.4065],[-56.6744,-29.4235],[-56.6604,-29.4233]]]}}]}