{"type":"FeatureCollection","features":[{"type":"Feature","properties":{"codarea":"4104501","centroide":[-53.76308624326702,-25.611021046000484],"codigo_ibge":4104501,"nome_ig":"Capanema"},"geometry":{"type":"Polygon","coordinates":[[[-53.6042,-25.5617],[-53.5876,-25.5743],[-53.5943,-25.5844],[-53.6215,-25.5866],[-53.6236,-25.5967],[-53.6014,-25.5956],[-53.5928,-25.6042],[-53.6141,-25.6084],[-53.6057,-25.6481],[-53.6302,-25.6332],[-53.622,-25.6482],[-53.6385,-25.6542],[-53.6588,-25.6417],[-53.7088,-25.6742],[-53.7309,-25.6662],[-53.7467,-25.6734],[-53.7514,-25.6915],[-53.7794,-25.7057],[-53.802,-25.701],[-53.8209,-25.7091],[-53.8497,-25.6907],[-53.8624,-25.6586],[-53.8954,-25.6417],[-53.8948,-25.6227],[-53.9123,-25.6362],[-53.9163,-25.6165],[-53.9318,-25.6226],[-53.9485,-25.6115],[-53.9514,-25.6467],[-53.9618,-25.6436],[-53.9702,-25.6009],[-53.9912,-25.5859],[-53.9646,-25.5854],[-53.9399,-25.5715],[-53.9165,-25.5829],[-53.8958,-25.5949],[-53.8188,-25.5399],[-53.8072,-25.54],[-53.7981,-25.5573],[-53.818,-25.5897],[-53.8104,-25.6031],[-53.791,-25.6055],[-53.7789,-25.5904],[-53.7758,-25.5557],[-53.7575,-25.5529],[-53.7254,-25.5861],[-53.7041,-25.5807],[-53.7176,-25.552],[-53.6936,-25.5289],[-53.6818,-25.5048],[-53.6544,-25.5116],[-53.624,-25.5331],[-53.6042,-25.5617]]]}}]}