{"type":"FeatureCollection","features":[{"type":"Feature","properties":{"codarea":"4104659","centroide":[-50.151895436922445,-24.893467405455674],"codigo_ibge":4104659,"nome_ig":"Carambeí"},"geometry":{"type":"Polygon","coordinates":[[[-49.9786,-25.0209],[-50.0003,-25.0064],[-50.0187,-25.0102],[-50.0328,-24.9936],[-50.0567,-24.9896],[-50.1076,-25.0012],[-50.1254,-25.0109],[-50.1568,-25.0093],[-50.1576,-24.9873],[-50.1932,-24.9558],[-50.2203,-24.9607],[-50.2516,-24.9537],[-50.2634,-24.9371],[-50.3016,-24.9237],[-50.3232,-24.8923],[-50.3395,-24.882],[-50.3161,-24.8653],[-50.339,-24.8713],[-50.3568,-24.8449],[-50.3278,-24.8459],[-50.2993,-24.8552],[-50.3067,-24.8345],[-50.2954,-24.8194],[-50.3064,-24.8042],[-50.3033,-24.7813],[-50.2685,-24.7764],[-50.2463,-24.7652],[-50.2314,-24.7684],[-50.1948,-24.7559],[-50.171,-24.7612],[-50.1492,-24.7832],[-50.1484,-24.8112],[-50.1306,-24.8213],[-50.1041,-24.8063],[-50.0775,-24.8193],[-50.0674,-24.8381],[-50.0773,-24.8468],[-50.0435,-24.8639],[-50.0159,-24.8996],[-50.0086,-24.9191],[-49.9921,-24.9148],[-49.9796,-24.9429],[-49.9621,-24.9348],[-49.9398,-24.9461],[-49.9588,-25.0118],[-49.9786,-25.0209]]]}}]}