{
  "type": "FeatureCollection",
  "nome_ig": "Carlópolis",
  "municipios_lista": "carlopolis;ribeirao claro",
  "features": [
    {
      "type": "Feature",
      "geometry": {
        "type": "Polygon",
        "coordinates": [
          [
            [
              -49.6242,
              -23.5233
            ],
            [
              -49.6264,
              -23.5197
            ],
            [
              -49.6283,
              -23.5171
            ],
            [
              -49.6294,
              -23.5143
            ],
            [
              -49.6294,
              -23.5118
            ],
            [
              -49.6285,
              -23.5097
            ],
            [
              -49.6273,
              -23.5084
            ],
            [
              -49.6218,
              -23.5059
            ],
            [
              -49.62,
              -23.5065
            ],
            [
              -49.6165,
              -23.5094
            ],
            [
              -49.6148,
              -23.5103
            ],
            [
              -49.6137,
              -23.5101
            ],
            [
              -49.6128,
              -23.5083
            ],
            [
              -49.6136,
              -23.506
            ],
            [
              -49.6183,
              -23.5017
            ],
            [
              -49.6193,
              -23.4993
            ],
            [
              -49.6192,
              -23.4977
            ],
            [
              -49.6201,
              -23.4954
            ],
            [
              -49.6214,
              -23.4933
            ],
            [
              -49.6201,
              -23.4911
            ],
            [
              -49.616,
              -23.49
            ],
            [
              -49.615,
              -23.4893
            ],
            [
              -49.6134,
              -23.4868
            ],
            [
              -49.6127,
              -23.4829
            ],
            [
              -49.6156,
              -23.4735
            ],
            [
              -49.6149,
              -23.4722
            ],
            [
              -49.6133,
              -23.4726
            ],
            [
              -49.6033,
              -23.4784
            ],
            [
              -49.6015,
              -23.4788
            ],
            [
              -49.5999,
              -23.4785
            ],
            [
              -49.5986,
              -23.4772
            ],
            [
              -49.5988,
              -23.4758
            ],
            [
              -49.6015,
              -23.4728
            ],
            [
              -49.6026,
              -23.4706
            ],
            [
              -49.6017,
              -23.4676
            ],
            [
              -49.6012,
              -23.4613
            ],
            [
              -49.6001,
              -23.4599
            ],
            [
              -49.5987,
              -23.4594
            ],
            [
              -49.5981,
              -23.4582
            ],
            [
              -49.599,
              -23.4564
            ],
            [
              -49.6023,
              -23.4539
            ],
            [
              -49.6033,
              -23.4525
            ],
            [
              -49.6032,
              -23.4513
            ],
            [
              -49.6017,
              -23.4493
            ],
            [
              -49.5982,
              -23.4462
            ],
            [
              -49.5956,
              -23.4404
            ],
            [
              -49.5924,
              -23.437
            ],
            [
              -49.5901,
              -23.4359
            ],
            [
              -49.5888,
              -23.4358
            ],
            [
              -49.5831,
              -23.437
            ],
            [
              -49.58,
              -23.4367
            ],
            [
              -49.5779,
              -23.4377
            ],
            [
              -49.5766,
              -23.4423
            ],
            [
              -49.5756,
              -23.4436
            ],
            [
              -49.573,
              -23.4439
            ],
            [
              -49.5699,
              -23.442
            ],
            [
              -49.569,
              -23.4403
            ],
            [
              -49.5696,
              -23.4387
            ],
            [
              -49.5719,
              -23.4376
            ],
            [
              -49.5724,
              -23.4362
            ],
            [
              -49.5718,
              -23.4346
            ],
            [
              -49.5673,
              -23.4293
            ],
            [
              -49.5666,
              -23.4277
            ],
            [
              -49.5671,
              -23.426
            ],
            [
              -49.5691,
              -23.4255
            ],
            [
              -49.5721,
              -23.4286
            ],
            [
              -49.5755,
              -23.4314
            ],
            [
              -49.5785,
              -23.4321
            ],
            [
              -49.5808,
              -23.4317
            ],
            [
              -49.5818,
              -23.429
            ],
            [
              -49.5785,
              -23.4225
            ],
            [
              -49.5786,
              -23.4201
            ],
            [
              -49.5795,
              -23.4165
            ],
            [
              -49.5796,
              -23.4151
            ],
            [
              -49.581,
              -23.4139
            ],
            [
              -49.5859,
              -23.416
            ],
            [
              -49.5893,
              -23.4161
            ],
            [
              -49.5905,
              -23.4157
            ],
            [
              -49.5917,
              -23.4125
            ],
            [
              -49.5926,
              -23.4075
            ],
            [
              -49.5945,
              -23.4065
            ],
            [
              -49.6025,
              -23.4085
            ],
            [
              -49.6037,
              -23.4078
            ],
            [
              -49.6047,
              -23.4028
            ],
            [
              -49.6037,
              -23.4015
            ],
            [
              -49.5997,
              -23.4006
            ],
            [
              -49.5983,
              -23.3994
            ],
            [
              -49.5985,
              -23.3982
            ],
            [
              -49.6004,
              -23.3967
            ],
            [
              -49.6072,
              -23.3934
            ],
            [
              -49.6091,
              -23.3935
            ],
            [
              -49.6116,
              -23.3945
            ],
            [
              -49.6153,
              -23.3977
            ],
            [
              -49.6183,
              -23.3982
            ],
            [
              -49.621,
              -23.3974
            ],
            [
              -49.6217,
              -23.3943
            ],
            [
              -49.6213,
              -23.3905
            ],
            [
              -49.6206,
              -23.3887
            ],
            [
              -49.6176,
              -23.388
            ],
            [
              -49.6128,
              -23.3879
            ],
            [
              -49.608,
              -23.3862
            ],
            [
              -49.6051,
              -23.3844
            ],
            [
              -49.6033,
              -23.3839
            ],
            [
              -49.6011,
              -23.384
            ],
            [
              -49.598,
              -23.3849
            ],
            [
              -49.5948,
              -23.3884
            ],
            [
              -49.5925,
              -23.3896
            ],
            [
              -49.5911,
              -23.3879
            ],
            [
              -49.5904,
              -23.3828
            ],
            [
              -49.591,
              -23.3813
            ],
            [
              -49.5948,
              -23.3776
            ],
            [
              -49.596,
              -23.376
            ],
            [
              -49.5964,
              -23.3722
            ],
            [
              -49.5954,
              -23.3688
            ],
            [
              -49.5954,
              -23.3671
            ],
            [
              -49.5968,
              -23.3655
            ],
            [
              -49.6017,
              -23.3626
            ],
            [
              -49.6031,
              -23.3599
            ],
            [
              -49.6042,
              -23.3589
            ],
            [
              -49.6072,
              -23.3574
            ],
            [
              -49.6118,
              -23.3547
            ],
            [
              -49.6194,
              -23.3557
            ],
            [
              -49.6209,
              -23.3568
            ],
            [
              -49.6227,
              -23.3568
            ],
            [
              -49.627,
              -23.356
            ],
            [
              -49.6322,
              -23.3566
            ],
            [
              -49.6334,
              -23.3564
            ],
            [
              -49.6359,
              -23.354
            ],
            [
              -49.6379,
              -23.3495
            ],
            [
              -49.6378,
              -23.351
            ],
            [
              -49.6402,
              -23.3545
            ],
            [
              -49.6402,
              -23.357
            ],
            [
              -49.6409,
              -23.3604
            ],
            [
              -49.6439,
              -23.3634
            ],
            [
              -49.6476,
              -23.3632
            ],
            [
              -49.6509,
              -23.3614
            ],
            [
              -49.6554,
              -23.3618
            ],
            [
              -49.6584,
              -23.3597
            ],
            [
              -49.6613,
              -23.359
            ],
            [
              -49.6633,
              -23.3579
            ],
            [
              -49.6726,
              -23.3595
            ],
            [
              -49.6742,
              -23.3591
            ],
            [
              -49.6757,
              -23.3581
            ],
            [
              -49.6783,
              -23.3546
            ],
            [
              -49.6811,
              -23.3527
            ],
            [
              -49.6842,
              -23.3513
            ],
            [
              -49.6862,
              -23.351
            ],
            [
              -49.6881,
              -23.3522
            ],
            [
              -49.689,
              -23.3541
            ],
            [
              -49.6918,
              -23.3569
            ],
            [
              -49.6918,
              -23.3584
            ],
            [
              -49.6945,
              -23.3608
            ],
            [
              -49.6975,
              -23.3609
            ],
            [
              -49.6977,
              -23.3626
            ],
            [
              -49.699,
              -23.3643
            ],
            [
              -49.701,
              -23.3643
            ],
            [
              -49.7135,
              -23.37
            ],
            [
              -49.7175,
              -23.3711
            ],
            [
              -49.7235,
              -23.3717
            ],
            [
              -49.7257,
              -23.3714
            ],
            [
              -49.7331,
              -23.3672
            ],
            [
              -49.7362,
              -23.3645
            ],
            [
              -49.7394,
              -23.3642
            ],
            [
              -49.7413,
              -23.3652
            ],
            [
              -49.7447,
              -23.3689
            ],
            [
              -49.7479,
              -23.3716
            ],
            [
              -49.7511,
              -23.3757
            ],
            [
              -49.752,
              -23.3804
            ],
            [
              -49.7514,
              -23.3826
            ],
            [
              -49.7487,
              -23.3841
            ],
            [
              -49.7479,
              -23.3853
            ],
            [
              -49.7478,
              -23.3873
            ],
            [
              -49.7481,
              -23.3906
            ],
            [
              -49.7496,
              -23.3922
            ],
            [
              -49.752,
              -23.3928
            ],
            [
              -49.7614,
              -23.3925
            ],
            [
              -49.7632,
              -23.3929
            ],
            [
              -49.7682,
              -23.396
            ],
            [
              -49.7724,
              -23.3959
            ],
            [
              -49.7792,
              -23.3921
            ],
            [
              -49.7808,
              -23.3917
            ],
            [
              -49.7872,
              -23.3913
            ],
            [
              -49.7903,
              -23.3897
            ],
            [
              -49.7919,
              -23.3903
            ],
            [
              -49.7963,
              -23.3943
            ],
            [
              -49.7978,
              -23.395
            ],
            [
              -49.7993,
              -23.3971
            ],
            [
              -49.8063,
              -23.4028
            ],
            [
              -49.8108,
              -23.4051
            ],
            [
              -49.815,
              -23.4051
            ],
            [
              -49.8169,
              -23.406
            ],
            [
              -49.8183,
              -23.4061
            ],
            [
              -49.8201,
              -23.4071
            ],
            [
              -49.8194,
              -23.4099
            ],
            [
              -49.8195,
              -23.4119
            ],
            [
              -49.821,
              -23.4167
            ],
            [
              -49.8203,
              -23.4199
            ],
            [
              -49.819,
              -23.4216
            ],
            [
              -49.8149,
              -23.423
            ],
            [
              -49.8107,
              -23.4215
            ],
            [
              -49.804,
              -23.4242
            ],
            [
              -49.8032,
              -23.4251
            ],
            [
              -49.8005,
              -23.4328
            ],
            [
              -49.8018,
              -23.4353
            ],
            [
              -49.8032,
              -23.4365
            ],
            [
              -49.806,
              -23.438
            ],
            [
              -49.8091,
              -23.439
            ],
            [
              -49.81,
              -23.4401
            ],
            [
              -49.8133,
              -23.4403
            ],
            [
              -49.8139,
              -23.4395
            ],
            [
              -49.8166,
              -23.4387
            ],
            [
              -49.8168,
              -23.4377
            ],
            [
              -49.819,
              -23.4369
            ],
            [
              -49.8228,
              -23.4379
            ],
            [
              -49.8221,
              -23.4403
            ],
            [
              -49.8231,
              -23.4415
            ],
            [
              -49.8259,
              -23.4407
            ],
            [
              -49.8266,
              -23.4396
            ],
            [
              -49.8284,
              -23.4407
            ],
            [
              -49.8296,
              -23.4403
            ],
            [
              -49.8313,
              -23.4387
            ],
            [
              -49.8336,
              -23.4395
            ],
            [
              -49.8349,
              -23.4386
            ],
            [
              -49.8354,
              -23.4364
            ],
            [
              -49.8374,
              -23.4369
            ],
            [
              -49.8381,
              -23.4356
            ],
            [
              -49.8398,
              -23.4355
            ],
            [
              -49.8412,
              -23.4346
            ],
            [
              -49.8422,
              -23.4363
            ],
            [
              -49.8438,
              -23.4364
            ],
            [
              -49.8443,
              -23.4385
            ],
            [
              -49.8458,
              -23.4399
            ],
            [
              -49.845,
              -23.4408
            ],
            [
              -49.8455,
              -23.442
            ],
            [
              -49.8472,
              -23.4428
            ],
            [
              -49.8486,
              -23.4461
            ],
            [
              -49.8497,
              -23.4472
            ],
            [
              -49.8523,
              -23.4465
            ],
            [
              -49.8547,
              -23.4485
            ],
            [
              -49.8589,
              -23.4494
            ],
            [
              -49.8615,
              -23.4527
            ],
            [
              -49.8635,
              -23.4537
            ],
            [
              -49.8654,
              -23.4585
            ],
            [
              -49.8683,
              -23.4608
            ],
            [
              -49.87,
              -23.4612
            ],
            [
              -49.863,
              -23.4652
            ],
            [
              -49.8606,
              -23.4648
            ],
            [
              -49.8588,
              -23.4664
            ],
            [
              -49.8562,
              -23.4676
            ],
            [
              -49.8537,
              -23.4702
            ],
            [
              -49.8517,
              -23.4708
            ],
            [
              -49.8491,
              -23.4709
            ],
            [
              -49.8475,
              -23.4715
            ],
            [
              -49.8461,
              -23.4735
            ],
            [
              -49.8449,
              -23.4719
            ],
            [
              -49.843,
              -23.4717
            ],
            [
              -49.84,
              -23.4722
            ],
            [
              -49.8343,
              -23.4742
            ],
            [
              -49.8324,
              -23.4758
            ],
            [
              -49.8311,
              -23.4804
            ],
            [
              -49.8301,
              -23.4808
            ],
            [
              -49.8276,
              -23.4806
            ],
            [
              -49.8261,
              -23.4815
            ],
            [
              -49.8265,
              -23.4837
            ],
            [
              -49.8261,
              -23.4856
            ],
            [
              -49.823,
              -23.489
            ],
            [
              -49.8218,
              -23.4917
            ],
            [
              -49.82,
              -23.4938
            ],
            [
              -49.8168,
              -23.4947
            ],
            [
              -49.8137,
              -23.498
            ],
            [
              -49.8125,
              -23.4986
            ],
            [
              -49.8131,
              -23.5005
            ],
            [
              -49.8168,
              -23.5052
            ],
            [
              -49.8194,
              -23.5065
            ],
            [
              -49.8177,
              -23.5089
            ],
            [
              -49.8186,
              -23.5139
            ],
            [
              -49.8213,
              -23.5184
            ],
            [
              -49.8216,
              -23.5218
            ],
            [
              -49.8226,
              -23.5254
            ],
            [
              -49.8266,
              -23.5313
            ],
            [
              -49.8263,
              -23.533
            ],
            [
              -49.8239,
              -23.5353
            ],
            [
              -49.823,
              -23.5372
            ],
            [
              -49.8201,
              -23.5405
            ],
            [
              -49.8206,
              -23.5427
            ],
            [
              -49.8241,
              -23.5461
            ],
            [
              -49.823,
              -23.5467
            ],
            [
              -49.8216,
              -23.553
            ],
            [
              -49.8196,
              -23.5541
            ],
            [
              -49.819,
              -23.5553
            ],
            [
              -49.8187,
              -23.5589
            ],
            [
              -49.813,
              -23.5614
            ],
            [
              -49.8111,
              -23.5607
            ],
            [
              -49.8084,
              -23.5606
            ],
            [
              -49.8051,
              -23.5617
            ],
            [
              -49.801,
              -23.5641
            ],
            [
              -49.7982,
              -23.5642
            ],
            [
              -49.7949,
              -23.5603
            ],
            [
              -49.7912,
              -23.5603
            ],
            [
              -49.7874,
              -23.5593
            ],
            [
              -49.7828,
              -23.5597
            ],
            [
              -49.7773,
              -23.5594
            ],
            [
              -49.7717,
              -23.5558
            ],
            [
              -49.7682,
              -23.5559
            ],
            [
              -49.7661,
              -23.5566
            ],
            [
              -49.76,
              -23.5573
            ],
            [
              -49.7505,
              -23.5597
            ],
            [
              -49.7371,
              -23.5603
            ],
            [
              -49.7303,
              -23.5551
            ],
            [
              -49.7278,
              -23.555
            ],
            [
              -49.7266,
              -23.5542
            ],
            [
              -49.7256,
              -23.5549
            ],
            [
              -49.7245,
              -23.5543
            ],
            [
              -49.7239,
              -23.5529
            ],
            [
              -49.7206,
              -23.5532
            ],
            [
              -49.7187,
              -23.553
            ],
            [
              -49.7175,
              -23.5553
            ],
            [
              -49.7155,
              -23.5553
            ],
            [
              -49.7144,
              -23.5566
            ],
            [
              -49.7132,
              -23.5558
            ],
            [
              -49.7102,
              -23.5563
            ],
            [
              -49.7087,
              -23.5553
            ],
            [
              -49.7064,
              -23.5519
            ],
            [
              -49.706,
              -23.5501
            ],
            [
              -49.7031,
              -23.5492
            ],
            [
              -49.7024,
              -23.55
            ],
            [
              -49.7024,
              -23.5532
            ],
            [
              -49.7017,
              -23.5539
            ],
            [
              -49.6988,
              -23.5542
            ],
            [
              -49.6963,
              -23.5537
            ],
            [
              -49.6926,
              -23.5546
            ],
            [
              -49.6916,
              -23.5561
            ],
            [
              -49.6906,
              -23.5563
            ],
            [
              -49.6803,
              -23.5526
            ],
            [
              -49.6789,
              -23.5534
            ],
            [
              -49.677,
              -23.5534
            ],
            [
              -49.6741,
              -23.5554
            ],
            [
              -49.6725,
              -23.5535
            ],
            [
              -49.6706,
              -23.5532
            ],
            [
              -49.6701,
              -23.5521
            ],
            [
              -49.6687,
              -23.5522
            ],
            [
              -49.6677,
              -23.5508
            ],
            [
              -49.6653,
              -23.5512
            ],
            [
              -49.662,
              -23.5477
            ],
            [
              -49.6601,
              -23.5487
            ],
            [
              -49.6579,
              -23.547
            ],
            [
              -49.6548,
              -23.5463
            ],
            [
              -49.6524,
              -23.5467
            ],
            [
              -49.6511,
              -23.5442
            ],
            [
              -49.6487,
              -23.5432
            ],
            [
              -49.6465,
              -23.5409
            ],
            [
              -49.6451,
              -23.5428
            ],
            [
              -49.6437,
              -23.5431
            ],
            [
              -49.6419,
              -23.5423
            ],
            [
              -49.6417,
              -23.5396
            ],
            [
              -49.6383,
              -23.5396
            ],
            [
              -49.6357,
              -23.5358
            ],
            [
              -49.6337,
              -23.5356
            ],
            [
              -49.6331,
              -23.5349
            ],
            [
              -49.6339,
              -23.5327
            ],
            [
              -49.6306,
              -23.5286
            ],
            [
              -49.624,
              -23.5302
            ],
            [
              -49.6225,
              -23.529
            ],
            [
              -49.6225,
              -23.528
            ],
            [
              -49.6246,
              -23.5264
            ],
            [
              -49.6242,
              -23.5233
            ]
          ]
        ]
      },
      "properties": {
        "codarea": "4104709",
        "nome_municipio": "Carlópolis",
        "codigo_ibge": 4104709
      }
    },
    {
      "type": "Feature",
      "geometry": {
        "type": "Polygon",
        "coordinates": [
          [
            [
              -49.6271,
              -23.2818
            ],
            [
              -49.6281,
              -23.2787
            ],
            [
              -49.6291,
              -23.2768
            ],
            [
              -49.6338,
              -23.2731
            ],
            [
              -49.6352,
              -23.2713
            ],
            [
              -49.6356,
              -23.2675
            ],
            [
              -49.6368,
              -23.2667
            ],
            [
              -49.6377,
              -23.2617
            ],
            [
              -49.639,
              -23.2594
            ],
            [
              -49.6401,
              -23.2563
            ],
            [
              -49.6425,
              -23.2538
            ],
            [
              -49.6471,
              -23.2517
            ],
            [
              -49.6472,
              -23.2498
            ],
            [
              -49.6461,
              -23.2437
            ],
            [
              -49.6448,
              -23.2418
            ],
            [
              -49.6445,
              -23.2402
            ],
            [
              -49.6449,
              -23.2392
            ],
            [
              -49.6516,
              -23.2369
            ],
            [
              -49.6531,
              -23.2345
            ],
            [
              -49.6548,
              -23.2283
            ],
            [
              -49.6542,
              -23.2233
            ],
            [
              -49.6524,
              -23.219
            ],
            [
              -49.6538,
              -23.212
            ],
            [
              -49.6557,
              -23.209
            ],
            [
              -49.6615,
              -23.2016
            ],
            [
              -49.6632,
              -23.1942
            ],
            [
              -49.6656,
              -23.1913
            ],
            [
              -49.6667,
              -23.1888
            ],
            [
              -49.6713,
              -23.1845
            ],
            [
              -49.6755,
              -23.1774
            ],
            [
              -49.6777,
              -23.1749
            ],
            [
              -49.6792,
              -23.1747
            ],
            [
              -49.6825,
              -23.1751
            ],
            [
              -49.6833,
              -23.1736
            ],
            [
              -49.6817,
              -23.1712
            ],
            [
              -49.6794,
              -23.1691
            ],
            [
              -49.678,
              -23.1664
            ],
            [
              -49.6783,
              -23.1651
            ],
            [
              -49.6799,
              -23.1644
            ],
            [
              -49.6833,
              -23.1638
            ],
            [
              -49.6885,
              -23.1654
            ],
            [
              -49.6901,
              -23.165
            ],
            [
              -49.6946,
              -23.1656
            ],
            [
              -49.6975,
              -23.165
            ],
            [
              -49.6985,
              -23.1643
            ],
            [
              -49.6996,
              -23.1615
            ],
            [
              -49.7012,
              -23.1595
            ],
            [
              -49.7035,
              -23.1583
            ],
            [
              -49.7038,
              -23.1571
            ],
            [
              -49.7018,
              -23.1551
            ],
            [
              -49.7014,
              -23.1531
            ],
            [
              -49.7031,
              -23.1534
            ],
            [
              -49.7058,
              -23.1555
            ],
            [
              -49.7099,
              -23.1566
            ],
            [
              -49.7113,
              -23.1562
            ],
            [
              -49.7146,
              -23.1539
            ],
            [
              -49.7162,
              -23.1514
            ],
            [
              -49.7165,
              -23.1484
            ],
            [
              -49.7187,
              -23.1482
            ],
            [
              -49.7238,
              -23.1445
            ],
            [
              -49.7265,
              -23.1432
            ],
            [
              -49.7281,
              -23.1431
            ],
            [
              -49.7305,
              -23.1414
            ],
            [
              -49.7324,
              -23.1393
            ],
            [
              -49.7334,
              -23.1375
            ],
            [
              -49.7349,
              -23.1337
            ],
            [
              -49.7349,
              -23.1329
            ],
            [
              -49.73,
              -23.1261
            ],
            [
              -49.7288,
              -23.1217
            ],
            [
              -49.7262,
              -23.1169
            ],
            [
              -49.7253,
              -23.1142
            ],
            [
              -49.7256,
              -23.1094
            ],
            [
              -49.7283,
              -23.1069
            ],
            [
              -49.7305,
              -23.1059
            ],
            [
              -49.7353,
              -23.1046
            ],
            [
              -49.7373,
              -23.1026
            ],
            [
              -49.7387,
              -23.1004
            ],
            [
              -49.7402,
              -23.0992
            ],
            [
              -49.7453,
              -23.0994
            ],
            [
              -49.7479,
              -23.0986
            ],
            [
              -49.7498,
              -23.0975
            ],
            [
              -49.7514,
              -23.0978
            ],
            [
              -49.755,
              -23.1027
            ],
            [
              -49.7601,
              -23.1041
            ],
            [
              -49.7629,
              -23.1056
            ],
            [
              -49.7651,
              -23.1057
            ],
            [
              -49.7678,
              -23.105
            ],
            [
              -49.7703,
              -23.1032
            ],
            [
              -49.7733,
              -23.1021
            ],
            [
              -49.7787,
              -23.1013
            ],
            [
              -49.7892,
              -23.1033
            ],
            [
              -49.7917,
              -23.1024
            ],
            [
              -49.7939,
              -23.0965
            ],
            [
              -49.7956,
              -23.0946
            ],
            [
              -49.7995,
              -23.0934
            ],
            [
              -49.8035,
              -23.0945
            ],
            [
              -49.8066,
              -23.0943
            ],
            [
              -49.8079,
              -23.0927
            ],
            [
              -49.8095,
              -23.0892
            ],
            [
              -49.8111,
              -23.0908
            ],
            [
              -49.8136,
              -23.0961
            ],
            [
              -49.8152,
              -23.0983
            ],
            [
              -49.8165,
              -23.0989
            ],
            [
              -49.8171,
              -23.1008
            ],
            [
              -49.8136,
              -23.1089
            ],
            [
              -49.8124,
              -23.1107
            ],
            [
              -49.8098,
              -23.1133
            ],
            [
              -49.809,
              -23.1155
            ],
            [
              -49.8128,
              -23.1199
            ],
            [
              -49.8147,
              -23.1179
            ],
            [
              -49.8168,
              -23.1169
            ],
            [
              -49.8216,
              -23.1187
            ],
            [
              -49.8259,
              -23.1215
            ],
            [
              -49.8307,
              -23.1228
            ],
            [
              -49.8343,
              -23.1222
            ],
            [
              -49.8369,
              -23.1225
            ],
            [
              -49.8386,
              -23.1239
            ],
            [
              -49.8398,
              -23.1277
            ],
            [
              -49.8395,
              -23.1326
            ],
            [
              -49.8391,
              -23.134
            ],
            [
              -49.8364,
              -23.1376
            ],
            [
              -49.8347,
              -23.1419
            ],
            [
              -49.8351,
              -23.145
            ],
            [
              -49.8372,
              -23.1484
            ],
            [
              -49.8382,
              -23.151
            ],
            [
              -49.8407,
              -23.149
            ],
            [
              -49.8436,
              -23.1487
            ],
            [
              -49.8472,
              -23.1516
            ],
            [
              -49.8473,
              -23.1524
            ],
            [
              -49.8517,
              -23.1567
            ],
            [
              -49.8515,
              -23.1587
            ],
            [
              -49.8522,
              -23.16
            ],
            [
              -49.8522,
              -23.1645
            ],
            [
              -49.8531,
              -23.1664
            ],
            [
              -49.8564,
              -23.1673
            ],
            [
              -49.8583,
              -23.1673
            ],
            [
              -49.8587,
              -23.1692
            ],
            [
              -49.8619,
              -23.1715
            ],
            [
              -49.8659,
              -23.1716
            ],
            [
              -49.8657,
              -23.1731
            ],
            [
              -49.8624,
              -23.1736
            ],
            [
              -49.8613,
              -23.1749
            ],
            [
              -49.8614,
              -23.1773
            ],
            [
              -49.8601,
              -23.1802
            ],
            [
              -49.8579,
              -23.1834
            ],
            [
              -49.8547,
              -23.1863
            ],
            [
              -49.8528,
              -23.1873
            ],
            [
              -49.8523,
              -23.1889
            ],
            [
              -49.8533,
              -23.1911
            ],
            [
              -49.8542,
              -23.1918
            ],
            [
              -49.8575,
              -23.1931
            ],
            [
              -49.8606,
              -23.1931
            ],
            [
              -49.8614,
              -23.1938
            ],
            [
              -49.8622,
              -23.1994
            ],
            [
              -49.8634,
              -23.2006
            ],
            [
              -49.8676,
              -23.2028
            ],
            [
              -49.8681,
              -23.2044
            ],
            [
              -49.8695,
              -23.2062
            ],
            [
              -49.8684,
              -23.2088
            ],
            [
              -49.8655,
              -23.2099
            ],
            [
              -49.8644,
              -23.2117
            ],
            [
              -49.8623,
              -23.2134
            ],
            [
              -49.8607,
              -23.2162
            ],
            [
              -49.862,
              -23.2172
            ],
            [
              -49.8643,
              -23.2178
            ],
            [
              -49.8657,
              -23.22
            ],
            [
              -49.8676,
              -23.2215
            ],
            [
              -49.8789,
              -23.2311
            ],
            [
              -49.8906,
              -23.2337
            ],
            [
              -49.893,
              -23.2371
            ],
            [
              -49.8926,
              -23.2383
            ],
            [
              -49.8905,
              -23.2407
            ],
            [
              -49.8904,
              -23.2421
            ],
            [
              -49.8914,
              -23.2442
            ],
            [
              -49.8915,
              -23.2454
            ],
            [
              -49.8885,
              -23.2493
            ],
            [
              -49.8901,
              -23.2519
            ],
            [
              -49.8892,
              -23.2552
            ],
            [
              -49.8875,
              -23.2567
            ],
            [
              -49.8874,
              -23.2587
            ],
            [
              -49.8902,
              -23.2599
            ],
            [
              -49.891,
              -23.2607
            ],
            [
              -49.885,
              -23.267
            ],
            [
              -49.8842,
              -23.2693
            ],
            [
              -49.8832,
              -23.2699
            ],
            [
              -49.8802,
              -23.2706
            ],
            [
              -49.8792,
              -23.2716
            ],
            [
              -49.8773,
              -23.2712
            ],
            [
              -49.8767,
              -23.2717
            ],
            [
              -49.8742,
              -23.2715
            ],
            [
              -49.8736,
              -23.272
            ],
            [
              -49.871,
              -23.2766
            ],
            [
              -49.8693,
              -23.278
            ],
            [
              -49.8691,
              -23.2799
            ],
            [
              -49.8673,
              -23.2811
            ],
            [
              -49.8658,
              -23.2808
            ],
            [
              -49.8638,
              -23.2815
            ],
            [
              -49.862,
              -23.2805
            ],
            [
              -49.8603,
              -23.2813
            ],
            [
              -49.8581,
              -23.2794
            ],
            [
              -49.8556,
              -23.2786
            ],
            [
              -49.8536,
              -23.2758
            ],
            [
              -49.8483,
              -23.2768
            ],
            [
              -49.8468,
              -23.2782
            ],
            [
              -49.8481,
              -23.2821
            ],
            [
              -49.8475,
              -23.2837
            ],
            [
              -49.845,
              -23.2863
            ],
            [
              -49.8431,
              -23.2854
            ],
            [
              -49.8418,
              -23.2857
            ],
            [
              -49.8391,
              -23.2853
            ],
            [
              -49.8371,
              -23.2855
            ],
            [
              -49.8347,
              -23.2845
            ],
            [
              -49.8332,
              -23.2845
            ],
            [
              -49.8323,
              -23.2832
            ],
            [
              -49.8288,
              -23.2816
            ],
            [
              -49.8267,
              -23.2777
            ],
            [
              -49.8257,
              -23.2809
            ],
            [
              -49.8257,
              -23.2875
            ],
            [
              -49.8262,
              -23.2892
            ],
            [
              -49.8257,
              -23.2924
            ],
            [
              -49.8261,
              -23.2951
            ],
            [
              -49.8241,
              -23.2963
            ],
            [
              -49.8243,
              -23.2983
            ],
            [
              -49.8235,
              -23.2989
            ],
            [
              -49.8218,
              -23.2988
            ],
            [
              -49.8214,
              -23.3005
            ],
            [
              -49.8228,
              -23.3041
            ],
            [
              -49.8242,
              -23.3047
            ],
            [
              -49.824,
              -23.3075
            ],
            [
              -49.8253,
              -23.3082
            ],
            [
              -49.8273,
              -23.3077
            ],
            [
              -49.8272,
              -23.3098
            ],
            [
              -49.8282,
              -23.3134
            ],
            [
              -49.8293,
              -23.3143
            ],
            [
              -49.8317,
              -23.3191
            ],
            [
              -49.8307,
              -23.3208
            ],
            [
              -49.832,
              -23.3219
            ],
            [
              -49.8326,
              -23.3239
            ],
            [
              -49.8343,
              -23.3253
            ],
            [
              -49.8345,
              -23.327
            ],
            [
              -49.8376,
              -23.328
            ],
            [
              -49.8393,
              -23.3272
            ],
            [
              -49.8408,
              -23.3284
            ],
            [
              -49.8405,
              -23.331
            ],
            [
              -49.8412,
              -23.3314
            ],
            [
              -49.8437,
              -23.3308
            ],
            [
              -49.8524,
              -23.3272
            ],
            [
              -49.8544,
              -23.3301
            ],
            [
              -49.8575,
              -23.3307
            ],
            [
              -49.8609,
              -23.3328
            ],
            [
              -49.8635,
              -23.3332
            ],
            [
              -49.8647,
              -23.3331
            ],
            [
              -49.8692,
              -23.3306
            ],
            [
              -49.8726,
              -23.33
            ],
            [
              -49.8749,
              -23.3307
            ],
            [
              -49.8817,
              -23.3287
            ],
            [
              -49.884,
              -23.3273
            ],
            [
              -49.8869,
              -23.3283
            ],
            [
              -49.8885,
              -23.3308
            ],
            [
              -49.8912,
              -23.3331
            ],
            [
              -49.8915,
              -23.335
            ],
            [
              -49.8902,
              -23.3342
            ],
            [
              -49.8876,
              -23.336
            ],
            [
              -49.8864,
              -23.3337
            ],
            [
              -49.8838,
              -23.3341
            ],
            [
              -49.8844,
              -23.3366
            ],
            [
              -49.8839,
              -23.3385
            ],
            [
              -49.8854,
              -23.3415
            ],
            [
              -49.8842,
              -23.3453
            ],
            [
              -49.8814,
              -23.347
            ],
            [
              -49.8789,
              -23.3476
            ],
            [
              -49.8798,
              -23.344
            ],
            [
              -49.8818,
              -23.3416
            ],
            [
              -49.8741,
              -23.3431
            ],
            [
              -49.8718,
              -23.3447
            ],
            [
              -49.874,
              -23.3451
            ],
            [
              -49.8748,
              -23.3465
            ],
            [
              -49.8738,
              -23.3483
            ],
            [
              -49.8723,
              -23.3488
            ],
            [
              -49.8709,
              -23.3484
            ],
            [
              -49.8684,
              -23.349
            ],
            [
              -49.8693,
              -23.3506
            ],
            [
              -49.8674,
              -23.351
            ],
            [
              -49.8648,
              -23.3524
            ],
            [
              -49.8645,
              -23.3534
            ],
            [
              -49.8656,
              -23.3562
            ],
            [
              -49.8643,
              -23.3572
            ],
            [
              -49.8621,
              -23.3569
            ],
            [
              -49.8624,
              -23.3593
            ],
            [
              -49.8594,
              -23.3597
            ],
            [
              -49.8584,
              -23.3612
            ],
            [
              -49.8592,
              -23.3623
            ],
            [
              -49.8604,
              -23.362
            ],
            [
              -49.8618,
              -23.3638
            ],
            [
              -49.8627,
              -23.3618
            ],
            [
              -49.8654,
              -23.3616
            ],
            [
              -49.8664,
              -23.3596
            ],
            [
              -49.8672,
              -23.3597
            ],
            [
              -49.8686,
              -23.3614
            ],
            [
              -49.8699,
              -23.3618
            ],
            [
              -49.87,
              -23.3633
            ],
            [
              -49.8692,
              -23.3641
            ],
            [
              -49.8672,
              -23.3631
            ],
            [
              -49.8652,
              -23.3635
            ],
            [
              -49.8662,
              -23.3655
            ],
            [
              -49.8674,
              -23.3666
            ],
            [
              -49.8639,
              -23.3729
            ],
            [
              -49.8687,
              -23.3723
            ],
            [
              -49.8699,
              -23.3744
            ],
            [
              -49.8699,
              -23.3764
            ],
            [
              -49.871,
              -23.3775
            ],
            [
              -49.8691,
              -23.3796
            ],
            [
              -49.868,
              -23.3801
            ],
            [
              -49.8686,
              -23.3829
            ],
            [
              -49.8658,
              -23.3848
            ],
            [
              -49.8667,
              -23.3864
            ],
            [
              -49.8636,
              -23.3865
            ],
            [
              -49.8651,
              -23.3879
            ],
            [
              -49.8646,
              -23.3887
            ],
            [
              -49.8611,
              -23.3871
            ],
            [
              -49.8587,
              -23.3888
            ],
            [
              -49.8565,
              -23.3875
            ],
            [
              -49.8541,
              -23.3883
            ],
            [
              -49.8558,
              -23.3894
            ],
            [
              -49.8542,
              -23.3905
            ],
            [
              -49.8549,
              -23.3918
            ],
            [
              -49.8551,
              -23.3936
            ],
            [
              -49.8539,
              -23.3934
            ],
            [
              -49.8523,
              -23.3941
            ],
            [
              -49.8532,
              -23.3977
            ],
            [
              -49.8553,
              -23.3975
            ],
            [
              -49.8552,
              -23.3988
            ],
            [
              -49.8525,
              -23.3992
            ],
            [
              -49.8541,
              -23.402
            ],
            [
              -49.8472,
              -23.4033
            ],
            [
              -49.8452,
              -23.4028
            ],
            [
              -49.8455,
              -23.4044
            ],
            [
              -49.8482,
              -23.4053
            ],
            [
              -49.8459,
              -23.4075
            ],
            [
              -49.8457,
              -23.4095
            ],
            [
              -49.8475,
              -23.4105
            ],
            [
              -49.8486,
              -23.4105
            ],
            [
              -49.85,
              -23.4114
            ],
            [
              -49.8487,
              -23.4125
            ],
            [
              -49.8506,
              -23.4131
            ],
            [
              -49.8522,
              -23.4149
            ],
            [
              -49.8501,
              -23.4158
            ],
            [
              -49.8477,
              -23.4179
            ],
            [
              -49.8493,
              -23.4199
            ],
            [
              -49.8474,
              -23.42
            ],
            [
              -49.8466,
              -23.421
            ],
            [
              -49.8461,
              -23.4233
            ],
            [
              -49.8477,
              -23.4228
            ],
            [
              -49.848,
              -23.4239
            ],
            [
              -49.8472,
              -23.425
            ],
            [
              -49.8455,
              -23.426
            ],
            [
              -49.8466,
              -23.4279
            ],
            [
              -49.8432,
              -23.4298
            ],
            [
              -49.8432,
              -23.4314
            ],
            [
              -49.8415,
              -23.4328
            ],
            [
              -49.8412,
              -23.4346
            ],
            [
              -49.8398,
              -23.4355
            ],
            [
              -49.8381,
              -23.4356
            ],
            [
              -49.8374,
              -23.4369
            ],
            [
              -49.8354,
              -23.4364
            ],
            [
              -49.8349,
              -23.4386
            ],
            [
              -49.8336,
              -23.4395
            ],
            [
              -49.8313,
              -23.4387
            ],
            [
              -49.8296,
              -23.4403
            ],
            [
              -49.8284,
              -23.4407
            ],
            [
              -49.8266,
              -23.4396
            ],
            [
              -49.8259,
              -23.4407
            ],
            [
              -49.8231,
              -23.4415
            ],
            [
              -49.8221,
              -23.4403
            ],
            [
              -49.8228,
              -23.4379
            ],
            [
              -49.819,
              -23.4369
            ],
            [
              -49.8168,
              -23.4377
            ],
            [
              -49.8166,
              -23.4387
            ],
            [
              -49.8139,
              -23.4395
            ],
            [
              -49.8133,
              -23.4403
            ],
            [
              -49.81,
              -23.4401
            ],
            [
              -49.8091,
              -23.439
            ],
            [
              -49.806,
              -23.438
            ],
            [
              -49.8032,
              -23.4365
            ],
            [
              -49.8018,
              -23.4353
            ],
            [
              -49.8005,
              -23.4328
            ],
            [
              -49.8032,
              -23.4251
            ],
            [
              -49.804,
              -23.4242
            ],
            [
              -49.8107,
              -23.4215
            ],
            [
              -49.8149,
              -23.423
            ],
            [
              -49.819,
              -23.4216
            ],
            [
              -49.8203,
              -23.4199
            ],
            [
              -49.821,
              -23.4167
            ],
            [
              -49.8195,
              -23.4119
            ],
            [
              -49.8194,
              -23.4099
            ],
            [
              -49.8201,
              -23.4071
            ],
            [
              -49.8183,
              -23.4061
            ],
            [
              -49.8169,
              -23.406
            ],
            [
              -49.815,
              -23.4051
            ],
            [
              -49.8108,
              -23.4051
            ],
            [
              -49.8063,
              -23.4028
            ],
            [
              -49.7993,
              -23.3971
            ],
            [
              -49.7978,
              -23.395
            ],
            [
              -49.7963,
              -23.3943
            ],
            [
              -49.7919,
              -23.3903
            ],
            [
              -49.7903,
              -23.3897
            ],
            [
              -49.7872,
              -23.3913
            ],
            [
              -49.7808,
              -23.3917
            ],
            [
              -49.7792,
              -23.3921
            ],
            [
              -49.7724,
              -23.3959
            ],
            [
              -49.7682,
              -23.396
            ],
            [
              -49.7632,
              -23.3929
            ],
            [
              -49.7614,
              -23.3925
            ],
            [
              -49.752,
              -23.3928
            ],
            [
              -49.7496,
              -23.3922
            ],
            [
              -49.7481,
              -23.3906
            ],
            [
              -49.7478,
              -23.3873
            ],
            [
              -49.7479,
              -23.3853
            ],
            [
              -49.7487,
              -23.3841
            ],
            [
              -49.7514,
              -23.3826
            ],
            [
              -49.752,
              -23.3804
            ],
            [
              -49.7511,
              -23.3757
            ],
            [
              -49.7479,
              -23.3716
            ],
            [
              -49.7447,
              -23.3689
            ],
            [
              -49.7413,
              -23.3652
            ],
            [
              -49.7394,
              -23.3642
            ],
            [
              -49.7362,
              -23.3645
            ],
            [
              -49.7331,
              -23.3672
            ],
            [
              -49.7257,
              -23.3714
            ],
            [
              -49.7235,
              -23.3717
            ],
            [
              -49.7175,
              -23.3711
            ],
            [
              -49.7135,
              -23.37
            ],
            [
              -49.701,
              -23.3643
            ],
            [
              -49.699,
              -23.3643
            ],
            [
              -49.6977,
              -23.3626
            ],
            [
              -49.6975,
              -23.3609
            ],
            [
              -49.6945,
              -23.3608
            ],
            [
              -49.6918,
              -23.3584
            ],
            [
              -49.6918,
              -23.3569
            ],
            [
              -49.689,
              -23.3541
            ],
            [
              -49.6881,
              -23.3522
            ],
            [
              -49.6862,
              -23.351
            ],
            [
              -49.6842,
              -23.3513
            ],
            [
              -49.6811,
              -23.3527
            ],
            [
              -49.6783,
              -23.3546
            ],
            [
              -49.6757,
              -23.3581
            ],
            [
              -49.6742,
              -23.3591
            ],
            [
              -49.6726,
              -23.3595
            ],
            [
              -49.6633,
              -23.3579
            ],
            [
              -49.6613,
              -23.359
            ],
            [
              -49.6584,
              -23.3597
            ],
            [
              -49.6554,
              -23.3618
            ],
            [
              -49.6509,
              -23.3614
            ],
            [
              -49.6476,
              -23.3632
            ],
            [
              -49.6439,
              -23.3634
            ],
            [
              -49.6409,
              -23.3604
            ],
            [
              -49.6402,
              -23.357
            ],
            [
              -49.6402,
              -23.3545
            ],
            [
              -49.6378,
              -23.351
            ],
            [
              -49.6379,
              -23.3495
            ],
            [
              -49.6382,
              -23.3488
            ],
            [
              -49.6379,
              -23.3426
            ],
            [
              -49.6362,
              -23.3398
            ],
            [
              -49.6348,
              -23.34
            ],
            [
              -49.6327,
              -23.343
            ],
            [
              -49.6313,
              -23.3442
            ],
            [
              -49.6294,
              -23.3438
            ],
            [
              -49.6277,
              -23.342
            ],
            [
              -49.6261,
              -23.3389
            ],
            [
              -49.6238,
              -23.336
            ],
            [
              -49.6217,
              -23.3319
            ],
            [
              -49.6216,
              -23.3306
            ],
            [
              -49.6229,
              -23.3265
            ],
            [
              -49.6227,
              -23.3223
            ],
            [
              -49.6233,
              -23.3184
            ],
            [
              -49.6241,
              -23.3166
            ],
            [
              -49.6275,
              -23.3131
            ],
            [
              -49.6287,
              -23.3112
            ],
            [
              -49.6292,
              -23.3082
            ],
            [
              -49.6311,
              -23.3057
            ],
            [
              -49.6314,
              -23.3044
            ],
            [
              -49.6309,
              -23.2995
            ],
            [
              -49.629,
              -23.2954
            ],
            [
              -49.6258,
              -23.2867
            ],
            [
              -49.6265,
              -23.2829
            ],
            [
              -49.6271,
              -23.2818
            ]
          ]
        ]
      },
      "properties": {
        "codarea": "4121802",
        "nome_municipio": "Ribeirão Claro",
        "codigo_ibge": 4121802
      }
    }
  ]
}