{"type":"FeatureCollection","features":[{"type":"Feature","properties":{"codarea":"4105201","centroide":[-49.27894825424593,-24.8751735261908],"codigo_ibge":4105201,"nome_ig":"Cerro Azul"},"geometry":{"type":"Polygon","coordinates":[[[-49.1578,-24.6719],[-49.1314,-24.6809],[-49.1368,-24.7091],[-49.113,-24.7223],[-49.1067,-24.7679],[-49.062,-24.7874],[-49.0603,-24.8017],[-49.0723,-24.84],[-49.092,-24.8798],[-49.1053,-24.8922],[-49.1233,-24.8974],[-49.1243,-24.9243],[-49.1123,-24.9318],[-49.1035,-24.9706],[-49.1159,-24.9845],[-49.0964,-25.0029],[-49.0929,-25.0381],[-49.0592,-25.0356],[-49.054,-25.0509],[-49.0939,-25.0741],[-49.1427,-25.0978],[-49.1519,-25.086],[-49.1897,-25.0815],[-49.2064,-25.0731],[-49.2401,-25.0746],[-49.2449,-25.0636],[-49.2789,-25.0492],[-49.2949,-25.0498],[-49.3136,-25.0274],[-49.3408,-25.0098],[-49.3493,-25.0133],[-49.3727,-24.9811],[-49.3933,-24.9754],[-49.389,-24.9471],[-49.3743,-24.9236],[-49.3937,-24.8859],[-49.4256,-24.905],[-49.4407,-24.9012],[-49.451,-24.9157],[-49.4731,-24.9067],[-49.494,-24.9167],[-49.4987,-24.9052],[-49.5085,-24.8773],[-49.5284,-24.8621],[-49.5264,-24.8462],[-49.5375,-24.8182],[-49.5622,-24.8076],[-49.5674,-24.7954],[-49.5297,-24.7155],[-49.4861,-24.7201],[-49.4713,-24.709],[-49.4517,-24.724],[-49.4197,-24.7183],[-49.4095,-24.731],[-49.3918,-24.7301],[-49.3802,-24.7476],[-49.3539,-24.7493],[-49.3172,-24.7648],[-49.2824,-24.7867],[-49.2317,-24.7793],[-49.2036,-24.79],[-49.221,-24.7385],[-49.2079,-24.7009],[-49.206,-24.6872],[-49.1856,-24.6727],[-49.1578,-24.6719]]]}}]}