{"type":"FeatureCollection","features":[{"type":"Feature","properties":{"codarea":"3100104","centroide":[-47.457819609633766,-18.353430606852807],"codigo_ibge":3100104,"nome_ig":"Cerrado"},"geometry":{"type":"Polygon","coordinates":[[[-47.4296,-18.1654],[-47.4226,-18.1929],[-47.4075,-18.1994],[-47.4148,-18.218],[-47.3706,-18.2239],[-47.3513,-18.2346],[-47.3471,-18.2483],[-47.3811,-18.2616],[-47.3778,-18.2779],[-47.3594,-18.2883],[-47.3391,-18.3122],[-47.3597,-18.3464],[-47.3431,-18.3804],[-47.3279,-18.3905],[-47.313,-18.4232],[-47.3123,-18.4514],[-47.3244,-18.4794],[-47.3296,-18.5354],[-47.3058,-18.5414],[-47.2962,-18.5535],[-47.3112,-18.5849],[-47.3318,-18.5883],[-47.3412,-18.5605],[-47.3737,-18.5354],[-47.3944,-18.5595],[-47.4153,-18.5544],[-47.415,-18.5322],[-47.4515,-18.5107],[-47.4463,-18.4793],[-47.4534,-18.4673],[-47.4801,-18.4577],[-47.4883,-18.4201],[-47.5025,-18.417],[-47.5116,-18.3975],[-47.5312,-18.3971],[-47.5767,-18.408],[-47.6367,-18.3709],[-47.6466,-18.3523],[-47.6797,-18.356],[-47.6715,-18.3581],[-47.6531,-18.3262],[-47.6481,-18.3406],[-47.6261,-18.3342],[-47.6112,-18.3153],[-47.6387,-18.2876],[-47.619,-18.2717],[-47.6257,-18.2594],[-47.6074,-18.2469],[-47.5817,-18.2351],[-47.566,-18.2039],[-47.5405,-18.1933],[-47.5401,-18.2173],[-47.5274,-18.2262],[-47.5182,-18.1988],[-47.4971,-18.1991],[-47.4799,-18.1772],[-47.4626,-18.176],[-47.4512,-18.1591],[-47.4296,-18.1654]]]}},{"type":"Feature","properties":{"codarea":"3103801","centroide":[-46.114007196750094,-19.041695484484183],"codigo_ibge":3103801,"nome_ig":"Cerrado"},"geometry":{"type":"Polygon","coordinates":[[[-46.0385,-18.9934],[-46.0398,-19.0324],[-46.0557,-19.0789],[-46.0746,-19.0882],[-46.0886,-19.1076],[-46.1323,-19.1064],[-46.1578,-19.0903],[-46.1964,-19.081],[-46.2174,-19.0629],[-46.1633,-19.0341],[-46.1484,-19.0121],[-46.1426,-18.9867],[-46.1135,-18.9416],[-46.1004,-18.9472],[-46.1067,-18.9628],[-46.0958,-18.9905],[-46.0738,-18.9987],[-46.0385,-18.9934]]]}},{"type":"Feature","properties":{"codarea":"3114303","centroide":[-46.18531290614144,-18.908033756889264],"codigo_ibge":3114303,"nome_ig":"Cerrado"},"geometry":{"type":"Polygon","coordinates":[[[-45.8622,-18.6397],[-45.8677,-18.6792],[-45.8858,-18.7124],[-45.8911,-18.7396],[-45.9344,-18.7433],[-45.9497,-18.7632],[-45.9426,-18.7688],[-45.9569,-18.7865],[-45.9534,-18.8037],[-45.9711,-18.8299],[-45.9627,-18.8687],[-45.978,-18.8976],[-45.9871,-18.8968],[-46.0204,-18.9378],[-46.0429,-18.9817],[-46.0385,-18.9934],[-46.0738,-18.9987],[-46.0958,-18.9905],[-46.1067,-18.9628],[-46.1004,-18.9472],[-46.1135,-18.9416],[-46.1426,-18.9867],[-46.1484,-19.0121],[-46.1633,-19.0341],[-46.2174,-19.0629],[-46.2168,-19.0496],[-46.2345,-19.0492],[-46.2637,-19.0643],[-46.2637,-19.0884],[-46.2841,-19.1022],[-46.3078,-19.1019],[-46.3262,-19.1142],[-46.3724,-19.1169],[-46.3831,-19.0991],[-46.4067,-19.0912],[-46.4118,-19.0672],[-46.4432,-19.0406],[-46.4331,-19.0171],[-46.4537,-18.9953],[-46.4811,-18.9507],[-46.5035,-18.9376],[-46.5078,-18.917],[-46.5286,-18.9075],[-46.5109,-18.9054],[-46.479,-18.9241],[-46.4193,-18.9109],[-46.4027,-18.8805],[-46.3831,-18.88],[-46.3744,-18.8917],[-46.336,-18.8969],[-46.3042,-18.8954],[-46.2722,-18.8569],[-46.2409,-18.8535],[-46.2489,-18.8152],[-46.24,-18.8236],[-46.2082,-18.8262],[-46.194,-18.8197],[-46.1736,-18.8371],[-46.1518,-18.829],[-46.1188,-18.8042],[-46.1175,-18.7862],[-46.0994,-18.7777],[-46.0943,-18.7609],[-46.0678,-18.755],[-46.0568,-18.7283],[-46.0625,-18.7192],[-46.0535,-18.7092],[-46.0076,-18.6938],[-45.9826,-18.7006],[-45.9567,-18.6836],[-45.9252,-18.6732],[-45.909,-18.6515],[-45.8622,-18.6397]]]}},{"type":"Feature","properties":{"codarea":"3119302","centroide":[-47.13676316872905,-18.41249610530086],"codigo_ibge":3119302,"nome_ig":"Cerrado"},"geometry":{"type":"Polygon","coordinates":[[[-47.1625,-17.9645],[-47.1734,-18.0032],[-47.1555,-18.0159],[-47.1513,-18.0477],[-47.1378,-18.0514],[-47.1154,-18.0388],[-47.1241,-18.0602],[-47.1126,-18.0865],[-47.1015,-18.0854],[-47.088,-18.1197],[-47.1031,-18.1523],[-47.0924,-18.1592],[-47.0831,-18.186],[-47.0873,-18.2004],[-47.0349,-18.2124],[-47.0004,-18.1935],[-46.9908,-18.2248],[-46.9753,-18.2261],[-46.9505,-18.2051],[-46.934,-18.2025],[-46.9358,-18.232],[-46.9202,-18.2635],[-46.936,-18.2727],[-46.9595,-18.2621],[-46.9782,-18.283],[-46.9945,-18.2854],[-46.9903,-18.3102],[-47.0048,-18.313],[-46.9945,-18.3362],[-46.9697,-18.3468],[-46.9684,-18.3975],[-46.9462,-18.4088],[-46.9313,-18.3988],[-46.9172,-18.434],[-46.9028,-18.4485],[-46.9041,-18.4681],[-46.8908,-18.4657],[-46.8881,-18.4869],[-46.8435,-18.525],[-46.8023,-18.5291],[-46.8036,-18.5529],[-46.8205,-18.5819],[-46.8154,-18.6197],[-46.8234,-18.6285],[-46.807,-18.6373],[-46.8103,-18.6507],[-46.8152,-18.6676],[-46.8495,-18.6692],[-46.8648,-18.7073],[-46.8644,-18.7285],[-46.8873,-18.7184],[-46.9135,-18.7329],[-46.9349,-18.734],[-46.9613,-18.7477],[-46.9652,-18.7271],[-47.0061,-18.6969],[-47.0758,-18.6973],[-47.1009,-18.7182],[-47.1168,-18.7456],[-47.1469,-18.7441],[-47.1583,-18.7611],[-47.187,-18.7524],[-47.2037,-18.7611],[-47.2579,-18.7366],[-47.2732,-18.7461],[-47.2775,-18.7268],[-47.3012,-18.7112],[-47.3049,-18.6982],[-47.3392,-18.6792],[-47.3359,-18.6681],[-47.3492,-18.6511],[-47.342,-18.6115],[-47.3318,-18.5883],[-47.3112,-18.5849],[-47.2962,-18.5535],[-47.3058,-18.5414],[-47.3296,-18.5354],[-47.3244,-18.4794],[-47.3123,-18.4514],[-47.313,-18.4232],[-47.3279,-18.3905],[-47.3431,-18.3804],[-47.3597,-18.3464],[-47.3391,-18.3122],[-47.3594,-18.2883],[-47.3778,-18.2779],[-47.3811,-18.2616],[-47.3471,-18.2483],[-47.3513,-18.2346],[-47.3706,-18.2239],[-47.4148,-18.218],[-47.4075,-18.1994],[-47.4226,-18.1929],[-47.4296,-18.1654],[-47.4287,-18.1392],[-47.4082,-18.1419],[-47.4073,-18.1317],[-47.3558,-18.1051],[-47.3577,-18.085],[-47.3227,-18.0696],[-47.2832,-18.0582],[-47.2828,-18.0408],[-47.2841,-18.0246],[-47.2658,-18.0015],[-47.2565,-18.0059],[-47.223,-17.9928],[-47.2041,-17.9626],[-47.1869,-17.9554],[-47.1764,-17.9328],[-47.1536,-17.9308],[-47.1625,-17.9645]]]}},{"type":"Feature","properties":{"codarea":"3120706","centroide":[-46.67628164525394,-18.97204407738531],"codigo_ibge":3120706,"nome_ig":"Cerrado"},"geometry":{"type":"Polygon","coordinates":[[[-46.5675,-18.9878],[-46.5888,-19.0141],[-46.6195,-19.0221],[-46.6198,-19.0457],[-46.6487,-19.0482],[-46.6899,-19.0018],[-46.7034,-19.0159],[-46.7236,-19.0217],[-46.7533,-19.002],[-46.7736,-18.9795],[-46.7749,-18.9577],[-46.7639,-18.9415],[-46.7501,-18.94],[-46.7326,-18.9419],[-46.7157,-18.9206],[-46.7068,-18.939],[-46.6589,-18.9119],[-46.6444,-18.8739],[-46.6274,-18.8838],[-46.6298,-18.9098],[-46.616,-18.924],[-46.6188,-18.9556],[-46.6071,-18.98],[-46.6091,-19.0069],[-46.5994,-19.009],[-46.5675,-18.9878]]]}},{"type":"Feature","properties":{"codarea":"3128907","centroide":[-46.75181886807894,-18.8174838607141],"codigo_ibge":3128907,"nome_ig":"Cerrado"},"geometry":{"type":"Polygon","coordinates":[[[-46.6444,-18.8739],[-46.6589,-18.9119],[-46.7068,-18.939],[-46.7157,-18.9206],[-46.7326,-18.9419],[-46.7501,-18.94],[-46.785,-18.9285],[-46.7948,-18.9176],[-46.7926,-18.8956],[-46.8148,-18.8768],[-46.8161,-18.8642],[-46.8008,-18.8396],[-46.7818,-18.8244],[-46.8081,-18.7974],[-46.8275,-18.7937],[-46.8161,-18.766],[-46.8181,-18.7401],[-46.829,-18.7258],[-46.8583,-18.7372],[-46.8644,-18.7285],[-46.8648,-18.7073],[-46.8495,-18.6692],[-46.8152,-18.6676],[-46.8103,-18.6507],[-46.7771,-18.6714],[-46.7799,-18.6953],[-46.7484,-18.7461],[-46.7396,-18.7762],[-46.7132,-18.7849],[-46.7106,-18.8034],[-46.6674,-18.811],[-46.6433,-18.8397],[-46.6242,-18.8363],[-46.6242,-18.8554],[-46.6444,-18.8739]]]}},{"type":"Feature","properties":{"codarea":"3137106","centroide":[-46.735247164808584,-18.103483567798847],"codigo_ibge":3137106,"nome_ig":"Cerrado"},"geometry":{"type":"Polygon","coordinates":[[[-46.5743,-17.7471],[-46.5682,-17.7656],[-46.5951,-17.7741],[-46.6224,-17.791],[-46.6307,-17.8121],[-46.6256,-17.8282],[-46.6412,-17.8541],[-46.642,-17.8705],[-46.6597,-17.8665],[-46.6689,-17.8809],[-46.6624,-17.8981],[-46.6783,-17.9235],[-46.6663,-17.9414],[-46.6754,-17.946],[-46.6516,-17.9561],[-46.6406,-17.9451],[-46.6161,-17.9528],[-46.615,-17.9734],[-46.6012,-17.9715],[-46.6068,-17.9973],[-46.5949,-18.0104],[-46.5776,-18.0295],[-46.5721,-18.0615],[-46.5537,-18.0656],[-46.54,-18.1054],[-46.5512,-18.1512],[-46.5459,-18.1761],[-46.5781,-18.1825],[-46.5953,-18.2188],[-46.6004,-18.2657],[-46.6201,-18.2729],[-46.6393,-18.2982],[-46.6524,-18.303],[-46.6654,-18.29],[-46.6926,-18.2905],[-46.7041,-18.3039],[-46.7317,-18.2965],[-46.7608,-18.3087],[-46.7779,-18.3168],[-46.7859,-18.3011],[-46.8157,-18.3198],[-46.8317,-18.3076],[-46.8544,-18.305],[-46.8877,-18.2794],[-46.899,-18.2857],[-46.9202,-18.2635],[-46.9358,-18.232],[-46.934,-18.2025],[-46.9505,-18.2051],[-46.9526,-18.1771],[-46.9447,-18.16],[-46.9382,-18.1066],[-46.9274,-18.0857],[-46.9296,-18.0601],[-46.9211,-18.0491],[-46.9057,-18.0701],[-46.8788,-18.0768],[-46.8627,-18.1058],[-46.8491,-18.0935],[-46.8697,-18.0524],[-46.8579,-18.0448],[-46.8451,-18.0081],[-46.8245,-17.994],[-46.8032,-17.9631],[-46.7901,-17.9679],[-46.7752,-17.9448],[-46.7488,-17.9175],[-46.7572,-17.9092],[-46.7452,-17.8907],[-46.7329,-17.8891],[-46.7322,-17.8709],[-46.7191,-17.8529],[-46.6802,-17.8259],[-46.6791,-17.8119],[-46.6589,-17.81],[-46.6632,-17.7944],[-46.6821,-17.785],[-46.6522,-17.7581],[-46.6373,-17.7554],[-46.6424,-17.7403],[-46.618,-17.7373],[-46.5991,-17.7519],[-46.5743,-17.7471]]]}},{"type":"Feature","properties":{"codarea":"3137502","centroide":[-46.33668192971574,-18.769436069976337],"codigo_ibge":3137502,"nome_ig":"Cerrado"},"geometry":{"type":"Polygon","coordinates":[[[-46.0625,-18.7192],[-46.0568,-18.7283],[-46.0678,-18.755],[-46.0943,-18.7609],[-46.0994,-18.7777],[-46.1175,-18.7862],[-46.1188,-18.8042],[-46.1518,-18.829],[-46.1736,-18.8371],[-46.194,-18.8197],[-46.2082,-18.8262],[-46.24,-18.8236],[-46.2489,-18.8152],[-46.2409,-18.8535],[-46.2722,-18.8569],[-46.3042,-18.8954],[-46.336,-18.8969],[-46.3744,-18.8917],[-46.3831,-18.88],[-46.4027,-18.8805],[-46.4139,-18.8699],[-46.4362,-18.8752],[-46.4455,-18.8605],[-46.5028,-18.8545],[-46.52,-18.8283],[-46.5422,-18.8174],[-46.5272,-18.7989],[-46.5237,-18.7757],[-46.5313,-18.7629],[-46.5183,-18.7514],[-46.5401,-18.7304],[-46.5273,-18.7269],[-46.5255,-18.7021],[-46.5112,-18.7056],[-46.4326,-18.6777],[-46.4269,-18.64],[-46.3979,-18.625],[-46.3489,-18.6338],[-46.3137,-18.6451],[-46.3,-18.6938],[-46.2798,-18.719],[-46.2569,-18.7124],[-46.2403,-18.7186],[-46.179,-18.7206],[-46.1501,-18.7441],[-46.1224,-18.7316],[-46.0964,-18.7058],[-46.0625,-18.7192]]]}},{"type":"Feature","properties":{"codarea":"3141207","centroide":[-45.99540880031607,-19.194082942109436],"codigo_ibge":3141207,"nome_ig":"Cerrado"},"geometry":{"type":"Polygon","coordinates":[[[-46.0557,-19.0789],[-46.0515,-19.0978],[-46.0298,-19.1334],[-46.0141,-19.1443],[-46.0013,-19.1796],[-45.9836,-19.1889],[-45.975,-19.2061],[-45.9378,-19.1599],[-45.9092,-19.1517],[-45.8601,-19.1582],[-45.8338,-19.1796],[-45.864,-19.1767],[-45.8705,-19.1992],[-45.9025,-19.2015],[-45.9219,-19.2165],[-45.9194,-19.257],[-45.9309,-19.2885],[-45.9824,-19.2675],[-46.0019,-19.2665],[-46.0319,-19.2459],[-46.0682,-19.2344],[-46.0655,-19.2218],[-46.1098,-19.1969],[-46.0818,-19.1295],[-46.0886,-19.1076],[-46.0746,-19.0882],[-46.0557,-19.0789]]]}},{"type":"Feature","properties":{"codarea":"3148004","centroide":[-46.508359490013184,-18.597163637602545],"codigo_ibge":3148004,"nome_ig":"Cerrado"},"geometry":{"type":"Polygon","coordinates":[[[-46.9202,-18.2635],[-46.899,-18.2857],[-46.8877,-18.2794],[-46.8544,-18.305],[-46.8317,-18.3076],[-46.8157,-18.3198],[-46.7859,-18.3011],[-46.7779,-18.3168],[-46.7608,-18.3087],[-46.742,-18.3511],[-46.7309,-18.3374],[-46.7251,-18.3608],[-46.7145,-18.3474],[-46.7072,-18.359],[-46.6758,-18.3579],[-46.6852,-18.3721],[-46.6569,-18.3939],[-46.6233,-18.4094],[-46.609,-18.4023],[-46.6014,-18.4221],[-46.5934,-18.4157],[-46.5689,-18.4256],[-46.5558,-18.4454],[-46.5117,-18.4697],[-46.4681,-18.4768],[-46.4471,-18.4898],[-46.4445,-18.5035],[-46.4221,-18.5142],[-46.3812,-18.5158],[-46.3635,-18.5262],[-46.3558,-18.5446],[-46.3581,-18.5658],[-46.3404,-18.5964],[-46.314,-18.5716],[-46.3082,-18.5567],[-46.2764,-18.5388],[-46.2561,-18.5462],[-46.244,-18.5061],[-46.2325,-18.5245],[-46.2118,-18.5358],[-46.2187,-18.5489],[-46.2023,-18.5522],[-46.2057,-18.5352],[-46.1377,-18.5117],[-46.124,-18.5231],[-46.1077,-18.5151],[-46.1022,-18.5334],[-46.0621,-18.5281],[-46.0614,-18.5399],[-46.036,-18.5338],[-45.9992,-18.5613],[-45.9833,-18.5351],[-45.9668,-18.5305],[-45.9505,-18.5584],[-45.9365,-18.5691],[-45.9158,-18.5633],[-45.9017,-18.5759],[-45.875,-18.5785],[-45.8612,-18.5933],[-45.8384,-18.5953],[-45.829,-18.5872],[-45.8276,-18.6085],[-45.8631,-18.6297],[-45.8622,-18.6397],[-45.909,-18.6515],[-45.9252,-18.6732],[-45.9567,-18.6836],[-45.9826,-18.7006],[-46.0076,-18.6938],[-46.0535,-18.7092],[-46.0625,-18.7192],[-46.0964,-18.7058],[-46.1224,-18.7316],[-46.1501,-18.7441],[-46.179,-18.7206],[-46.2403,-18.7186],[-46.2569,-18.7124],[-46.2798,-18.719],[-46.3,-18.6938],[-46.3137,-18.6451],[-46.3489,-18.6338],[-46.3979,-18.625],[-46.4269,-18.64],[-46.4326,-18.6777],[-46.5112,-18.7056],[-46.5255,-18.7021],[-46.5273,-18.7269],[-46.5401,-18.7304],[-46.5183,-18.7514],[-46.5313,-18.7629],[-46.5237,-18.7757],[-46.5272,-18.7989],[-46.5422,-18.8174],[-46.52,-18.8283],[-46.5028,-18.8545],[-46.4455,-18.8605],[-46.4362,-18.8752],[-46.4139,-18.8699],[-46.4027,-18.8805],[-46.4193,-18.9109],[-46.479,-18.9241],[-46.5109,-18.9054],[-46.5286,-18.9075],[-46.5078,-18.917],[-46.5111,-18.931],[-46.555,-18.9715],[-46.5675,-18.9878],[-46.5994,-19.009],[-46.6091,-19.0069],[-46.6071,-18.98],[-46.6188,-18.9556],[-46.616,-18.924],[-46.6298,-18.9098],[-46.6274,-18.8838],[-46.6444,-18.8739],[-46.6242,-18.8554],[-46.6242,-18.8363],[-46.6433,-18.8397],[-46.6674,-18.811],[-46.7106,-18.8034],[-46.7132,-18.7849],[-46.7396,-18.7762],[-46.7484,-18.7461],[-46.7799,-18.6953],[-46.7771,-18.6714],[-46.8103,-18.6507],[-46.807,-18.6373],[-46.8234,-18.6285],[-46.8154,-18.6197],[-46.8205,-18.5819],[-46.8036,-18.5529],[-46.8023,-18.5291],[-46.8435,-18.525],[-46.8881,-18.4869],[-46.8908,-18.4657],[-46.9041,-18.4681],[-46.9028,-18.4485],[-46.9172,-18.434],[-46.9313,-18.3988],[-46.9462,-18.4088],[-46.9684,-18.3975],[-46.9697,-18.3468],[-46.9945,-18.3362],[-47.0048,-18.313],[-46.9903,-18.3102],[-46.9945,-18.2854],[-46.9782,-18.283],[-46.9595,-18.2621],[-46.936,-18.2727],[-46.9202,-18.2635]]]}},{"type":"Feature","properties":{"codarea":"3148103","centroide":[-47.05122930040263,-18.970164912740493],"codigo_ibge":3148103,"nome_ig":"Cerrado"},"geometry":{"type":"Polygon","coordinates":[[[-46.8644,-18.7285],[-46.8583,-18.7372],[-46.829,-18.7258],[-46.8181,-18.7401],[-46.8161,-18.766],[-46.8275,-18.7937],[-46.8081,-18.7974],[-46.7818,-18.8244],[-46.8008,-18.8396],[-46.8161,-18.8642],[-46.8148,-18.8768],[-46.7926,-18.8956],[-46.7948,-18.9176],[-46.785,-18.9285],[-46.7501,-18.94],[-46.7639,-18.9415],[-46.7749,-18.9577],[-46.7736,-18.9795],[-46.7533,-19.002],[-46.7755,-19.0326],[-46.7857,-19.033],[-46.7879,-19.0695],[-46.7763,-19.1064],[-46.7871,-19.1111],[-46.8121,-19.1575],[-46.8414,-19.1548],[-46.8532,-19.1771],[-46.8951,-19.2189],[-46.9096,-19.2268],[-46.9371,-19.256],[-46.9568,-19.2691],[-46.9813,-19.2719],[-46.9946,-19.252],[-47.0089,-19.2615],[-47.0103,-19.2381],[-47.0286,-19.2368],[-47.0343,-19.2121],[-47.0454,-19.2169],[-47.0711,-19.2045],[-47.0751,-19.2173],[-47.0975,-19.2002],[-47.1083,-19.1795],[-47.1215,-19.1889],[-47.1323,-19.1774],[-47.1424,-19.1876],[-47.1545,-19.1724],[-47.1842,-19.1633],[-47.1968,-19.1513],[-47.2088,-19.1578],[-47.2182,-19.1404],[-47.2396,-19.1544],[-47.2598,-19.1428],[-47.2773,-19.1467],[-47.2966,-19.1704],[-47.3118,-19.1692],[-47.3057,-19.1464],[-47.3129,-19.13],[-47.3321,-19.123],[-47.3768,-19.1329],[-47.3895,-19.1276],[-47.3745,-19.08],[-47.3812,-19.0614],[-47.3577,-19.0302],[-47.3409,-19.0172],[-47.3395,-18.9871],[-47.3242,-18.9694],[-47.3394,-18.9594],[-47.3133,-18.9321],[-47.2803,-18.9284],[-47.2709,-18.8986],[-47.292,-18.8932],[-47.2923,-18.869],[-47.3012,-18.8515],[-47.3004,-18.8246],[-47.3152,-18.7864],[-47.3013,-18.768],[-47.3012,-18.7509],[-47.2775,-18.7268],[-47.2732,-18.7461],[-47.2579,-18.7366],[-47.2037,-18.7611],[-47.187,-18.7524],[-47.1583,-18.7611],[-47.1469,-18.7441],[-47.1168,-18.7456],[-47.1009,-18.7182],[-47.0758,-18.6973],[-47.0061,-18.6969],[-46.9652,-18.7271],[-46.9613,-18.7477],[-46.9349,-18.734],[-46.9135,-18.7329],[-46.8873,-18.7184],[-46.8644,-18.7285]]]}},{"type":"Feature","properties":{"codarea":"3153400","centroide":[-46.336173005202355,-18.23905179693793],"codigo_ibge":3153400,"nome_ig":"Cerrado"},"geometry":{"type":"Polygon","coordinates":[[[-46.0071,-18.3229],[-46.0097,-18.3259],[-46.0087,-18.3424],[-46.0247,-18.3681],[-46.0704,-18.4197],[-46.0917,-18.424],[-46.1085,-18.4574],[-46.096,-18.4733],[-46.107,-18.4909],[-46.1077,-18.5151],[-46.124,-18.5231],[-46.1377,-18.5117],[-46.2057,-18.5352],[-46.2023,-18.5522],[-46.2187,-18.5489],[-46.2118,-18.5358],[-46.2325,-18.5245],[-46.244,-18.5061],[-46.2561,-18.5462],[-46.2764,-18.5388],[-46.3082,-18.5567],[-46.314,-18.5716],[-46.3404,-18.5964],[-46.3581,-18.5658],[-46.3558,-18.5446],[-46.3635,-18.5262],[-46.3812,-18.5158],[-46.4221,-18.5142],[-46.4445,-18.5035],[-46.4471,-18.4898],[-46.4681,-18.4768],[-46.5117,-18.4697],[-46.5558,-18.4454],[-46.5689,-18.4256],[-46.5934,-18.4157],[-46.6014,-18.4221],[-46.609,-18.4023],[-46.6233,-18.4094],[-46.6569,-18.3939],[-46.6852,-18.3721],[-46.6758,-18.3579],[-46.7072,-18.359],[-46.7145,-18.3474],[-46.7251,-18.3608],[-46.7309,-18.3374],[-46.742,-18.3511],[-46.7608,-18.3087],[-46.7317,-18.2965],[-46.7041,-18.3039],[-46.6926,-18.2905],[-46.6654,-18.29],[-46.6524,-18.303],[-46.6393,-18.2982],[-46.6201,-18.2729],[-46.6004,-18.2657],[-46.5953,-18.2188],[-46.5781,-18.1825],[-46.5459,-18.1761],[-46.5512,-18.1512],[-46.54,-18.1054],[-46.5537,-18.0656],[-46.5721,-18.0615],[-46.5776,-18.0295],[-46.5949,-18.0104],[-46.5522,-18.0095],[-46.576,-17.9749],[-46.5617,-17.9648],[-46.5507,-17.9786],[-46.5119,-17.9923],[-46.4768,-17.9669],[-46.4572,-17.9725],[-46.4396,-17.9473],[-46.4255,-17.9509],[-46.3906,-17.9176],[-46.387,-17.8925],[-46.4074,-17.8737],[-46.4121,-17.8378],[-46.3605,-17.8444],[-46.3414,-17.8332],[-46.3491,-17.8199],[-46.3586,-17.7738],[-46.3292,-17.7359],[-46.3161,-17.7274],[-46.3105,-17.7485],[-46.3291,-17.7654],[-46.3063,-17.7875],[-46.2875,-17.8584],[-46.2625,-17.892],[-46.2605,-17.9135],[-46.2741,-17.9416],[-46.2648,-18.0053],[-46.2746,-18.0144],[-46.2568,-18.0465],[-46.2154,-18.0673],[-46.1489,-18.0729],[-46.1312,-18.087],[-46.1145,-18.0796],[-46.0911,-18.0869],[-46.0777,-18.1021],[-46.0727,-18.1377],[-46.0332,-18.1765],[-46.0055,-18.2186],[-46.0153,-18.2342],[-46.007,-18.2659],[-46.019,-18.2908],[-46.004,-18.312],[-46.0071,-18.3229]]]}},{"type":"Feature","properties":{"codarea":"3155504","centroide":[-46.29839779257301,-19.240012436627016],"codigo_ibge":3155504,"nome_ig":"Cerrado"},"geometry":{"type":"Polygon","coordinates":[[[-46.2174,-19.0629],[-46.1964,-19.081],[-46.1578,-19.0903],[-46.1323,-19.1064],[-46.0886,-19.1076],[-46.0818,-19.1295],[-46.1098,-19.1969],[-46.1076,-19.2135],[-46.1322,-19.2618],[-46.1298,-19.2802],[-46.1365,-19.3176],[-46.1245,-19.3684],[-46.1438,-19.3768],[-46.1554,-19.4102],[-46.1744,-19.4232],[-46.2257,-19.4243],[-46.2531,-19.4457],[-46.2662,-19.4317],[-46.2861,-19.4314],[-46.3069,-19.4109],[-46.3055,-19.3903],[-46.3168,-19.3826],[-46.3535,-19.399],[-46.3909,-19.4015],[-46.4132,-19.3646],[-46.422,-19.3305],[-46.4502,-19.3114],[-46.4888,-19.3202],[-46.4962,-19.3137],[-46.5173,-19.2711],[-46.5101,-19.2625],[-46.5227,-19.2173],[-46.5414,-19.1902],[-46.5273,-19.1578],[-46.4967,-19.1574],[-46.4832,-19.1465],[-46.4741,-19.1035],[-46.4451,-19.0968],[-46.4125,-19.0774],[-46.4118,-19.0672],[-46.4067,-19.0912],[-46.3831,-19.0991],[-46.3724,-19.1169],[-46.3262,-19.1142],[-46.3078,-19.1019],[-46.2841,-19.1022],[-46.2637,-19.0884],[-46.2637,-19.0643],[-46.2345,-19.0492],[-46.2168,-19.0496],[-46.2174,-19.0629]]]}},{"type":"Feature","properties":{"codarea":"3159704","centroide":[-45.999707085310405,-19.562009298544037],"codigo_ibge":3159704,"nome_ig":"Cerrado"},"geometry":{"type":"Polygon","coordinates":[[[-45.9021,-19.4652],[-45.8864,-19.4922],[-45.9164,-19.5406],[-45.9311,-19.5826],[-45.9446,-19.5906],[-45.9486,-19.6083],[-45.9861,-19.6435],[-46.0097,-19.6557],[-46.0353,-19.6464],[-46.0445,-19.6549],[-46.0693,-19.6499],[-46.0665,-19.6366],[-46.1069,-19.6095],[-46.1046,-19.5834],[-46.1381,-19.5573],[-46.1276,-19.5426],[-46.0986,-19.5515],[-46.042,-19.5544],[-46.0352,-19.5315],[-46.0135,-19.5313],[-45.9916,-19.4957],[-45.9904,-19.4781],[-45.9777,-19.46],[-45.9402,-19.4612],[-45.9231,-19.4734],[-45.9021,-19.4652]]]}},{"type":"Feature","properties":{"codarea":"3161700","centroide":[-45.54555909438442,-18.17654044898557],"codigo_ibge":3161700,"nome_ig":"Cerrado"},"geometry":{"type":"Polygon","coordinates":[[[-45.1984,-17.9878],[-45.1818,-18.0098],[-45.18,-18.0304],[-45.2088,-18.0577],[-45.1833,-18.0902],[-45.1882,-18.1244],[-45.2385,-18.1092],[-45.2501,-18.1285],[-45.2324,-18.1343],[-45.2289,-18.1586],[-45.2499,-18.1852],[-45.2673,-18.2209],[-45.2881,-18.2098],[-45.3159,-18.2186],[-45.344,-18.259],[-45.3623,-18.2696],[-45.3739,-18.2895],[-45.3857,-18.2923],[-45.4121,-18.3188],[-45.4366,-18.3158],[-45.4496,-18.3237],[-45.5088,-18.3163],[-45.5269,-18.3335],[-45.5702,-18.3541],[-45.5735,-18.3721],[-45.5865,-18.3722],[-45.5926,-18.3909],[-45.6165,-18.3994],[-45.6127,-18.4125],[-45.6345,-18.4296],[-45.6297,-18.4436],[-45.6429,-18.4536],[-45.6448,-18.4819],[-45.6765,-18.4924],[-45.704,-18.4882],[-45.723,-18.5073],[-45.7402,-18.4902],[-45.7666,-18.4801],[-45.7732,-18.467],[-45.7884,-18.4631],[-45.7638,-18.4317],[-45.7698,-18.4183],[-45.7524,-18.4151],[-45.7486,-18.3977],[-45.7778,-18.3938],[-45.803,-18.4034],[-45.8291,-18.3888],[-45.8653,-18.3943],[-45.8808,-18.3805],[-45.9062,-18.3794],[-45.9175,-18.389],[-45.9257,-18.3763],[-45.9913,-18.3321],[-46.0097,-18.3259],[-46.0071,-18.3229],[-45.9603,-18.3172],[-45.9488,-18.3221],[-45.9317,-18.3115],[-45.9167,-18.3248],[-45.8827,-18.2558],[-45.8468,-18.2333],[-45.8269,-18.2065],[-45.8243,-18.1886],[-45.8069,-18.1789],[-45.7296,-18.1648],[-45.7196,-18.1557],[-45.6999,-18.1643],[-45.6929,-18.143],[-45.6767,-18.1372],[-45.6738,-18.116],[-45.6455,-18.0882],[-45.6325,-18.0582],[-45.6394,-18.0536],[-45.6387,-18.0233],[-45.6309,-18.0116],[-45.6066,-18.0033],[-45.6039,-17.9742],[-45.5885,-17.968],[-45.5796,-17.935],[-45.5627,-17.9181],[-45.5673,-17.902],[-45.549,-17.8985],[-45.526,-17.8804],[-45.5146,-17.8616],[-45.4944,-17.8536],[-45.4682,-17.856],[-45.4564,-17.8471],[-45.4517,-17.8652],[-45.4657,-17.8803],[-45.4698,-17.9042],[-45.449,-17.9032],[-45.4466,-17.9167],[-45.4173,-17.9047],[-45.3879,-17.9016],[-45.35,-17.906],[-45.3377,-17.9387],[-45.2903,-17.9616],[-45.2751,-17.9848],[-45.2564,-17.9936],[-45.241,-17.9759],[-45.2236,-17.9765],[-45.2105,-17.9945],[-45.1984,-17.9878]]]}},{"type":"Feature","properties":{"codarea":"3162104","centroide":[-46.00007260444483,-19.360004823922875],"codigo_ibge":3162104,"nome_ig":"Cerrado"},"geometry":{"type":"Polygon","coordinates":[[[-45.8338,-19.1796],[-45.8038,-19.1959],[-45.8139,-19.2101],[-45.8097,-19.2418],[-45.8198,-19.2678],[-45.834,-19.2751],[-45.8516,-19.3253],[-45.8655,-19.3394],[-45.8658,-19.364],[-45.8782,-19.3675],[-45.8896,-19.4001],[-45.8874,-19.4326],[-45.9006,-19.4379],[-45.9021,-19.4652],[-45.9231,-19.4734],[-45.9402,-19.4612],[-45.9777,-19.46],[-45.9904,-19.4781],[-45.9916,-19.4957],[-46.0135,-19.5313],[-46.0352,-19.5315],[-46.042,-19.5544],[-46.0986,-19.5515],[-46.1276,-19.5426],[-46.1067,-19.5267],[-46.134,-19.5013],[-46.1059,-19.4681],[-46.1332,-19.4618],[-46.1388,-19.4376],[-46.1554,-19.4102],[-46.1438,-19.3768],[-46.1245,-19.3684],[-46.1365,-19.3176],[-46.1298,-19.2802],[-46.1322,-19.2618],[-46.1076,-19.2135],[-46.1098,-19.1969],[-46.0655,-19.2218],[-46.0682,-19.2344],[-46.0319,-19.2459],[-46.0019,-19.2665],[-45.9824,-19.2675],[-45.9309,-19.2885],[-45.9194,-19.257],[-45.9219,-19.2165],[-45.9025,-19.2015],[-45.8705,-19.1992],[-45.864,-19.1767],[-45.8338,-19.1796]]]}},{"type":"Feature","properties":{"codarea":"3168903","centroide":[-45.82412048602767,-18.859877433407654],"codigo_ibge":3168903,"nome_ig":"Cerrado"},"geometry":{"type":"Polygon","coordinates":[[[-45.6448,-18.4819],[-45.6348,-18.4975],[-45.6395,-18.5149],[-45.6216,-18.5225],[-45.6154,-18.5719],[-45.6372,-18.608],[-45.6331,-18.6282],[-45.639,-18.665],[-45.6625,-18.6796],[-45.6685,-18.7008],[-45.6909,-18.7072],[-45.6935,-18.7413],[-45.7019,-18.7611],[-45.6815,-18.779],[-45.6433,-18.7743],[-45.637,-18.7919],[-45.6487,-18.8204],[-45.6476,-18.8482],[-45.6691,-18.8452],[-45.6672,-18.8808],[-45.6922,-18.9225],[-45.686,-18.936],[-45.7041,-18.9494],[-45.7134,-18.9718],[-45.6993,-18.9847],[-45.7159,-19.0035],[-45.712,-19.0296],[-45.7402,-19.0438],[-45.7443,-19.0761],[-45.7573,-19.0987],[-45.7583,-19.117],[-45.7715,-19.1182],[-45.7752,-19.153],[-45.784,-19.1571],[-45.7868,-19.1727],[-45.8065,-19.1866],[-45.8038,-19.1959],[-45.8338,-19.1796],[-45.8601,-19.1582],[-45.9092,-19.1517],[-45.9378,-19.1599],[-45.975,-19.2061],[-45.9836,-19.1889],[-46.0013,-19.1796],[-46.0141,-19.1443],[-46.0298,-19.1334],[-46.0515,-19.0978],[-46.0557,-19.0789],[-46.0398,-19.0324],[-46.0385,-18.9934],[-46.0429,-18.9817],[-46.0204,-18.9378],[-45.9871,-18.8968],[-45.978,-18.8976],[-45.9627,-18.8687],[-45.9711,-18.8299],[-45.9534,-18.8037],[-45.9569,-18.7865],[-45.9426,-18.7688],[-45.9497,-18.7632],[-45.9344,-18.7433],[-45.8911,-18.7396],[-45.8858,-18.7124],[-45.8677,-18.6792],[-45.8622,-18.6397],[-45.8631,-18.6297],[-45.8276,-18.6085],[-45.829,-18.5872],[-45.8089,-18.5689],[-45.8154,-18.5545],[-45.8012,-18.538],[-45.8048,-18.5198],[-45.792,-18.5042],[-45.8057,-18.4841],[-45.7732,-18.467],[-45.7666,-18.4801],[-45.7402,-18.4902],[-45.723,-18.5073],[-45.704,-18.4882],[-45.6765,-18.4924],[-45.6448,-18.4819]]]}},{"type":"Feature","properties":{"codarea":"3170750","centroide":[-45.93504330643025,-18.466662914957958],"codigo_ibge":3170750,"nome_ig":"Cerrado"},"geometry":{"type":"Polygon","coordinates":[[[-45.7732,-18.467],[-45.8057,-18.4841],[-45.792,-18.5042],[-45.8048,-18.5198],[-45.8012,-18.538],[-45.8154,-18.5545],[-45.8089,-18.5689],[-45.829,-18.5872],[-45.8384,-18.5953],[-45.8612,-18.5933],[-45.875,-18.5785],[-45.9017,-18.5759],[-45.9158,-18.5633],[-45.9365,-18.5691],[-45.9505,-18.5584],[-45.9668,-18.5305],[-45.9833,-18.5351],[-45.9992,-18.5613],[-46.036,-18.5338],[-46.0614,-18.5399],[-46.0621,-18.5281],[-46.1022,-18.5334],[-46.1077,-18.5151],[-46.107,-18.4909],[-46.096,-18.4733],[-46.1085,-18.4574],[-46.0917,-18.424],[-46.0704,-18.4197],[-46.0247,-18.3681],[-46.0087,-18.3424],[-46.0097,-18.3259],[-45.9913,-18.3321],[-45.9257,-18.3763],[-45.9175,-18.389],[-45.9062,-18.3794],[-45.8808,-18.3805],[-45.8653,-18.3943],[-45.8291,-18.3888],[-45.803,-18.4034],[-45.7778,-18.3938],[-45.7486,-18.3977],[-45.7524,-18.4151],[-45.7698,-18.4183],[-45.7638,-18.4317],[-45.7884,-18.4631],[-45.7732,-18.467]]]}},{"type":"Feature","properties":{"codarea":"3171006","centroide":[-46.86746302889534,-17.86884858755719],"codigo_ibge":3171006,"nome_ig":"Cerrado"},"geometry":{"type":"Polygon","coordinates":[[[-46.5851,-17.515],[-46.5935,-17.5406],[-46.5876,-17.5992],[-46.5944,-17.6256],[-46.618,-17.6555],[-46.5957,-17.6902],[-46.5818,-17.6993],[-46.6059,-17.7047],[-46.6076,-17.7147],[-46.5782,-17.7321],[-46.5743,-17.7471],[-46.5991,-17.7519],[-46.618,-17.7373],[-46.6424,-17.7403],[-46.6373,-17.7554],[-46.6522,-17.7581],[-46.6821,-17.785],[-46.6632,-17.7944],[-46.6589,-17.81],[-46.6791,-17.8119],[-46.6802,-17.8259],[-46.7191,-17.8529],[-46.7322,-17.8709],[-46.7329,-17.8891],[-46.7452,-17.8907],[-46.7572,-17.9092],[-46.7488,-17.9175],[-46.7752,-17.9448],[-46.7901,-17.9679],[-46.8032,-17.9631],[-46.8245,-17.994],[-46.8451,-18.0081],[-46.8579,-18.0448],[-46.8697,-18.0524],[-46.8491,-18.0935],[-46.8627,-18.1058],[-46.8788,-18.0768],[-46.9057,-18.0701],[-46.9211,-18.0491],[-46.9296,-18.0601],[-46.9274,-18.0857],[-46.9382,-18.1066],[-46.9447,-18.16],[-46.9526,-18.1771],[-46.9505,-18.2051],[-46.9753,-18.2261],[-46.9908,-18.2248],[-47.0004,-18.1935],[-47.0349,-18.2124],[-47.0873,-18.2004],[-47.0831,-18.186],[-47.0924,-18.1592],[-47.1031,-18.1523],[-47.088,-18.1197],[-47.1015,-18.0854],[-47.1126,-18.0865],[-47.1241,-18.0602],[-47.1154,-18.0388],[-47.1378,-18.0514],[-47.1513,-18.0477],[-47.1555,-18.0159],[-47.1734,-18.0032],[-47.1625,-17.9645],[-47.1169,-17.941],[-47.099,-17.9042],[-47.0929,-17.92],[-47.0542,-17.9271],[-47.0413,-17.9416],[-46.9956,-17.8992],[-46.9819,-17.9068],[-46.9607,-17.8787],[-46.9662,-17.8685],[-46.94,-17.8465],[-46.9446,-17.8189],[-46.928,-17.7697],[-46.9328,-17.7478],[-46.9204,-17.7432],[-46.9196,-17.7152],[-46.8925,-17.6938],[-46.888,-17.6695],[-46.867,-17.6692],[-46.8806,-17.6495],[-46.8781,-17.6244],[-46.858,-17.6135],[-46.816,-17.6054],[-46.7965,-17.5926],[-46.7788,-17.6116],[-46.7277,-17.6167],[-46.6915,-17.5884],[-46.6663,-17.5602],[-46.6727,-17.546],[-46.6154,-17.5103],[-46.6194,-17.4985],[-46.5851,-17.515]]]}}]}