{"type":"FeatureCollection","features":[{"type":"Feature","properties":{"codarea":"2900108","centroide":[-41.74263621987588,-13.295836369659947],"codigo_ibge":2900108,"nome_ig":"Chapada Diamantina"},"geometry":{"type":"MultiPolygon","coordinates":[[[[-41.6051,-13.4248],[-41.6112,-13.4278],[-41.633,-13.4139],[-41.6718,-13.3529],[-41.6998,-13.3709],[-41.7131,-13.3526],[-41.7225,-13.3576],[-41.7465,-13.3248],[-41.7659,-13.35],[-41.7833,-13.3617],[-41.7952,-13.3835],[-41.7921,-13.4238],[-41.8043,-13.4187],[-41.8404,-13.3839],[-41.8725,-13.3606],[-41.8693,-13.3473],[-41.8848,-13.3279],[-41.9091,-13.3114],[-41.9011,-13.302],[-41.9125,-13.264],[-41.9186,-13.2494],[-41.8882,-13.2107],[-41.8745,-13.2113],[-41.8579,-13.1892],[-41.8349,-13.2154],[-41.8025,-13.2697],[-41.7894,-13.2806],[-41.7347,-13.2528],[-41.7256,-13.2355],[-41.6902,-13.2162],[-41.6736,-13.193],[-41.6766,-13.1795],[-41.6535,-13.1683],[-41.5989,-13.2296],[-41.5903,-13.2688],[-41.6022,-13.2709],[-41.5983,-13.3069],[-41.6087,-13.3228],[-41.6099,-13.3823],[-41.6051,-13.4248]]]]}},{"type":"Feature","properties":{"codarea":"2901304","centroide":[-41.21512988041014,-12.734670899498136],"codigo_ibge":2901304,"nome_ig":"Chapada Diamantina"},"geometry":{"type":"MultiPolygon","coordinates":[[[[-40.9809,-12.4604],[-40.9635,-12.4932],[-40.9854,-12.5364],[-40.9785,-12.5658],[-41.0074,-12.6211],[-41.0466,-12.689],[-41.1488,-12.7107],[-41.1491,-12.745],[-41.1667,-12.7459],[-41.1667,-12.7612],[-41.1855,-12.786],[-41.2071,-12.7842],[-41.2317,-12.8187],[-41.2448,-12.7964],[-41.2598,-12.8074],[-41.2414,-12.8347],[-41.2231,-12.8907],[-41.2325,-12.9123],[-41.2255,-12.9361],[-41.2039,-12.9598],[-41.1897,-12.9895],[-41.1658,-13.0751],[-41.1478,-13.1074],[-41.1797,-13.1277],[-41.2299,-13.1291],[-41.2445,-13.1136],[-41.2519,-13.1211],[-41.2557,-13.0968],[-41.298,-13.0571],[-41.3127,-13.0178],[-41.3194,-12.9607],[-41.3305,-12.9308],[-41.3411,-12.9231],[-41.3566,-12.8896],[-41.3805,-12.8801],[-41.4107,-12.8034],[-41.4391,-12.7106],[-41.4131,-12.7103],[-41.3561,-12.6995],[-41.3419,-12.7065],[-41.3405,-12.6778],[-41.3239,-12.6708],[-41.3395,-12.6132],[-41.3362,-12.6003],[-41.3453,-12.5661],[-41.306,-12.5502],[-41.279,-12.5586],[-41.2544,-12.544],[-41.2158,-12.5296],[-41.2067,-12.5044],[-41.1001,-12.4729],[-41.0837,-12.4654],[-41.0521,-12.4756],[-40.9809,-12.4604]]]]}},{"type":"Feature","properties":{"codarea":"2902807","centroide":[-41.097870072935436,-13.650391174198901],"codigo_ibge":2902807,"nome_ig":"Chapada Diamantina"},"geometry":{"type":"MultiPolygon","coordinates":[[[[-40.7147,-13.841],[-40.7353,-13.8354],[-40.7863,-13.8342],[-40.8556,-13.85],[-40.8794,-13.8438],[-40.9056,-13.8861],[-40.9213,-13.891],[-40.9635,-13.8522],[-40.9634,-13.8403],[-40.9826,-13.8377],[-40.9934,-13.8114],[-40.9905,-13.7926],[-41.0116,-13.7944],[-41.0426,-13.7667],[-41.0245,-13.7342],[-41.0336,-13.7136],[-41.0274,-13.666],[-41.0399,-13.6451],[-41.0323,-13.6261],[-41.0528,-13.6091],[-41.0823,-13.6133],[-41.1218,-13.638],[-41.1576,-13.6769],[-41.1794,-13.6721],[-41.1911,-13.6951],[-41.2176,-13.7051],[-41.2211,-13.6947],[-41.2491,-13.7181],[-41.2854,-13.6819],[-41.3023,-13.6854],[-41.2939,-13.7076],[-41.3278,-13.7001],[-41.3725,-13.6717],[-41.4318,-13.6683],[-41.4438,-13.6619],[-41.4573,-13.6278],[-41.4716,-13.6235],[-41.4754,-13.585],[-41.4872,-13.5236],[-41.3525,-13.4901],[-41.3102,-13.4955],[-41.2563,-13.4703],[-41.2305,-13.5191],[-41.2161,-13.5041],[-41.2203,-13.4702],[-41.0382,-13.5563],[-40.9553,-13.5454],[-40.9418,-13.5671],[-40.9016,-13.5703],[-40.8584,-13.5825],[-40.8369,-13.6358],[-40.7147,-13.841]]]]}},{"type":"Feature","properties":{"codarea":"2904001","centroide":[-41.802483610462744,-12.776626218465628],"codigo_ibge":2904001,"nome_ig":"Chapada Diamantina"},"geometry":{"type":"MultiPolygon","coordinates":[[[[-41.6487,-12.6796],[-41.6053,-12.7115],[-41.6155,-12.7591],[-41.6365,-12.7813],[-41.6209,-12.8273],[-41.6307,-12.8672],[-41.6436,-12.8818],[-41.6403,-12.898],[-41.6996,-12.9948],[-41.7064,-12.9762],[-41.7638,-12.8663],[-41.7978,-12.8085],[-41.8129,-12.8208],[-41.8297,-12.8142],[-41.8594,-12.8249],[-41.8949,-12.8036],[-41.9147,-12.819],[-41.9509,-12.8209],[-41.978,-12.8303],[-41.9936,-12.8557],[-42.0184,-12.8561],[-42.0184,-12.828],[-42.0333,-12.7629],[-42.018,-12.72],[-42.0279,-12.6575],[-41.999,-12.6659],[-41.9793,-12.6628],[-41.8974,-12.6842],[-41.8457,-12.6763],[-41.6487,-12.6796]]]]}},{"type":"Feature","properties":{"codarea":"2904050","centroide":[-41.32069058419885,-11.969317525827424],"codigo_ibge":2904050,"nome_ig":"Chapada Diamantina"},"geometry":{"type":"MultiPolygon","coordinates":[[[[-41.2233,-11.9186],[-41.2036,-11.9513],[-41.1889,-11.9627],[-41.1964,-11.986],[-41.1955,-12.0117],[-41.2158,-12.0179],[-41.2312,-12.0401],[-41.2293,-12.078],[-41.2177,-12.0838],[-41.2369,-12.114],[-41.2247,-12.1247],[-41.2291,-12.1373],[-41.275,-12.1487],[-41.3548,-12.1683],[-41.3714,-12.1194],[-41.3682,-12.0829],[-41.3966,-12.0745],[-41.4077,-12.0478],[-41.4021,-12.0384],[-41.4157,-12.0199],[-41.4166,-11.998],[-41.4447,-11.9861],[-41.4556,-11.9696],[-41.4475,-11.946],[-41.4255,-11.9341],[-41.4206,-11.8682],[-41.3989,-11.8127],[-41.393,-11.7715],[-41.3664,-11.7792],[-41.3485,-11.7762],[-41.3247,-11.7867],[-41.3226,-11.7975],[-41.2822,-11.8043],[-41.2482,-11.8163],[-41.2446,-11.8444],[-41.2547,-11.8756],[-41.2538,-11.9032],[-41.229,-11.9078],[-41.2233,-11.9186]]]]}},{"type":"Feature","properties":{"codarea":"2912202","centroide":[-41.33646755009028,-13.382474418674512],"codigo_ibge":2912202,"nome_ig":"Chapada Diamantina"},"geometry":{"type":"MultiPolygon","coordinates":[[[[-41.1851,-13.2299],[-41.1679,-13.2499],[-41.158,-13.2826],[-41.1425,-13.2994],[-41.1259,-13.2872],[-41.1059,-13.2935],[-41.1047,-13.3188],[-41.1177,-13.34],[-41.1266,-13.3325],[-41.1297,-13.3619],[-41.1557,-13.3772],[-41.1604,-13.403],[-41.1867,-13.405],[-41.2176,-13.429],[-41.233,-13.4289],[-41.2367,-13.4611],[-41.2563,-13.4703],[-41.3102,-13.4955],[-41.3525,-13.4901],[-41.4872,-13.5236],[-41.5012,-13.5195],[-41.4991,-13.4811],[-41.5116,-13.447],[-41.5374,-13.4428],[-41.5719,-13.45],[-41.58,-13.4727],[-41.595,-13.4811],[-41.6027,-13.4609],[-41.5967,-13.4461],[-41.6112,-13.4278],[-41.6051,-13.4248],[-41.5694,-13.4108],[-41.5506,-13.4102],[-41.5474,-13.4258],[-41.4458,-13.3835],[-41.4382,-13.35],[-41.4386,-13.3191],[-41.4537,-13.2958],[-41.4539,-13.263],[-41.4459,-13.2506],[-41.415,-13.2458],[-41.3988,-13.225],[-41.3925,-13.2566],[-41.3802,-13.2725],[-41.3483,-13.2824],[-41.3058,-13.3176],[-41.2905,-13.3224],[-41.1851,-13.2299]]]]}},{"type":"Feature","properties":{"codarea":"2913002","centroide":[-42.28247212752517,-12.576063049819389],"codigo_ibge":2913002,"nome_ig":"Chapada Diamantina"},"geometry":{"type":"MultiPolygon","coordinates":[[[[-42.0279,-12.6575],[-42.018,-12.72],[-42.0965,-12.715],[-42.1388,-12.7185],[-42.1665,-12.7257],[-42.1729,-12.7192],[-42.2051,-12.7277],[-42.265,-12.7269],[-42.281,-12.708],[-42.2981,-12.7035],[-42.3264,-12.7148],[-42.3533,-12.7169],[-42.3953,-12.697],[-42.4184,-12.6977],[-42.449,-12.6872],[-42.4735,-12.7079],[-42.5049,-12.7161],[-42.5171,-12.7117],[-42.5321,-12.691],[-42.5839,-12.6821],[-42.5825,-12.6631],[-42.6043,-12.6587],[-42.6096,-12.6372],[-42.6274,-12.6264],[-42.6232,-12.6049],[-42.6367,-12.5956],[-42.6364,-12.5776],[-42.6545,-12.5178],[-42.6392,-12.5008],[-42.6082,-12.5125],[-42.5894,-12.5098],[-42.5793,-12.5289],[-42.5636,-12.5286],[-42.5329,-12.5468],[-42.5177,-12.5394],[-42.4832,-12.5404],[-42.4691,-12.523],[-42.4255,-12.4973],[-42.3871,-12.482],[-42.3703,-12.4811],[-42.37,-12.458],[-42.3531,-12.4575],[-42.3328,-12.4764],[-42.3215,-12.4393],[-42.3253,-12.4319],[-42.3058,-12.4038],[-42.2725,-12.4122],[-42.2537,-12.408],[-42.2492,-12.3895],[-42.2173,-12.3865],[-42.2079,-12.3773],[-42.1821,-12.3814],[-42.1403,-12.4007],[-42.1037,-12.3958],[-42.0686,-12.419],[-42.0698,-12.4311],[-42.0147,-12.5048],[-42.0053,-12.5541],[-42.0067,-12.5686],[-41.9837,-12.6008],[-42.0299,-12.6188],[-42.0279,-12.6575]]]]}},{"type":"Feature","properties":{"codarea":"2914307","centroide":[-40.92018092143744,-13.468907970032793],"codigo_ibge":2914307,"nome_ig":"Chapada Diamantina"},"geometry":{"type":"MultiPolygon","coordinates":[[[[-40.7835,-13.3674],[-40.7714,-13.3981],[-40.7273,-13.4319],[-40.7375,-13.4635],[-40.7107,-13.4864],[-40.6951,-13.5145],[-40.6965,-13.5333],[-40.6869,-13.5486],[-40.6914,-13.5729],[-40.684,-13.5831],[-40.6897,-13.6093],[-40.7032,-13.6269],[-40.7031,-13.6563],[-40.7134,-13.6694],[-40.7066,-13.6821],[-40.7228,-13.6892],[-40.7253,-13.7184],[-40.7158,-13.7453],[-40.7246,-13.7585],[-40.703,-13.7643],[-40.7011,-13.8018],[-40.6783,-13.8253],[-40.6556,-13.8394],[-40.6785,-13.8504],[-40.6953,-13.8377],[-40.7147,-13.841],[-40.8369,-13.6358],[-40.8584,-13.5825],[-40.9016,-13.5703],[-40.9418,-13.5671],[-40.9553,-13.5454],[-41.0382,-13.5563],[-41.2203,-13.4702],[-41.2161,-13.5041],[-41.2305,-13.5191],[-41.2563,-13.4703],[-41.2367,-13.4611],[-41.233,-13.4289],[-41.2176,-13.429],[-41.1867,-13.405],[-41.1604,-13.403],[-41.1557,-13.3772],[-41.1297,-13.3619],[-41.1266,-13.3325],[-41.1177,-13.34],[-41.1047,-13.3188],[-41.1059,-13.2935],[-41.0786,-13.2732],[-41.0888,-13.2557],[-41.0103,-13.2609],[-40.9183,-13.2295],[-40.89,-13.2653],[-40.8698,-13.2799],[-40.8752,-13.2928],[-40.8623,-13.3183],[-40.8362,-13.3156],[-40.8011,-13.3337],[-40.8008,-13.3472],[-40.7835,-13.3674]]]]}},{"type":"Feature","properties":{"codarea":"2914406","centroide":[-41.5838977814503,-12.248227461435292],"codigo_ibge":2914406,"nome_ig":"Chapada Diamantina"},"geometry":{"type":"MultiPolygon","coordinates":[[[[-41.3548,-12.1683],[-41.4001,-12.2],[-41.4152,-12.2234],[-41.4115,-12.2468],[-41.4345,-12.2645],[-41.4434,-12.3085],[-41.4256,-12.3445],[-41.4356,-12.3542],[-41.425,-12.3783],[-41.4414,-12.4132],[-41.4524,-12.3827],[-41.4796,-12.3705],[-41.5146,-12.3744],[-41.5247,-12.3564],[-41.5406,-12.3569],[-41.6189,-12.3803],[-41.6658,-12.3826],[-41.7287,-12.3691],[-41.7565,-12.3062],[-41.7651,-12.2725],[-41.7428,-12.2368],[-41.769,-12.1949],[-41.7833,-12.1606],[-41.8099,-12.1532],[-41.7708,-12.1383],[-41.6038,-12.1444],[-41.4873,-12.1181],[-41.4688,-12.108],[-41.4172,-12.145],[-41.3548,-12.1683]]]]}},{"type":"Feature","properties":{"codarea":"2915007","centroide":[-41.039829239917154,-13.09173565726504],"codigo_ibge":2915007,"nome_ig":"Chapada Diamantina"},"geometry":{"type":"MultiPolygon","coordinates":[[[[-41.0199,-12.9153],[-40.9947,-12.9203],[-40.9816,-12.9135],[-40.9765,-12.9274],[-40.9889,-12.9462],[-40.9943,-12.9715],[-40.9776,-12.9752],[-40.9715,-12.9635],[-40.9588,-12.977],[-40.9607,-13.0032],[-40.9534,-13.0327],[-40.9279,-13.034],[-40.9229,-13.0475],[-40.9139,-13.0284],[-40.888,-13.0059],[-40.8446,-13.0141],[-40.7862,-13.044],[-40.7724,-13.037],[-40.751,-13.0435],[-40.8409,-13.1386],[-40.9197,-13.209],[-40.9183,-13.2295],[-41.0103,-13.2609],[-41.0888,-13.2557],[-41.0786,-13.2732],[-41.1059,-13.2935],[-41.1259,-13.2872],[-41.1425,-13.2994],[-41.158,-13.2826],[-41.1679,-13.2499],[-41.1851,-13.2299],[-41.1992,-13.1919],[-41.2262,-13.1757],[-41.2331,-13.1639],[-41.2686,-13.1658],[-41.28,-13.1566],[-41.281,-13.138],[-41.2623,-13.1345],[-41.2519,-13.1211],[-41.2445,-13.1136],[-41.2299,-13.1291],[-41.1797,-13.1277],[-41.1478,-13.1074],[-41.1658,-13.0751],[-41.1897,-12.9895],[-41.2039,-12.9598],[-41.2255,-12.9361],[-41.2325,-12.9123],[-41.1074,-12.8881],[-41.0943,-12.8988],[-41.074,-12.8937],[-41.0594,-12.9202],[-41.0199,-12.9153]]]]}},{"type":"Feature","properties":{"codarea":"2918605","centroide":[-41.59909394805314,-13.515104961583972],"codigo_ibge":2918605,"nome_ig":"Chapada Diamantina"},"geometry":{"type":"MultiPolygon","coordinates":[[[[-41.6112,-13.4278],[-41.5967,-13.4461],[-41.6027,-13.4609],[-41.595,-13.4811],[-41.58,-13.4727],[-41.5719,-13.45],[-41.5374,-13.4428],[-41.5116,-13.447],[-41.4991,-13.4811],[-41.5012,-13.5195],[-41.4872,-13.5236],[-41.4754,-13.585],[-41.4716,-13.6235],[-41.4573,-13.6278],[-41.4438,-13.6619],[-41.4318,-13.6683],[-41.4745,-13.6603],[-41.5107,-13.6651],[-41.608,-13.6601],[-41.6037,-13.6253],[-41.607,-13.5809],[-41.6156,-13.5444],[-41.6465,-13.5722],[-41.6716,-13.5276],[-41.6716,-13.5276],[-41.6936,-13.5234],[-41.6978,-13.4787],[-41.7133,-13.4578],[-41.7444,-13.4394],[-41.7629,-13.4428],[-41.7703,-13.418],[-41.7526,-13.4117],[-41.7558,-13.3937],[-41.7423,-13.3669],[-41.7465,-13.3248],[-41.7225,-13.3576],[-41.7131,-13.3526],[-41.6998,-13.3709],[-41.6718,-13.3529],[-41.633,-13.4139],[-41.6112,-13.4278]]]]}},{"type":"Feature","properties":{"codarea":"2919306","centroide":[-41.33740502454956,-12.424879854713446],"codigo_ibge":2919306,"nome_ig":"Chapada Diamantina"},"geometry":{"type":"MultiPolygon","coordinates":[[[[-41.1586,-12.386],[-41.1474,-12.4058],[-41.1644,-12.4115],[-41.1651,-12.4476],[-41.2045,-12.4768],[-41.1963,-12.4941],[-41.2067,-12.5044],[-41.2158,-12.5296],[-41.2544,-12.544],[-41.279,-12.5586],[-41.306,-12.5502],[-41.3453,-12.5661],[-41.3362,-12.6003],[-41.3395,-12.6132],[-41.3239,-12.6708],[-41.3405,-12.6778],[-41.3419,-12.7065],[-41.3561,-12.6995],[-41.4131,-12.7103],[-41.4391,-12.7106],[-41.4393,-12.71],[-41.452,-12.6741],[-41.4788,-12.6516],[-41.4778,-12.6403],[-41.4448,-12.6225],[-41.4548,-12.5995],[-41.4707,-12.585],[-41.4786,-12.5488],[-41.4685,-12.5364],[-41.4859,-12.5148],[-41.4834,-12.4859],[-41.4418,-12.4659],[-41.4579,-12.4454],[-41.4425,-12.4361],[-41.4414,-12.4132],[-41.425,-12.3783],[-41.4356,-12.3542],[-41.4256,-12.3445],[-41.4434,-12.3085],[-41.4345,-12.2645],[-41.4115,-12.2468],[-41.4152,-12.2234],[-41.4001,-12.2],[-41.3548,-12.1683],[-41.275,-12.1487],[-41.249,-12.2392],[-41.2221,-12.2841],[-41.1993,-12.3595],[-41.1808,-12.3759],[-41.181,-12.3866],[-41.1586,-12.386]]]]}},{"type":"Feature","properties":{"codarea":"2920809","centroide":[-40.675423502828195,-13.140022458862102],"codigo_ibge":2920809,"nome_ig":"Chapada Diamantina"},"geometry":{"type":"MultiPolygon","coordinates":[[[[-40.4813,-12.9419],[-40.4885,-12.9489],[-40.4672,-13.0076],[-40.4511,-13.0362],[-40.4365,-13.0473],[-40.4157,-13.0875],[-40.4686,-13.1129],[-40.5114,-13.1764],[-40.5254,-13.1834],[-40.5847,-13.2153],[-40.6272,-13.1825],[-40.7197,-13.239],[-40.7244,-13.2766],[-40.7338,-13.2824],[-40.7461,-13.313],[-40.7835,-13.3674],[-40.8008,-13.3472],[-40.8011,-13.3337],[-40.8362,-13.3156],[-40.8623,-13.3183],[-40.8752,-13.2928],[-40.8698,-13.2799],[-40.89,-13.2653],[-40.9183,-13.2295],[-40.9197,-13.209],[-40.8409,-13.1386],[-40.751,-13.0435],[-40.7152,-13.0172],[-40.6841,-13.023],[-40.6538,-13.0006],[-40.6037,-12.9983],[-40.576,-13.0033],[-40.5464,-12.9913],[-40.5232,-12.9596],[-40.5114,-12.9668],[-40.505,-12.9454],[-40.4813,-12.9419]]]]}},{"type":"Feature","properties":{"codarea":"2921708","centroide":[-41.16731403754532,-11.464553405472733],"codigo_ibge":2921708,"nome_ig":"Chapada Diamantina"},"geometry":{"type":"MultiPolygon","coordinates":[[[[-41.504,-10.7454],[-41.4776,-10.7555],[-41.4432,-10.8018],[-41.461,-10.8316],[-41.4277,-10.866],[-41.3772,-10.8801],[-41.326,-10.8994],[-41.2892,-10.9091],[-41.2338,-10.9567],[-41.2411,-10.9915],[-41.277,-10.9879],[-41.2967,-11.0039],[-41.3132,-11.0412],[-41.3171,-11.073],[-41.2946,-11.1153],[-41.2596,-11.1208],[-41.2519,-11.1429],[-41.2396,-11.1463],[-41.1335,-11.1533],[-40.9461,-11.2851],[-40.8635,-11.4144],[-40.7982,-11.4772],[-40.7636,-11.4956],[-40.7375,-11.5035],[-40.7268,-11.5326],[-40.7025,-11.5479],[-40.7276,-11.5664],[-40.7926,-11.6944],[-40.8011,-11.7429],[-40.8493,-11.7763],[-40.8848,-11.7576],[-40.9015,-11.8107],[-40.9262,-11.8111],[-40.9441,-11.8202],[-40.9594,-11.8433],[-40.9683,-11.8842],[-40.9809,-11.8852],[-40.9371,-11.9294],[-40.8995,-11.9781],[-40.897,-11.9902],[-40.9205,-12.0143],[-40.9725,-12.0164],[-41.0248,-12.0022],[-41.0489,-11.9698],[-41.0626,-11.9331],[-41.0861,-11.9191],[-41.1096,-11.9468],[-41.127,-11.9448],[-41.2233,-11.9186],[-41.229,-11.9078],[-41.2538,-11.9032],[-41.2547,-11.8756],[-41.2446,-11.8444],[-41.2482,-11.8163],[-41.2822,-11.8043],[-41.3226,-11.7975],[-41.3247,-11.7867],[-41.3485,-11.7762],[-41.3664,-11.7792],[-41.393,-11.7715],[-41.3824,-11.7559],[-41.3642,-11.7012],[-41.3757,-11.6937],[-41.4351,-11.6355],[-41.5574,-11.5587],[-41.5389,-11.5527],[-41.5446,-11.5428],[-41.51,-11.5295],[-41.4957,-11.5037],[-41.4805,-11.5072],[-41.4692,-11.483],[-41.4313,-11.449],[-41.4043,-11.4459],[-41.394,-11.4263],[-41.3846,-11.3862],[-41.389,-11.3629],[-41.3776,-11.3529],[-41.3785,-11.303],[-41.3671,-11.2905],[-41.3722,-11.27],[-41.3559,-11.2297],[-41.3634,-11.2216],[-41.3653,-11.1838],[-41.3685,-11.1429],[-41.3764,-11.1405],[-41.3954,-11.1056],[-41.3917,-11.0865],[-41.4083,-11.0695],[-41.4367,-11.0208],[-41.4349,-11.0066],[-41.4273,-10.9941],[-41.4384,-10.9773],[-41.4611,-10.9762],[-41.475,-10.9856],[-41.5084,-10.9689],[-41.5395,-10.968],[-41.5614,-10.9413],[-41.5674,-10.9035],[-41.5891,-10.8845],[-41.6412,-10.856],[-41.6565,-10.8388],[-41.6627,-10.8112],[-41.6594,-10.8062],[-41.6059,-10.8095],[-41.5774,-10.7833],[-41.5717,-10.7562],[-41.5339,-10.7356],[-41.504,-10.7454]]]]}},{"type":"Feature","properties":{"codarea":"2921906","centroide":[-41.474866694765936,-13.065153612482549],"codigo_ibge":2921906,"nome_ig":"Chapada Diamantina"},"geometry":{"type":"MultiPolygon","coordinates":[[[[-41.4393,-12.71],[-41.4391,-12.7106],[-41.4107,-12.8034],[-41.3805,-12.8801],[-41.3566,-12.8896],[-41.3411,-12.9231],[-41.3305,-12.9308],[-41.3194,-12.9607],[-41.3127,-13.0178],[-41.298,-13.0571],[-41.2557,-13.0968],[-41.2519,-13.1211],[-41.2623,-13.1345],[-41.281,-13.138],[-41.28,-13.1566],[-41.2686,-13.1658],[-41.2331,-13.1639],[-41.2262,-13.1757],[-41.1992,-13.1919],[-41.1851,-13.2299],[-41.2905,-13.3224],[-41.3058,-13.3176],[-41.3483,-13.2824],[-41.3802,-13.2725],[-41.3925,-13.2566],[-41.3988,-13.225],[-41.415,-13.2458],[-41.4459,-13.2506],[-41.4539,-13.263],[-41.4537,-13.2958],[-41.4386,-13.3191],[-41.4382,-13.35],[-41.4458,-13.3835],[-41.5474,-13.4258],[-41.5506,-13.4102],[-41.5694,-13.4108],[-41.6051,-13.4248],[-41.6099,-13.3823],[-41.6087,-13.3228],[-41.5983,-13.3069],[-41.6022,-13.2709],[-41.5903,-13.2688],[-41.5989,-13.2296],[-41.6535,-13.1683],[-41.6347,-13.1585],[-41.6392,-13.1485],[-41.6262,-13.1298],[-41.6479,-13.0824],[-41.6634,-13.0712],[-41.6946,-12.9983],[-41.6996,-12.9948],[-41.6403,-12.898],[-41.6436,-12.8818],[-41.6307,-12.8672],[-41.6209,-12.8273],[-41.6365,-12.7813],[-41.6155,-12.7591],[-41.6053,-12.7115],[-41.5748,-12.7132],[-41.4393,-12.71]]]]}},{"type":"Feature","properties":{"codarea":"2922854","centroide":[-41.09081254735271,-12.80037503240949],"codigo_ibge":2922854,"nome_ig":"Chapada Diamantina"},"geometry":{"type":"MultiPolygon","coordinates":[[[[-40.9673,-12.793],[-41.0199,-12.9153],[-41.0594,-12.9202],[-41.074,-12.8937],[-41.0943,-12.8988],[-41.1074,-12.8881],[-41.2325,-12.9123],[-41.2231,-12.8907],[-41.2414,-12.8347],[-41.2598,-12.8074],[-41.2448,-12.7964],[-41.2317,-12.8187],[-41.2071,-12.7842],[-41.1855,-12.786],[-41.1667,-12.7612],[-41.1667,-12.7459],[-41.1491,-12.745],[-41.1488,-12.7107],[-41.0466,-12.689],[-41.0074,-12.6211],[-40.9833,-12.7006],[-40.9822,-12.7365],[-40.9673,-12.793]]]]}},{"type":"Feature","properties":{"codarea":"2923035","centroide":[-42.12907993953594,-12.840916203690334],"codigo_ibge":2923035,"nome_ig":"Chapada Diamantina"},"geometry":{"type":"MultiPolygon","coordinates":[[[[-42.018,-12.72],[-42.0333,-12.7629],[-42.0184,-12.828],[-42.0184,-12.8561],[-42.0245,-12.8893],[-42.0135,-12.9202],[-42.0527,-12.9121],[-42.0501,-12.9432],[-42.0642,-12.9497],[-42.0822,-12.9853],[-42.0914,-12.9796],[-42.095,-13.0022],[-42.1239,-13.0004],[-42.1252,-13.0183],[-42.1473,-13.0152],[-42.1675,-12.9888],[-42.1679,-12.9597],[-42.1961,-12.9222],[-42.212,-12.9217],[-42.2237,-12.8623],[-42.2483,-12.8139],[-42.2431,-12.8059],[-42.265,-12.7269],[-42.2051,-12.7277],[-42.1729,-12.7192],[-42.1665,-12.7257],[-42.1388,-12.7185],[-42.0965,-12.715],[-42.018,-12.72]]]]}},{"type":"Feature","properties":{"codarea":"2923506","centroide":[-41.55353070947145,-12.551866144116914],"codigo_ibge":2923506,"nome_ig":"Chapada Diamantina"},"geometry":{"type":"MultiPolygon","coordinates":[[[[-41.4414,-12.4132],[-41.4425,-12.4361],[-41.4579,-12.4454],[-41.4418,-12.4659],[-41.4834,-12.4859],[-41.4859,-12.5148],[-41.4685,-12.5364],[-41.4786,-12.5488],[-41.4707,-12.585],[-41.4548,-12.5995],[-41.4448,-12.6225],[-41.4778,-12.6403],[-41.4788,-12.6516],[-41.452,-12.6741],[-41.4393,-12.71],[-41.5748,-12.7132],[-41.6053,-12.7115],[-41.6487,-12.6796],[-41.6617,-12.6686],[-41.6788,-12.6263],[-41.6561,-12.585],[-41.6631,-12.5521],[-41.6841,-12.5364],[-41.6771,-12.524],[-41.6183,-12.4531],[-41.6021,-12.426],[-41.5845,-12.4263],[-41.5883,-12.3972],[-41.5642,-12.3874],[-41.5645,-12.3721],[-41.5406,-12.3569],[-41.5247,-12.3564],[-41.5146,-12.3744],[-41.4796,-12.3705],[-41.4524,-12.3827],[-41.4414,-12.4132]]]]}},{"type":"Feature","properties":{"codarea":"2924306","centroide":[-41.87705566195913,-13.045807663141845],"codigo_ibge":2924306,"nome_ig":"Chapada Diamantina"},"geometry":{"type":"MultiPolygon","coordinates":[[[[-41.6996,-12.9948],[-41.6946,-12.9983],[-41.6634,-13.0712],[-41.6479,-13.0824],[-41.6262,-13.1298],[-41.6392,-13.1485],[-41.6347,-13.1585],[-41.6535,-13.1683],[-41.6766,-13.1795],[-41.6736,-13.193],[-41.6902,-13.2162],[-41.7256,-13.2355],[-41.7347,-13.2528],[-41.7894,-13.2806],[-41.8025,-13.2697],[-41.8349,-13.2154],[-41.8579,-13.1892],[-41.8745,-13.2113],[-41.8882,-13.2107],[-41.9186,-13.2494],[-41.9125,-13.264],[-41.9317,-13.2528],[-41.9754,-13.2409],[-42.0057,-13.2102],[-42.0154,-13.1883],[-42.032,-13.1779],[-42.0594,-13.181],[-42.0726,-13.1525],[-42.1036,-13.1327],[-42.1028,-13.0678],[-42.1117,-13.0339],[-42.1252,-13.0183],[-42.1239,-13.0004],[-42.095,-13.0022],[-42.0914,-12.9796],[-42.0822,-12.9853],[-42.0642,-12.9497],[-42.0501,-12.9432],[-42.0527,-12.9121],[-42.0135,-12.9202],[-42.0245,-12.8893],[-42.0184,-12.8561],[-41.9936,-12.8557],[-41.978,-12.8303],[-41.9509,-12.8209],[-41.9147,-12.819],[-41.8949,-12.8036],[-41.8594,-12.8249],[-41.8297,-12.8142],[-41.8129,-12.8208],[-41.7978,-12.8085],[-41.7638,-12.8663],[-41.7064,-12.9762],[-41.6996,-12.9948]]]]}},{"type":"Feature","properties":{"codarea":"2926707","centroide":[-41.739774140829006,-13.58707229186468],"codigo_ibge":2926707,"nome_ig":"Chapada Diamantina"},"geometry":{"type":"MultiPolygon","coordinates":[[[[-41.7465,-13.3248],[-41.7423,-13.3669],[-41.7558,-13.3937],[-41.7526,-13.4117],[-41.7703,-13.418],[-41.7629,-13.4428],[-41.7444,-13.4394],[-41.7133,-13.4578],[-41.6978,-13.4787],[-41.6936,-13.5234],[-41.6716,-13.5276],[-41.6716,-13.5276],[-41.6465,-13.5722],[-41.6156,-13.5444],[-41.607,-13.5809],[-41.6037,-13.6253],[-41.608,-13.6601],[-41.593,-13.6901],[-41.6003,-13.7072],[-41.5867,-13.7091],[-41.5774,-13.7513],[-41.5384,-13.7711],[-41.5419,-13.8025],[-41.5231,-13.8142],[-41.5046,-13.8948],[-41.4938,-13.9164],[-41.5591,-13.9443],[-41.572,-13.8815],[-41.5796,-13.8643],[-41.5996,-13.85],[-41.6192,-13.8109],[-41.64,-13.7948],[-41.6549,-13.7619],[-41.6899,-13.7352],[-41.6858,-13.7154],[-41.6961,-13.7127],[-41.7113,-13.6854],[-41.7494,-13.6613],[-41.7622,-13.6609],[-41.7871,-13.636],[-41.802,-13.6317],[-41.8092,-13.6124],[-41.8367,-13.6015],[-41.8597,-13.5715],[-41.9128,-13.5469],[-41.9268,-13.5535],[-41.9467,-13.5355],[-41.968,-13.5274],[-41.9091,-13.3114],[-41.8848,-13.3279],[-41.8693,-13.3473],[-41.8725,-13.3606],[-41.8404,-13.3839],[-41.8043,-13.4187],[-41.7921,-13.4238],[-41.7952,-13.3835],[-41.7833,-13.3617],[-41.7659,-13.35],[-41.7465,-13.3248]]]]}},{"type":"Feature","properties":{"codarea":"2929909","centroide":[-41.88487596153786,-12.418307558903082],"codigo_ibge":2929909,"nome_ig":"Chapada Diamantina"},"geometry":{"type":"MultiPolygon","coordinates":[[[[-41.8099,-12.1532],[-41.7833,-12.1606],[-41.769,-12.1949],[-41.7428,-12.2368],[-41.7651,-12.2725],[-41.7565,-12.3062],[-41.7287,-12.3691],[-41.6658,-12.3826],[-41.6189,-12.3803],[-41.5406,-12.3569],[-41.5645,-12.3721],[-41.5642,-12.3874],[-41.5883,-12.3972],[-41.5845,-12.4263],[-41.6021,-12.426],[-41.6183,-12.4531],[-41.6771,-12.524],[-41.6841,-12.5364],[-41.6631,-12.5521],[-41.6561,-12.585],[-41.6788,-12.6263],[-41.6617,-12.6686],[-41.6487,-12.6796],[-41.8457,-12.6763],[-41.8974,-12.6842],[-41.9793,-12.6628],[-41.999,-12.6659],[-42.0279,-12.6575],[-42.0299,-12.6188],[-41.9837,-12.6008],[-42.0067,-12.5686],[-42.0053,-12.5541],[-42.0147,-12.5048],[-42.0698,-12.4311],[-42.0686,-12.419],[-42.1037,-12.3958],[-42.1403,-12.4007],[-42.1821,-12.3814],[-42.2079,-12.3773],[-42.2173,-12.3865],[-42.2492,-12.3895],[-42.2601,-12.3417],[-42.2709,-12.3379],[-42.2702,-12.311],[-42.1241,-12.2776],[-42.1083,-12.3082],[-42.0985,-12.2915],[-42.0398,-12.2911],[-42.0582,-12.2451],[-42.0562,-12.2204],[-42.0292,-12.2343],[-41.9848,-12.2914],[-41.9681,-12.2658],[-41.9784,-12.2552],[-41.9874,-12.2259],[-41.9673,-12.2233],[-41.9687,-12.1679],[-41.9773,-12.1539],[-41.9688,-12.1412],[-41.9745,-12.1221],[-41.9697,-12.0922],[-41.936,-12.1119],[-41.9159,-12.1063],[-41.8895,-12.1234],[-41.8099,-12.1532]]]]}},{"type":"Feature","properties":{"codarea":"2930808","centroide":[-41.79068865316107,-12.02735508078034],"codigo_ibge":2930808,"nome_ig":"Chapada Diamantina"},"geometry":{"type":"MultiPolygon","coordinates":[[[[-42.0214,-11.8151],[-41.882,-11.8912],[-41.6811,-11.9912],[-41.6517,-12.0136],[-41.6304,-12.0124],[-41.4539,-12.099],[-41.4688,-12.108],[-41.4873,-12.1181],[-41.6038,-12.1444],[-41.7708,-12.1383],[-41.8099,-12.1532],[-41.8895,-12.1234],[-41.9159,-12.1063],[-41.936,-12.1119],[-41.9697,-12.0922],[-41.9537,-12.0895],[-41.9461,-12.0723],[-41.971,-12.0593],[-41.9826,-12.0444],[-41.9792,-12.0211],[-41.9501,-12.0224],[-41.9515,-11.9843],[-41.97,-11.9665],[-41.9936,-11.9744],[-41.9998,-11.925],[-41.9969,-11.9069],[-42.0242,-11.893],[-42.0264,-11.85],[-42.0063,-11.833],[-42.0214,-11.8151]]]]}},{"type":"Feature","properties":{"codarea":"2932804","centroide":[-41.06968516865654,-12.051677389152708],"codigo_ibge":2932804,"nome_ig":"Chapada Diamantina"},"geometry":{"type":"MultiPolygon","coordinates":[[[[-40.897,-11.9902],[-40.9089,-12.0595],[-40.8735,-12.1257],[-40.894,-12.1549],[-40.9721,-12.129],[-40.9972,-12.1486],[-41.0408,-12.1476],[-41.1208,-12.1135],[-41.2291,-12.1373],[-41.2247,-12.1247],[-41.2369,-12.114],[-41.2177,-12.0838],[-41.2293,-12.078],[-41.2312,-12.0401],[-41.2158,-12.0179],[-41.1955,-12.0117],[-41.1964,-11.986],[-41.1889,-11.9627],[-41.2036,-11.9513],[-41.2233,-11.9186],[-41.127,-11.9448],[-41.1096,-11.9468],[-41.0861,-11.9191],[-41.0626,-11.9331],[-41.0489,-11.9698],[-41.0248,-12.0022],[-40.9725,-12.0164],[-40.9205,-12.0143],[-40.897,-11.9902]]]]}},{"type":"Feature","properties":{"codarea":"2933406","centroide":[-41.14652876649303,-12.231045567658276],"codigo_ibge":2933406,"nome_ig":"Chapada Diamantina"},"geometry":{"type":"MultiPolygon","coordinates":[[[[-41.0408,-12.1476],[-41.049,-12.1814],[-41.0407,-12.2111],[-41.0151,-12.2418],[-40.9834,-12.2626],[-41.0613,-12.2653],[-41.0627,-12.2849],[-41.1586,-12.386],[-41.181,-12.3866],[-41.1808,-12.3759],[-41.1993,-12.3595],[-41.2221,-12.2841],[-41.249,-12.2392],[-41.275,-12.1487],[-41.2291,-12.1373],[-41.1208,-12.1135],[-41.0408,-12.1476]]]]}}]}