{"type":"FeatureCollection","features":[{"type":"Feature","properties":{"codarea":"3100609","centroide":[-42.2762233482655,-18.027172847078365],"codigo_ibge":3100609,"nome_ig":"Chapada de Minas"},"geometry":{"type":"Polygon","coordinates":[[[-42.3227,-17.7842],[-42.2886,-17.7801],[-42.2666,-17.7883],[-42.264,-17.8027],[-42.2765,-17.8139],[-42.2816,-17.8503],[-42.2691,-17.8771],[-42.2456,-17.9103],[-42.2276,-17.9102],[-42.1954,-17.9546],[-42.1912,-17.9775],[-42.1775,-18.0009],[-42.1485,-18.0156],[-42.1335,-18.0305],[-42.1035,-18.0753],[-42.0876,-18.0872],[-42.0744,-18.0844],[-42.0592,-18.1053],[-42.058,-18.1333],[-42.0496,-18.1458],[-42.059,-18.1481],[-42.0466,-18.1669],[-42.0478,-18.1952],[-42.0643,-18.1922],[-42.0888,-18.2117],[-42.0855,-18.2285],[-42.0628,-18.2536],[-42.066,-18.2614],[-42.0878,-18.2613],[-42.1499,-18.2267],[-42.1613,-18.2342],[-42.1773,-18.2186],[-42.2001,-18.2201],[-42.2085,-18.2439],[-42.2435,-18.2384],[-42.2451,-18.231],[-42.2713,-18.242],[-42.2771,-18.2229],[-42.2662,-18.2191],[-42.275,-18.1952],[-42.2865,-18.1932],[-42.3138,-18.168],[-42.3258,-18.1775],[-42.34,-18.1647],[-42.3638,-18.1739],[-42.3755,-18.149],[-42.3746,-18.1335],[-42.4149,-18.101],[-42.4175,-18.0729],[-42.4091,-18.0256],[-42.4204,-18.0055],[-42.4378,-17.9615],[-42.4327,-17.9444],[-42.4615,-17.9232],[-42.4635,-17.9002],[-42.4785,-17.9056],[-42.4866,-17.9266],[-42.4884,-17.8822],[-42.4654,-17.8361],[-42.4686,-17.8128],[-42.4326,-17.8129],[-42.4083,-17.7946],[-42.3895,-17.8127],[-42.3757,-17.7954],[-42.3848,-17.7801],[-42.3731,-17.7666],[-42.357,-17.7824],[-42.3356,-17.7776],[-42.3227,-17.7842]]]}},{"type":"Feature","properties":{"codarea":"3102852","centroide":[-42.28262015249656,-17.70146321790705],"codigo_ibge":3102852,"nome_ig":"Chapada de Minas"},"geometry":{"type":"Polygon","coordinates":[[[-42.2142,-17.7709],[-42.2362,-17.7664],[-42.2666,-17.7883],[-42.2886,-17.7801],[-42.3227,-17.7842],[-42.3232,-17.7619],[-42.2996,-17.7287],[-42.3192,-17.7089],[-42.37,-17.6791],[-42.3755,-17.6676],[-42.3496,-17.6595],[-42.3471,-17.6477],[-42.3267,-17.6366],[-42.2917,-17.6383],[-42.2763,-17.6164],[-42.2882,-17.5956],[-42.2627,-17.602],[-42.2499,-17.6174],[-42.2574,-17.651],[-42.2344,-17.6773],[-42.2411,-17.6938],[-42.224,-17.7047],[-42.2123,-17.7366],[-42.2201,-17.7568],[-42.2142,-17.7709]]]}},{"type":"Feature","properties":{"codarea":"3104452","centroide":[-42.606333978871156,-17.88136321362713],"codigo_ibge":3104452,"nome_ig":"Chapada de Minas"},"geometry":{"type":"Polygon","coordinates":[[[-42.5997,-17.722],[-42.6165,-17.768],[-42.5863,-17.8189],[-42.5634,-17.8299],[-42.5703,-17.8507],[-42.5573,-17.8522],[-42.5473,-17.8783],[-42.555,-17.9013],[-42.5403,-17.9044],[-42.5281,-17.9216],[-42.5109,-17.9291],[-42.4866,-17.9266],[-42.5154,-17.9341],[-42.524,-17.9624],[-42.5357,-17.947],[-42.5628,-17.9489],[-42.5697,-17.9869],[-42.6068,-17.992],[-42.6207,-17.9629],[-42.6325,-17.9546],[-42.6422,-17.9243],[-42.6614,-17.9243],[-42.6589,-17.9081],[-42.6777,-17.9],[-42.6966,-17.8692],[-42.6783,-17.8655],[-42.6585,-17.8399],[-42.6581,-17.8155],[-42.6445,-17.7783],[-42.626,-17.7602],[-42.6118,-17.7204],[-42.5997,-17.722]]]}},{"type":"Feature","properties":{"codarea":"3112307","centroide":[-42.49197414846068,-17.69228257422374],"codigo_ibge":3112307,"nome_ig":"Chapada de Minas"},"geometry":{"type":"Polygon","coordinates":[[[-42.5587,-17.4844],[-42.5353,-17.5001],[-42.518,-17.5211],[-42.4825,-17.5351],[-42.4623,-17.5494],[-42.4428,-17.5762],[-42.4165,-17.5787],[-42.3861,-17.5938],[-42.3675,-17.6104],[-42.3315,-17.5989],[-42.3045,-17.6136],[-42.2882,-17.5956],[-42.2763,-17.6164],[-42.2917,-17.6383],[-42.3267,-17.6366],[-42.3471,-17.6477],[-42.3496,-17.6595],[-42.3755,-17.6676],[-42.37,-17.6791],[-42.3192,-17.7089],[-42.2996,-17.7287],[-42.3232,-17.7619],[-42.3227,-17.7842],[-42.3356,-17.7776],[-42.357,-17.7824],[-42.3731,-17.7666],[-42.3848,-17.7801],[-42.3757,-17.7954],[-42.3895,-17.8127],[-42.4083,-17.7946],[-42.4326,-17.8129],[-42.4686,-17.8128],[-42.4654,-17.8361],[-42.4884,-17.8822],[-42.4866,-17.9266],[-42.5109,-17.9291],[-42.5281,-17.9216],[-42.5403,-17.9044],[-42.555,-17.9013],[-42.5473,-17.8783],[-42.5573,-17.8522],[-42.5703,-17.8507],[-42.5634,-17.8299],[-42.5863,-17.8189],[-42.6165,-17.768],[-42.5997,-17.722],[-42.5885,-17.7123],[-42.6055,-17.7048],[-42.6182,-17.6867],[-42.6138,-17.6714],[-42.6597,-17.6579],[-42.6809,-17.6421],[-42.6703,-17.6363],[-42.6924,-17.586],[-42.6777,-17.5663],[-42.6973,-17.5516],[-42.6841,-17.5499],[-42.6561,-17.5493],[-42.6525,-17.5639],[-42.6631,-17.5849],[-42.6133,-17.6013],[-42.5893,-17.6306],[-42.5626,-17.635],[-42.5434,-17.6271],[-42.5428,-17.6077],[-42.5615,-17.5759],[-42.5806,-17.5666],[-42.587,-17.5264],[-42.5992,-17.5009],[-42.5844,-17.4757],[-42.5587,-17.4844]]]}},{"type":"Feature","properties":{"codarea":"3113008","centroide":[-41.58427490487066,-17.173534848312602],"codigo_ibge":3113008,"nome_ig":"Chapada de Minas"},"geometry":{"type":"Polygon","coordinates":[[[-41.6739,-16.9871],[-41.6789,-17.0362],[-41.6875,-17.0469],[-41.6536,-17.0715],[-41.6537,-17.0892],[-41.6694,-17.1058],[-41.6556,-17.1218],[-41.6497,-17.1517],[-41.6489,-17.1917],[-41.6325,-17.2053],[-41.6233,-17.1807],[-41.5999,-17.1632],[-41.6012,-17.1369],[-41.5739,-17.1249],[-41.5566,-17.1268],[-41.5579,-17.1078],[-41.5208,-17.109],[-41.4858,-17.0811],[-41.4717,-17.0817],[-41.4659,-17.1018],[-41.4366,-17.1241],[-41.4164,-17.1274],[-41.4122,-17.1039],[-41.3996,-17.0881],[-41.4021,-17.0683],[-41.3859,-17.066],[-41.3847,-17.0498],[-41.3459,-17.0522],[-41.3321,-17.0449],[-41.3241,-17.0601],[-41.3257,-17.1043],[-41.3409,-17.1268],[-41.3214,-17.1281],[-41.3386,-17.147],[-41.3425,-17.1822],[-41.3308,-17.2046],[-41.3401,-17.209],[-41.3344,-17.2319],[-41.3201,-17.2432],[-41.3157,-17.2731],[-41.3227,-17.3114],[-41.3408,-17.3243],[-41.3514,-17.3467],[-41.3514,-17.3306],[-41.3648,-17.2945],[-41.412,-17.2995],[-41.4164,-17.3179],[-41.4407,-17.3261],[-41.4692,-17.3128],[-41.4965,-17.311],[-41.5359,-17.2897],[-41.546,-17.2748],[-41.601,-17.2662],[-41.6114,-17.2517],[-41.6401,-17.2332],[-41.656,-17.2338],[-41.6725,-17.2361],[-41.6888,-17.2516],[-41.6898,-17.2773],[-41.7085,-17.2893],[-41.733,-17.3559],[-41.7492,-17.3437],[-41.7623,-17.3063],[-41.76,-17.2873],[-41.7922,-17.2474],[-41.8254,-17.2298],[-41.8216,-17.2071],[-41.8017,-17.1886],[-41.7857,-17.1618],[-41.7987,-17.1346],[-41.8233,-17.1357],[-41.8647,-17.1214],[-41.8681,-17.1088],[-41.8532,-17.0913],[-41.8636,-17.0812],[-41.8663,-17.0552],[-41.8585,-17.0364],[-41.841,-17.0333],[-41.8258,-17.0577],[-41.8141,-17.0563],[-41.797,-17.0242],[-41.7669,-17.0238],[-41.7514,-16.9933],[-41.7295,-16.9895],[-41.7078,-16.9703],[-41.6908,-16.9713],[-41.6739,-16.9871]]]}},{"type":"Feature","properties":{"codarea":"3113503","centroide":[-43.05759022201774,-17.493190537154167],"codigo_ibge":3113503,"nome_ig":"Chapada de Minas"},"geometry":{"type":"Polygon","coordinates":[[[-42.8689,-17.4013],[-42.8695,-17.4318],[-42.8837,-17.4469],[-42.8589,-17.4757],[-42.8797,-17.4966],[-42.8582,-17.5227],[-42.8448,-17.5552],[-42.8375,-17.5547],[-42.8487,-17.5788],[-42.8738,-17.6056],[-42.8928,-17.5926],[-42.9163,-17.5936],[-42.9494,-17.6243],[-42.9619,-17.6471],[-42.958,-17.6607],[-42.9745,-17.7154],[-43.0031,-17.7008],[-43.0163,-17.6794],[-43.0212,-17.6246],[-43.0481,-17.6303],[-43.0594,-17.6596],[-43.0767,-17.6643],[-43.0773,-17.6766],[-43.1006,-17.6865],[-43.1028,-17.7034],[-43.14,-17.7258],[-43.1575,-17.772],[-43.2274,-17.5627],[-43.2315,-17.5237],[-43.2252,-17.5099],[-43.2347,-17.4946],[-43.2213,-17.472],[-43.228,-17.4332],[-43.2176,-17.4142],[-43.1964,-17.4046],[-43.2009,-17.363],[-43.2284,-17.3445],[-43.2172,-17.3174],[-43.1867,-17.3069],[-43.1903,-17.2918],[-43.1703,-17.2915],[-43.1307,-17.3038],[-43.1322,-17.2891],[-43.1098,-17.2878],[-43.0835,-17.2531],[-43.0684,-17.2597],[-43.0603,-17.2875],[-43.048,-17.2901],[-43.0067,-17.3312],[-42.9964,-17.3592],[-42.9726,-17.3368],[-42.9446,-17.3214],[-42.9102,-17.3407],[-42.9032,-17.3547],[-42.8788,-17.3619],[-42.8896,-17.3979],[-42.8689,-17.4013]]]}},{"type":"Feature","properties":{"codarea":"3115458","centroide":[-41.49764015292448,-17.37156984113334],"codigo_ibge":3115458,"nome_ig":"Chapada de Minas"},"geometry":{"type":"Polygon","coordinates":[[[-41.3514,-17.3467],[-41.3473,-17.3894],[-41.3586,-17.3959],[-41.3516,-17.4142],[-41.4439,-17.3962],[-41.4498,-17.4101],[-41.4668,-17.4118],[-41.4629,-17.4297],[-41.4826,-17.4444],[-41.4792,-17.4726],[-41.5008,-17.4578],[-41.5101,-17.4644],[-41.5079,-17.4845],[-41.5294,-17.4993],[-41.5496,-17.4878],[-41.5655,-17.4921],[-41.5657,-17.4808],[-41.5919,-17.4702],[-41.6015,-17.4324],[-41.5869,-17.4],[-41.5992,-17.3865],[-41.5954,-17.3567],[-41.5688,-17.3447],[-41.5902,-17.2958],[-41.6094,-17.2918],[-41.628,-17.2605],[-41.649,-17.2502],[-41.656,-17.2338],[-41.6401,-17.2332],[-41.6114,-17.2517],[-41.601,-17.2662],[-41.546,-17.2748],[-41.5359,-17.2897],[-41.4965,-17.311],[-41.4692,-17.3128],[-41.4407,-17.3261],[-41.4164,-17.3179],[-41.412,-17.2995],[-41.3648,-17.2945],[-41.3514,-17.3306],[-41.3514,-17.3467]]]}},{"type":"Feature","properties":{"codarea":"3121605","centroide":[-43.610558529071774,-17.99369567262809],"codigo_ibge":3121605,"nome_ig":"Chapada de Minas"},"geometry":{"type":"Polygon","coordinates":[[[-43.2176,-17.4142],[-43.228,-17.4332],[-43.2213,-17.472],[-43.2347,-17.4946],[-43.2252,-17.5099],[-43.2315,-17.5237],[-43.2274,-17.5627],[-43.248,-17.5751],[-43.2413,-17.5884],[-43.2535,-17.6004],[-43.2476,-17.6415],[-43.2667,-17.6551],[-43.3014,-17.6583],[-43.291,-17.7127],[-43.324,-17.7229],[-43.3349,-17.7341],[-43.3252,-17.7628],[-43.3812,-17.7976],[-43.3858,-17.8259],[-43.3789,-17.8354],[-43.3763,-17.8738],[-43.3896,-17.9155],[-43.3852,-17.9228],[-43.4081,-17.9471],[-43.4169,-17.9515],[-43.4341,-17.934],[-43.4517,-17.9342],[-43.4615,-17.9015],[-43.4597,-17.864],[-43.4714,-17.827],[-43.5008,-17.8497],[-43.5025,-17.877],[-43.5138,-17.8987],[-43.525,-17.9711],[-43.5573,-17.9835],[-43.5598,-17.9974],[-43.547,-18.0064],[-43.5617,-18.0238],[-43.514,-18.0872],[-43.4968,-18.0924],[-43.4872,-18.1289],[-43.4587,-18.1467],[-43.4651,-18.1699],[-43.4583,-18.189],[-43.4351,-18.2073],[-43.4331,-18.2193],[-43.4008,-18.2313],[-43.3917,-18.2272],[-43.3838,-18.2566],[-43.4022,-18.2934],[-43.4234,-18.3021],[-43.4403,-18.2875],[-43.461,-18.3103],[-43.4554,-18.3261],[-43.4789,-18.3654],[-43.5032,-18.3746],[-43.4976,-18.3895],[-43.5132,-18.3983],[-43.5313,-18.4349],[-43.5491,-18.4465],[-43.5703,-18.4393],[-43.5939,-18.4028],[-43.628,-18.394],[-43.6069,-18.3284],[-43.5971,-18.3187],[-43.631,-18.3064],[-43.6552,-18.3079],[-43.685,-18.3006],[-43.6866,-18.3246],[-43.6782,-18.3292],[-43.6883,-18.3477],[-43.6613,-18.365],[-43.6822,-18.3753],[-43.69,-18.362],[-43.7425,-18.3515],[-43.7633,-18.3368],[-43.8182,-18.3377],[-43.8312,-18.3331],[-43.845,-18.359],[-43.8586,-18.3685],[-43.8831,-18.3609],[-43.9091,-18.3761],[-43.9616,-18.3735],[-43.9602,-18.359],[-44.0104,-18.3521],[-44.0109,-18.337],[-43.9784,-18.344],[-43.9763,-18.3352],[-43.9975,-18.3152],[-44.0008,-18.2889],[-44.0549,-18.2747],[-44.0662,-18.2449],[-44.0883,-18.2204],[-44.0708,-18.1959],[-44.013,-18.2124],[-43.9927,-18.2004],[-43.9904,-18.185],[-43.9541,-18.1575],[-43.9558,-18.141],[-43.9177,-18.1188],[-43.9152,-18.1014],[-43.9376,-18.0732],[-43.9363,-18.0596],[-43.899,-18.0491],[-43.8819,-18.0592],[-43.8827,-18.039],[-43.8596,-18.05],[-43.8579,-18.0361],[-43.8352,-18.0238],[-43.8197,-18.0254],[-43.8056,-17.9937],[-43.782,-17.977],[-43.7936,-17.9722],[-43.7911,-17.9549],[-43.7732,-17.9427],[-43.7636,-17.9245],[-43.7505,-17.8901],[-43.6963,-17.8768],[-43.6751,-17.8565],[-43.6849,-17.8474],[-43.6765,-17.8303],[-43.6455,-17.7996],[-43.6322,-17.7724],[-43.6168,-17.7694],[-43.603,-17.7417],[-43.6057,-17.7117],[-43.6148,-17.6995],[-43.5905,-17.6907],[-43.5882,-17.6736],[-43.6027,-17.6706],[-43.6118,-17.6313],[-43.5681,-17.6112],[-43.5805,-17.5819],[-43.5641,-17.5661],[-43.5723,-17.5578],[-43.5483,-17.5399],[-43.5028,-17.5595],[-43.5048,-17.5446],[-43.5258,-17.527],[-43.5118,-17.5289],[-43.4969,-17.5053],[-43.4976,-17.5279],[-43.4833,-17.53],[-43.4834,-17.5451],[-43.4653,-17.5413],[-43.4597,-17.5564],[-43.4449,-17.5562],[-43.4437,-17.5386],[-43.4146,-17.5226],[-43.4063,-17.5354],[-43.3808,-17.5496],[-43.3784,-17.5411],[-43.3972,-17.5188],[-43.3715,-17.5226],[-43.3572,-17.4974],[-43.3514,-17.5111],[-43.3204,-17.5165],[-43.3145,-17.5061],[-43.3383,-17.4857],[-43.2989,-17.4691],[-43.2858,-17.4454],[-43.2999,-17.4344],[-43.2941,-17.4119],[-43.2799,-17.3956],[-43.2954,-17.3796],[-43.2822,-17.3831],[-43.2374,-17.4271],[-43.2374,-17.4271],[-43.2324,-17.4093],[-43.2176,-17.4142]]]}},{"type":"Feature","properties":{"codarea":"3125408","centroide":[-43.238858415899884,-18.133857877031332],"codigo_ibge":3125408,"nome_ig":"Chapada de Minas"},"geometry":{"type":"Polygon","coordinates":[[[-43.1373,-18.1088],[-43.1384,-18.1229],[-43.1845,-18.1784],[-43.1856,-18.2014],[-43.2015,-18.2176],[-43.2253,-18.2114],[-43.2408,-18.1959],[-43.2209,-18.2405],[-43.2327,-18.2697],[-43.2568,-18.2729],[-43.273,-18.2524],[-43.3205,-18.2377],[-43.3027,-18.1884],[-43.3092,-18.1588],[-43.3205,-18.15],[-43.3047,-18.1113],[-43.3143,-18.0444],[-43.3099,-18.035],[-43.2808,-18.0227],[-43.2623,-18.0455],[-43.2335,-18.0304],[-43.2082,-18.0331],[-43.1874,-18.0199],[-43.1657,-18.0374],[-43.1615,-18.0831],[-43.1437,-18.0916],[-43.1373,-18.1088]]]}},{"type":"Feature","properties":{"codarea":"3126752","centroide":[-41.96844522210397,-17.993818238067092],"codigo_ibge":3126752,"nome_ig":"Chapada de Minas"},"geometry":{"type":"Polygon","coordinates":[[[-41.7992,-17.9395],[-41.8067,-17.974],[-41.8243,-17.9789],[-41.8181,-18.0107],[-41.8346,-18.0234],[-41.8354,-18.0423],[-41.8647,-18.0461],[-41.8853,-18.0681],[-41.8942,-18.0947],[-41.9148,-18.1169],[-41.9526,-18.1204],[-41.9651,-18.1092],[-41.9756,-18.1176],[-41.9938,-18.1093],[-41.9995,-18.1231],[-42.0496,-18.1458],[-42.058,-18.1333],[-42.0592,-18.1053],[-42.0744,-18.0844],[-42.0876,-18.0872],[-42.1035,-18.0753],[-42.1335,-18.0305],[-42.1485,-18.0156],[-42.1341,-17.995],[-42.0844,-17.974],[-42.0509,-17.9522],[-42.0594,-17.9115],[-42.0467,-17.9025],[-42.0322,-17.8746],[-42.0065,-17.8542],[-41.9893,-17.8684],[-41.9621,-17.8558],[-41.9504,-17.8635],[-41.9175,-17.853],[-41.8999,-17.8667],[-41.888,-17.8499],[-41.8716,-17.86],[-41.8786,-17.8906],[-41.8429,-17.9167],[-41.84,-17.9322],[-41.7992,-17.9395]]]}},{"type":"Feature","properties":{"codarea":"3132305","centroide":[-41.65897765109711,-17.410026492032507],"codigo_ibge":3132305,"nome_ig":"Chapada de Minas"},"geometry":{"type":"Polygon","coordinates":[[[-41.656,-17.2338],[-41.649,-17.2502],[-41.628,-17.2605],[-41.6094,-17.2918],[-41.5902,-17.2958],[-41.5688,-17.3447],[-41.5954,-17.3567],[-41.5992,-17.3865],[-41.5869,-17.4],[-41.6015,-17.4324],[-41.5919,-17.4702],[-41.5657,-17.4808],[-41.5655,-17.4921],[-41.5809,-17.5275],[-41.6004,-17.5571],[-41.6408,-17.5579],[-41.6337,-17.566],[-41.6503,-17.6021],[-41.6801,-17.5949],[-41.6568,-17.5587],[-41.6582,-17.534],[-41.6838,-17.5235],[-41.7351,-17.4828],[-41.7318,-17.4738],[-41.7538,-17.442],[-41.7673,-17.4234],[-41.7584,-17.3883],[-41.7452,-17.3837],[-41.733,-17.3559],[-41.7085,-17.2893],[-41.6898,-17.2773],[-41.6888,-17.2516],[-41.6725,-17.2361],[-41.656,-17.2338]]]}},{"type":"Feature","properties":{"codarea":"3132503","centroide":[-42.87717815498953,-17.855903847411653],"codigo_ibge":3132503,"nome_ig":"Chapada de Minas"},"geometry":{"type":"Polygon","coordinates":[[[-42.6841,-17.5499],[-42.6973,-17.5516],[-42.6777,-17.5663],[-42.6924,-17.586],[-42.6703,-17.6363],[-42.6809,-17.6421],[-42.6597,-17.6579],[-42.6138,-17.6714],[-42.6182,-17.6867],[-42.6055,-17.7048],[-42.5885,-17.7123],[-42.5997,-17.722],[-42.6118,-17.7204],[-42.626,-17.7602],[-42.6445,-17.7783],[-42.6581,-17.8155],[-42.6585,-17.8399],[-42.6783,-17.8655],[-42.6966,-17.8692],[-42.6777,-17.9],[-42.6589,-17.9081],[-42.6614,-17.9243],[-42.6422,-17.9243],[-42.6325,-17.9546],[-42.6207,-17.9629],[-42.6068,-17.992],[-42.6105,-18.0138],[-42.6385,-18.0402],[-42.6666,-18.0491],[-42.6939,-18.068],[-42.7031,-18.0917],[-42.7249,-18.0912],[-42.7306,-18.0813],[-42.7556,-18.0877],[-42.7652,-18.0815],[-42.7934,-18.1045],[-42.8193,-18.0928],[-42.8289,-18.0978],[-42.84,-18.0937],[-42.8578,-18.1225],[-42.8668,-18.123],[-42.8813,-18.1257],[-42.9221,-18.1069],[-42.9442,-18.1126],[-42.9652,-18.1273],[-42.968,-18.1512],[-42.9897,-18.1491],[-43.0048,-18.1248],[-43.0294,-18.102],[-43.0336,-18.0874],[-43.0756,-18.068],[-43.0884,-18.0991],[-43.1332,-18.0955],[-43.1369,-18.1081],[-43.1395,-18.0964],[-43.1141,-18.0865],[-43.1098,-18.064],[-43.1421,-18.0447],[-43.1417,-18.0233],[-43.1161,-18.0152],[-43.1071,-18.0021],[-43.1265,-17.958],[-43.1181,-17.9444],[-43.1228,-17.8974],[-43.1114,-17.878],[-43.1312,-17.8553],[-43.1369,-17.8072],[-43.1575,-17.772],[-43.14,-17.7258],[-43.1028,-17.7034],[-43.1006,-17.6865],[-43.0773,-17.6766],[-43.0767,-17.6643],[-43.0594,-17.6596],[-43.0481,-17.6303],[-43.0212,-17.6246],[-43.0163,-17.6794],[-43.0031,-17.7008],[-42.9745,-17.7154],[-42.958,-17.6607],[-42.9619,-17.6471],[-42.9494,-17.6243],[-42.9163,-17.5936],[-42.8928,-17.5926],[-42.8738,-17.6056],[-42.8487,-17.5788],[-42.8375,-17.5547],[-42.8154,-17.5447],[-42.7849,-17.5622],[-42.7719,-17.5846],[-42.7695,-17.6074],[-42.7446,-17.6381],[-42.7453,-17.658],[-42.7299,-17.6895],[-42.7226,-17.6888],[-42.7468,-17.6276],[-42.7468,-17.6105],[-42.7205,-17.5818],[-42.7368,-17.5606],[-42.7237,-17.5472],[-42.6841,-17.5499]]]}},{"type":"Feature","properties":{"codarea":"3136520","centroide":[-42.65646028148157,-16.899933482354033],"codigo_ibge":3136520,"nome_ig":"Chapada de Minas"},"geometry":{"type":"Polygon","coordinates":[[[-42.642,-16.7702],[-42.6411,-16.7945],[-42.5969,-16.8168],[-42.5874,-16.8384],[-42.5657,-16.8598],[-42.5539,-16.9018],[-42.5394,-16.9069],[-42.5518,-16.9459],[-42.5809,-16.9478],[-42.6233,-16.9735],[-42.6381,-16.9946],[-42.6607,-16.994],[-42.6812,-17.0445],[-42.7059,-17.0386],[-42.702,-16.9996],[-42.7047,-16.9668],[-42.7398,-16.9582],[-42.7578,-16.9436],[-42.7607,-16.9285],[-42.7443,-16.9083],[-42.7573,-16.8861],[-42.7293,-16.8712],[-42.737,-16.8516],[-42.7359,-16.8304],[-42.713,-16.817],[-42.6818,-16.8094],[-42.6614,-16.7809],[-42.6631,-16.7591],[-42.642,-16.7702]]]}},{"type":"Feature","properties":{"codarea":"3137007","centroide":[-41.8228998083995,-17.626683466208114],"codigo_ibge":3137007,"nome_ig":"Chapada de Minas"},"geometry":{"type":"Polygon","coordinates":[[[-41.6503,-17.6021],[-41.6346,-17.6148],[-41.6377,-17.6466],[-41.633,-17.6784],[-41.6665,-17.6779],[-41.6758,-17.7009],[-41.6717,-17.7198],[-41.7033,-17.6986],[-41.7397,-17.7096],[-41.7501,-17.723],[-41.7769,-17.7142],[-41.7852,-17.7367],[-41.815,-17.7355],[-41.8262,-17.7467],[-41.8518,-17.7453],[-41.8454,-17.7362],[-41.9044,-17.7475],[-41.9307,-17.7417],[-41.9416,-17.7483],[-41.9901,-17.756],[-42.0291,-17.7708],[-42.0437,-17.7565],[-42.038,-17.7409],[-42.013,-17.7341],[-42.0181,-17.7234],[-42.0436,-17.7271],[-42.0426,-17.7162],[-42.0393,-17.7046],[-42.0017,-17.6947],[-42.0025,-17.669],[-41.982,-17.6687],[-41.9843,-17.655],[-41.9965,-17.6383],[-41.9449,-17.5861],[-41.9314,-17.5788],[-41.9281,-17.5617],[-41.9148,-17.5614],[-41.9189,-17.5412],[-41.9087,-17.5303],[-41.8879,-17.5295],[-41.8705,-17.512],[-41.8478,-17.5151],[-41.8084,-17.4986],[-41.8004,-17.4821],[-41.7781,-17.4696],[-41.7817,-17.4593],[-41.7538,-17.442],[-41.7318,-17.4738],[-41.7351,-17.4828],[-41.6838,-17.5235],[-41.6582,-17.534],[-41.6568,-17.5587],[-41.6801,-17.5949],[-41.6503,-17.6021]]]}},{"type":"Feature","properties":{"codarea":"3138351","centroide":[-42.74385513055234,-17.069189546480686],"codigo_ibge":3138351,"nome_ig":"Chapada de Minas"},"geometry":{"type":"Polygon","coordinates":[[[-42.7578,-16.9436],[-42.7398,-16.9582],[-42.7047,-16.9668],[-42.702,-16.9996],[-42.7059,-17.0386],[-42.6812,-17.0445],[-42.6308,-17.0871],[-42.6276,-17.1038],[-42.6544,-17.0966],[-42.65,-17.1082],[-42.6918,-17.1262],[-42.705,-17.1209],[-42.7166,-17.1332],[-42.742,-17.1358],[-42.773,-17.1779],[-42.8257,-17.1803],[-42.8177,-17.142],[-42.8088,-17.1252],[-42.8209,-17.107],[-42.8073,-17.0882],[-42.7939,-17.0508],[-42.7959,-17.0196],[-42.8,-17.0016],[-42.7881,-16.9788],[-42.7779,-16.9816],[-42.7656,-16.9609],[-42.7777,-16.9476],[-42.7578,-16.9436]]]}},{"type":"Feature","properties":{"codarea":"3139201","centroide":[-42.111254622793346,-17.843387216694005],"codigo_ibge":3139201,"nome_ig":"Chapada de Minas"},"geometry":{"type":"Polygon","coordinates":[[[-42.0426,-17.7162],[-42.0436,-17.7271],[-42.0181,-17.7234],[-42.013,-17.7341],[-42.038,-17.7409],[-42.0437,-17.7565],[-42.0291,-17.7708],[-41.9901,-17.756],[-41.9502,-17.7765],[-41.9264,-17.7664],[-41.9116,-17.8408],[-41.9175,-17.853],[-41.9504,-17.8635],[-41.9621,-17.8558],[-41.9893,-17.8684],[-42.0065,-17.8542],[-42.0322,-17.8746],[-42.0467,-17.9025],[-42.0594,-17.9115],[-42.0509,-17.9522],[-42.0844,-17.974],[-42.1341,-17.995],[-42.1485,-18.0156],[-42.1775,-18.0009],[-42.1912,-17.9775],[-42.1954,-17.9546],[-42.2276,-17.9102],[-42.2456,-17.9103],[-42.2691,-17.8771],[-42.2816,-17.8503],[-42.2765,-17.8139],[-42.264,-17.8027],[-42.2666,-17.7883],[-42.2362,-17.7664],[-42.2142,-17.7709],[-42.1963,-17.7767],[-42.1886,-17.7671],[-42.1418,-17.7661],[-42.1505,-17.7538],[-42.1443,-17.7017],[-42.1284,-17.7111],[-42.0445,-17.6981],[-42.0426,-17.7162]]]}},{"type":"Feature","properties":{"codarea":"3141801","centroide":[-42.43537175571339,-17.36120955348483],"codigo_ibge":3141801,"nome_ig":"Chapada de Minas"},"geometry":{"type":"Polygon","coordinates":[[[-42.6276,-17.1038],[-42.6374,-17.1169],[-42.5928,-17.1265],[-42.5604,-17.1709],[-42.5232,-17.1453],[-42.5095,-17.1533],[-42.4816,-17.147],[-42.4669,-17.154],[-42.4204,-17.2018],[-42.3868,-17.2236],[-42.3804,-17.26],[-42.3724,-17.2658],[-42.3441,-17.255],[-42.3238,-17.2341],[-42.2924,-17.286],[-42.2361,-17.307],[-42.2389,-17.3237],[-42.2222,-17.3301],[-42.2055,-17.3161],[-42.1903,-17.3302],[-42.1873,-17.3565],[-42.1753,-17.3669],[-42.114,-17.3453],[-42.1038,-17.3544],[-42.0867,-17.3804],[-42.177,-17.4161],[-42.2085,-17.4116],[-42.2107,-17.4289],[-42.1902,-17.4421],[-42.2196,-17.459],[-42.2195,-17.485],[-42.2602,-17.5317],[-42.2527,-17.5544],[-42.2882,-17.5956],[-42.3045,-17.6136],[-42.3315,-17.5989],[-42.3675,-17.6104],[-42.3861,-17.5938],[-42.4165,-17.5787],[-42.4428,-17.5762],[-42.4623,-17.5494],[-42.4825,-17.5351],[-42.518,-17.5211],[-42.5353,-17.5001],[-42.5587,-17.4844],[-42.5659,-17.4776],[-42.5775,-17.4231],[-42.5831,-17.4169],[-42.5792,-17.3811],[-42.568,-17.371],[-42.5765,-17.3434],[-42.6044,-17.3425],[-42.6098,-17.3827],[-42.6528,-17.3651],[-42.6985,-17.3219],[-42.694,-17.2911],[-42.6971,-17.2356],[-42.6903,-17.2009],[-42.6709,-17.1861],[-42.6589,-17.1627],[-42.6636,-17.146],[-42.6789,-17.1437],[-42.6918,-17.1262],[-42.65,-17.1082],[-42.6544,-17.0966],[-42.6276,-17.1038]]]}},{"type":"Feature","properties":{"codarea":"3145307","centroide":[-41.95493867966721,-17.371006557686044],"codigo_ibge":3145307,"nome_ig":"Chapada de Minas"},"geometry":{"type":"Polygon","coordinates":[[[-41.8681,-17.1088],[-41.8647,-17.1214],[-41.8233,-17.1357],[-41.7987,-17.1346],[-41.7857,-17.1618],[-41.8017,-17.1886],[-41.8216,-17.2071],[-41.8254,-17.2298],[-41.7922,-17.2474],[-41.76,-17.2873],[-41.7623,-17.3063],[-41.7492,-17.3437],[-41.733,-17.3559],[-41.7452,-17.3837],[-41.7584,-17.3883],[-41.7673,-17.4234],[-41.7538,-17.442],[-41.7817,-17.4593],[-41.7781,-17.4696],[-41.8004,-17.4821],[-41.8084,-17.4986],[-41.8478,-17.5151],[-41.8705,-17.512],[-41.8879,-17.5295],[-41.9087,-17.5303],[-41.9189,-17.5412],[-41.9148,-17.5614],[-41.9281,-17.5617],[-41.9314,-17.5788],[-41.9449,-17.5861],[-41.9965,-17.6383],[-41.9843,-17.655],[-41.9923,-17.6558],[-42.0165,-17.6155],[-42.047,-17.601],[-42.0743,-17.6069],[-42.1095,-17.5945],[-42.1331,-17.5708],[-42.1276,-17.5487],[-42.1403,-17.5155],[-42.1508,-17.515],[-42.1655,-17.4803],[-42.1712,-17.4512],[-42.1902,-17.4421],[-42.2107,-17.4289],[-42.2085,-17.4116],[-42.177,-17.4161],[-42.0867,-17.3804],[-42.1038,-17.3544],[-42.0969,-17.3429],[-42.1149,-17.3162],[-42.1104,-17.2912],[-42.0982,-17.2845],[-42.0793,-17.2382],[-42.0797,-17.2121],[-42.0801,-17.2001],[-42.0634,-17.1833],[-42.0209,-17.189],[-42.0195,-17.2059],[-41.9981,-17.2067],[-41.9857,-17.1921],[-41.9619,-17.2051],[-41.951,-17.1918],[-41.9572,-17.1477],[-41.9542,-17.1226],[-41.9647,-17.0856],[-41.9591,-17.0728],[-41.9364,-17.0914],[-41.8681,-17.1088]]]}},{"type":"Feature","properties":{"codarea":"3165909","centroide":[-43.240464816250174,-17.85543395494029],"codigo_ibge":3165909,"nome_ig":"Chapada de Minas"},"geometry":{"type":"Polygon","coordinates":[[[-43.2274,-17.5627],[-43.1575,-17.772],[-43.1369,-17.8072],[-43.1312,-17.8553],[-43.1114,-17.878],[-43.1228,-17.8974],[-43.1181,-17.9444],[-43.1265,-17.958],[-43.1071,-18.0021],[-43.1161,-18.0152],[-43.1417,-18.0233],[-43.1421,-18.0447],[-43.1098,-18.064],[-43.1141,-18.0865],[-43.1395,-18.0964],[-43.1369,-18.1081],[-43.1373,-18.1088],[-43.1437,-18.0916],[-43.1615,-18.0831],[-43.1657,-18.0374],[-43.1874,-18.0199],[-43.2082,-18.0331],[-43.2335,-18.0304],[-43.2623,-18.0455],[-43.2808,-18.0227],[-43.2881,-17.998],[-43.3249,-18.0063],[-43.3205,-17.9544],[-43.3435,-17.9373],[-43.3585,-17.9435],[-43.3886,-17.9408],[-43.4081,-17.9471],[-43.3852,-17.9228],[-43.3896,-17.9155],[-43.3763,-17.8738],[-43.3789,-17.8354],[-43.3858,-17.8259],[-43.3812,-17.7976],[-43.3252,-17.7628],[-43.3349,-17.7341],[-43.324,-17.7229],[-43.291,-17.7127],[-43.3014,-17.6583],[-43.2667,-17.6551],[-43.2476,-17.6415],[-43.2535,-17.6004],[-43.2413,-17.5884],[-43.248,-17.5751],[-43.2274,-17.5627]]]}},{"type":"Feature","properties":{"codarea":"3165552","centroide":[-42.15660030468473,-17.622353081276554],"codigo_ibge":3165552,"nome_ig":"Chapada de Minas"},"geometry":{"type":"Polygon","coordinates":[[[-42.1902,-17.4421],[-42.1712,-17.4512],[-42.1655,-17.4803],[-42.1508,-17.515],[-42.1403,-17.5155],[-42.1276,-17.5487],[-42.1331,-17.5708],[-42.1095,-17.5945],[-42.0743,-17.6069],[-42.047,-17.601],[-42.0165,-17.6155],[-41.9923,-17.6558],[-41.9843,-17.655],[-41.982,-17.6687],[-42.0025,-17.669],[-42.0017,-17.6947],[-42.0393,-17.7046],[-42.0426,-17.7162],[-42.0445,-17.6981],[-42.1284,-17.7111],[-42.1443,-17.7017],[-42.1505,-17.7538],[-42.1418,-17.7661],[-42.1886,-17.7671],[-42.1963,-17.7767],[-42.2142,-17.7709],[-42.2201,-17.7568],[-42.2123,-17.7366],[-42.224,-17.7047],[-42.2411,-17.6938],[-42.2344,-17.6773],[-42.2574,-17.651],[-42.2499,-17.6174],[-42.2627,-17.602],[-42.2882,-17.5956],[-42.2527,-17.5544],[-42.2602,-17.5317],[-42.2195,-17.485],[-42.2196,-17.459],[-42.1902,-17.4421]]]}},{"type":"Feature","properties":{"codarea":"3169703","centroide":[-42.838795783040204,-17.244195206573135],"codigo_ibge":3169703,"nome_ig":"Chapada de Minas"},"geometry":{"type":"Polygon","coordinates":[[[-42.7959,-17.0196],[-42.7939,-17.0508],[-42.8073,-17.0882],[-42.8209,-17.107],[-42.8088,-17.1252],[-42.8177,-17.142],[-42.8257,-17.1803],[-42.773,-17.1779],[-42.742,-17.1358],[-42.7166,-17.1332],[-42.705,-17.1209],[-42.6918,-17.1262],[-42.6789,-17.1437],[-42.6636,-17.146],[-42.6589,-17.1627],[-42.6709,-17.1861],[-42.6903,-17.2009],[-42.6971,-17.2356],[-42.694,-17.2911],[-42.6985,-17.3219],[-42.6528,-17.3651],[-42.6098,-17.3827],[-42.6044,-17.3425],[-42.5765,-17.3434],[-42.568,-17.371],[-42.5792,-17.3811],[-42.5831,-17.4169],[-42.5775,-17.4231],[-42.5659,-17.4776],[-42.5587,-17.4844],[-42.5844,-17.4757],[-42.5992,-17.5009],[-42.6202,-17.4662],[-42.6211,-17.4372],[-42.6389,-17.4183],[-42.661,-17.4159],[-42.6959,-17.3829],[-42.7075,-17.3491],[-42.7282,-17.3284],[-42.7427,-17.354],[-42.7768,-17.3284],[-42.7878,-17.3381],[-42.7763,-17.3636],[-42.798,-17.3741],[-42.8116,-17.4006],[-42.8267,-17.4038],[-42.8331,-17.3886],[-42.8689,-17.4013],[-42.8896,-17.3979],[-42.8788,-17.3619],[-42.9032,-17.3547],[-42.9102,-17.3407],[-42.9446,-17.3214],[-42.9726,-17.3368],[-42.9964,-17.3592],[-43.0067,-17.3312],[-43.048,-17.2901],[-43.0603,-17.2875],[-43.0684,-17.2597],[-43.0835,-17.2531],[-43.0696,-17.2244],[-43.0254,-17.186],[-43.0054,-17.1936],[-42.988,-17.174],[-42.9846,-17.1336],[-42.9698,-17.1056],[-42.9395,-17.09],[-42.9247,-17.0405],[-42.9095,-17.0533],[-42.9024,-17.04],[-42.8679,-17.0557],[-42.8691,-17.047],[-42.8344,-17.0419],[-42.8216,-17.025],[-42.7959,-17.0196]]]}},{"type":"Feature","properties":{"codarea":"3171071","centroide":[-42.72569886903636,-17.48638846125323],"codigo_ibge":3171071,"nome_ig":"Chapada de Minas"},"geometry":{"type":"Polygon","coordinates":[[[-42.5992,-17.5009],[-42.587,-17.5264],[-42.5806,-17.5666],[-42.5615,-17.5759],[-42.5428,-17.6077],[-42.5434,-17.6271],[-42.5626,-17.635],[-42.5893,-17.6306],[-42.6133,-17.6013],[-42.6631,-17.5849],[-42.6525,-17.5639],[-42.6561,-17.5493],[-42.6841,-17.5499],[-42.7237,-17.5472],[-42.7368,-17.5606],[-42.7205,-17.5818],[-42.7468,-17.6105],[-42.7468,-17.6276],[-42.7226,-17.6888],[-42.7299,-17.6895],[-42.7453,-17.658],[-42.7446,-17.6381],[-42.7695,-17.6074],[-42.7719,-17.5846],[-42.7849,-17.5622],[-42.8154,-17.5447],[-42.8375,-17.5547],[-42.8448,-17.5552],[-42.8582,-17.5227],[-42.8797,-17.4966],[-42.8589,-17.4757],[-42.8837,-17.4469],[-42.8695,-17.4318],[-42.8689,-17.4013],[-42.8331,-17.3886],[-42.8267,-17.4038],[-42.8116,-17.4006],[-42.798,-17.3741],[-42.7763,-17.3636],[-42.7878,-17.3381],[-42.7768,-17.3284],[-42.7427,-17.354],[-42.7282,-17.3284],[-42.7075,-17.3491],[-42.6959,-17.3829],[-42.661,-17.4159],[-42.6389,-17.4183],[-42.6211,-17.4372],[-42.6202,-17.4662],[-42.5992,-17.5009]]]}}]}