{"type":"FeatureCollection","features":[{"type":"Feature","properties":{"codarea":"1301308","centroide":[-62.973112606074956,-3.288976584997444],"codigo_ibge":1301308,"nome_ig":"Codajás"},"geometry":{"type":"Polygon","coordinates":[[[-63.9574,-2.4447],[-63.957,-2.4665],[-63.9812,-2.5054],[-63.9881,-2.5279],[-63.9842,-2.5654],[-63.9646,-2.5753],[-63.9199,-2.5641],[-63.8756,-2.5657],[-63.8362,-2.5609],[-63.8184,-2.5478],[-63.7884,-2.5571],[-63.7673,-2.5931],[-63.7501,-2.6496],[-63.7295,-2.6935],[-63.7144,-2.7624],[-63.7288,-2.8029],[-63.7246,-2.8244],[-63.7119,-2.8351],[-63.6915,-2.8346],[-63.6624,-2.8178],[-63.6296,-2.8067],[-63.6091,-2.7865],[-63.5844,-2.7803],[-63.5639,-2.7628],[-63.525,-2.7538],[-63.5042,-2.7395],[-63.4813,-2.7133],[-63.463,-2.7034],[-63.4009,-2.707],[-63.3741,-2.7018],[-63.3462,-2.7041],[-63.3049,-2.7001],[-63.2835,-2.7107],[-63.2592,-2.7515],[-63.2407,-2.7962],[-63.2185,-2.8198],[-63.189,-2.8371],[-63.1696,-2.8402],[-63.1455,-2.8325],[-63.0955,-2.8318],[-63.0497,-2.8147],[-63.0096,-2.8408],[-62.9591,-2.8449],[-62.9288,-2.8536],[-62.9151,-2.8811],[-62.9104,-2.9253],[-62.9331,-2.9908],[-62.9288,-3.008],[-62.8937,-3.0036],[-62.828,-3.003],[-62.796,-3.019],[-62.7799,-3.0201],[-62.7347,-3.0734],[-62.6919,-3.0927],[-62.6265,-3.093],[-62.583,-3.1067],[-62.5606,-3.1334],[-62.5287,-3.1565],[-62.4976,-3.1992],[-62.4771,-3.2374],[-62.4574,-3.2937],[-62.4538,-3.3628],[-62.4448,-3.4211],[-62.4324,-3.4331],[-62.4043,-3.4409],[-62.3677,-3.442],[-62.3111,-3.4379],[-62.2994,-3.4525],[-62.2723,-3.4436],[-62.2779,-3.4018],[-62.2703,-3.3757],[-62.2557,-3.368],[-62.2037,-3.3554],[-62.1663,-3.3376],[-62.1516,-3.3232],[-62.1256,-3.2821],[-62.1025,-3.2677],[-62.0879,-3.2781],[-62.079,-3.2919],[-62.0767,-3.3204],[-62.0873,-3.391],[-62.0697,-3.4328],[-62.0382,-3.4519],[-62.0392,-3.4707],[-62.0264,-3.5045],[-62.0348,-3.5446],[-62.0332,-3.572],[-62.0122,-3.5942],[-61.9614,-3.6101],[-61.9289,-3.6282],[-61.8964,-3.6602],[-61.8716,-3.6672],[-61.8234,-3.6618],[-61.8234,-3.8883],[-61.8447,-3.9186],[-61.8619,-3.9336],[-61.9039,-3.9456],[-61.8892,-3.9623],[-61.8641,-3.9742],[-61.8474,-3.9926],[-61.8348,-4.0387],[-61.8147,-4.0404],[-61.8329,-4.0491],[-61.8737,-4.0288],[-61.8902,-4.0439],[-61.9118,-4.0374],[-61.9118,-4.0244],[-61.936,-4.035],[-61.9283,-4.0414],[-61.9365,-4.0632],[-61.9214,-4.0859],[-61.8764,-4.1015],[-61.8656,-4.0861],[-61.813,-4.0914],[-61.7938,-4.0995],[-61.815,-4.1126],[-61.8397,-4.1443],[-61.8705,-4.1535],[-61.871,-4.137],[-61.8547,-4.1357],[-61.8527,-4.1048],[-61.8694,-4.1233],[-61.9083,-4.1294],[-61.949,-4.1207],[-61.981,-4.0916],[-62.0425,-4.0789],[-62.0772,-4.0816],[-62.1234,-4.0928],[-62.1411,-4.086],[-62.1591,-4.0938],[-62.178,-4.1153],[-62.2022,-4.1112],[-62.2479,-4.0806],[-62.2616,-4.0629],[-62.2941,-4.073],[-62.3028,-4.0842],[-62.3618,-4.0903],[-62.388,-4.0769],[-62.4074,-4.088],[-62.4192,-4.0781],[-62.4456,-4.0773],[-62.4658,-4.0565],[-62.4779,-4.0581],[-62.4943,-4.0381],[-62.5279,-4.0333],[-62.562,-4.0132],[-62.5706,-4.0022],[-62.5616,-3.948],[-62.5788,-3.9202],[-62.5805,-3.8578],[-63.0032,-3.5758],[-63.0143,-3.567],[-63.0468,-3.5689],[-63.1068,-3.6091],[-63.1508,-3.6185],[-63.1836,-3.6112],[-63.1988,-3.5994],[-63.2416,-3.5426],[-63.2768,-3.5172],[-63.3444,-3.5038],[-63.3674,-3.493],[-63.4543,-3.4247],[-63.4771,-3.3943],[-63.5525,-3.3662],[-63.5623,-3.3662],[-63.5892,-3.3437],[-63.5975,-3.3595],[-63.6231,-3.3539],[-63.6403,-3.3323],[-63.6525,-3.3383],[-63.6744,-3.3152],[-63.6683,-3.2997],[-63.7232,-3.2677],[-63.7227,-3.2363],[-63.7459,-3.2431],[-63.7512,-3.2248],[-63.7715,-3.2251],[-63.7817,-3.2096],[-63.7744,-3.186],[-63.8043,-3.174],[-63.817,-3.1371],[-63.8504,-3.127],[-63.846,-3.0981],[-63.8609,-3.0822],[-63.8649,-3.0593],[-63.8815,-3.0364],[-63.8695,-2.998],[-63.8732,-2.9794],[-63.8929,-2.9638],[-63.9112,-2.929],[-63.8995,-2.9225],[-63.9049,-2.9046],[-63.9483,-2.8787],[-63.943,-2.8526],[-63.9484,-2.824],[-63.9683,-2.8138],[-63.9579,-2.7874],[-63.9675,-2.7822],[-63.9593,-2.7467],[-63.9641,-2.7335],[-63.9541,-2.6966],[-63.9759,-2.6559],[-64.0003,-2.6558],[-64.0045,-2.6668],[-64.0288,-2.6533],[-64.0441,-2.6117],[-64.0647,-2.6033],[-64.0855,-2.5266],[-64.0836,-2.5077],[-64.0991,-2.4991],[-64.1033,-2.462],[-64.122,-2.4481],[-64.143,-2.4465],[-64.1688,-2.4307],[-64.196,-2.4267],[-64.2311,-2.4297],[-64.2633,-2.4136],[-64.2932,-2.3848],[-64.3326,-2.3754],[-64.3708,-2.3603],[-64.3867,-2.3432],[-64.3672,-2.2651],[-64.3377,-2.2777],[-64.3139,-2.267],[-64.2864,-2.2169],[-64.26,-2.2051],[-64.2538,-2.1241],[-64.2332,-2.1068],[-64.2015,-2.1033],[-64.1689,-2.1314],[-64.1556,-2.1716],[-64.0858,-2.1917],[-64.075,-2.1908],[-64.0287,-2.1606],[-64.0113,-2.1616],[-64.0127,-2.1876],[-63.9929,-2.2159],[-64.0024,-2.2421],[-63.9998,-2.2721],[-64.0068,-2.3284],[-63.9772,-2.3735],[-63.9744,-2.4227],[-63.9574,-2.4447]]]}}]}