{"type":"FeatureCollection","features":[{"type":"Feature","properties":{"codarea":"4117701","centroide":[-50.0572899981343,-25.44267442453162],"codigo_ibge":4117701,"nome_ig":"Colônia Witmarsum"},"geometry":{"type":"Polygon","coordinates":[[[-49.8196,-25.27],[-49.7583,-25.3612],[-49.7565,-25.3605],[-49.7408,-25.367],[-49.7485,-25.4],[-49.7403,-25.4151],[-49.7476,-25.4364],[-49.7666,-25.4505],[-49.7671,-25.4667],[-49.8465,-25.4761],[-49.8607,-25.4966],[-49.8935,-25.4721],[-49.8993,-25.4434],[-49.91,-25.4488],[-49.9294,-25.4865],[-49.9329,-25.504],[-49.9612,-25.5072],[-49.99,-25.5623],[-49.986,-25.5997],[-49.9926,-25.6114],[-50.0159,-25.599],[-50.0308,-25.6103],[-50.0287,-25.6296],[-50.0653,-25.6509],[-50.0744,-25.6344],[-50.0952,-25.6353],[-50.1419,-25.6049],[-50.1568,-25.6033],[-50.1714,-25.5837],[-50.1975,-25.5854],[-50.246,-25.5807],[-50.2582,-25.5529],[-50.2736,-25.5438],[-50.3026,-25.5408],[-50.3208,-25.5463],[-50.3584,-25.5277],[-50.3583,-25.5276],[-50.3414,-25.4539],[-50.3548,-25.4396],[-50.3505,-25.4271],[-50.3213,-25.4153],[-50.2997,-25.3769],[-50.277,-25.3769],[-50.2733,-25.356],[-50.2874,-25.3183],[-50.2761,-25.2885],[-50.2469,-25.3089],[-50.2545,-25.335],[-50.2397,-25.3646],[-50.2457,-25.3786],[-50.2187,-25.3873],[-50.1789,-25.3699],[-50.1632,-25.3751],[-50.1418,-25.3385],[-50.1167,-25.3355],[-50.0812,-25.3111],[-50.0918,-25.2801],[-50.073,-25.2513],[-50.0464,-25.2754],[-50.0375,-25.3031],[-50.0115,-25.3009],[-49.9832,-25.3214],[-49.9414,-25.3279],[-49.9282,-25.3121],[-49.8632,-25.2835],[-49.8463,-25.2908],[-49.8196,-25.27]]]}}]}