{
  "type": "FeatureCollection",
  "nome_ig": "Costa Negra",
  "municipios_lista": "acarau;cruz;itarema",
  "features": [
    {
      "type": "Feature",
      "geometry": {
        "type": "Polygon",
        "coordinates": [
          [
            [
              -40.1702,
              -2.9441
            ],
            [
              -40.1714,
              -2.9454
            ],
            [
              -40.1728,
              -2.9485
            ],
            [
              -40.1725,
              -2.9493
            ],
            [
              -40.1741,
              -2.9541
            ],
            [
              -40.1748,
              -2.9579
            ],
            [
              -40.1746,
              -2.9598
            ],
            [
              -40.1739,
              -2.961
            ],
            [
              -40.1737,
              -2.9628
            ],
            [
              -40.1708,
              -2.967
            ],
            [
              -40.171,
              -2.9703
            ],
            [
              -40.1704,
              -2.9716
            ],
            [
              -40.1708,
              -2.9763
            ],
            [
              -40.1702,
              -2.9779
            ],
            [
              -40.1705,
              -2.9801
            ],
            [
              -40.1697,
              -2.9822
            ],
            [
              -40.1705,
              -2.9847
            ],
            [
              -40.1691,
              -2.9881
            ],
            [
              -40.1694,
              -2.9896
            ],
            [
              -40.1679,
              -2.9908
            ],
            [
              -40.1665,
              -2.9898
            ],
            [
              -40.1635,
              -2.9893
            ],
            [
              -40.1623,
              -2.9902
            ],
            [
              -40.1596,
              -2.9912
            ],
            [
              -40.1581,
              -2.9907
            ],
            [
              -40.1569,
              -2.9911
            ],
            [
              -40.1554,
              -2.9928
            ],
            [
              -40.155,
              -2.9968
            ],
            [
              -40.156,
              -2.9994
            ],
            [
              -40.1558,
              -3.0029
            ],
            [
              -40.1543,
              -3.0071
            ],
            [
              -40.1539,
              -3.0107
            ],
            [
              -40.155,
              -3.0134
            ],
            [
              -40.1587,
              -3.0159
            ],
            [
              -40.1566,
              -3.0216
            ],
            [
              -40.1552,
              -3.0261
            ],
            [
              -40.1551,
              -3.0278
            ],
            [
              -40.1558,
              -3.0297
            ],
            [
              -40.1558,
              -3.0322
            ],
            [
              -40.153,
              -3.0341
            ],
            [
              -40.1525,
              -3.0367
            ],
            [
              -40.1518,
              -3.0374
            ],
            [
              -40.1514,
              -3.0393
            ],
            [
              -40.1506,
              -3.0406
            ],
            [
              -40.1477,
              -3.0422
            ],
            [
              -40.1467,
              -3.0424
            ],
            [
              -40.1455,
              -3.0415
            ],
            [
              -40.1429,
              -3.0412
            ],
            [
              -40.1419,
              -3.0401
            ],
            [
              -40.142,
              -3.0384
            ],
            [
              -40.1399,
              -3.0381
            ],
            [
              -40.139,
              -3.0386
            ],
            [
              -40.1351,
              -3.0376
            ],
            [
              -40.1216,
              -3.035
            ],
            [
              -40.1116,
              -3.0544
            ],
            [
              -40.1095,
              -3.0568
            ],
            [
              -40.0894,
              -3.0723
            ],
            [
              -40.0878,
              -3.0744
            ],
            [
              -40.0831,
              -3.0834
            ],
            [
              -40.0827,
              -3.0859
            ],
            [
              -40.0838,
              -3.1154
            ],
            [
              -40.0735,
              -3.1229
            ],
            [
              -40.0372,
              -3.1738
            ],
            [
              -40.0026,
              -3.22
            ],
            [
              -39.9611,
              -3.2781
            ],
            [
              -39.9342,
              -3.3157
            ],
            [
              -39.9335,
              -3.315
            ],
            [
              -39.932,
              -3.3151
            ],
            [
              -39.9322,
              -3.3133
            ],
            [
              -39.9305,
              -3.3141
            ],
            [
              -39.929,
              -3.3138
            ],
            [
              -39.929,
              -3.3125
            ],
            [
              -39.9277,
              -3.3123
            ],
            [
              -39.9273,
              -3.3106
            ],
            [
              -39.9282,
              -3.3088
            ],
            [
              -39.9272,
              -3.3081
            ],
            [
              -39.9275,
              -3.3045
            ],
            [
              -39.9268,
              -3.303
            ],
            [
              -39.9249,
              -3.3026
            ],
            [
              -39.924,
              -3.2993
            ],
            [
              -39.9246,
              -3.2968
            ],
            [
              -39.9234,
              -3.2964
            ],
            [
              -39.9237,
              -3.2947
            ],
            [
              -39.9207,
              -3.2928
            ],
            [
              -39.9206,
              -3.292
            ],
            [
              -39.9177,
              -3.2921
            ],
            [
              -39.9165,
              -3.2906
            ],
            [
              -39.917,
              -3.2898
            ],
            [
              -39.9158,
              -3.2885
            ],
            [
              -39.9136,
              -3.2873
            ],
            [
              -39.912,
              -3.2877
            ],
            [
              -39.9103,
              -3.2852
            ],
            [
              -39.911,
              -3.2844
            ],
            [
              -39.9091,
              -3.2825
            ],
            [
              -39.9098,
              -3.282
            ],
            [
              -39.9087,
              -3.2796
            ],
            [
              -39.9101,
              -3.2783
            ],
            [
              -39.9108,
              -3.2762
            ],
            [
              -39.9097,
              -3.2743
            ],
            [
              -39.9075,
              -3.2736
            ],
            [
              -39.9241,
              -3.2668
            ],
            [
              -39.9257,
              -3.2657
            ],
            [
              -39.9408,
              -3.2473
            ],
            [
              -39.9421,
              -3.2461
            ],
            [
              -39.946,
              -3.2438
            ],
            [
              -39.9478,
              -3.2431
            ],
            [
              -39.9535,
              -3.2418
            ],
            [
              -39.9561,
              -3.2407
            ],
            [
              -39.9616,
              -3.2394
            ],
            [
              -39.9656,
              -3.2394
            ],
            [
              -39.9676,
              -3.2362
            ],
            [
              -39.972,
              -3.2323
            ],
            [
              -39.9767,
              -3.2318
            ],
            [
              -39.9763,
              -3.2261
            ],
            [
              -39.9794,
              -3.2226
            ],
            [
              -39.9831,
              -3.22
            ],
            [
              -39.9843,
              -3.2198
            ],
            [
              -39.987,
              -3.2184
            ],
            [
              -39.9883,
              -3.2173
            ],
            [
              -39.99,
              -3.2152
            ],
            [
              -39.9942,
              -3.2091
            ],
            [
              -39.9952,
              -3.2069
            ],
            [
              -39.9963,
              -3.2027
            ],
            [
              -39.9965,
              -3.2001
            ],
            [
              -39.997,
              -3.199
            ],
            [
              -39.9969,
              -3.1964
            ],
            [
              -39.9963,
              -3.1957
            ],
            [
              -39.9965,
              -3.1939
            ],
            [
              -39.9962,
              -3.1919
            ],
            [
              -39.9965,
              -3.189
            ],
            [
              -39.996,
              -3.1868
            ],
            [
              -39.9925,
              -3.1828
            ],
            [
              -39.9896,
              -3.181
            ],
            [
              -39.9886,
              -3.1797
            ],
            [
              -39.9875,
              -3.1765
            ],
            [
              -39.9853,
              -3.1722
            ],
            [
              -39.9844,
              -3.1709
            ],
            [
              -39.9842,
              -3.1689
            ],
            [
              -39.9835,
              -3.1681
            ],
            [
              -39.9828,
              -3.1648
            ],
            [
              -39.9836,
              -3.162
            ],
            [
              -39.9843,
              -3.1613
            ],
            [
              -39.989,
              -3.1611
            ],
            [
              -39.9922,
              -3.138
            ],
            [
              -39.9941,
              -3.134
            ],
            [
              -39.9936,
              -3.1311
            ],
            [
              -39.992,
              -3.1248
            ],
            [
              -39.9913,
              -3.1233
            ],
            [
              -39.9903,
              -3.117
            ],
            [
              -39.9894,
              -3.116
            ],
            [
              -39.9893,
              -3.1136
            ],
            [
              -39.9903,
              -3.1092
            ],
            [
              -39.9885,
              -3.0967
            ],
            [
              -39.99,
              -3.0972
            ],
            [
              -39.9906,
              -3.0951
            ],
            [
              -39.9861,
              -3.0883
            ],
            [
              -39.9791,
              -3.0797
            ],
            [
              -39.973,
              -3.0741
            ],
            [
              -39.9724,
              -3.0711
            ],
            [
              -39.9726,
              -3.0669
            ],
            [
              -39.9733,
              -3.0597
            ],
            [
              -39.9745,
              -3.0573
            ],
            [
              -39.9751,
              -3.0526
            ],
            [
              -39.9781,
              -3.0457
            ],
            [
              -39.9819,
              -3.0342
            ],
            [
              -39.9813,
              -3.0294
            ],
            [
              -39.9822,
              -3.0236
            ],
            [
              -39.9836,
              -3.0176
            ],
            [
              -39.9794,
              -3.0084
            ],
            [
              -39.9756,
              -3.0033
            ],
            [
              -39.9741,
              -3.001
            ],
            [
              -39.973,
              -2.9909
            ],
            [
              -39.972,
              -2.9897
            ],
            [
              -39.9718,
              -2.9885
            ],
            [
              -39.9726,
              -2.9867
            ],
            [
              -39.9719,
              -2.9788
            ],
            [
              -39.9709,
              -2.9693
            ],
            [
              -39.97,
              -2.9585
            ],
            [
              -39.9689,
              -2.9469
            ],
            [
              -39.9665,
              -2.9314
            ],
            [
              -39.9583,
              -2.9036
            ],
            [
              -39.9577,
              -2.8977
            ],
            [
              -39.9538,
              -2.8958
            ],
            [
              -39.9527,
              -2.8919
            ],
            [
              -39.9442,
              -2.8712
            ],
            [
              -39.9424,
              -2.8664
            ],
            [
              -39.9444,
              -2.8646
            ],
            [
              -39.9467,
              -2.8633
            ],
            [
              -39.949,
              -2.8616
            ],
            [
              -39.9561,
              -2.8576
            ],
            [
              -39.9601,
              -2.856
            ],
            [
              -39.9617,
              -2.8549
            ],
            [
              -39.9656,
              -2.8514
            ],
            [
              -39.9665,
              -2.8515
            ],
            [
              -39.9709,
              -2.8485
            ],
            [
              -39.9801,
              -2.8446
            ],
            [
              -39.99,
              -2.8411
            ],
            [
              -39.9946,
              -2.8395
            ],
            [
              -39.9951,
              -2.8402
            ],
            [
              -39.9913,
              -2.842
            ],
            [
              -39.9898,
              -2.8434
            ],
            [
              -39.9849,
              -2.8468
            ],
            [
              -39.9839,
              -2.8484
            ],
            [
              -39.985,
              -2.8487
            ],
            [
              -39.9867,
              -2.8475
            ],
            [
              -39.9895,
              -2.8463
            ],
            [
              -39.9913,
              -2.8453
            ],
            [
              -39.9936,
              -2.8448
            ],
            [
              -39.9973,
              -2.8444
            ],
            [
              -39.9991,
              -2.8445
            ],
            [
              -40.0009,
              -2.8438
            ],
            [
              -40.0024,
              -2.8446
            ],
            [
              -40.0056,
              -2.8435
            ],
            [
              -40.009,
              -2.8434
            ],
            [
              -40.0179,
              -2.8411
            ],
            [
              -40.0229,
              -2.8396
            ],
            [
              -40.027,
              -2.8389
            ],
            [
              -40.0281,
              -2.8406
            ],
            [
              -40.0252,
              -2.8423
            ],
            [
              -40.0232,
              -2.8422
            ],
            [
              -40.0207,
              -2.8431
            ],
            [
              -40.0207,
              -2.8439
            ],
            [
              -40.0242,
              -2.8436
            ],
            [
              -40.0273,
              -2.8425
            ],
            [
              -40.028,
              -2.8417
            ],
            [
              -40.0314,
              -2.8403
            ],
            [
              -40.0333,
              -2.8399
            ],
            [
              -40.035,
              -2.8404
            ],
            [
              -40.0354,
              -2.8415
            ],
            [
              -40.037,
              -2.8405
            ],
            [
              -40.0378,
              -2.8414
            ],
            [
              -40.0395,
              -2.8418
            ],
            [
              -40.0427,
              -2.84
            ],
            [
              -40.0456,
              -2.8378
            ],
            [
              -40.0487,
              -2.8378
            ],
            [
              -40.0543,
              -2.8351
            ],
            [
              -40.058,
              -2.8342
            ],
            [
              -40.0598,
              -2.8343
            ],
            [
              -40.0624,
              -2.8354
            ],
            [
              -40.0617,
              -2.8381
            ],
            [
              -40.0637,
              -2.8368
            ],
            [
              -40.0663,
              -2.8361
            ],
            [
              -40.0688,
              -2.8368
            ],
            [
              -40.0699,
              -2.8361
            ],
            [
              -40.0736,
              -2.8362
            ],
            [
              -40.0734,
              -2.8373
            ],
            [
              -40.0758,
              -2.8399
            ],
            [
              -40.0777,
              -2.8409
            ],
            [
              -40.0792,
              -2.8385
            ],
            [
              -40.0785,
              -2.8372
            ],
            [
              -40.081,
              -2.8346
            ],
            [
              -40.0844,
              -2.8324
            ],
            [
              -40.0867,
              -2.8315
            ],
            [
              -40.0959,
              -2.8284
            ],
            [
              -40.1002,
              -2.8271
            ],
            [
              -40.1034,
              -2.8272
            ],
            [
              -40.109,
              -2.8266
            ],
            [
              -40.1156,
              -2.8264
            ],
            [
              -40.1187,
              -2.8279
            ],
            [
              -40.119,
              -2.8265
            ],
            [
              -40.1203,
              -2.8248
            ],
            [
              -40.1262,
              -2.8235
            ],
            [
              -40.1301,
              -2.8245
            ],
            [
              -40.1312,
              -2.8254
            ],
            [
              -40.1339,
              -2.8254
            ],
            [
              -40.1358,
              -2.8261
            ],
            [
              -40.1399,
              -2.8268
            ],
            [
              -40.1399,
              -2.828
            ],
            [
              -40.1385,
              -2.828
            ],
            [
              -40.1362,
              -2.8267
            ],
            [
              -40.1344,
              -2.8267
            ],
            [
              -40.1328,
              -2.8295
            ],
            [
              -40.1341,
              -2.8301
            ],
            [
              -40.1362,
              -2.8292
            ],
            [
              -40.1367,
              -2.8318
            ],
            [
              -40.1354,
              -2.834
            ],
            [
              -40.1358,
              -2.8349
            ],
            [
              -40.1377,
              -2.8344
            ],
            [
              -40.138,
              -2.8361
            ],
            [
              -40.1391,
              -2.8371
            ],
            [
              -40.1396,
              -2.839
            ],
            [
              -40.1438,
              -2.8402
            ],
            [
              -40.1481,
              -2.8387
            ],
            [
              -40.1502,
              -2.8373
            ],
            [
              -40.1523,
              -2.8366
            ],
            [
              -40.1542,
              -2.8354
            ],
            [
              -40.1546,
              -2.8333
            ],
            [
              -40.1561,
              -2.8332
            ],
            [
              -40.1562,
              -2.8344
            ],
            [
              -40.1577,
              -2.8351
            ],
            [
              -40.1602,
              -2.8325
            ],
            [
              -40.1649,
              -2.8283
            ],
            [
              -40.17,
              -2.825
            ],
            [
              -40.1732,
              -2.822
            ],
            [
              -40.1768,
              -2.8199
            ],
            [
              -40.1799,
              -2.8183
            ],
            [
              -40.1808,
              -2.8169
            ],
            [
              -40.1822,
              -2.8163
            ],
            [
              -40.1848,
              -2.8121
            ],
            [
              -40.1853,
              -2.8117
            ],
            [
              -40.1884,
              -2.8124
            ],
            [
              -40.1916,
              -2.812
            ],
            [
              -40.1978,
              -2.8117
            ],
            [
              -40.2014,
              -2.8109
            ],
            [
              -40.2045,
              -2.8119
            ],
            [
              -40.2089,
              -2.8112
            ],
            [
              -40.2128,
              -2.8115
            ],
            [
              -40.2181,
              -2.8107
            ],
            [
              -40.2273,
              -2.8108
            ],
            [
              -40.2306,
              -2.8111
            ],
            [
              -40.2352,
              -2.8124
            ],
            [
              -40.236,
              -2.8144
            ],
            [
              -40.2367,
              -2.815
            ],
            [
              -40.2432,
              -2.8142
            ],
            [
              -40.2534,
              -2.8124
            ],
            [
              -40.2549,
              -2.8119
            ],
            [
              -40.2574,
              -2.8119
            ],
            [
              -40.2667,
              -2.8103
            ],
            [
              -40.2756,
              -2.8096
            ],
            [
              -40.2791,
              -2.81
            ],
            [
              -40.2823,
              -2.809
            ],
            [
              -40.2883,
              -2.8091
            ],
            [
              -40.2944,
              -2.8083
            ],
            [
              -40.2981,
              -2.808
            ],
            [
              -40.3069,
              -2.808
            ],
            [
              -40.3136,
              -2.8073
            ],
            [
              -40.3217,
              -2.8067
            ],
            [
              -40.3261,
              -2.8061
            ],
            [
              -40.3345,
              -2.806
            ],
            [
              -40.3405,
              -2.8062
            ],
            [
              -40.3444,
              -2.8067
            ],
            [
              -40.3539,
              -2.8089
            ],
            [
              -40.3612,
              -2.81
            ],
            [
              -40.3663,
              -2.8111
            ],
            [
              -40.369,
              -2.8119
            ],
            [
              -40.3719,
              -2.8124
            ],
            [
              -40.3702,
              -2.8121
            ],
            [
              -40.368,
              -2.8255
            ],
            [
              -40.3673,
              -2.8298
            ],
            [
              -40.3631,
              -2.8557
            ],
            [
              -40.3613,
              -2.8668
            ],
            [
              -40.3586,
              -2.8653
            ],
            [
              -40.3558,
              -2.8655
            ],
            [
              -40.3497,
              -2.8652
            ],
            [
              -40.3477,
              -2.8638
            ],
            [
              -40.3468,
              -2.8638
            ],
            [
              -40.3428,
              -2.8661
            ],
            [
              -40.341,
              -2.866
            ],
            [
              -40.3385,
              -2.8653
            ],
            [
              -40.3361,
              -2.8637
            ],
            [
              -40.3329,
              -2.8648
            ],
            [
              -40.3291,
              -2.8646
            ],
            [
              -40.3244,
              -2.8613
            ],
            [
              -40.3218,
              -2.8621
            ],
            [
              -40.2893,
              -2.8762
            ],
            [
              -40.2872,
              -2.8758
            ],
            [
              -40.286,
              -2.8767
            ],
            [
              -40.2843,
              -2.8769
            ],
            [
              -40.2833,
              -2.8776
            ],
            [
              -40.2805,
              -2.8781
            ],
            [
              -40.2782,
              -2.8781
            ],
            [
              -40.2709,
              -2.8794
            ],
            [
              -40.271,
              -2.8769
            ],
            [
              -40.2721,
              -2.8735
            ],
            [
              -40.2724,
              -2.8699
            ],
            [
              -40.2327,
              -2.8714
            ],
            [
              -40.2204,
              -2.8728
            ],
            [
              -40.2106,
              -2.8699
            ],
            [
              -40.1959,
              -2.8731
            ],
            [
              -40.1818,
              -2.8694
            ],
            [
              -40.1722,
              -2.8731
            ],
            [
              -40.168,
              -2.8735
            ],
            [
              -40.151,
              -2.8842
            ],
            [
              -40.1512,
              -2.8855
            ],
            [
              -40.1505,
              -2.8866
            ],
            [
              -40.1493,
              -2.8872
            ],
            [
              -40.149,
              -2.8886
            ],
            [
              -40.1479,
              -2.8898
            ],
            [
              -40.1482,
              -2.8934
            ],
            [
              -40.1471,
              -2.8952
            ],
            [
              -40.1475,
              -2.8977
            ],
            [
              -40.1495,
              -2.9003
            ],
            [
              -40.1497,
              -2.9016
            ],
            [
              -40.1495,
              -2.9056
            ],
            [
              -40.1513,
              -2.9061
            ],
            [
              -40.1509,
              -2.9082
            ],
            [
              -40.1519,
              -2.9091
            ],
            [
              -40.1521,
              -2.9102
            ],
            [
              -40.1534,
              -2.912
            ],
            [
              -40.1547,
              -2.912
            ],
            [
              -40.1588,
              -2.9147
            ],
            [
              -40.1592,
              -2.9172
            ],
            [
              -40.1602,
              -2.9184
            ],
            [
              -40.1619,
              -2.9177
            ],
            [
              -40.1626,
              -2.9166
            ],
            [
              -40.1642,
              -2.9169
            ],
            [
              -40.1648,
              -2.9181
            ],
            [
              -40.1633,
              -2.9212
            ],
            [
              -40.1632,
              -2.9229
            ],
            [
              -40.1648,
              -2.9253
            ],
            [
              -40.168,
              -2.9269
            ],
            [
              -40.1697,
              -2.9307
            ],
            [
              -40.1693,
              -2.9321
            ],
            [
              -40.1687,
              -2.9364
            ],
            [
              -40.1691,
              -2.9417
            ],
            [
              -40.1702,
              -2.9441
            ]
          ]
        ]
      },
      "properties": {
        "codarea": "2300200",
        "nome_municipio": "Acaraú",
        "codigo_ibge": 2300200
      }
    },
    {
      "type": "Feature",
      "geometry": {
        "type": "Polygon",
        "coordinates": [
          [
            [
              -40.1702,
              -2.9441
            ],
            [
              -40.1691,
              -2.9417
            ],
            [
              -40.1687,
              -2.9364
            ],
            [
              -40.1693,
              -2.9321
            ],
            [
              -40.1697,
              -2.9307
            ],
            [
              -40.168,
              -2.9269
            ],
            [
              -40.1648,
              -2.9253
            ],
            [
              -40.1632,
              -2.9229
            ],
            [
              -40.1633,
              -2.9212
            ],
            [
              -40.1648,
              -2.9181
            ],
            [
              -40.1642,
              -2.9169
            ],
            [
              -40.1626,
              -2.9166
            ],
            [
              -40.1619,
              -2.9177
            ],
            [
              -40.1602,
              -2.9184
            ],
            [
              -40.1592,
              -2.9172
            ],
            [
              -40.1588,
              -2.9147
            ],
            [
              -40.1547,
              -2.912
            ],
            [
              -40.1534,
              -2.912
            ],
            [
              -40.1521,
              -2.9102
            ],
            [
              -40.1519,
              -2.9091
            ],
            [
              -40.1509,
              -2.9082
            ],
            [
              -40.1513,
              -2.9061
            ],
            [
              -40.1495,
              -2.9056
            ],
            [
              -40.1497,
              -2.9016
            ],
            [
              -40.1495,
              -2.9003
            ],
            [
              -40.1475,
              -2.8977
            ],
            [
              -40.1471,
              -2.8952
            ],
            [
              -40.1482,
              -2.8934
            ],
            [
              -40.1479,
              -2.8898
            ],
            [
              -40.149,
              -2.8886
            ],
            [
              -40.1493,
              -2.8872
            ],
            [
              -40.1505,
              -2.8866
            ],
            [
              -40.1512,
              -2.8855
            ],
            [
              -40.151,
              -2.8842
            ],
            [
              -40.168,
              -2.8735
            ],
            [
              -40.1722,
              -2.8731
            ],
            [
              -40.1818,
              -2.8694
            ],
            [
              -40.1959,
              -2.8731
            ],
            [
              -40.2106,
              -2.8699
            ],
            [
              -40.2204,
              -2.8728
            ],
            [
              -40.2327,
              -2.8714
            ],
            [
              -40.2724,
              -2.8699
            ],
            [
              -40.2721,
              -2.8735
            ],
            [
              -40.271,
              -2.8769
            ],
            [
              -40.2709,
              -2.8794
            ],
            [
              -40.2782,
              -2.8781
            ],
            [
              -40.2805,
              -2.8781
            ],
            [
              -40.2833,
              -2.8776
            ],
            [
              -40.2843,
              -2.8769
            ],
            [
              -40.286,
              -2.8767
            ],
            [
              -40.2872,
              -2.8758
            ],
            [
              -40.2893,
              -2.8762
            ],
            [
              -40.3218,
              -2.8621
            ],
            [
              -40.3244,
              -2.8613
            ],
            [
              -40.3291,
              -2.8646
            ],
            [
              -40.3329,
              -2.8648
            ],
            [
              -40.3361,
              -2.8637
            ],
            [
              -40.3385,
              -2.8653
            ],
            [
              -40.341,
              -2.866
            ],
            [
              -40.3428,
              -2.8661
            ],
            [
              -40.3468,
              -2.8638
            ],
            [
              -40.3477,
              -2.8638
            ],
            [
              -40.3497,
              -2.8652
            ],
            [
              -40.3558,
              -2.8655
            ],
            [
              -40.3586,
              -2.8653
            ],
            [
              -40.3613,
              -2.8668
            ],
            [
              -40.3631,
              -2.8557
            ],
            [
              -40.3673,
              -2.8298
            ],
            [
              -40.368,
              -2.8255
            ],
            [
              -40.3702,
              -2.8121
            ],
            [
              -40.3719,
              -2.8124
            ],
            [
              -40.3857,
              -2.8135
            ],
            [
              -40.3916,
              -2.8138
            ],
            [
              -40.4015,
              -2.8135
            ],
            [
              -40.4087,
              -2.8132
            ],
            [
              -40.4196,
              -2.8122
            ],
            [
              -40.4241,
              -2.8111
            ],
            [
              -40.4295,
              -2.8111
            ],
            [
              -40.4343,
              -2.8104
            ],
            [
              -40.4392,
              -2.8093
            ],
            [
              -40.4492,
              -2.8059
            ],
            [
              -40.455,
              -2.8034
            ],
            [
              -40.4547,
              -2.8044
            ],
            [
              -40.4533,
              -2.8056
            ],
            [
              -40.4546,
              -2.807
            ],
            [
              -40.4568,
              -2.8078
            ],
            [
              -40.4589,
              -2.8095
            ],
            [
              -40.4594,
              -2.8125
            ],
            [
              -40.4582,
              -2.8127
            ],
            [
              -40.4584,
              -2.8155
            ],
            [
              -40.4576,
              -2.817
            ],
            [
              -40.4582,
              -2.8193
            ],
            [
              -40.4568,
              -2.8198
            ],
            [
              -40.4545,
              -2.8192
            ],
            [
              -40.4527,
              -2.8203
            ],
            [
              -40.4509,
              -2.8201
            ],
            [
              -40.4514,
              -2.8227
            ],
            [
              -40.4503,
              -2.8228
            ],
            [
              -40.4522,
              -2.8258
            ],
            [
              -40.4513,
              -2.8283
            ],
            [
              -40.4519,
              -2.8301
            ],
            [
              -40.4541,
              -2.8322
            ],
            [
              -40.4559,
              -2.832
            ],
            [
              -40.4573,
              -2.8328
            ],
            [
              -40.4568,
              -2.8341
            ],
            [
              -40.4514,
              -2.8404
            ],
            [
              -40.452,
              -2.8418
            ],
            [
              -40.4513,
              -2.8431
            ],
            [
              -40.4488,
              -2.8458
            ],
            [
              -40.4479,
              -2.8483
            ],
            [
              -40.4494,
              -2.852
            ],
            [
              -40.45,
              -2.8585
            ],
            [
              -40.45,
              -2.8614
            ],
            [
              -40.4511,
              -2.8644
            ],
            [
              -40.4534,
              -2.8673
            ],
            [
              -40.4541,
              -2.8693
            ],
            [
              -40.4539,
              -2.8719
            ],
            [
              -40.4523,
              -2.8756
            ],
            [
              -40.4513,
              -2.8784
            ],
            [
              -40.4511,
              -2.8808
            ],
            [
              -40.4515,
              -2.883
            ],
            [
              -40.4524,
              -2.8857
            ],
            [
              -40.452,
              -2.8898
            ],
            [
              -40.45,
              -2.8915
            ],
            [
              -40.4483,
              -2.892
            ],
            [
              -40.4448,
              -2.8922
            ],
            [
              -40.4419,
              -2.8929
            ],
            [
              -40.4361,
              -2.8973
            ],
            [
              -40.4333,
              -2.8998
            ],
            [
              -40.4324,
              -2.901
            ],
            [
              -40.4329,
              -2.9033
            ],
            [
              -40.4326,
              -2.9044
            ],
            [
              -40.431,
              -2.9062
            ],
            [
              -40.4309,
              -2.9081
            ],
            [
              -40.4298,
              -2.9131
            ],
            [
              -40.4297,
              -2.9166
            ],
            [
              -40.4309,
              -2.9219
            ],
            [
              -40.4327,
              -2.9272
            ],
            [
              -40.4351,
              -2.9312
            ],
            [
              -40.4352,
              -2.9324
            ],
            [
              -40.4343,
              -2.936
            ],
            [
              -40.4338,
              -2.937
            ],
            [
              -40.433,
              -2.9413
            ],
            [
              -40.4294,
              -2.9433
            ],
            [
              -40.4278,
              -2.9445
            ],
            [
              -40.4259,
              -2.9465
            ],
            [
              -40.4214,
              -2.9481
            ],
            [
              -40.4188,
              -2.9481
            ],
            [
              -40.4179,
              -2.9515
            ],
            [
              -40.4111,
              -2.9513
            ],
            [
              -40.4101,
              -2.951
            ],
            [
              -40.4023,
              -2.9499
            ],
            [
              -40.4025,
              -2.9481
            ],
            [
              -40.3923,
              -2.9478
            ],
            [
              -40.3914,
              -2.9499
            ],
            [
              -40.3846,
              -2.9479
            ],
            [
              -40.3826,
              -2.9476
            ],
            [
              -40.383,
              -2.9553
            ],
            [
              -40.3825,
              -2.9567
            ],
            [
              -40.3799,
              -2.9601
            ],
            [
              -40.3745,
              -2.9638
            ],
            [
              -40.3722,
              -2.965
            ],
            [
              -40.3617,
              -2.9665
            ],
            [
              -40.3553,
              -2.9663
            ],
            [
              -40.3379,
              -2.9648
            ],
            [
              -40.3311,
              -2.964
            ],
            [
              -40.322,
              -2.9565
            ],
            [
              -40.3225,
              -2.9474
            ],
            [
              -40.3219,
              -2.9452
            ],
            [
              -40.3201,
              -2.9438
            ],
            [
              -40.3181,
              -2.9436
            ],
            [
              -40.3166,
              -2.9442
            ],
            [
              -40.3111,
              -2.9438
            ],
            [
              -40.2919,
              -2.9422
            ],
            [
              -40.2795,
              -2.9411
            ],
            [
              -40.2639,
              -2.9398
            ],
            [
              -40.262,
              -2.9412
            ],
            [
              -40.2606,
              -2.9428
            ],
            [
              -40.259,
              -2.9434
            ],
            [
              -40.2368,
              -2.9521
            ],
            [
              -40.2107,
              -2.9473
            ],
            [
              -40.2084,
              -2.9451
            ],
            [
              -40.193,
              -2.9439
            ],
            [
              -40.1725,
              -2.9421
            ],
            [
              -40.1705,
              -2.9426
            ],
            [
              -40.1702,
              -2.9441
            ]
          ]
        ]
      },
      "properties": {
        "codarea": "2304251",
        "nome_municipio": "Cruz",
        "codigo_ibge": 2304251
      }
    },
    {
      "type": "Feature",
      "geometry": {
        "type": "Polygon",
        "coordinates": [
          [
            [
              -39.721,
              -2.9969
            ],
            [
              -39.7234,
              -2.9945
            ],
            [
              -39.7284,
              -2.9929
            ],
            [
              -39.7325,
              -2.9905
            ],
            [
              -39.7352,
              -2.9885
            ],
            [
              -39.7409,
              -2.9832
            ],
            [
              -39.7417,
              -2.9821
            ],
            [
              -39.7463,
              -2.9791
            ],
            [
              -39.7496,
              -2.9773
            ],
            [
              -39.7534,
              -2.9732
            ],
            [
              -39.7579,
              -2.9692
            ],
            [
              -39.7612,
              -2.9671
            ],
            [
              -39.7693,
              -2.9606
            ],
            [
              -39.7762,
              -2.9561
            ],
            [
              -39.7821,
              -2.9536
            ],
            [
              -39.7861,
              -2.9512
            ],
            [
              -39.7882,
              -2.9507
            ],
            [
              -39.7906,
              -2.951
            ],
            [
              -39.7927,
              -2.9527
            ],
            [
              -39.7947,
              -2.9521
            ],
            [
              -39.798,
              -2.9463
            ],
            [
              -39.8,
              -2.9445
            ],
            [
              -39.8055,
              -2.9427
            ],
            [
              -39.8095,
              -2.94
            ],
            [
              -39.8147,
              -2.9358
            ],
            [
              -39.8186,
              -2.9347
            ],
            [
              -39.8225,
              -2.932
            ],
            [
              -39.8295,
              -2.9266
            ],
            [
              -39.8318,
              -2.9246
            ],
            [
              -39.8378,
              -2.9186
            ],
            [
              -39.8423,
              -2.9147
            ],
            [
              -39.8505,
              -2.9081
            ],
            [
              -39.8619,
              -2.8999
            ],
            [
              -39.8653,
              -2.8981
            ],
            [
              -39.8701,
              -2.8964
            ],
            [
              -39.8725,
              -2.8972
            ],
            [
              -39.8741,
              -2.895
            ],
            [
              -39.8757,
              -2.8938
            ],
            [
              -39.8792,
              -2.8925
            ],
            [
              -39.8818,
              -2.8929
            ],
            [
              -39.8828,
              -2.8921
            ],
            [
              -39.8867,
              -2.8861
            ],
            [
              -39.8887,
              -2.8838
            ],
            [
              -39.892,
              -2.8814
            ],
            [
              -39.8964,
              -2.8788
            ],
            [
              -39.9078,
              -2.8731
            ],
            [
              -39.9187,
              -2.8684
            ],
            [
              -39.9207,
              -2.8692
            ],
            [
              -39.9224,
              -2.8683
            ],
            [
              -39.9241,
              -2.8688
            ],
            [
              -39.9252,
              -2.8706
            ],
            [
              -39.9247,
              -2.872
            ],
            [
              -39.922,
              -2.8719
            ],
            [
              -39.9203,
              -2.8722
            ],
            [
              -39.9187,
              -2.8732
            ],
            [
              -39.9152,
              -2.874
            ],
            [
              -39.91,
              -2.8747
            ],
            [
              -39.9091,
              -2.8754
            ],
            [
              -39.9049,
              -2.876
            ],
            [
              -39.9011,
              -2.8793
            ],
            [
              -39.899,
              -2.8819
            ],
            [
              -39.8965,
              -2.883
            ],
            [
              -39.8928,
              -2.8868
            ],
            [
              -39.8884,
              -2.8888
            ],
            [
              -39.8858,
              -2.8891
            ],
            [
              -39.8851,
              -2.891
            ],
            [
              -39.8867,
              -2.8911
            ],
            [
              -39.8915,
              -2.8898
            ],
            [
              -39.8949,
              -2.887
            ],
            [
              -39.8969,
              -2.8845
            ],
            [
              -39.909,
              -2.8801
            ],
            [
              -39.9134,
              -2.8782
            ],
            [
              -39.915,
              -2.879
            ],
            [
              -39.9175,
              -2.8777
            ],
            [
              -39.918,
              -2.8771
            ],
            [
              -39.9199,
              -2.8768
            ],
            [
              -39.9234,
              -2.8748
            ],
            [
              -39.926,
              -2.8741
            ],
            [
              -39.9274,
              -2.8731
            ],
            [
              -39.9316,
              -2.8713
            ],
            [
              -39.9343,
              -2.8708
            ],
            [
              -39.9366,
              -2.8686
            ],
            [
              -39.9386,
              -2.8679
            ],
            [
              -39.9417,
              -2.8664
            ],
            [
              -39.9424,
              -2.8664
            ],
            [
              -39.9442,
              -2.8712
            ],
            [
              -39.9527,
              -2.8919
            ],
            [
              -39.9538,
              -2.8958
            ],
            [
              -39.9577,
              -2.8977
            ],
            [
              -39.9583,
              -2.9036
            ],
            [
              -39.9665,
              -2.9314
            ],
            [
              -39.9689,
              -2.9469
            ],
            [
              -39.97,
              -2.9585
            ],
            [
              -39.9709,
              -2.9693
            ],
            [
              -39.9719,
              -2.9788
            ],
            [
              -39.9726,
              -2.9867
            ],
            [
              -39.9718,
              -2.9885
            ],
            [
              -39.972,
              -2.9897
            ],
            [
              -39.973,
              -2.9909
            ],
            [
              -39.9741,
              -3.001
            ],
            [
              -39.9756,
              -3.0033
            ],
            [
              -39.9794,
              -3.0084
            ],
            [
              -39.9836,
              -3.0176
            ],
            [
              -39.9822,
              -3.0236
            ],
            [
              -39.9813,
              -3.0294
            ],
            [
              -39.9819,
              -3.0342
            ],
            [
              -39.9781,
              -3.0457
            ],
            [
              -39.9751,
              -3.0526
            ],
            [
              -39.9745,
              -3.0573
            ],
            [
              -39.9733,
              -3.0597
            ],
            [
              -39.9726,
              -3.0669
            ],
            [
              -39.9724,
              -3.0711
            ],
            [
              -39.973,
              -3.0741
            ],
            [
              -39.9791,
              -3.0797
            ],
            [
              -39.9861,
              -3.0883
            ],
            [
              -39.9906,
              -3.0951
            ],
            [
              -39.99,
              -3.0972
            ],
            [
              -39.9885,
              -3.0967
            ],
            [
              -39.9903,
              -3.1092
            ],
            [
              -39.9893,
              -3.1136
            ],
            [
              -39.9894,
              -3.116
            ],
            [
              -39.9903,
              -3.117
            ],
            [
              -39.9913,
              -3.1233
            ],
            [
              -39.992,
              -3.1248
            ],
            [
              -39.9936,
              -3.1311
            ],
            [
              -39.9941,
              -3.134
            ],
            [
              -39.9922,
              -3.138
            ],
            [
              -39.989,
              -3.1611
            ],
            [
              -39.9843,
              -3.1613
            ],
            [
              -39.9836,
              -3.162
            ],
            [
              -39.9828,
              -3.1648
            ],
            [
              -39.9835,
              -3.1681
            ],
            [
              -39.9842,
              -3.1689
            ],
            [
              -39.9844,
              -3.1709
            ],
            [
              -39.9853,
              -3.1722
            ],
            [
              -39.9875,
              -3.1765
            ],
            [
              -39.9886,
              -3.1797
            ],
            [
              -39.9896,
              -3.181
            ],
            [
              -39.9925,
              -3.1828
            ],
            [
              -39.996,
              -3.1868
            ],
            [
              -39.9965,
              -3.189
            ],
            [
              -39.9962,
              -3.1919
            ],
            [
              -39.9965,
              -3.1939
            ],
            [
              -39.9963,
              -3.1957
            ],
            [
              -39.9969,
              -3.1964
            ],
            [
              -39.997,
              -3.199
            ],
            [
              -39.9965,
              -3.2001
            ],
            [
              -39.9963,
              -3.2027
            ],
            [
              -39.9952,
              -3.2069
            ],
            [
              -39.9942,
              -3.2091
            ],
            [
              -39.99,
              -3.2152
            ],
            [
              -39.9883,
              -3.2173
            ],
            [
              -39.987,
              -3.2184
            ],
            [
              -39.9843,
              -3.2198
            ],
            [
              -39.9831,
              -3.22
            ],
            [
              -39.9794,
              -3.2226
            ],
            [
              -39.9763,
              -3.2261
            ],
            [
              -39.9767,
              -3.2318
            ],
            [
              -39.972,
              -3.2323
            ],
            [
              -39.9676,
              -3.2362
            ],
            [
              -39.9656,
              -3.2394
            ],
            [
              -39.9616,
              -3.2394
            ],
            [
              -39.9561,
              -3.2407
            ],
            [
              -39.9535,
              -3.2418
            ],
            [
              -39.9478,
              -3.2431
            ],
            [
              -39.946,
              -3.2438
            ],
            [
              -39.9421,
              -3.2461
            ],
            [
              -39.9408,
              -3.2473
            ],
            [
              -39.9257,
              -3.2657
            ],
            [
              -39.9241,
              -3.2668
            ],
            [
              -39.9075,
              -3.2736
            ],
            [
              -39.9063,
              -3.2732
            ],
            [
              -39.9064,
              -3.2703
            ],
            [
              -39.9055,
              -3.2664
            ],
            [
              -39.9038,
              -3.2658
            ],
            [
              -39.903,
              -3.2639
            ],
            [
              -39.9041,
              -3.2626
            ],
            [
              -39.9034,
              -3.2612
            ],
            [
              -39.9036,
              -3.26
            ],
            [
              -39.9013,
              -3.2565
            ],
            [
              -39.8993,
              -3.2555
            ],
            [
              -39.8994,
              -3.2541
            ],
            [
              -39.8973,
              -3.2531
            ],
            [
              -39.8968,
              -3.2498
            ],
            [
              -39.8968,
              -3.2471
            ],
            [
              -39.8945,
              -3.2461
            ],
            [
              -39.893,
              -3.2406
            ],
            [
              -39.8915,
              -3.2409
            ],
            [
              -39.8909,
              -3.2399
            ],
            [
              -39.892,
              -3.2376
            ],
            [
              -39.895,
              -3.2349
            ],
            [
              -39.8942,
              -3.2342
            ],
            [
              -39.894,
              -3.2326
            ],
            [
              -39.895,
              -3.2315
            ],
            [
              -39.8948,
              -3.2304
            ],
            [
              -39.8913,
              -3.2267
            ],
            [
              -39.8912,
              -3.2251
            ],
            [
              -39.8894,
              -3.2254
            ],
            [
              -39.8891,
              -3.224
            ],
            [
              -39.8904,
              -3.2233
            ],
            [
              -39.8902,
              -3.222
            ],
            [
              -39.8915,
              -3.2196
            ],
            [
              -39.8907,
              -3.2192
            ],
            [
              -39.8924,
              -3.2168
            ],
            [
              -39.8937,
              -3.2175
            ],
            [
              -39.8962,
              -3.2166
            ],
            [
              -39.9,
              -3.2148
            ],
            [
              -39.9,
              -3.2138
            ],
            [
              -39.9013,
              -3.2136
            ],
            [
              -39.9021,
              -3.2125
            ],
            [
              -39.9015,
              -3.2116
            ],
            [
              -39.9026,
              -3.2079
            ],
            [
              -39.9002,
              -3.2044
            ],
            [
              -39.899,
              -3.2038
            ],
            [
              -39.8976,
              -3.2016
            ],
            [
              -39.8988,
              -3.2008
            ],
            [
              -39.8976,
              -3.1998
            ],
            [
              -39.8964,
              -3.1963
            ],
            [
              -39.8946,
              -3.1957
            ],
            [
              -39.8938,
              -3.1947
            ],
            [
              -39.8911,
              -3.1929
            ],
            [
              -39.8892,
              -3.191
            ],
            [
              -39.8874,
              -3.1911
            ],
            [
              -39.8864,
              -3.1895
            ],
            [
              -39.8855,
              -3.1895
            ],
            [
              -39.8837,
              -3.1881
            ],
            [
              -39.8837,
              -3.1873
            ],
            [
              -39.8818,
              -3.186
            ],
            [
              -39.8813,
              -3.1866
            ],
            [
              -39.8783,
              -3.1853
            ],
            [
              -39.8799,
              -3.1835
            ],
            [
              -39.8784,
              -3.1809
            ],
            [
              -39.8769,
              -3.1799
            ],
            [
              -39.8771,
              -3.1781
            ],
            [
              -39.8756,
              -3.1789
            ],
            [
              -39.8742,
              -3.1789
            ],
            [
              -39.8731,
              -3.1771
            ],
            [
              -39.8733,
              -3.1755
            ],
            [
              -39.8721,
              -3.1747
            ],
            [
              -39.8717,
              -3.1725
            ],
            [
              -39.8708,
              -3.1721
            ],
            [
              -39.8707,
              -3.1701
            ],
            [
              -39.8687,
              -3.1697
            ],
            [
              -39.8681,
              -3.1657
            ],
            [
              -39.8671,
              -3.1655
            ],
            [
              -39.8672,
              -3.164
            ],
            [
              -39.8686,
              -3.1633
            ],
            [
              -39.8688,
              -3.1617
            ],
            [
              -39.8683,
              -3.1587
            ],
            [
              -39.8655,
              -3.1573
            ],
            [
              -39.8659,
              -3.1559
            ],
            [
              -39.8649,
              -3.1531
            ],
            [
              -39.8655,
              -3.1487
            ],
            [
              -39.8653,
              -3.146
            ],
            [
              -39.8644,
              -3.1414
            ],
            [
              -39.8646,
              -3.14
            ],
            [
              -39.8644,
              -3.1371
            ],
            [
              -39.8647,
              -3.1357
            ],
            [
              -39.8658,
              -3.1355
            ],
            [
              -39.8658,
              -3.134
            ],
            [
              -39.8646,
              -3.132
            ],
            [
              -39.8654,
              -3.1291
            ],
            [
              -39.8653,
              -3.1274
            ],
            [
              -39.8668,
              -3.1255
            ],
            [
              -39.868,
              -3.1246
            ],
            [
              -39.8199,
              -3.0913
            ],
            [
              -39.7847,
              -3.0669
            ],
            [
              -39.7395,
              -3.0356
            ],
            [
              -39.709,
              -3.0145
            ],
            [
              -39.708,
              -3.0139
            ],
            [
              -39.7068,
              -3.0093
            ],
            [
              -39.7069,
              -3.0053
            ],
            [
              -39.7084,
              -3.0034
            ],
            [
              -39.7099,
              -3.0028
            ],
            [
              -39.7147,
              -3.0022
            ],
            [
              -39.7195,
              -3.0003
            ],
            [
              -39.7202,
              -2.9996
            ],
            [
              -39.721,
              -2.9969
            ]
          ]
        ]
      },
      "properties": {
        "codarea": "2306553",
        "nome_municipio": "Itarema",
        "codigo_ibge": 2306553
      }
    }
  ]
}