{"type":"FeatureCollection","features":[{"type":"Feature","properties":{"codarea":"5206206","centroide":[-47.51762561246604,-16.697706527845913],"codigo_ibge":5206206,"nome_ig":"Cristalina"},"geometry":{"type":"MultiPolygon","coordinates":[[[[-47.3083,-16.0502],[-47.3113,-16.0881],[-47.3315,-16.0943],[-47.3384,-16.1292],[-47.3522,-16.1337],[-47.3418,-16.1471],[-47.345,-16.164],[-47.3319,-16.1717],[-47.3225,-16.2091],[-47.3279,-16.2492],[-47.3508,-16.2747],[-47.3529,-16.3066],[-47.3784,-16.3468],[-47.4036,-16.3758],[-47.4271,-16.3941],[-47.4272,-16.4341],[-47.4547,-16.4682],[-47.46,-16.505],[-47.4476,-16.5173],[-47.4444,-16.5407],[-47.4053,-16.5583],[-47.3868,-16.5888],[-47.3773,-16.5795],[-47.3766,-16.6008],[-47.3548,-16.589],[-47.3329,-16.6091],[-47.3185,-16.6035],[-47.3162,-16.6166],[-47.2877,-16.6335],[-47.2772,-16.66],[-47.2612,-16.6549],[-47.2457,-16.6856],[-47.2457,-16.7009],[-47.2258,-16.7205],[-47.2359,-16.7553],[-47.2309,-16.7754],[-47.2172,-16.78],[-47.2208,-16.8052],[-47.1942,-16.8272],[-47.2059,-16.8398],[-47.2077,-16.876],[-47.1932,-16.886],[-47.197,-16.9108],[-47.1796,-16.9029],[-47.16,-16.9206],[-47.1743,-16.9328],[-47.1569,-16.9414],[-47.1583,-16.9646],[-47.1261,-16.9795],[-47.1447,-17.0097],[-47.1384,-17.0199],[-47.154,-17.0269],[-47.1669,-17.0474],[-47.191,-17.0696],[-47.2093,-17.0681],[-47.2318,-17.0897],[-47.2477,-17.0817],[-47.2481,-17.0985],[-47.2647,-17.0986],[-47.2819,-17.1148],[-47.2827,-17.144],[-47.2931,-17.1394],[-47.3093,-17.1587],[-47.3276,-17.1483],[-47.3339,-17.1652],[-47.3519,-17.1664],[-47.3625,-17.1875],[-47.3502,-17.1964],[-47.3853,-17.228],[-47.3865,-17.2498],[-47.3989,-17.2426],[-47.4223,-17.2596],[-47.4171,-17.2695],[-47.4344,-17.2762],[-47.4195,-17.2923],[-47.4378,-17.3178],[-47.455,-17.3306],[-47.4415,-17.3483],[-47.4575,-17.3437],[-47.464,-17.3558],[-47.4867,-17.3495],[-47.5112,-17.3255],[-47.4995,-17.302],[-47.5096,-17.2848],[-47.525,-17.2798],[-47.5312,-17.249],[-47.5485,-17.2238],[-47.5695,-17.2122],[-47.5982,-17.1669],[-47.6414,-17.1451],[-47.6415,-17.1323],[-47.6594,-17.1085],[-47.6558,-17.0941],[-47.6897,-17.0818],[-47.7193,-17.0353],[-47.7001,-17.0026],[-47.6968,-16.9612],[-47.6845,-16.9444],[-47.6919,-16.9026],[-47.6952,-16.9122],[-47.7306,-16.9292],[-47.7716,-16.9191],[-47.8178,-16.9183],[-47.8335,-16.9252],[-47.8939,-16.9182],[-47.8962,-16.897],[-47.8867,-16.8846],[-47.8941,-16.8614],[-47.8899,-16.8469],[-47.9042,-16.8139],[-47.8816,-16.8013],[-47.8803,-16.7682],[-47.892,-16.7442],[-47.879,-16.7223],[-47.8806,-16.7036],[-47.8644,-16.6752],[-47.8199,-16.6334],[-47.822,-16.6155],[-47.8091,-16.5917],[-47.7974,-16.5434],[-47.7968,-16.5235],[-47.7792,-16.5323],[-47.7768,-16.5672],[-47.7368,-16.5517],[-47.7174,-16.5216],[-47.7191,-16.4708],[-47.7024,-16.4541],[-47.689,-16.4272],[-47.6696,-16.4148],[-47.6491,-16.3802],[-47.6542,-16.327],[-47.6409,-16.2844],[-47.6661,-16.2421],[-47.6565,-16.217],[-47.6584,-16.1672],[-47.732,-16.1661],[-47.7245,-16.0944],[-47.677,-16.0694],[-47.6827,-16.0502],[-47.3083,-16.0502]]]]}}]}