{"type":"FeatureCollection","features":[{"type":"Feature","properties":{"codarea":"1200203","centroide":[-72.75470055929321,-7.971985317716155],"codigo_ibge":1200203,"nome_ig":"Cruzeiro do Sul"},"geometry":{"type":"Polygon","coordinates":[[[-72.1695,-7.6006],[-71.9454,-7.6267],[-72.0008,-7.8083],[-72.0865,-7.8623],[-72.0958,-7.8788],[-72.1302,-7.9178],[-72.1572,-7.9378],[-72.1826,-7.9466],[-72.215,-7.975],[-72.2251,-8.0188],[-72.2477,-8.0371],[-72.2614,-8.0582],[-72.2576,-8.0714],[-72.2663,-8.2605],[-72.2834,-8.2104],[-72.3011,-8.2052],[-72.3164,-8.2269],[-72.3548,-8.2406],[-72.3713,-8.2392],[-72.3961,-8.2544],[-72.4183,-8.2534],[-72.4327,-8.2399],[-72.4637,-8.2317],[-72.506,-8.2329],[-72.5646,-8.1876],[-72.634,-8.1851],[-72.6739,-8.2231],[-72.6988,-8.222],[-72.7258,-8.2125],[-72.7419,-8.2283],[-72.7584,-8.2125],[-72.7573,-8.2005],[-72.7967,-8.2031],[-72.7972,-8.1721],[-72.8084,-8.1199],[-72.8938,-8.187],[-72.9942,-8.2199],[-73.0124,-8.2358],[-73.0152,-8.2553],[-73.0376,-8.2823],[-73.0796,-8.2948],[-73.1005,-8.3377],[-73.1775,-8.3738],[-73.2025,-8.3785],[-73.3321,-8.4753],[-73.3767,-8.4623],[-73.3944,-8.4672],[-73.4067,-8.4191],[-73.4215,-8.4069],[-73.4335,-8.4121],[-73.482,-8.3917],[-73.4858,-8.378],[-73.5042,-8.3787],[-73.5369,-8.3454],[-73.5297,-8.3147],[-73.5401,-8.295],[-73.5403,-8.2627],[-73.5716,-8.2297],[-73.5777,-8.2105],[-73.5952,-8.2065],[-73.5864,-8.1863],[-73.5912,-8.1423],[-73.5853,-8.1228],[-73.5939,-8.0974],[-73.6155,-8.0695],[-73.6322,-8.0589],[-73.3995,-8.0303],[-73.395,-8.0075],[-73.38,-7.9921],[-73.3418,-7.9856],[-73.3244,-7.9968],[-73.2907,-7.9851],[-73.2679,-7.9535],[-73.2468,-7.9383],[-73.238,-7.9422],[-73.2128,-7.9124],[-73.1697,-7.8955],[-73.1528,-7.901],[-73.1024,-7.8902],[-73.1153,-7.934],[-73.0768,-7.9462],[-73.0491,-7.944],[-73.0451,-7.9364],[-73.0086,-7.9336],[-72.9889,-7.942],[-72.9745,-7.9375],[-72.9493,-7.9467],[-72.9177,-7.9285],[-72.8921,-7.9298],[-72.8607,-7.9129],[-72.8267,-7.912],[-72.8204,-7.903],[-72.7796,-7.8972],[-72.777,-7.8841],[-72.7522,-7.8686],[-72.7233,-7.8692],[-72.734,-7.8569],[-72.7103,-7.8429],[-72.689,-7.8468],[-72.6784,-7.824],[-72.6594,-7.8334],[-72.6317,-7.8086],[-72.6402,-7.7746],[-72.6238,-7.7557],[-72.6454,-7.7295],[-72.6409,-7.6822],[-72.6546,-7.6947],[-72.7333,-7.7251],[-72.7407,-7.7252],[-72.797,-7.6869],[-72.86,-7.6739],[-72.852,-7.6585],[-72.8034,-7.6643],[-72.7834,-7.66],[-72.8402,-7.6075],[-72.8625,-7.5832],[-72.8685,-7.5624],[-72.8795,-7.559],[-72.8874,-7.5359],[-72.9003,-7.4376],[-72.5849,-7.5519],[-72.1695,-7.6006]]]}},{"type":"Feature","properties":{"codarea":"1200336","centroide":[-73.43838378150322,-7.5046353993751795],"codigo_ibge":1200336,"nome_ig":"Cruzeiro do Sul"},"geometry":{"type":"Polygon","coordinates":[[[-73.7382,-7.1346],[-72.9003,-7.4376],[-72.8874,-7.5359],[-72.8795,-7.559],[-72.8685,-7.5624],[-72.8625,-7.5832],[-72.8402,-7.6075],[-72.7834,-7.66],[-72.8034,-7.6643],[-72.852,-7.6585],[-72.86,-7.6739],[-72.9118,-7.6629],[-72.9483,-7.6921],[-72.9778,-7.6791],[-73.0228,-7.676],[-73.0406,-7.6693],[-73.1755,-7.7262],[-73.2515,-7.7925],[-73.3081,-7.7776],[-73.3039,-7.7612],[-73.3412,-7.7388],[-73.3283,-7.715],[-73.3356,-7.7104],[-73.3773,-7.7512],[-73.3905,-7.7459],[-73.4551,-7.7698],[-73.4743,-7.7595],[-73.4922,-7.739],[-73.5312,-7.7172],[-73.6748,-7.7401],[-73.6934,-7.7709],[-73.74,-7.7337],[-73.8216,-7.7174],[-73.8465,-7.6746],[-73.8729,-7.6711],[-73.8851,-7.6552],[-73.8862,-7.6357],[-73.9322,-7.608],[-73.9683,-7.5673],[-73.9833,-7.5661],[-73.9904,-7.5359],[-73.9475,-7.5262],[-73.9193,-7.4652],[-73.9304,-7.4254],[-73.9586,-7.3778],[-73.9661,-7.3516],[-73.9507,-7.347],[-73.9422,-7.3619],[-73.9308,-7.3519],[-73.9095,-7.3776],[-73.8764,-7.3822],[-73.8598,-7.3688],[-73.8522,-7.3469],[-73.8171,-7.3349],[-73.7941,-7.3437],[-73.7695,-7.3315],[-73.7638,-7.3474],[-73.7182,-7.3288],[-73.6989,-7.2957],[-73.7157,-7.2672],[-73.7138,-7.2338],[-73.7551,-7.1978],[-73.7593,-7.1741],[-73.8015,-7.1118],[-73.7382,-7.1346]]]}},{"type":"Feature","properties":{"codarea":"1200351","centroide":[-72.55907930909771,-9.095632540488534],"codigo_ibge":1200351,"nome_ig":"Cruzeiro do Sul"},"geometry":{"type":"Polygon","coordinates":[[[-72.2139,-8.7008],[-72.144,-8.7118],[-72.1248,-8.8285],[-72.0778,-8.8681],[-72.044,-8.9004],[-72.0537,-8.9339],[-72.0362,-8.9448],[-72.0283,-8.9708],[-72.0294,-9.002],[-72.0426,-9.0286],[-72.0318,-9.0688],[-72.0525,-9.1425],[-72.0691,-9.1557],[-72.0677,-9.1752],[-72.0441,-9.1979],[-72.0976,-9.2931],[-72.1011,-9.3078],[-72.1204,-9.3187],[-72.1609,-9.3938],[-72.1831,-9.3886],[-72.2225,-9.415],[-72.2492,-9.4445],[-72.2727,-9.4873],[-72.2939,-9.4933],[-72.304,-9.5084],[-72.3404,-9.5086],[-72.3664,-9.4892],[-72.3743,-9.4946],[-72.4418,-9.4765],[-72.4549,-9.4886],[-72.4865,-9.4793],[-72.5222,-9.4893],[-72.5411,-9.4661],[-72.5651,-9.4653],[-72.6273,-9.4417],[-72.6618,-9.4466],[-72.6854,-9.4317],[-72.6959,-9.4368],[-72.7173,-9.4116],[-73.2118,-9.4116],[-73.1935,-9.3928],[-73.186,-9.36],[-73.1566,-9.3508],[-73.1393,-9.3217],[-73.1007,-9.3041],[-73.1115,-9.2821],[-73.095,-9.266],[-73.0865,-9.2444],[-73.0562,-9.2252],[-73.0449,-9.2368],[-73.022,-9.2259],[-72.9953,-9.1903],[-73.0111,-9.1875],[-73.0086,-9.1677],[-72.9643,-9.1469],[-72.9438,-9.1022],[-72.9401,-9.069],[-72.9483,-9.0256],[-72.9569,-9.0106],[-72.9392,-8.9968],[-72.9443,-8.984],[-72.9662,-8.9791],[-72.9948,-8.9198],[-73.0088,-8.9127],[-73.0432,-8.9152],[-73.0562,-8.9069],[-73.0774,-8.8609],[-73.0779,-8.8428],[-73.0942,-8.8372],[-73.1118,-8.8155],[-73.1116,-8.7919],[-73.128,-8.7712],[-73.1129,-8.757],[-73.0909,-8.7517],[-73.0616,-8.7636],[-73.0135,-8.753],[-72.9888,-8.7552],[-72.9547,-8.7441],[-72.9213,-8.7591],[-72.9109,-8.749],[-72.8668,-8.7506],[-72.852,-8.7301],[-72.8148,-8.7252],[-72.7744,-8.7267],[-72.7391,-8.7033],[-72.7312,-8.6717],[-72.7201,-8.6872],[-72.705,-8.6864],[-72.6674,-8.7173],[-72.6618,-8.7565],[-72.6306,-8.7737],[-72.5661,-8.7648],[-72.4965,-8.7767],[-72.4753,-8.7635],[-72.4458,-8.755],[-72.4392,-8.7629],[-72.4179,-8.7503],[-72.3772,-8.7665],[-72.3588,-8.7812],[-72.303,-8.7615],[-72.2572,-8.724],[-72.2139,-8.7008]]]}},{"type":"Feature","properties":{"codarea":"1200393","centroide":[-72.73346709983304,-8.491607487461614],"codigo_ibge":1200393,"nome_ig":"Cruzeiro do Sul"},"geometry":{"type":"Polygon","coordinates":[[[-72.2663,-8.2605],[-72.2256,-8.2808],[-72.266,-8.3908],[-72.2316,-8.4102],[-72.2283,-8.5168],[-72.2012,-8.5519],[-72.2301,-8.5969],[-72.2139,-8.7008],[-72.2572,-8.724],[-72.303,-8.7615],[-72.3588,-8.7812],[-72.3772,-8.7665],[-72.4179,-8.7503],[-72.4392,-8.7629],[-72.4458,-8.755],[-72.4753,-8.7635],[-72.4965,-8.7767],[-72.5661,-8.7648],[-72.6306,-8.7737],[-72.6618,-8.7565],[-72.6674,-8.7173],[-72.705,-8.6864],[-72.7201,-8.6872],[-72.7312,-8.6717],[-72.7391,-8.7033],[-72.7744,-8.7267],[-72.8148,-8.7252],[-72.852,-8.7301],[-72.8668,-8.7506],[-72.9109,-8.749],[-72.9213,-8.7591],[-72.9547,-8.7441],[-72.9888,-8.7552],[-73.0135,-8.753],[-73.0616,-8.7636],[-73.0909,-8.7517],[-73.1129,-8.757],[-73.128,-8.7712],[-73.1382,-8.7595],[-73.1423,-8.7227],[-73.176,-8.6942],[-73.2083,-8.6809],[-73.2478,-8.6873],[-73.2848,-8.6663],[-73.302,-8.63],[-73.3195,-8.6141],[-73.3414,-8.6157],[-73.3439,-8.602],[-73.3279,-8.517],[-73.3321,-8.4753],[-73.2025,-8.3785],[-73.1775,-8.3738],[-73.1005,-8.3377],[-73.0796,-8.2948],[-73.0376,-8.2823],[-73.0152,-8.2553],[-73.0124,-8.2358],[-72.9942,-8.2199],[-72.8938,-8.187],[-72.8084,-8.1199],[-72.7972,-8.1721],[-72.7967,-8.2031],[-72.7573,-8.2005],[-72.7584,-8.2125],[-72.7419,-8.2283],[-72.7258,-8.2125],[-72.6988,-8.222],[-72.6739,-8.2231],[-72.634,-8.1851],[-72.5646,-8.1876],[-72.506,-8.2329],[-72.4637,-8.2317],[-72.4327,-8.2399],[-72.4183,-8.2534],[-72.3961,-8.2544],[-72.3713,-8.2392],[-72.3548,-8.2406],[-72.3164,-8.2269],[-72.3011,-8.2052],[-72.2834,-8.2104],[-72.2663,-8.2605]]]}},{"type":"Feature","properties":{"codarea":"1200427","centroide":[-73.22432529641293,-7.843925124469239],"codigo_ibge":1200427,"nome_ig":"Cruzeiro do Sul"},"geometry":{"type":"Polygon","coordinates":[[[-72.86,-7.6739],[-72.797,-7.6869],[-72.7407,-7.7252],[-72.7333,-7.7251],[-72.6546,-7.6947],[-72.6409,-7.6822],[-72.6454,-7.7295],[-72.6238,-7.7557],[-72.6402,-7.7746],[-72.6317,-7.8086],[-72.6594,-7.8334],[-72.6784,-7.824],[-72.689,-7.8468],[-72.7103,-7.8429],[-72.734,-7.8569],[-72.7233,-7.8692],[-72.7522,-7.8686],[-72.777,-7.8841],[-72.7796,-7.8972],[-72.8204,-7.903],[-72.8267,-7.912],[-72.8607,-7.9129],[-72.8921,-7.9298],[-72.9177,-7.9285],[-72.9493,-7.9467],[-72.9745,-7.9375],[-72.9889,-7.942],[-73.0086,-7.9336],[-73.0451,-7.9364],[-73.0491,-7.944],[-73.0768,-7.9462],[-73.1153,-7.934],[-73.1024,-7.8902],[-73.1528,-7.901],[-73.1697,-7.8955],[-73.2128,-7.9124],[-73.238,-7.9422],[-73.2468,-7.9383],[-73.2679,-7.9535],[-73.2907,-7.9851],[-73.3244,-7.9968],[-73.3418,-7.9856],[-73.38,-7.9921],[-73.395,-8.0075],[-73.3995,-8.0303],[-73.6322,-8.0589],[-73.6234,-8.0393],[-73.6268,-8.0214],[-73.6494,-8.0025],[-73.6759,-8.0078],[-73.6976,-7.9601],[-73.7227,-7.96],[-73.7287,-7.969],[-73.7465,-7.9525],[-73.7509,-7.9233],[-73.7706,-7.9049],[-73.753,-7.8895],[-73.7672,-7.8609],[-73.742,-7.8727],[-73.7039,-7.8726],[-73.6836,-7.8442],[-73.6868,-7.8206],[-73.6818,-7.7896],[-73.6934,-7.7709],[-73.6748,-7.7401],[-73.5312,-7.7172],[-73.4922,-7.739],[-73.4743,-7.7595],[-73.4551,-7.7698],[-73.3905,-7.7459],[-73.3773,-7.7512],[-73.3356,-7.7104],[-73.3283,-7.715],[-73.3412,-7.7388],[-73.3039,-7.7612],[-73.3081,-7.7776],[-73.2515,-7.7925],[-73.1755,-7.7262],[-73.0406,-7.6693],[-73.0228,-7.676],[-72.9778,-7.6791],[-72.9483,-7.6921],[-72.9118,-7.6629],[-72.86,-7.6739]]]}}]}