{"type":"FeatureCollection","features":[{"type":"Feature","properties":{"codarea":"4100400","centroide":[-49.32302268116685,-25.2965663940032],"codigo_ibge":4100400,"nome_ig":"Curitiba"},"geometry":{"type":"Polygon","coordinates":[[[-49.2508,-25.2349],[-49.2679,-25.2554],[-49.2548,-25.2841],[-49.2596,-25.3055],[-49.2293,-25.35],[-49.2718,-25.3467],[-49.2819,-25.3541],[-49.2861,-25.3787],[-49.3103,-25.3836],[-49.3402,-25.3494],[-49.3707,-25.3426],[-49.3966,-25.3257],[-49.3825,-25.3098],[-49.406,-25.2969],[-49.4098,-25.2733],[-49.4521,-25.2438],[-49.4342,-25.2434],[-49.3992,-25.2617],[-49.3776,-25.2585],[-49.347,-25.2309],[-49.3231,-25.2333],[-49.2915,-25.2244],[-49.2508,-25.2349]]]}},{"type":"Feature","properties":{"codarea":"4101804","centroide":[-49.441633390695166,-25.60827942201474],"codigo_ibge":4101804,"nome_ig":"Curitiba"},"geometry":{"type":"Polygon","coordinates":[[[-49.3744,-25.5134],[-49.3534,-25.5202],[-49.338,-25.5154],[-49.3458,-25.5412],[-49.3428,-25.5803],[-49.3571,-25.6074],[-49.3599,-25.6431],[-49.3649,-25.6533],[-49.3551,-25.6734],[-49.3601,-25.6837],[-49.3573,-25.7276],[-49.3629,-25.7368],[-49.365,-25.7847],[-49.3697,-25.7888],[-49.385,-25.7835],[-49.4164,-25.7456],[-49.4536,-25.7305],[-49.4599,-25.7047],[-49.4781,-25.6949],[-49.4772,-25.6388],[-49.5109,-25.6426],[-49.5221,-25.6681],[-49.5414,-25.6553],[-49.5401,-25.619],[-49.5548,-25.5926],[-49.5744,-25.6066],[-49.5858,-25.5998],[-49.586,-25.5675],[-49.5636,-25.5482],[-49.5315,-25.5304],[-49.5012,-25.5011],[-49.4684,-25.4817],[-49.4599,-25.4865],[-49.4281,-25.4807],[-49.4213,-25.4899],[-49.3888,-25.4971],[-49.3744,-25.5134]]]}},{"type":"Feature","properties":{"codarea":"4105805","centroide":[-49.188610872276406,-25.30543378166744],"codigo_ibge":4105805,"nome_ig":"Curitiba"},"geometry":{"type":"Polygon","coordinates":[[[-49.2219,-25.2304],[-49.1938,-25.2325],[-49.1481,-25.2477],[-49.1515,-25.2624],[-49.1229,-25.2782],[-49.1051,-25.2649],[-49.0938,-25.2751],[-49.1102,-25.2802],[-49.1228,-25.2995],[-49.1354,-25.3408],[-49.1238,-25.3706],[-49.1199,-25.3784],[-49.1414,-25.389],[-49.1934,-25.3903],[-49.2125,-25.3617],[-49.2293,-25.35],[-49.2596,-25.3055],[-49.2548,-25.2841],[-49.2679,-25.2554],[-49.2508,-25.2349],[-49.2411,-25.2238],[-49.2219,-25.2304]]]}},{"type":"Feature","properties":{"codarea":"4106902","centroide":[-49.287871877973544,-25.47713976061419],"codigo_ibge":4106902,"nome_ig":"Curitiba"},"geometry":{"type":"Polygon","coordinates":[[[-49.2293,-25.35],[-49.2125,-25.3617],[-49.1934,-25.3903],[-49.2034,-25.435],[-49.1852,-25.4714],[-49.1987,-25.5012],[-49.226,-25.5383],[-49.2233,-25.562],[-49.2376,-25.5642],[-49.2445,-25.5868],[-49.2714,-25.6038],[-49.2709,-25.6122],[-49.303,-25.6144],[-49.3599,-25.6431],[-49.3571,-25.6074],[-49.3428,-25.5803],[-49.3458,-25.5412],[-49.338,-25.5154],[-49.3534,-25.5202],[-49.3744,-25.5134],[-49.372,-25.4969],[-49.3834,-25.4858],[-49.3814,-25.4526],[-49.3888,-25.4417],[-49.3834,-25.4188],[-49.3736,-25.3972],[-49.3478,-25.3759],[-49.3402,-25.3494],[-49.3103,-25.3836],[-49.2861,-25.3787],[-49.2819,-25.3541],[-49.2718,-25.3467],[-49.2293,-25.35]]]}},{"type":"Feature","properties":{"codarea":"4119152","centroide":[-49.15632801522566,-25.419412609263116],"codigo_ibge":4119152,"nome_ig":"Curitiba"},"geometry":{"type":"Polygon","coordinates":[[[-49.1039,-25.3942],[-49.1172,-25.4418],[-49.1549,-25.4449],[-49.1755,-25.4625],[-49.1852,-25.4714],[-49.2034,-25.435],[-49.1934,-25.3903],[-49.1414,-25.389],[-49.1199,-25.3784],[-49.1039,-25.3942]]]}},{"type":"Feature","properties":{"codarea":"4119509","centroide":[-49.051827249741535,-25.473092706396155],"codigo_ibge":4119509,"nome_ig":"Curitiba"},"geometry":{"type":"Polygon","coordinates":[[[-48.9628,-25.4447],[-48.9409,-25.4757],[-48.9641,-25.4917],[-48.9749,-25.5086],[-48.9701,-25.5226],[-48.9962,-25.5416],[-49.0243,-25.5506],[-49.0431,-25.5417],[-49.072,-25.539],[-49.1076,-25.5157],[-49.1347,-25.487],[-49.1347,-25.487],[-49.147,-25.4719],[-49.147,-25.4719],[-49.1755,-25.4625],[-49.1549,-25.4449],[-49.1172,-25.4418],[-49.1039,-25.3942],[-49.0922,-25.3871],[-49.0453,-25.3998],[-49.0368,-25.4185],[-49.01,-25.4406],[-49.0004,-25.4357],[-48.9628,-25.4447]]]}},{"type":"Feature","properties":{"codarea":"4125506","centroide":[-49.09526465408942,-25.66447926749857],"codigo_ibge":4125506,"nome_ig":"Curitiba"},"geometry":{"type":"Polygon","coordinates":[[[-48.9701,-25.5226],[-48.9614,-25.5383],[-48.9728,-25.5457],[-48.9657,-25.5624],[-48.9727,-25.5759],[-48.9422,-25.5814],[-48.9566,-25.5977],[-48.9548,-25.6454],[-48.9697,-25.6648],[-48.9656,-25.6986],[-48.9734,-25.7264],[-48.9623,-25.736],[-48.949,-25.7269],[-48.9319,-25.7474],[-48.8953,-25.7614],[-48.8715,-25.7594],[-48.8704,-25.7749],[-48.8522,-25.7968],[-48.8942,-25.8205],[-48.9199,-25.8104],[-48.9232,-25.8179],[-48.9627,-25.8309],[-48.9849,-25.8279],[-49.0021,-25.7882],[-49.0321,-25.7955],[-49.0568,-25.7905],[-49.07,-25.797],[-49.0807,-25.7777],[-49.0795,-25.7507],[-49.0876,-25.7443],[-49.1173,-25.7456],[-49.1329,-25.7547],[-49.1406,-25.7429],[-49.1618,-25.7797],[-49.1679,-25.8149],[-49.192,-25.8033],[-49.2078,-25.8251],[-49.2317,-25.8133],[-49.2563,-25.819],[-49.2414,-25.7977],[-49.25,-25.7695],[-49.2455,-25.754],[-49.2407,-25.7399],[-49.2594,-25.6618],[-49.2603,-25.6162],[-49.2709,-25.6122],[-49.2714,-25.6038],[-49.2445,-25.5868],[-49.2376,-25.5642],[-49.2233,-25.562],[-49.226,-25.5383],[-49.1987,-25.5012],[-49.1852,-25.4714],[-49.1755,-25.4625],[-49.147,-25.4719],[-49.147,-25.4719],[-49.1347,-25.487],[-49.1347,-25.487],[-49.1076,-25.5157],[-49.072,-25.539],[-49.0431,-25.5417],[-49.0243,-25.5506],[-48.9962,-25.5416],[-48.9701,-25.5226]]]}}]}