{"type":"FeatureCollection","features":[{"type":"Feature","properties":{"codarea":"2802007","centroide":[-37.15702644112661,-10.673908846056005],"codigo_ibge":2802007,"nome_ig":"Divina Pastora"},"geometry":{"type":"MultiPolygon","coordinates":[[[[-37.0928,-10.6413],[-37.0906,-10.6551],[-37.1154,-10.6849],[-37.1215,-10.7027],[-37.1425,-10.7004],[-37.1613,-10.7514],[-37.1597,-10.7357],[-37.1791,-10.7174],[-37.1922,-10.7283],[-37.2058,-10.7042],[-37.199,-10.6772],[-37.179,-10.6525],[-37.1948,-10.6253],[-37.2041,-10.6242],[-37.2072,-10.6075],[-37.1779,-10.6254],[-37.1504,-10.6208],[-37.1328,-10.6515],[-37.0928,-10.6413]]]]}}]}