{"type":"FeatureCollection","features":[{"type":"Feature","properties":{"codarea":"3200169","centroide":[-40.99677953320388,-18.51561933995102],"codigo_ibge":3200169,"nome_ig":"Espírito Santo"},"geometry":{"type":"MultiPolygon","coordinates":[[[[-40.9259,-18.4388],[-40.9187,-18.4485],[-40.9253,-18.4862],[-40.9046,-18.5221],[-40.9068,-18.5493],[-40.92,-18.5582],[-40.929,-18.587],[-40.9059,-18.6097],[-40.9102,-18.6638],[-40.8984,-18.6895],[-40.915,-18.6849],[-40.9414,-18.6907],[-40.9538,-18.6816],[-41.0052,-18.6672],[-41.0296,-18.6536],[-41.0531,-18.6287],[-41.0324,-18.6181],[-41.0419,-18.6054],[-41.0258,-18.5276],[-41.0158,-18.4768],[-41.023,-18.4572],[-41.173,-18.4427],[-41.1818,-18.4395],[-41.1666,-18.4152],[-41.1442,-18.4052],[-41.1252,-18.409],[-41.0998,-18.402],[-41.0875,-18.3752],[-41.0774,-18.3737],[-41.055,-18.3434],[-41.0355,-18.3628],[-41.0404,-18.3829],[-41.0223,-18.3914],[-41.0102,-18.38],[-41.0038,-18.4062],[-40.981,-18.408],[-40.9828,-18.3924],[-40.9571,-18.3828],[-40.9264,-18.4135],[-40.936,-18.4235],[-40.9259,-18.4388]]]]}},{"type":"Feature","properties":{"codarea":"3200136","centroide":[-40.749101375287644,-18.971020232200924],"codigo_ibge":3200136,"nome_ig":"Espírito Santo"},"geometry":{"type":"MultiPolygon","coordinates":[[[[-40.7627,-18.8486],[-40.7427,-18.8427],[-40.7218,-18.8491],[-40.7144,-18.8748],[-40.7377,-18.8799],[-40.7409,-18.9338],[-40.7085,-18.9424],[-40.6993,-18.9308],[-40.6562,-18.9463],[-40.6454,-18.9693],[-40.6527,-18.9843],[-40.634,-18.9872],[-40.6455,-19.013],[-40.6373,-19.0267],[-40.6218,-19.0219],[-40.6164,-19.0414],[-40.5717,-19.0522],[-40.5561,-19.0459],[-40.579,-19.0685],[-40.598,-19.0625],[-40.6165,-19.082],[-40.6547,-19.0899],[-40.6584,-19.0995],[-40.684,-19.1052],[-40.6809,-19.1272],[-40.6912,-19.1499],[-40.6991,-19.1326],[-40.6861,-19.1111],[-40.7131,-19.1082],[-40.7147,-19.0775],[-40.7035,-19.0609],[-40.7241,-19.0543],[-40.7575,-18.9984],[-40.7684,-18.9949],[-40.7857,-19.0101],[-40.7888,-19.0257],[-40.8151,-19.0149],[-40.8587,-19.0216],[-40.8578,-18.9403],[-40.9059,-18.9404],[-40.8979,-18.9013],[-40.8802,-18.8928],[-40.8607,-18.8956],[-40.8627,-18.8639],[-40.8325,-18.8602],[-40.8274,-18.8482],[-40.8027,-18.8437],[-40.7925,-18.8578],[-40.7627,-18.8486]]]]}},{"type":"Feature","properties":{"codarea":"3200359","centroide":[-40.987936898656876,-19.0218314714517],"codigo_ibge":3200359,"nome_ig":"Espírito Santo"},"geometry":{"type":"MultiPolygon","coordinates":[[[[-40.9628,-19.1215],[-40.9847,-19.1007],[-41.007,-19.1005],[-41.0126,-19.0758],[-41.0254,-19.0799],[-41.0538,-19.0688],[-41.0608,-19.0564],[-41.0717,-19.0238],[-41.0656,-19.0056],[-41.0322,-18.9908],[-41.018,-18.9735],[-41.0432,-18.9795],[-41.0606,-18.9682],[-41.0648,-18.945],[-40.9165,-18.9407],[-40.9483,-18.945],[-40.945,-18.9596],[-40.9507,-19.0061],[-40.925,-18.9999],[-40.9156,-19.0107],[-40.8977,-19.0051],[-40.8963,-19.0452],[-40.9144,-19.0646],[-40.9496,-19.0792],[-40.9387,-19.0938],[-40.9619,-19.1032],[-40.9628,-19.1215]]]]}},{"type":"Feature","properties":{"codarea":"3200607","centroide":[-40.17554458853714,-19.76517075000987],"codigo_ibge":3200607,"nome_ig":"Espírito Santo"},"geometry":{"type":"MultiPolygon","coordinates":[[[[-39.9116,-19.687],[-39.9549,-19.7164],[-40.0043,-19.7578],[-40.0523,-19.8104],[-40.0576,-19.839],[-40.0958,-19.9024],[-40.099,-19.9189],[-40.1311,-19.9362],[-40.1396,-19.9491],[-40.1368,-19.9701],[-40.1538,-20.0138],[-40.1678,-20],[-40.2082,-19.9881],[-40.2386,-20.0092],[-40.2532,-20.0005],[-40.2673,-20.0085],[-40.2761,-19.9742],[-40.3034,-19.9707],[-40.3076,-19.9506],[-40.3327,-19.9358],[-40.3383,-19.9079],[-40.346,-19.9068],[-40.3461,-19.7798],[-40.3461,-19.7061],[-40.3538,-19.687],[-40.3494,-19.6682],[-40.3341,-19.6417],[-40.3192,-19.6551],[-40.296,-19.6419],[-40.2813,-19.6188],[-40.2738,-19.6236],[-40.2577,-19.5996],[-40.2218,-19.5827],[-40.2033,-19.5829],[-40.1999,-19.5719],[-40.1672,-19.5532],[-40.1103,-19.5534],[-40.0855,-19.5653],[-40.0642,-19.5861],[-40.0527,-19.583],[-40.0313,-19.6069],[-39.9116,-19.687]]]]}},{"type":"Feature","properties":{"codarea":"3200805","centroide":[-40.98239518118315,-19.569622496562605],"codigo_ibge":3200805,"nome_ig":"Espírito Santo"},"geometry":{"type":"MultiPolygon","coordinates":[[[[-40.8204,-19.3568],[-40.8274,-19.3769],[-40.8487,-19.3805],[-40.8619,-19.4018],[-40.8603,-19.4215],[-40.8834,-19.4484],[-40.8775,-19.4748],[-40.853,-19.4758],[-40.8341,-19.49],[-40.8568,-19.5112],[-40.8185,-19.5288],[-40.834,-19.5687],[-40.8491,-19.5594],[-40.8824,-19.5923],[-40.9224,-19.604],[-40.9371,-19.6421],[-40.9272,-19.6892],[-40.9448,-19.7124],[-40.9452,-19.7306],[-40.9729,-19.7252],[-40.9835,-19.7357],[-40.9968,-19.7877],[-40.9937,-19.8009],[-41.0053,-19.8056],[-41.0233,-19.7821],[-41.0349,-19.7892],[-41.0529,-19.7697],[-41.0969,-19.7876],[-41.1247,-19.7888],[-41.1242,-19.7729],[-41.1564,-19.7599],[-41.1746,-19.7672],[-41.191,-19.7458],[-41.1799,-19.7406],[-41.1768,-19.6986],[-41.1684,-19.6722],[-41.1373,-19.6575],[-41.1294,-19.6427],[-41.1077,-19.6372],[-41.0993,-19.6042],[-41.0732,-19.5979],[-41.0719,-19.5844],[-41.0368,-19.5704],[-41.0449,-19.5385],[-41.0412,-19.5146],[-41.0466,-19.4873],[-41.0195,-19.5046],[-40.9722,-19.5052],[-40.9716,-19.4957],[-40.9446,-19.4609],[-40.9578,-19.4499],[-40.9664,-19.4235],[-40.9507,-19.3929],[-40.9304,-19.3841],[-40.9384,-19.346],[-40.9076,-19.3088],[-40.9327,-19.296],[-40.9444,-19.2806],[-40.9218,-19.2718],[-40.9161,-19.2589],[-40.9322,-19.2511],[-40.9353,-19.2226],[-40.91,-19.2368],[-40.8789,-19.2323],[-40.8916,-19.2437],[-40.8756,-19.2644],[-40.8639,-19.2648],[-40.8568,-19.2866],[-40.8607,-19.3056],[-40.874,-19.312],[-40.881,-19.3315],[-40.8544,-19.3226],[-40.8512,-19.3349],[-40.8298,-19.3385],[-40.8204,-19.3568]]]]}},{"type":"Feature","properties":{"codarea":"3200904","centroide":[-40.83093732865165,-18.665580363433186],"codigo_ibge":3200904,"nome_ig":"Espírito Santo"},"geometry":{"type":"MultiPolygon","coordinates":[[[[-40.652,-18.5131],[-40.6709,-18.5308],[-40.6709,-18.5308],[-40.7142,-18.5665],[-40.7592,-18.577],[-40.7693,-18.5941],[-40.7881,-18.5971],[-40.7993,-18.583],[-40.7941,-18.6137],[-40.7801,-18.6204],[-40.7649,-18.6126],[-40.7663,-18.5952],[-40.7464,-18.6011],[-40.7328,-18.5873],[-40.7215,-18.6045],[-40.7289,-18.6544],[-40.7231,-18.6782],[-40.6828,-18.6894],[-40.706,-18.6903],[-40.7191,-18.7571],[-40.7484,-18.7708],[-40.7599,-18.7941],[-40.7733,-18.7945],[-40.7662,-18.8188],[-40.776,-18.8186],[-40.7627,-18.8486],[-40.7925,-18.8578],[-40.8027,-18.8437],[-40.8274,-18.8482],[-40.8325,-18.8602],[-40.8627,-18.8639],[-40.8607,-18.8956],[-40.8802,-18.8928],[-40.8979,-18.9013],[-41.0254,-18.8371],[-40.9639,-18.8411],[-40.9457,-18.8254],[-40.9366,-18.831],[-40.9167,-18.8155],[-40.9198,-18.8003],[-40.94,-18.7702],[-40.9414,-18.6907],[-40.915,-18.6849],[-40.8984,-18.6895],[-40.9102,-18.6638],[-40.9059,-18.6097],[-40.929,-18.587],[-40.92,-18.5582],[-40.9068,-18.5493],[-40.9046,-18.5221],[-40.9253,-18.4862],[-40.9187,-18.4485],[-40.9259,-18.4388],[-40.906,-18.4244],[-40.9027,-18.4366],[-40.8737,-18.4284],[-40.8484,-18.437],[-40.8551,-18.46],[-40.8476,-18.4945],[-40.8317,-18.4999],[-40.7881,-18.4929],[-40.7893,-18.4802],[-40.7635,-18.485],[-40.7494,-18.4669],[-40.7237,-18.4684],[-40.7031,-18.4993],[-40.652,-18.5131]]]]}},{"type":"Feature","properties":{"codarea":"3201001","centroide":[-40.329697536148764,-18.484543412429968],"codigo_ibge":3201001,"nome_ig":"Espírito Santo"},"geometry":{"type":"MultiPolygon","coordinates":[[[[-40.1245,-18.4885],[-40.1583,-18.5102],[-40.1674,-18.5461],[-40.2086,-18.5713],[-40.2204,-18.5861],[-40.246,-18.5683],[-40.2842,-18.5767],[-40.3133,-18.5744],[-40.3308,-18.5808],[-40.332,-18.5604],[-40.3474,-18.5476],[-40.3671,-18.5521],[-40.3819,-18.5393],[-40.3917,-18.5455],[-40.4204,-18.5425],[-40.4266,-18.5258],[-40.4161,-18.5146],[-40.4564,-18.4842],[-40.4507,-18.4549],[-40.4654,-18.4312],[-40.4516,-18.4136],[-40.4509,-18.4067],[-40.487,-18.3773],[-40.4862,-18.3663],[-40.4579,-18.3752],[-40.4436,-18.3621],[-40.424,-18.3652],[-40.4028,-18.3853],[-40.3548,-18.3781],[-40.3307,-18.4],[-40.3188,-18.44],[-40.2886,-18.485],[-40.2721,-18.4943],[-40.2391,-18.4957],[-40.2067,-18.4902],[-40.1766,-18.4714],[-40.1245,-18.4885]]]]}},{"type":"Feature","properties":{"codarea":"3201506","centroide":[-40.65562235905427,-19.48564909431867],"codigo_ibge":3201506,"nome_ig":"Espírito Santo"},"geometry":{"type":"MultiPolygon","coordinates":[[[[-40.6648,-19.23],[-40.6303,-19.2413],[-40.6128,-19.2755],[-40.5956,-19.2653],[-40.5793,-19.2803],[-40.5575,-19.2719],[-40.5339,-19.289],[-40.5441,-19.3106],[-40.5311,-19.3244],[-40.5695,-19.3671],[-40.5889,-19.3547],[-40.6271,-19.348],[-40.6414,-19.3844],[-40.6335,-19.4065],[-40.6333,-19.4335],[-40.6251,-19.4477],[-40.5967,-19.4306],[-40.5681,-19.4388],[-40.5608,-19.4735],[-40.5341,-19.5001],[-40.5189,-19.5037],[-40.485,-19.5323],[-40.4677,-19.5371],[-40.4347,-19.5341],[-40.3961,-19.5421],[-40.3735,-19.5361],[-40.3706,-19.556],[-40.3884,-19.5621],[-40.3892,-19.5742],[-40.3722,-19.5962],[-40.3764,-19.6225],[-40.4187,-19.6413],[-40.4632,-19.6306],[-40.5025,-19.6576],[-40.5167,-19.6776],[-40.5273,-19.7156],[-40.5525,-19.7126],[-40.5674,-19.6847],[-40.5803,-19.6858],[-40.5868,-19.6658],[-40.6033,-19.6731],[-40.6529,-19.6432],[-40.6741,-19.6228],[-40.7213,-19.6241],[-40.726,-19.6419],[-40.7564,-19.6523],[-40.7792,-19.6345],[-40.7741,-19.6156],[-40.7899,-19.5807],[-40.8047,-19.5952],[-40.8219,-19.5928],[-40.8344,-19.617],[-40.8538,-19.6168],[-40.8529,-19.5784],[-40.834,-19.5687],[-40.8185,-19.5288],[-40.8568,-19.5112],[-40.8341,-19.49],[-40.853,-19.4758],[-40.8775,-19.4748],[-40.8834,-19.4484],[-40.8603,-19.4215],[-40.8619,-19.4018],[-40.8487,-19.3805],[-40.8274,-19.3769],[-40.8204,-19.3568],[-40.8081,-19.3034],[-40.784,-19.2923],[-40.7565,-19.2977],[-40.7291,-19.2876],[-40.7179,-19.2976],[-40.7082,-19.2618],[-40.695,-19.2564],[-40.7011,-19.2415],[-40.673,-19.2398],[-40.6648,-19.23]]]]}},{"type":"Feature","properties":{"codarea":"3201605","centroide":[-39.833434984418204,-18.445820415448225],"codigo_ibge":3201605,"nome_ig":"Espírito Santo"},"geometry":{"type":"MultiPolygon","coordinates":[[[[-39.6678,-18.3371],[-39.6873,-18.3859],[-39.7285,-18.5003],[-39.7292,-18.5769],[-39.7238,-18.6008],[-39.7367,-18.6443],[-39.7464,-18.7061],[-39.7856,-18.7055],[-39.8132,-18.7211],[-39.8162,-18.6833],[-39.8088,-18.6745],[-39.8329,-18.6731],[-39.8357,-18.6827],[-39.9825,-18.5042],[-40.0298,-18.4441],[-40.002,-18.4323],[-39.974,-18.4375],[-39.9514,-18.4285],[-39.9368,-18.4119],[-39.9586,-18.3467],[-39.9552,-18.3115],[-39.9201,-18.3148],[-39.9371,-18.2806],[-39.9268,-18.2557],[-39.9421,-18.2435],[-39.9241,-18.227],[-39.9241,-18.227],[-39.9216,-18.2251],[-39.9216,-18.2251],[-39.9024,-18.2077],[-39.9024,-18.2077],[-39.902,-18.2057],[-39.902,-18.2057],[-39.9023,-18.2041],[-39.9023,-18.2041],[-39.9008,-18.2013],[-39.9008,-18.2013],[-39.9117,-18.179],[-39.6889,-18.3208],[-39.6678,-18.3371]]]]}},{"type":"Feature","properties":{"codarea":"3202108","centroide":[-40.80772772197641,-18.265638628285462],"codigo_ibge":3202108,"nome_ig":"Espírito Santo"},"geometry":{"type":"MultiPolygon","coordinates":[[[[-40.7984,-17.9569],[-40.7922,-17.9816],[-40.7709,-17.9864],[-40.7717,-18.0033],[-40.7527,-18.0096],[-40.7257,-18.0012],[-40.7036,-18.0237],[-40.6813,-18.0101],[-40.6617,-18.0129],[-40.6587,-18.0262],[-40.6398,-18.0342],[-40.6132,-18.1062],[-40.5885,-18.1081],[-40.5788,-18.096],[-40.559,-18.1137],[-40.5607,-18.1407],[-40.5562,-18.1766],[-40.5459,-18.1996],[-40.5531,-18.2266],[-40.6188,-18.2874],[-40.6092,-18.3239],[-40.5968,-18.3394],[-40.5738,-18.3449],[-40.583,-18.3685],[-40.6054,-18.4083],[-40.5955,-18.4332],[-40.5725,-18.4355],[-40.5564,-18.4516],[-40.5271,-18.468],[-40.522,-18.4813],[-40.551,-18.4938],[-40.5644,-18.4868],[-40.6184,-18.4976],[-40.6335,-18.513],[-40.652,-18.5131],[-40.7031,-18.4993],[-40.7237,-18.4684],[-40.7494,-18.4669],[-40.7635,-18.485],[-40.7893,-18.4802],[-40.7881,-18.4929],[-40.8317,-18.4999],[-40.8476,-18.4945],[-40.8551,-18.46],[-40.8484,-18.437],[-40.8737,-18.4284],[-40.9027,-18.4366],[-40.906,-18.4244],[-40.9259,-18.4388],[-40.936,-18.4235],[-40.9264,-18.4135],[-40.9571,-18.3828],[-40.9828,-18.3924],[-40.981,-18.408],[-41.0038,-18.4062],[-41.0102,-18.38],[-41.0223,-18.3914],[-41.0404,-18.3829],[-41.0355,-18.3628],[-41.055,-18.3434],[-41.0774,-18.3737],[-41.0875,-18.3752],[-41.0998,-18.402],[-41.1252,-18.409],[-41.1442,-18.4052],[-41.1604,-18.4027],[-41.1595,-18.3814],[-41.1481,-18.3791],[-41.1474,-18.3533],[-41.1589,-18.3082],[-41.0964,-18.2555],[-41.1027,-18.2369],[-41.0913,-18.2302],[-41.1044,-18.2132],[-41.0927,-18.1954],[-41.0564,-18.1788],[-41.0519,-18.1651],[-41.0145,-18.1575],[-41.01,-18.1676],[-40.9883,-18.1697],[-40.9803,-18.1413],[-40.9545,-18.1544],[-40.9491,-18.1286],[-40.9322,-18.1364],[-40.9042,-18.1101],[-40.8913,-18.11],[-40.8633,-18.1391],[-40.7947,-18.16],[-40.7714,-18.1559],[-40.7733,-18.1075],[-40.9024,-17.9862],[-40.8817,-17.971],[-40.8631,-17.9883],[-40.8305,-17.9541],[-40.8249,-17.9636],[-40.7984,-17.9569]]]]}},{"type":"Feature","properties":{"codarea":"3202256","centroide":[-40.499949165322526,-19.205182991964012],"codigo_ibge":3202256,"nome_ig":"Espírito Santo"},"geometry":{"type":"MultiPolygon","coordinates":[[[[-40.4306,-19.258],[-40.4435,-19.2915],[-40.4615,-19.2797],[-40.4713,-19.2933],[-40.4858,-19.2868],[-40.5089,-19.3129],[-40.5311,-19.3244],[-40.5441,-19.3106],[-40.5339,-19.289],[-40.5575,-19.2719],[-40.5793,-19.2803],[-40.5956,-19.2653],[-40.6128,-19.2755],[-40.6198,-19.2437],[-40.6132,-19.2307],[-40.6186,-19.2093],[-40.6076,-19.1909],[-40.5698,-19.1642],[-40.5602,-19.1398],[-40.5392,-19.141],[-40.5126,-19.1533],[-40.504,-19.1435],[-40.5053,-19.1216],[-40.4909,-19.11],[-40.3868,-19.1029],[-40.3747,-19.0794],[-40.3748,-19.0793],[-40.365,-19.0957],[-40.3869,-19.1133],[-40.4103,-19.1489],[-40.3991,-19.1481],[-40.4126,-19.1878],[-40.4032,-19.1977],[-40.4191,-19.2109],[-40.4204,-19.2382],[-40.4306,-19.258]]]]}},{"type":"Feature","properties":{"codarea":"3203056","centroide":[-40.0049497829102,-18.949127157264073],"codigo_ibge":3203056,"nome_ig":"Espírito Santo"},"geometry":{"type":"MultiPolygon","coordinates":[[[[-39.7411,-19.1489],[-39.7614,-19.1608],[-39.8247,-19.1393],[-39.8402,-19.1243],[-39.8741,-19.1119],[-39.8848,-19.097],[-39.8706,-19.0799],[-39.8813,-19.0472],[-39.93,-19.0599],[-39.9338,-19.0506],[-39.9748,-19.0212],[-39.9789,-19.0079],[-40.0025,-18.995],[-40.0588,-18.9818],[-40.0752,-18.9835],[-40.1117,-18.9679],[-40.1666,-18.9529],[-40.186,-18.9386],[-40.2063,-18.9066],[-40.2077,-18.8844],[-40.1244,-18.7768],[-40.1159,-18.775],[-40.0865,-18.803],[-40.0501,-18.8115],[-40.0073,-18.8134],[-40.0078,-18.8941],[-39.9892,-18.8769],[-39.9661,-18.8806],[-39.9622,-18.8934],[-39.9014,-18.9589],[-39.8613,-18.9967],[-39.7411,-19.1489]]]]}},{"type":"Feature","properties":{"codarea":"3203205","centroide":[-40.028202488891516,-19.38178812066023],"codigo_ibge":3203205,"nome_ig":"Espírito Santo"},"geometry":{"type":"MultiPolygon","coordinates":[[[[-39.7411,-19.1489],[-39.7326,-19.0973],[-39.7189,-19.097],[-39.7101,-19.168],[-39.6914,-19.2733],[-39.6889,-19.3063],[-39.7018,-19.3893],[-39.7294,-19.4659],[-39.7807,-19.5812],[-39.8066,-19.6314],[-39.8076,-19.6485],[-39.8737,-19.6686],[-39.9116,-19.687],[-40.0313,-19.6069],[-40.0527,-19.583],[-40.0642,-19.5861],[-40.0855,-19.5653],[-40.1103,-19.5534],[-40.1672,-19.5532],[-40.1999,-19.5719],[-40.2033,-19.5829],[-40.2218,-19.5827],[-40.2577,-19.5996],[-40.2738,-19.6236],[-40.2813,-19.6188],[-40.296,-19.6419],[-40.3192,-19.6551],[-40.3341,-19.6417],[-40.3494,-19.6682],[-40.3585,-19.6701],[-40.3742,-19.6426],[-40.3764,-19.6225],[-40.3722,-19.5962],[-40.3892,-19.5742],[-40.3884,-19.5621],[-40.3706,-19.556],[-40.3735,-19.5361],[-40.393,-19.5098],[-40.4165,-19.5087],[-40.431,-19.4934],[-40.4349,-19.4629],[-40.4442,-19.4577],[-40.4334,-19.4358],[-40.457,-19.4164],[-40.4532,-19.4085],[-40.4766,-19.3851],[-40.48,-19.3645],[-40.5253,-19.3321],[-40.5089,-19.3129],[-40.4858,-19.2868],[-40.4713,-19.2933],[-40.4615,-19.2797],[-40.4435,-19.2915],[-40.4306,-19.258],[-40.4118,-19.2653],[-40.4312,-19.324],[-40.415,-19.3244],[-40.3897,-19.3713],[-40.3642,-19.3519],[-40.336,-19.3565],[-40.3252,-19.3755],[-40.3032,-19.3151],[-40.2973,-19.3558],[-40.2727,-19.3687],[-40.2035,-19.3419],[-40.1814,-19.2433],[-40.1933,-19.2209],[-40.1917,-19.1923],[-40.1566,-19.1939],[-40.1481,-19.2172],[-40.1179,-19.2294],[-40.1212,-19.2117],[-40.1044,-19.2088],[-40.0844,-19.2353],[-40.0372,-19.1851],[-40.0531,-19.175],[-40.0882,-19.1695],[-40.0347,-19.0613],[-40.0213,-19.0525],[-39.9894,-19.047],[-40.0233,-19.0386],[-40.0025,-18.995],[-39.9789,-19.0079],[-39.9748,-19.0212],[-39.9338,-19.0506],[-39.93,-19.0599],[-39.8813,-19.0472],[-39.8706,-19.0799],[-39.8848,-19.097],[-39.8741,-19.1119],[-39.8402,-19.1243],[-39.8247,-19.1393],[-39.7614,-19.1608],[-39.7411,-19.1489]]]]}},{"type":"Feature","properties":{"codarea":"3203304","centroide":[-41.072604800135224,-18.876458176718387],"codigo_ibge":3203304,"nome_ig":"Espírito Santo"},"geometry":{"type":"MultiPolygon","coordinates":[[[[-41.0254,-18.8371],[-40.8979,-18.9013],[-40.9059,-18.9404],[-40.9165,-18.9407],[-41.0648,-18.945],[-41.1036,-18.934],[-41.1268,-18.8945],[-41.1371,-18.8906],[-41.1529,-18.8866],[-41.1663,-18.8582],[-41.1894,-18.8642],[-41.2084,-18.855],[-41.2147,-18.8776],[-41.2432,-18.8537],[-41.245,-18.8233],[-41.2324,-18.7972],[-41.1467,-18.798],[-41.1334,-18.7968],[-41.1105,-18.8389],[-41.0254,-18.8371]]]]}},{"type":"Feature","properties":{"codarea":"3203353","centroide":[-40.51788260006258,-19.434248799070918],"codigo_ibge":3203353,"nome_ig":"Espírito Santo"},"geometry":{"type":"MultiPolygon","coordinates":[[[[-40.3735,-19.5361],[-40.3961,-19.5421],[-40.4347,-19.5341],[-40.4677,-19.5371],[-40.485,-19.5323],[-40.5189,-19.5037],[-40.5341,-19.5001],[-40.5608,-19.4735],[-40.5681,-19.4388],[-40.5967,-19.4306],[-40.6251,-19.4477],[-40.6333,-19.4335],[-40.6335,-19.4065],[-40.6414,-19.3844],[-40.6271,-19.348],[-40.5889,-19.3547],[-40.5695,-19.3671],[-40.5311,-19.3244],[-40.5089,-19.3129],[-40.5253,-19.3321],[-40.48,-19.3645],[-40.4766,-19.3851],[-40.4532,-19.4085],[-40.457,-19.4164],[-40.4334,-19.4358],[-40.4442,-19.4577],[-40.4349,-19.4629],[-40.431,-19.4934],[-40.4165,-19.5087],[-40.393,-19.5098],[-40.3735,-19.5361]]]]}},{"type":"Feature","properties":{"codarea":"3203502","centroide":[-40.27500559606977,-18.138996238617086],"codigo_ibge":3203502,"nome_ig":"Espírito Santo"},"geometry":{"type":"MultiPolygon","coordinates":[[[[-40.2223,-17.9804],[-40.2219,-17.9806],[-40.2095,-18.021],[-40.2095,-18.021],[-40.185,-18.0325],[-40.1718,-18.0576],[-40.1043,-18.0948],[-40.0996,-18.1314],[-40.1085,-18.1403],[-40.0906,-18.1799],[-40.1299,-18.2741],[-40.1479,-18.2863],[-40.1976,-18.2978],[-40.211,-18.2898],[-40.2239,-18.315],[-40.2454,-18.3106],[-40.2502,-18.3202],[-40.2776,-18.3072],[-40.2934,-18.3122],[-40.3193,-18.3065],[-40.3548,-18.2801],[-40.3548,-18.2801],[-40.3899,-18.2735],[-40.3981,-18.2553],[-40.4242,-18.2562],[-40.4242,-18.2562],[-40.4258,-18.2571],[-40.4199,-18.211],[-40.4226,-18.1813],[-40.4435,-18.1539],[-40.4427,-18.125],[-40.4206,-18.1067],[-40.4209,-18.0884],[-40.3907,-18.0323],[-40.3992,-18.0132],[-40.3913,-17.9654],[-40.3683,-17.9228],[-40.3455,-17.9237],[-40.2553,-17.9717],[-40.2223,-17.9804]]]]}},{"type":"Feature","properties":{"codarea":"3203601","centroide":[-40.51259299214997,-18.01524672665493],"codigo_ibge":3203601,"nome_ig":"Espírito Santo"},"geometry":{"type":"MultiPolygon","coordinates":[[[[-40.3683,-17.9228],[-40.3913,-17.9654],[-40.3992,-18.0132],[-40.3907,-18.0323],[-40.4209,-18.0884],[-40.4206,-18.1067],[-40.4427,-18.125],[-40.4637,-18.1205],[-40.4846,-18.1327],[-40.5115,-18.1319],[-40.5417,-18.1133],[-40.5607,-18.1407],[-40.559,-18.1137],[-40.5788,-18.096],[-40.5885,-18.1081],[-40.6132,-18.1062],[-40.6398,-18.0342],[-40.6587,-18.0262],[-40.6617,-18.0129],[-40.646,-17.9935],[-40.6261,-17.991],[-40.6152,-17.9422],[-40.5871,-17.939],[-40.5847,-17.9181],[-40.5679,-17.916],[-40.527,-17.8919],[-40.5005,-17.9116],[-40.4903,-17.9073],[-40.4627,-17.9282],[-40.445,-17.9188],[-40.4174,-17.927],[-40.3683,-17.9228]]]]}},{"type":"Feature","properties":{"codarea":"3203908","centroide":[-40.5227660466233,-18.698421894038823],"codigo_ibge":3203908,"nome_ig":"Espírito Santo"},"geometry":{"type":"MultiPolygon","coordinates":[[[[-40.4516,-18.4136],[-40.4654,-18.4312],[-40.4507,-18.4549],[-40.4564,-18.4842],[-40.4161,-18.5146],[-40.4266,-18.5258],[-40.4204,-18.5425],[-40.3917,-18.5455],[-40.3819,-18.5393],[-40.3671,-18.5521],[-40.3474,-18.5476],[-40.332,-18.5604],[-40.3308,-18.5808],[-40.3133,-18.5744],[-40.2842,-18.5767],[-40.3364,-18.7258],[-40.3481,-18.7454],[-40.3945,-18.7817],[-40.3903,-18.8023],[-40.4055,-18.8344],[-40.4016,-18.8509],[-40.4442,-18.8542],[-40.4442,-18.8542],[-40.4727,-18.853],[-40.5026,-18.8615],[-40.5161,-18.8764],[-40.5312,-18.8699],[-40.573,-18.8938],[-40.5929,-18.9341],[-40.6139,-18.9542],[-40.6337,-18.9366],[-40.6562,-18.9463],[-40.6993,-18.9308],[-40.7085,-18.9424],[-40.7409,-18.9338],[-40.7377,-18.8799],[-40.7144,-18.8748],[-40.7218,-18.8491],[-40.7427,-18.8427],[-40.7627,-18.8486],[-40.776,-18.8186],[-40.7662,-18.8188],[-40.7733,-18.7945],[-40.7599,-18.7941],[-40.7484,-18.7708],[-40.7191,-18.7571],[-40.706,-18.6903],[-40.6828,-18.6894],[-40.6992,-18.6953],[-40.6938,-18.7073],[-40.6687,-18.7022],[-40.6494,-18.7084],[-40.6414,-18.7248],[-40.601,-18.7218],[-40.5421,-18.6859],[-40.5197,-18.6661],[-40.5051,-18.6673],[-40.4853,-18.6547],[-40.4968,-18.6507],[-40.5005,-18.6214],[-40.5184,-18.6234],[-40.5353,-18.607],[-40.5344,-18.5921],[-40.5598,-18.5734],[-40.5667,-18.5481],[-40.5659,-18.5154],[-40.5659,-18.5154],[-40.557,-18.5022],[-40.557,-18.5022],[-40.551,-18.4938],[-40.522,-18.4813],[-40.5271,-18.468],[-40.5564,-18.4516],[-40.5725,-18.4355],[-40.5955,-18.4332],[-40.6054,-18.4083],[-40.583,-18.3685],[-40.5688,-18.3599],[-40.5277,-18.365],[-40.5097,-18.3903],[-40.4972,-18.39],[-40.4915,-18.4102],[-40.4516,-18.4136]]]]}},{"type":"Feature","properties":{"codarea":"3204005","centroide":[-40.81744662304323,-19.144665212293173],"codigo_ibge":3204005,"nome_ig":"Espírito Santo"},"geometry":{"type":"MultiPolygon","coordinates":[[[[-40.6912,-19.1499],[-40.6576,-19.1666],[-40.655,-19.1789],[-40.6684,-19.2041],[-40.6573,-19.2028],[-40.6648,-19.23],[-40.673,-19.2398],[-40.7011,-19.2415],[-40.695,-19.2564],[-40.7082,-19.2618],[-40.7179,-19.2976],[-40.7291,-19.2876],[-40.7565,-19.2977],[-40.784,-19.2923],[-40.8081,-19.3034],[-40.8204,-19.3568],[-40.8298,-19.3385],[-40.8512,-19.3349],[-40.8544,-19.3226],[-40.881,-19.3315],[-40.874,-19.312],[-40.8607,-19.3056],[-40.8568,-19.2866],[-40.8639,-19.2648],[-40.8756,-19.2644],[-40.8916,-19.2437],[-40.8789,-19.2323],[-40.91,-19.2368],[-40.9353,-19.2226],[-40.9226,-19.204],[-40.941,-19.1805],[-40.9435,-19.1463],[-40.9621,-19.1394],[-40.9628,-19.1215],[-40.9619,-19.1032],[-40.9387,-19.0938],[-40.9496,-19.0792],[-40.9144,-19.0646],[-40.8963,-19.0452],[-40.8977,-19.0051],[-40.9156,-19.0107],[-40.925,-18.9999],[-40.9507,-19.0061],[-40.945,-18.9596],[-40.9483,-18.945],[-40.9165,-18.9407],[-40.9059,-18.9404],[-40.8578,-18.9403],[-40.8587,-19.0216],[-40.8151,-19.0149],[-40.7888,-19.0257],[-40.7857,-19.0101],[-40.7684,-18.9949],[-40.7575,-18.9984],[-40.7241,-19.0543],[-40.7035,-19.0609],[-40.7147,-19.0775],[-40.7131,-19.1082],[-40.6861,-19.1111],[-40.6991,-19.1326],[-40.6912,-19.1499]]]]}},{"type":"Feature","properties":{"codarea":"3204054","centroide":[-40.0369445044749,-18.182230759854836],"codigo_ibge":3204054,"nome_ig":"Espírito Santo"},"geometry":{"type":"MultiPolygon","coordinates":[[[[-39.9117,-18.179],[-39.9008,-18.2013],[-39.9008,-18.2013],[-39.9023,-18.2041],[-39.9023,-18.2041],[-39.902,-18.2057],[-39.902,-18.2057],[-39.9024,-18.2077],[-39.9024,-18.2077],[-39.9216,-18.2251],[-39.9216,-18.2251],[-39.9241,-18.227],[-39.9241,-18.227],[-39.9421,-18.2435],[-39.9268,-18.2557],[-39.9371,-18.2806],[-39.9201,-18.3148],[-39.9552,-18.3115],[-39.9652,-18.2976],[-39.9892,-18.2877],[-40.019,-18.2872],[-40.0308,-18.2938],[-40.0663,-18.2791],[-40.1235,-18.2787],[-40.1299,-18.2741],[-40.0906,-18.1799],[-40.1085,-18.1403],[-40.0996,-18.1314],[-40.1043,-18.0948],[-40.1718,-18.0576],[-40.185,-18.0325],[-40.2095,-18.021],[-40.2095,-18.021],[-40.2219,-17.9806],[-39.9117,-18.179]]]]}},{"type":"Feature","properties":{"codarea":"3204104","centroide":[-40.19788426913556,-18.370191631993315],"codigo_ibge":3204104,"nome_ig":"Espírito Santo"},"geometry":{"type":"MultiPolygon","coordinates":[[[[-40.4258,-18.2571],[-40.4242,-18.2562],[-40.4242,-18.2562],[-40.3981,-18.2553],[-40.3899,-18.2735],[-40.3548,-18.2801],[-40.3548,-18.2801],[-40.3193,-18.3065],[-40.2934,-18.3122],[-40.2776,-18.3072],[-40.2502,-18.3202],[-40.2454,-18.3106],[-40.2239,-18.315],[-40.211,-18.2898],[-40.1976,-18.2978],[-40.1479,-18.2863],[-40.1299,-18.2741],[-40.1235,-18.2787],[-40.0663,-18.2791],[-40.0308,-18.2938],[-40.019,-18.2872],[-39.9892,-18.2877],[-39.9652,-18.2976],[-39.9552,-18.3115],[-39.9586,-18.3467],[-39.9368,-18.4119],[-39.9514,-18.4285],[-39.974,-18.4375],[-40.002,-18.4323],[-40.0298,-18.4441],[-40.0572,-18.4592],[-40.0572,-18.4592],[-40.0792,-18.4821],[-40.1245,-18.4885],[-40.1766,-18.4714],[-40.2067,-18.4902],[-40.2391,-18.4957],[-40.2721,-18.4943],[-40.2886,-18.485],[-40.3188,-18.44],[-40.3307,-18.4],[-40.3548,-18.3781],[-40.4028,-18.3853],[-40.424,-18.3652],[-40.4436,-18.3621],[-40.4579,-18.3752],[-40.4862,-18.3663],[-40.4799,-18.2558],[-40.4609,-18.2472],[-40.4258,-18.2571]]]]}},{"type":"Feature","properties":{"codarea":"3204252","centroide":[-40.5136643548658,-18.250769127032317],"codigo_ibge":3204252,"nome_ig":"Espírito Santo"},"geometry":{"type":"MultiPolygon","coordinates":[[[[-40.4427,-18.125],[-40.4435,-18.1539],[-40.4226,-18.1813],[-40.4199,-18.211],[-40.4258,-18.2571],[-40.4609,-18.2472],[-40.4799,-18.2558],[-40.4862,-18.3663],[-40.487,-18.3773],[-40.4509,-18.4067],[-40.4516,-18.4136],[-40.4915,-18.4102],[-40.4972,-18.39],[-40.5097,-18.3903],[-40.5277,-18.365],[-40.5688,-18.3599],[-40.583,-18.3685],[-40.5738,-18.3449],[-40.5968,-18.3394],[-40.6092,-18.3239],[-40.6188,-18.2874],[-40.5531,-18.2266],[-40.5459,-18.1996],[-40.5562,-18.1766],[-40.5607,-18.1407],[-40.5417,-18.1133],[-40.5115,-18.1319],[-40.4846,-18.1327],[-40.4637,-18.1205],[-40.4427,-18.125]]]]}},{"type":"Feature","properties":{"codarea":"3204351","centroide":[-40.307989724121654,-19.22985772294774],"codigo_ibge":3204351,"nome_ig":"Espírito Santo"},"geometry":{"type":"MultiPolygon","coordinates":[[[[-40.2883,-19.0753],[-40.2517,-19.1003],[-40.2389,-19.1195],[-40.234,-19.1559],[-40.2008,-19.164],[-40.1917,-19.1923],[-40.1933,-19.2209],[-40.1814,-19.2433],[-40.2035,-19.3419],[-40.2727,-19.3687],[-40.2973,-19.3558],[-40.3032,-19.3151],[-40.3252,-19.3755],[-40.336,-19.3565],[-40.3642,-19.3519],[-40.3897,-19.3713],[-40.415,-19.3244],[-40.4312,-19.324],[-40.4118,-19.2653],[-40.4306,-19.258],[-40.4204,-19.2382],[-40.4191,-19.2109],[-40.4032,-19.1977],[-40.4126,-19.1878],[-40.3991,-19.1481],[-40.4103,-19.1489],[-40.3869,-19.1133],[-40.365,-19.0957],[-40.3748,-19.0793],[-40.3654,-19.0662],[-40.3466,-19.0832],[-40.3237,-19.0762],[-40.3045,-19.0841],[-40.2883,-19.0753]]]]}},{"type":"Feature","properties":{"codarea":"3204658","centroide":[-40.56606601485448,-19.12062304939646],"codigo_ibge":3204658,"nome_ig":"Espírito Santo"},"geometry":{"type":"MultiPolygon","coordinates":[[[[-40.4581,-19.0482],[-40.4443,-19.0514],[-40.4283,-19.0743],[-40.3969,-19.0844],[-40.3747,-19.0794],[-40.3868,-19.1029],[-40.4909,-19.11],[-40.5053,-19.1216],[-40.504,-19.1435],[-40.5126,-19.1533],[-40.5392,-19.141],[-40.5602,-19.1398],[-40.5698,-19.1642],[-40.6076,-19.1909],[-40.6186,-19.2093],[-40.6132,-19.2307],[-40.6198,-19.2437],[-40.6128,-19.2755],[-40.6303,-19.2413],[-40.6648,-19.23],[-40.6573,-19.2028],[-40.6684,-19.2041],[-40.655,-19.1789],[-40.6576,-19.1666],[-40.6912,-19.1499],[-40.6809,-19.1272],[-40.684,-19.1052],[-40.6584,-19.0995],[-40.6547,-19.0899],[-40.6165,-19.082],[-40.598,-19.0625],[-40.579,-19.0685],[-40.5561,-19.0459],[-40.5417,-19.0435],[-40.5089,-19.0602],[-40.4892,-19.0478],[-40.4581,-19.0482]]]]}},{"type":"Feature","properties":{"codarea":"3204708","centroide":[-40.50872853447148,-18.952386884683047],"codigo_ibge":3204708,"nome_ig":"Espírito Santo"},"geometry":{"type":"MultiPolygon","coordinates":[[[[-40.3729,-18.8497],[-40.3737,-18.9467],[-40.4053,-18.9457],[-40.4192,-18.96],[-40.4363,-18.9518],[-40.4644,-18.963],[-40.4638,-18.9907],[-40.446,-18.9885],[-40.4482,-19.0081],[-40.4345,-19.015],[-40.4581,-19.0482],[-40.4892,-19.0478],[-40.5089,-19.0602],[-40.5417,-19.0435],[-40.5561,-19.0459],[-40.5717,-19.0522],[-40.6164,-19.0414],[-40.6218,-19.0219],[-40.6373,-19.0267],[-40.6455,-19.013],[-40.634,-18.9872],[-40.6527,-18.9843],[-40.6454,-18.9693],[-40.6562,-18.9463],[-40.6337,-18.9366],[-40.6139,-18.9542],[-40.5929,-18.9341],[-40.573,-18.8938],[-40.5312,-18.8699],[-40.5161,-18.8764],[-40.5026,-18.8615],[-40.4727,-18.853],[-40.4442,-18.8542],[-40.4442,-18.8542],[-40.4016,-18.8509],[-40.3729,-18.8497]]]]}},{"type":"Feature","properties":{"codarea":"3204906","centroide":[-40.02185110748462,-18.748350426521252],"codigo_ibge":3204906,"nome_ig":"Espírito Santo"},"geometry":{"type":"MultiPolygon","coordinates":[[[[-39.7464,-18.7061],[-39.7503,-18.8417],[-39.7429,-18.931],[-39.7189,-19.097],[-39.7326,-19.0973],[-39.7411,-19.1489],[-39.8613,-18.9967],[-39.9014,-18.9589],[-39.9622,-18.8934],[-39.9661,-18.8806],[-39.9892,-18.8769],[-40.0078,-18.8941],[-40.0073,-18.8134],[-40.0501,-18.8115],[-40.0865,-18.803],[-40.1159,-18.775],[-40.1244,-18.7768],[-40.2077,-18.8844],[-40.2509,-18.864],[-40.2624,-18.8372],[-40.3242,-18.8506],[-40.3473,-18.8451],[-40.3729,-18.8497],[-40.4016,-18.8509],[-40.4055,-18.8344],[-40.3903,-18.8023],[-40.3945,-18.7817],[-40.3481,-18.7454],[-40.3364,-18.7258],[-40.2842,-18.5767],[-40.246,-18.5683],[-40.2204,-18.5861],[-40.2086,-18.5713],[-40.1674,-18.5461],[-40.1583,-18.5102],[-40.1245,-18.4885],[-40.0792,-18.4821],[-40.0572,-18.4592],[-40.0572,-18.4592],[-40.0298,-18.4441],[-39.9825,-18.5042],[-39.8357,-18.6827],[-39.8329,-18.6731],[-39.8088,-18.6745],[-39.8162,-18.6833],[-39.8132,-18.7211],[-39.7856,-18.7055],[-39.7464,-18.7061]]]]}},{"type":"Feature","properties":{"codarea":"3205010","centroide":[-40.1461481265872,-19.072486197287905],"codigo_ibge":3205010,"nome_ig":"Espírito Santo"},"geometry":{"type":"MultiPolygon","coordinates":[[[[-40.0025,-18.995],[-40.0233,-19.0386],[-39.9894,-19.047],[-40.0213,-19.0525],[-40.0347,-19.0613],[-40.0882,-19.1695],[-40.0531,-19.175],[-40.0372,-19.1851],[-40.0844,-19.2353],[-40.1044,-19.2088],[-40.1212,-19.2117],[-40.1179,-19.2294],[-40.1481,-19.2172],[-40.1566,-19.1939],[-40.1917,-19.1923],[-40.2008,-19.164],[-40.234,-19.1559],[-40.2389,-19.1195],[-40.2517,-19.1003],[-40.2883,-19.0753],[-40.2638,-19.0328],[-40.2063,-18.9066],[-40.186,-18.9386],[-40.1666,-18.9529],[-40.1117,-18.9679],[-40.0752,-18.9835],[-40.0588,-18.9818],[-40.0025,-18.995]]]]}},{"type":"Feature","properties":{"codarea":"3205150","centroide":[-40.62740248748204,-18.614634579536883],"codigo_ibge":3205150,"nome_ig":"Espírito Santo"},"geometry":{"type":"MultiPolygon","coordinates":[[[[-40.551,-18.4938],[-40.557,-18.5022],[-40.557,-18.5022],[-40.5659,-18.5154],[-40.5659,-18.5154],[-40.5667,-18.5481],[-40.5598,-18.5734],[-40.5344,-18.5921],[-40.5353,-18.607],[-40.5184,-18.6234],[-40.5005,-18.6214],[-40.4968,-18.6507],[-40.4853,-18.6547],[-40.5051,-18.6673],[-40.5197,-18.6661],[-40.5421,-18.6859],[-40.601,-18.7218],[-40.6414,-18.7248],[-40.6494,-18.7084],[-40.6687,-18.7022],[-40.6938,-18.7073],[-40.6992,-18.6953],[-40.6828,-18.6894],[-40.7231,-18.6782],[-40.7289,-18.6544],[-40.7215,-18.6045],[-40.7328,-18.5873],[-40.7464,-18.6011],[-40.7663,-18.5952],[-40.7649,-18.6126],[-40.7801,-18.6204],[-40.7941,-18.6137],[-40.7993,-18.583],[-40.7881,-18.5971],[-40.7693,-18.5941],[-40.7592,-18.577],[-40.7142,-18.5665],[-40.6709,-18.5308],[-40.6709,-18.5308],[-40.652,-18.5131],[-40.6335,-18.513],[-40.6184,-18.4976],[-40.5644,-18.4868],[-40.551,-18.4938]]]]}},{"type":"Feature","properties":{"codarea":"3205176","centroide":[-40.3301052692004,-18.967022981885595],"codigo_ibge":3205176,"nome_ig":"Espírito Santo"},"geometry":{"type":"MultiPolygon","coordinates":[[[[-40.2077,-18.8844],[-40.2063,-18.9066],[-40.2638,-19.0328],[-40.2883,-19.0753],[-40.3045,-19.0841],[-40.3237,-19.0762],[-40.3466,-19.0832],[-40.3654,-19.0662],[-40.3748,-19.0793],[-40.3747,-19.0794],[-40.3969,-19.0844],[-40.4283,-19.0743],[-40.4443,-19.0514],[-40.4581,-19.0482],[-40.4345,-19.015],[-40.4482,-19.0081],[-40.446,-18.9885],[-40.4638,-18.9907],[-40.4644,-18.963],[-40.4363,-18.9518],[-40.4192,-18.96],[-40.4053,-18.9457],[-40.3737,-18.9467],[-40.3729,-18.8497],[-40.3473,-18.8451],[-40.3242,-18.8506],[-40.2624,-18.8372],[-40.2509,-18.864],[-40.2077,-18.8844]]]]}}]}