{"type":"FeatureCollection","features":[{"type":"Feature","properties":{"codarea":"4307906","centroide":[-51.365943780427024,-29.209868363946693],"codigo_ibge":4307906,"nome_ig":"Farroupilha"},"geometry":{"type":"Polygon","coordinates":[[[-51.2928,-29.1134],[-51.2938,-29.1939],[-51.2885,-29.1937],[-51.2886,-29.2454],[-51.2657,-29.2458],[-51.2667,-29.295],[-51.2697,-29.3128],[-51.2987,-29.3175],[-51.3364,-29.3329],[-51.3544,-29.3331],[-51.354,-29.2913],[-51.4406,-29.2913],[-51.4405,-29.2707],[-51.459,-29.271],[-51.4589,-29.254],[-51.4901,-29.2604],[-51.4921,-29.1983],[-51.3907,-29.197],[-51.3884,-29.156],[-51.4231,-29.1561],[-51.4232,-29.1271],[-51.4115,-29.1272],[-51.4128,-29.0874],[-51.4256,-29.0876],[-51.422,-29.0601],[-51.4033,-29.0561],[-51.3705,-29.0691],[-51.3575,-29.1037],[-51.3431,-29.1145],[-51.2928,-29.1134]]]}}]}