{"type":"FeatureCollection","features":[{"type":"Feature","properties":{"codarea":"1200302","centroide":[-70.74473585499729,-8.924316322871123],"codigo_ibge":1200302,"nome_ig":"Feijó"},"geometry":{"type":"Polygon","coordinates":[[[-69.8017,-8.0611],[-69.4443,-8.3664],[-69.4496,-8.3958],[-69.48,-8.4224],[-69.5117,-8.4687],[-69.5116,-8.4949],[-69.5531,-8.5715],[-69.5508,-8.5852],[-69.5673,-8.6125],[-69.5712,-8.6426],[-69.5812,-8.6536],[-69.6074,-8.662],[-69.6282,-8.6814],[-69.6595,-8.6819],[-69.7258,-8.7636],[-69.7631,-8.7849],[-69.795,-8.8402],[-69.8263,-8.9205],[-69.8396,-8.9442],[-69.8651,-8.9574],[-70.09,-8.9736],[-70.1935,-8.9674],[-70.3189,-8.9636],[-70.365,-8.9824],[-70.4027,-9.0182],[-70.4371,-9.0855],[-70.4529,-9.1037],[-70.4988,-9.1067],[-70.5276,-9.1382],[-70.572,-9.2131],[-70.6272,-9.2701],[-70.6291,-9.3063],[-70.6395,-9.3129],[-70.6314,-9.3768],[-70.6934,-9.3716],[-70.7346,-9.4155],[-70.7704,-9.422],[-70.7907,-9.4488],[-70.8558,-9.4488],[-70.9025,-9.5076],[-70.951,-9.5359],[-70.9568,-9.5862],[-71.0454,-9.6424],[-71.0792,-9.7],[-71.0887,-9.7399],[-71.1017,-9.7505],[-71.0893,-9.7788],[-71.1003,-9.8159],[-71.0777,-9.8277],[-71.1022,-9.8516],[-71.1275,-9.8518],[-71.163,-9.8753],[-71.1813,-9.9174],[-71.2057,-9.9471],[-71.2108,-9.9663],[-71.2466,-9.962],[-71.2591,-9.978],[-71.3177,-9.9912],[-71.3388,-9.9719],[-71.3529,-9.9765],[-71.3774,-9.9999],[-72.1804,-9.9999],[-72.1806,-9.9847],[-72.1558,-9.9604],[-72.174,-9.9215],[-72.1406,-9.8775],[-72.1522,-9.8652],[-72.155,-9.8421],[-72.1654,-9.828],[-72.1529,-9.7967],[-72.1105,-9.7629],[-72.0349,-9.7431],[-72.0386,-9.7666],[-72.0084,-9.7539],[-71.9916,-9.7166],[-71.9526,-9.7139],[-71.9292,-9.7222],[-71.92,-9.6855],[-71.8843,-9.6672],[-71.8848,-9.6529],[-71.8697,-9.6367],[-71.8357,-9.6222],[-71.8396,-9.6027],[-71.8061,-9.5632],[-71.8076,-9.5294],[-71.793,-9.5199],[-71.8024,-9.5047],[-71.7909,-9.4832],[-71.7581,-9.4703],[-71.7504,-9.4502],[-71.7359,-9.4483],[-71.7234,-9.426],[-71.7257,-9.3788],[-71.732,-9.3736],[-71.7174,-9.3422],[-71.711,-9.3074],[-71.6934,-9.2804],[-71.7022,-9.274],[-71.6681,-9.2477],[-71.6496,-9.2397],[-71.6442,-9.2074],[-71.6151,-9.1869],[-71.6267,-9.1423],[-71.6049,-9.126],[-71.603,-9.1006],[-71.6112,-9.0815],[-71.5965,-9.0727],[-71.5985,-9.024],[-71.5985,-9.024],[-71.5712,-8.9805],[-71.5742,-8.9612],[-71.564,-8.9465],[-71.5383,-8.9373],[-71.5279,-8.9088],[-71.5102,-8.9063],[-71.4819,-8.8833],[-71.469,-8.8689],[-71.4411,-8.8692],[-71.4228,-8.8862],[-71.4178,-8.8777],[-71.3939,-8.8792],[-71.3717,-8.8954],[-71.3158,-8.8544],[-71.3107,-8.8636],[-71.2829,-8.8418],[-71.2698,-8.8513],[-71.2522,-8.8463],[-71.2414,-8.8551],[-71.2363,-8.8342],[-71.1934,-8.8051],[-71.1842,-8.8127],[-71.1733,-8.7882],[-71.1605,-8.7984],[-71.1478,-8.7835],[-71.1301,-8.7832],[-71.1068,-8.764],[-71.1022,-8.7764],[-71.0826,-8.7566],[-71.0633,-8.7527],[-71.0278,-8.7184],[-71.0064,-8.7138],[-71.0116,-8.6997],[-70.9801,-8.6698],[-70.9817,-8.655],[-70.9241,-8.599],[-70.9138,-8.6056],[-70.8912,-8.6404],[-70.8762,-8.6396],[-70.8579,-8.6699],[-70.8364,-8.6461],[-70.7839,-8.6399],[-70.7677,-8.6107],[-70.7422,-8.6091],[-70.7268,-8.5696],[-70.6884,-8.5231],[-70.7024,-8.4771],[-70.6529,-8.4664],[-70.676,-8.4378],[-70.6801,-8.3826],[-70.6249,-8.3406],[-70.6334,-8.3109],[-70.5858,-8.2305],[-70.5643,-8.2112],[-70.5804,-8.1958],[-70.5555,-8.1565],[-70.5782,-8.1159],[-70.5746,-8.1025],[-70.5774,-8.0543],[-70.5677,-8.0448],[-70.5944,-7.9929],[-70.6196,-7.992],[-70.6349,-7.975],[-70.646,-7.9469],[-70.6305,-7.9294],[-70.6381,-7.9178],[-70.6196,-7.9116],[-70.6202,-7.8936],[-70.6004,-7.8937],[-70.6076,-7.8746],[-70.5837,-7.8729],[-70.5774,-7.8416],[-70.5457,-7.8211],[-70.5465,-7.8087],[-70.5151,-7.7923],[-70.0549,-7.8451],[-69.8017,-8.0611]]]}}]}