{"type":"FeatureCollection","features":[{"type":"Feature","properties":{"codarea":"3516200","centroide":[-47.38132853226683,-20.554442110509832],"codigo_ibge":3516200,"nome_ig":"Franca"},"geometry":{"type":"MultiPolygon","coordinates":[[[[-47.2934,-20.4186],[-47.2927,-20.4477],[-47.2474,-20.4805],[-47.2234,-20.491],[-47.1798,-20.5129],[-47.1545,-20.5195],[-47.1441,-20.5408],[-47.1735,-20.5509],[-47.1765,-20.5412],[-47.1971,-20.5581],[-47.2217,-20.5613],[-47.2101,-20.5462],[-47.2398,-20.5233],[-47.2526,-20.5372],[-47.2675,-20.5376],[-47.2993,-20.5519],[-47.3001,-20.5365],[-47.3182,-20.5389],[-47.3154,-20.5663],[-47.3297,-20.5792],[-47.3331,-20.5983],[-47.3576,-20.6226],[-47.3495,-20.6737],[-47.3614,-20.6831],[-47.3668,-20.7125],[-47.4065,-20.7329],[-47.4455,-20.7385],[-47.4526,-20.7598],[-47.4701,-20.7698],[-47.4706,-20.7522],[-47.4885,-20.7512],[-47.5091,-20.7248],[-47.4883,-20.7195],[-47.4683,-20.6885],[-47.4119,-20.665],[-47.4205,-20.6444],[-47.3958,-20.6281],[-47.3982,-20.6141],[-47.4479,-20.6015],[-47.4496,-20.5778],[-47.4692,-20.5634],[-47.4818,-20.5695],[-47.497,-20.5552],[-47.5071,-20.5645],[-47.5286,-20.5627],[-47.5466,-20.5608],[-47.5408,-20.5276],[-47.5525,-20.5125],[-47.539,-20.4984],[-47.5088,-20.4881],[-47.5,-20.4563],[-47.4629,-20.4631],[-47.414,-20.4593],[-47.3924,-20.4363],[-47.3515,-20.4367],[-47.3384,-20.4257],[-47.2934,-20.4186]]]]}}]}