{"type":"FeatureCollection","features":[{"type":"Feature","properties":{"codarea":"3205309","centroide":[-40.29649864924364,-20.278985960570616],"codigo_ibge":3205309,"nome_ig":"Goiabeiras"},"geometry":{"type":"MultiPolygon","coordinates":[[[[-29.3027,-20.5157],[-29.3436,-20.5084],[-29.3334,-20.4864],[-29.2998,-20.5055],[-29.3027,-20.5157]]],[[[-28.8407,-20.4759],[-28.8407,-20.4759],[-28.8407,-20.4759],[-28.8407,-20.4759]]],[[[-28.8376,-20.4646],[-28.8376,-20.4646],[-28.8376,-20.4646],[-28.8376,-20.4646]]],[[[-28.8422,-20.4594],[-28.8422,-20.4594],[-28.8422,-20.4594],[-28.8422,-20.4594]]],[[[-40.2149,-20.2426],[-40.2342,-20.2757],[-40.2374,-20.2949],[-40.2539,-20.2683],[-40.268,-20.2672],[-40.2891,-20.2837],[-40.2896,-20.3027],[-40.2765,-20.3016],[-40.2744,-20.3199],[-40.2749,-20.3202],[-40.2749,-20.3202],[-40.2798,-20.3236],[-40.2799,-20.3236],[-40.2798,-20.3236],[-40.2799,-20.3236],[-40.2802,-20.3237],[-40.2802,-20.3237],[-40.2873,-20.3227],[-40.2873,-20.3227],[-40.2908,-20.3274],[-40.2908,-20.3274],[-40.3043,-20.3258],[-40.3043,-20.3258],[-40.3079,-20.3284],[-40.3079,-20.3284],[-40.3079,-20.3287],[-40.3079,-20.3287],[-40.3081,-20.3289],[-40.3081,-20.3289],[-40.3082,-20.3296],[-40.3082,-20.3296],[-40.3108,-20.3295],[-40.3108,-20.3295],[-40.3126,-20.3268],[-40.3126,-20.3268],[-40.3125,-20.3262],[-40.3125,-20.3262],[-40.3126,-20.3258],[-40.3126,-20.3258],[-40.3137,-20.3248],[-40.3137,-20.3248],[-40.3135,-20.3241],[-40.3135,-20.3241],[-40.3171,-20.3246],[-40.3171,-20.3246],[-40.3545,-20.3269],[-40.3608,-20.3038],[-40.3289,-20.2604],[-40.3292,-20.2392],[-40.221,-20.2389],[-40.2149,-20.2426]]]]}}]}