{"type":"FeatureCollection","features":[{"type":"Feature","properties":{"codarea":"4309100","centroide":[-50.897384312784254,-29.38603589270733],"codigo_ibge":4309100,"nome_ig":"Gramado"},"geometry":{"type":"Polygon","coordinates":[[[-50.8901,-29.2881],[-50.8543,-29.3071],[-50.8551,-29.3287],[-50.842,-29.3595],[-50.8549,-29.3839],[-50.8331,-29.4124],[-50.8198,-29.4128],[-50.8092,-29.4354],[-50.8011,-29.4494],[-50.8344,-29.4755],[-50.8683,-29.4765],[-50.8908,-29.496],[-50.9103,-29.5016],[-50.9097,-29.4509],[-50.9395,-29.4248],[-50.9565,-29.4257],[-50.9813,-29.3904],[-50.9551,-29.3748],[-50.9754,-29.3291],[-50.9854,-29.3207],[-50.9842,-29.3043],[-50.9686,-29.2983],[-50.948,-29.3111],[-50.9491,-29.2894],[-50.9259,-29.2912],[-50.9196,-29.3082],[-50.9094,-29.2875],[-50.8901,-29.2881]]]}}]}