{"type":"FeatureCollection","features":[{"type":"Feature","properties":{"codarea":"2307007","centroide":[-37.74881645121999,-4.866372047673143],"codigo_ibge":2307007,"nome_ig":"Jaguaruana"},"geometry":{"type":"MultiPolygon","coordinates":[[[[-37.6403,-4.9264],[-37.677,-5.0522],[-37.8207,-4.9837],[-37.8888,-4.9326],[-37.907,-4.9029],[-37.8821,-4.8483],[-37.8989,-4.8204],[-37.9349,-4.7639],[-37.8253,-4.7636],[-37.8252,-4.7437],[-37.792,-4.7309],[-37.7892,-4.7563],[-37.6162,-4.718],[-37.6115,-4.7682],[-37.5886,-4.8082],[-37.6403,-4.9264]]]]}}]}