{"type":"FeatureCollection","features":[{"type":"Feature","properties":{"codarea":"2306900","centroide":[-38.70553796853736,-5.961175067869381],"codigo_ibge":2306900,"nome_ig":"Jaguaribe"},"geometry":{"type":"MultiPolygon","coordinates":[[[[-38.4776,-5.7808],[-38.4773,-5.7808],[-38.4886,-5.8059],[-38.4765,-5.8242],[-38.4917,-5.8754],[-38.5096,-5.873],[-38.5131,-5.8905],[-38.4985,-5.916],[-38.4982,-5.9532],[-38.5151,-5.9804],[-38.5051,-5.9846],[-38.4904,-5.9584],[-38.4488,-5.9198],[-38.4558,-5.9468],[-38.4755,-5.9513],[-38.4876,-5.9667],[-38.5115,-6.0158],[-38.5267,-6.0346],[-38.5289,-6.0014],[-38.5441,-6.0523],[-38.5446,-6.0745],[-38.5612,-6.0899],[-38.5582,-6.1184],[-38.5662,-6.1154],[-38.588,-6.1666],[-38.6014,-6.1766],[-38.6172,-6.1691],[-38.655,-6.1846],[-38.6796,-6.2108],[-38.7251,-6.2012],[-38.7342,-6.1798],[-38.732,-6.1518],[-38.7109,-6.1104],[-38.7337,-6.1243],[-38.7459,-6.1115],[-38.7665,-6.124],[-38.7852,-6.1158],[-38.8009,-6.1217],[-38.8208,-6.1376],[-38.8218,-6.124],[-38.8526,-6.1381],[-38.8616,-6.1339],[-38.881,-6.1473],[-38.9044,-6.1396],[-38.907,-6.0869],[-38.9382,-6.079],[-38.9701,-6.0942],[-38.9722,-6.103],[-38.9647,-6.0295],[-38.9479,-5.9716],[-38.934,-5.9496],[-38.9201,-5.9499],[-38.8792,-5.8747],[-38.8815,-5.8612],[-38.8602,-5.8538],[-38.856,-5.8347],[-38.8405,-5.8329],[-38.837,-5.8134],[-38.8043,-5.7876],[-38.7636,-5.7846],[-38.7561,-5.7683],[-38.7098,-5.7602],[-38.6933,-5.7521],[-38.6811,-5.7462],[-38.5612,-5.7457],[-38.5352,-5.7516],[-38.4988,-5.7845],[-38.4776,-5.7808]]]]}}]}