{"type":"FeatureCollection","features":[{"type":"Feature","properties":{"codarea":"3203205","centroide":[-40.028202488891516,-19.38178812066023],"codigo_ibge":3203205,"nome_ig":"Linhares"},"geometry":{"type":"MultiPolygon","coordinates":[[[[-39.7411,-19.1489],[-39.7326,-19.0973],[-39.7189,-19.097],[-39.7101,-19.168],[-39.6914,-19.2733],[-39.6889,-19.3063],[-39.7018,-19.3893],[-39.7294,-19.4659],[-39.7807,-19.5812],[-39.8066,-19.6314],[-39.8076,-19.6485],[-39.8737,-19.6686],[-39.9116,-19.687],[-40.0313,-19.6069],[-40.0527,-19.583],[-40.0642,-19.5861],[-40.0855,-19.5653],[-40.1103,-19.5534],[-40.1672,-19.5532],[-40.1999,-19.5719],[-40.2033,-19.5829],[-40.2218,-19.5827],[-40.2577,-19.5996],[-40.2738,-19.6236],[-40.2813,-19.6188],[-40.296,-19.6419],[-40.3192,-19.6551],[-40.3341,-19.6417],[-40.3494,-19.6682],[-40.3585,-19.6701],[-40.3742,-19.6426],[-40.3764,-19.6225],[-40.3722,-19.5962],[-40.3892,-19.5742],[-40.3884,-19.5621],[-40.3706,-19.556],[-40.3735,-19.5361],[-40.393,-19.5098],[-40.4165,-19.5087],[-40.431,-19.4934],[-40.4349,-19.4629],[-40.4442,-19.4577],[-40.4334,-19.4358],[-40.457,-19.4164],[-40.4532,-19.4085],[-40.4766,-19.3851],[-40.48,-19.3645],[-40.5253,-19.3321],[-40.5089,-19.3129],[-40.4858,-19.2868],[-40.4713,-19.2933],[-40.4615,-19.2797],[-40.4435,-19.2915],[-40.4306,-19.258],[-40.4118,-19.2653],[-40.4312,-19.324],[-40.415,-19.3244],[-40.3897,-19.3713],[-40.3642,-19.3519],[-40.336,-19.3565],[-40.3252,-19.3755],[-40.3032,-19.3151],[-40.2973,-19.3558],[-40.2727,-19.3687],[-40.2035,-19.3419],[-40.1814,-19.2433],[-40.1933,-19.2209],[-40.1917,-19.1923],[-40.1566,-19.1939],[-40.1481,-19.2172],[-40.1179,-19.2294],[-40.1212,-19.2117],[-40.1044,-19.2088],[-40.0844,-19.2353],[-40.0372,-19.1851],[-40.0531,-19.175],[-40.0882,-19.1695],[-40.0347,-19.0613],[-40.0213,-19.0525],[-39.9894,-19.047],[-40.0233,-19.0386],[-40.0025,-18.995],[-39.9789,-19.0079],[-39.9748,-19.0212],[-39.9338,-19.0506],[-39.93,-19.0599],[-39.8813,-19.0472],[-39.8706,-19.0799],[-39.8848,-19.097],[-39.8741,-19.1119],[-39.8402,-19.1243],[-39.8247,-19.1393],[-39.7614,-19.1608],[-39.7411,-19.1489]]]]}}]}