{"type":"FeatureCollection","features":[{"type":"Feature","properties":{"codarea":"4310330","centroide":[-50.11762388630724,-29.93064040056483],"codigo_ibge":4310330,"nome_ig":"Litoral Norte Gaúcho"},"geometry":{"type":"Polygon","coordinates":[[[-50.1188,-29.9761],[-50.155,-29.9866],[-50.1537,-29.9654],[-50.1337,-29.9568],[-50.1321,-29.9345],[-50.1514,-29.9138],[-50.1198,-29.9021],[-50.109,-29.8845],[-50.0755,-29.8844],[-50.1188,-29.9761]]]}},{"type":"Feature","properties":{"codarea":"4313508","centroide":[-50.26813417416759,-29.916896599493718],"codigo_ibge":4313508,"nome_ig":"Litoral Norte Gaúcho"},"geometry":{"type":"Polygon","coordinates":[[[-50.1132,-29.7855],[-50.114,-29.8107],[-50.096,-29.8524],[-50.0634,-29.86],[-50.0755,-29.8844],[-50.109,-29.8845],[-50.1198,-29.9021],[-50.1514,-29.9138],[-50.1321,-29.9345],[-50.1337,-29.9568],[-50.1537,-29.9654],[-50.155,-29.9866],[-50.1847,-29.995],[-50.2296,-29.9669],[-50.2442,-29.9843],[-50.3068,-30.0213],[-50.326,-30.0362],[-50.3465,-30.039],[-50.3486,-30.0532],[-50.3669,-30.0758],[-50.3857,-30.095],[-50.4151,-30.1028],[-50.4565,-30.0517],[-50.465,-30.0285],[-50.4595,-30.0167],[-50.3991,-29.9717],[-50.386,-29.8848],[-50.3726,-29.884],[-50.3724,-29.8582],[-50.3557,-29.84],[-50.3513,-29.8486],[-50.3226,-29.8553],[-50.3089,-29.8481],[-50.2813,-29.8591],[-50.2761,-29.8347],[-50.2535,-29.8017],[-50.2559,-29.7571],[-50.2322,-29.7483],[-50.2231,-29.7256],[-50.1865,-29.7422],[-50.1819,-29.7786],[-50.1743,-29.7934],[-50.1544,-29.7955],[-50.1438,-29.8117],[-50.1413,-29.7817],[-50.1132,-29.7855]]]}},{"type":"Feature","properties":{"codarea":"4318507","centroide":[-51.66372029863231,-31.761015673781596],"codigo_ibge":4318507,"nome_ig":"Litoral Norte Gaúcho"},"geometry":{"type":"Polygon","coordinates":[[[-52.0789,-32.1426],[-52.0854,-32.1274],[-52.0598,-32.0796],[-52.0528,-32.0768],[-52.0398,-32.0293],[-52.0543,-31.9822],[-52.0174,-31.9663],[-52.0117,-31.9497],[-52.0268,-31.9156],[-52.0921,-31.8613],[-52.0976,-31.8347],[-52.0503,-31.8139],[-51.9899,-31.8247],[-51.9685,-31.8389],[-51.9084,-31.869],[-51.8787,-31.8725],[-51.8522,-31.8675],[-51.8102,-31.8417],[-51.8036,-31.8154],[-51.8653,-31.7993],[-51.8384,-31.7986],[-51.804,-31.7885],[-51.7433,-31.7885],[-51.6933,-31.7825],[-51.6646,-31.7709],[-51.6029,-31.7175],[-51.5484,-31.6505],[-51.5118,-31.5893],[-51.4743,-31.5595],[-51.4701,-31.5897],[-51.4368,-31.6166],[-51.4635,-31.5742],[-51.4593,-31.5288],[-51.443,-31.4952],[-51.4163,-31.4734],[-51.4099,-31.5126],[-51.3828,-31.5262],[-51.3607,-31.5292],[-51.3175,-31.5125],[-51.2953,-31.4949],[-51.2641,-31.4805],[-51.2383,-31.4581],[-51.1917,-31.496],[-51.2219,-31.5369],[-51.2503,-31.5673],[-51.4354,-31.7035],[-51.4903,-31.7384],[-51.5998,-31.7982],[-51.6599,-31.8285],[-51.6929,-31.8418],[-51.7729,-31.8839],[-51.8177,-31.9108],[-51.8941,-31.965],[-51.9423,-32.0066],[-52.0789,-32.1426]]]}}]}