{"type":"FeatureCollection","features":[{"type":"Feature","properties":{"codarea":"4210001","centroide":[-48.89016920080869,-26.726976959023013],"codigo_ibge":4210001,"nome_ig":"Luiz Alves"},"geometry":{"type":"MultiPolygon","coordinates":[[[[-48.8002,-26.679],[-48.8067,-26.6996],[-48.801,-26.7126],[-48.8181,-26.7407],[-48.822,-26.7585],[-48.81,-26.7696],[-48.8097,-26.7915],[-48.7947,-26.8049],[-48.8197,-26.8238],[-48.8977,-26.7621],[-48.9388,-26.7825],[-48.9705,-26.7898],[-48.9861,-26.8071],[-49.0007,-26.8017],[-48.999,-26.7872],[-49.0146,-26.7891],[-49.0305,-26.7777],[-49.0356,-26.7723],[-49.0141,-26.7628],[-49.0132,-26.7466],[-48.9969,-26.7479],[-48.9376,-26.6932],[-48.9181,-26.6452],[-48.8844,-26.6576],[-48.8794,-26.6406],[-48.8538,-26.6337],[-48.8342,-26.6295],[-48.8169,-26.6388],[-48.8152,-26.6571],[-48.8002,-26.679]]]]}}]}