{"type":"FeatureCollection","features":[{"type":"Feature","properties":{"codarea":"1300029","centroide":[-65.32485979891048,-3.69501396279467],"codigo_ibge":1300029,"nome_ig":"Mamirauá"},"geometry":{"type":"Polygon","coordinates":[[[-64.7849,-3.1587],[-64.7282,-3.2076],[-64.7031,-3.2218],[-64.6745,-3.2637],[-64.6791,-3.2799],[-64.7218,-3.2781],[-64.7223,-3.2931],[-64.7784,-3.3098],[-64.7988,-3.3375],[-64.8124,-3.3413],[-64.8453,-3.378],[-64.8858,-3.3926],[-64.8928,-3.4246],[-64.9224,-3.4529],[-64.9492,-3.4906],[-64.9715,-3.4889],[-64.9808,-3.5063],[-64.9622,-3.5368],[-64.9904,-3.5671],[-64.9911,-3.5893],[-64.9719,-3.6227],[-64.9976,-3.6377],[-65.0141,-3.6559],[-65.0378,-3.6643],[-65.0141,-3.686],[-65.03,-3.7272],[-65.0194,-3.7836],[-65.0512,-3.7946],[-65.0731,-3.7875],[-65.119,-3.8333],[-65.1281,-3.8549],[-65.1187,-3.8691],[-65.1571,-3.8877],[-65.1581,-3.9054],[-65.1963,-3.9132],[-65.2053,-3.9309],[-65.2252,-3.9332],[-65.2533,-3.9535],[-65.2774,-3.9498],[-65.2854,-3.964],[-65.311,-3.9653],[-65.3877,-4.0116],[-65.4055,-4.0311],[-65.4286,-4.0278],[-65.4434,-4.0385],[-65.48,-4.0505],[-65.516,-4.088],[-65.5852,-4.1143],[-65.6149,-4.1164],[-65.6441,-4.1295],[-65.6554,-4.1277],[-65.6688,-4.1551],[-65.6943,-4.1639],[-65.7328,-4.1949],[-65.7678,-4.2154],[-65.8167,-4.2216],[-65.8459,-4.2491],[-65.8726,-4.2526],[-65.9088,-4.2926],[-65.9254,-4.2609],[-65.916,-4.2172],[-65.9028,-4.1957],[-65.8659,-4.1697],[-65.8627,-4.1462],[-65.8701,-4.1328],[-65.8587,-4.0986],[-65.8424,-4.0783],[-65.8422,-4.0532],[-65.8557,-4.0308],[-65.8633,-3.9976],[-65.8554,-3.9578],[-65.8342,-3.9228],[-65.7973,-3.8816],[-65.797,-3.8609],[-65.784,-3.8378],[-65.724,-3.8075],[-65.7169,-3.7625],[-65.7073,-3.738],[-65.683,-3.7111],[-65.6586,-3.6926],[-65.6556,-3.6384],[-65.6295,-3.6202],[-65.6047,-3.6255],[-65.5511,-3.6275],[-65.5343,-3.6191],[-65.5026,-3.581],[-65.4745,-3.6004],[-65.4261,-3.5756],[-65.4046,-3.5374],[-65.3755,-3.5071],[-65.3322,-3.4891],[-65.2851,-3.4819],[-65.25,-3.4654],[-65.2075,-3.461],[-65.1665,-3.4269],[-65.1574,-3.3893],[-65.132,-3.3872],[-65.1082,-3.3605],[-65.0677,-3.302],[-65.0522,-3.2477],[-65.0477,-3.1941],[-65.0356,-3.1713],[-65.0072,-3.1388],[-64.9747,-3.0935],[-64.9739,-3.0565],[-64.9452,-3.0604],[-64.9147,-3.0771],[-64.8965,-3.0974],[-64.8682,-3.0964],[-64.826,-3.1122],[-64.8033,-3.1493],[-64.7849,-3.1587]]]}},{"type":"Feature","properties":{"codarea":"1301605","centroide":[-66.35785180350787,-2.491050070213205],"codigo_ibge":1301605,"nome_ig":"Mamirauá"},"geometry":{"type":"Polygon","coordinates":[[[-66.0013,-2.1448],[-65.9721,-2.1506],[-65.9574,-2.1637],[-65.947,-2.2335],[-65.9385,-2.2548],[-65.9025,-2.2599],[-65.9036,-2.2895],[-65.8962,-2.3054],[-65.8622,-2.2879],[-65.8508,-2.248],[-65.8299,-2.251],[-65.8101,-2.2671],[-65.8029,-2.2537],[-65.7634,-2.2559],[-65.7301,-2.264],[-65.6983,-2.26],[-65.6849,-2.2783],[-65.6635,-2.2756],[-65.6523,-2.2511],[-65.616,-2.2375],[-65.5851,-2.2549],[-65.6019,-2.2815],[-65.6283,-2.2907],[-65.6204,-2.3057],[-65.5954,-2.3158],[-65.6158,-2.3595],[-65.6088,-2.3831],[-65.5876,-2.3844],[-65.555,-2.3577],[-65.5366,-2.3628],[-65.5274,-2.3801],[-65.5046,-2.3887],[-65.485,-2.355],[-65.4904,-2.3456],[-65.5166,-2.3466],[-65.5187,-2.325],[-65.4886,-2.3198],[-65.4574,-2.33],[-65.458,-2.3492],[-65.475,-2.366],[-65.4721,-2.4008],[-65.4267,-2.3924],[-65.43,-2.3648],[-65.4158,-2.3514],[-65.3939,-2.3495],[-65.3795,-2.3591],[-65.3699,-2.3477],[-65.3717,-2.328],[-65.3533,-2.3428],[-65.3278,-2.3513],[-65.3094,-2.3364],[-65.3028,-2.3117],[-65.2801,-2.3166],[-65.2746,-2.3653],[-65.2553,-2.3825],[-65.276,-2.38],[-65.32,-2.3615],[-65.353,-2.3631],[-65.3747,-2.3721],[-65.3876,-2.4006],[-65.3536,-2.3939],[-65.3093,-2.4102],[-65.3134,-2.4359],[-65.3383,-2.4604],[-65.3401,-2.4738],[-65.3723,-2.4612],[-65.3911,-2.4455],[-65.3992,-2.47],[-65.4246,-2.4882],[-65.4508,-2.5163],[-65.4884,-2.5392],[-65.5087,-2.5641],[-65.5239,-2.6018],[-65.5576,-2.6339],[-65.5893,-2.6573],[-65.6148,-2.6625],[-65.6637,-2.6622],[-65.679,-2.6531],[-65.7141,-2.612],[-65.7138,-2.5641],[-65.7215,-2.5273],[-65.7407,-2.5066],[-65.7838,-2.4794],[-65.8174,-2.5003],[-65.8158,-2.5315],[-65.8006,-2.5641],[-65.7746,-2.5911],[-65.7534,-2.6301],[-65.7719,-2.6333],[-65.7943,-2.6169],[-65.8008,-2.5896],[-65.8302,-2.6058],[-65.844,-2.5947],[-65.8584,-2.6123],[-65.8823,-2.6154],[-65.8821,-2.5943],[-65.8958,-2.59],[-65.8972,-2.6088],[-65.9337,-2.6163],[-65.9465,-2.6072],[-65.9826,-2.6429],[-65.9873,-2.6755],[-66.0052,-2.6964],[-66.0177,-2.6929],[-66.0293,-2.7273],[-66.0531,-2.7249],[-66.0692,-2.7638],[-66.0713,-2.7912],[-66.09,-2.8131],[-66.1009,-2.8429],[-66.1158,-2.8525],[-66.1054,-2.8795],[-66.1252,-2.8958],[-66.1472,-2.9023],[-66.1676,-2.9273],[-66.171,-2.9534],[-66.1851,-2.9503],[-66.1959,-2.9704],[-66.1921,-2.9866],[-66.2066,-2.991],[-66.1986,-3.0101],[-66.2117,-3.0181],[-66.2068,-3.037],[-66.2193,-3.0541],[-66.2094,-3.0681],[-66.2413,-3.0933],[-66.2391,-3.1085],[-66.255,-3.1253],[-66.2926,-3.1285],[-66.3046,-3.1564],[-66.3354,-3.1614],[-66.342,-3.1444],[-66.3778,-3.1456],[-66.4143,-3.1309],[-66.4254,-3.1465],[-66.4598,-3.1307],[-66.4724,-3.1489],[-66.4954,-3.1403],[-66.5376,-3.1416],[-66.5603,-3.1513],[-66.5977,-3.1407],[-66.593,-3.1104],[-66.6104,-3.0835],[-66.6182,-3.0517],[-66.6104,-3.0295],[-66.5894,-2.9981],[-66.5961,-2.9783],[-66.6107,-2.9677],[-66.6218,-2.9436],[-66.6,-2.8985],[-66.57,-2.8865],[-66.5565,-2.852],[-66.5622,-2.8338],[-66.5936,-2.8026],[-66.5914,-2.7851],[-66.5617,-2.7703],[-66.5434,-2.7692],[-66.4894,-2.7421],[-66.4631,-2.6913],[-66.4467,-2.686],[-66.4123,-2.6904],[-66.393,-2.7155],[-66.3687,-2.7052],[-66.3499,-2.7204],[-66.2985,-2.7033],[-66.2858,-2.6918],[-66.29,-2.6782],[-66.3369,-2.6781],[-66.3659,-2.6568],[-66.3747,-2.6349],[-66.3375,-2.6005],[-66.3332,-2.5624],[-66.372,-2.556],[-66.3966,-2.5268],[-66.4035,-2.5065],[-66.402,-2.4317],[-66.4134,-2.403],[-66.447,-2.3897],[-66.5106,-2.3992],[-66.5613,-2.3988],[-66.5996,-2.3775],[-66.623,-2.3773],[-66.641,-2.3887],[-66.6482,-2.4219],[-66.635,-2.4672],[-66.6137,-2.5164],[-66.6171,-2.5536],[-66.5987,-2.5883],[-66.5982,-2.6084],[-66.6089,-2.6421],[-66.6236,-2.6571],[-66.6712,-2.6877],[-66.7305,-2.7181],[-66.7627,-2.7171],[-66.8032,-2.6832],[-66.834,-2.676],[-66.8561,-2.6618],[-66.8825,-2.6624],[-66.912,-2.6894],[-66.9219,-2.7153],[-66.9414,-2.7275],[-66.9757,-2.7282],[-67.0239,-2.7153],[-67.048,-2.6977],[-67.0518,-2.6798],[-67.0416,-2.645],[-67.0569,-2.6165],[-67.0814,-2.6071],[-67.1026,-2.61],[-67.1305,-2.6236],[-67.1733,-2.6051],[-67.2009,-2.5979],[-67.2129,-2.565],[-67.2117,-2.5355],[-67.2199,-2.5107],[-67.2457,-2.4756],[-67.2381,-2.4601],[-67.1932,-2.4079],[-67.1746,-2.4202],[-67.1717,-2.389],[-67.2025,-2.3357],[-67.2198,-2.3163],[-67.2525,-2.3029],[-67.2748,-2.3006],[-67.2419,-2.2652],[-67.2444,-2.2375],[-67.2703,-2.231],[-67.3093,-2.1731],[-67.2838,-2.1765],[-67.2637,-2.196],[-67.2315,-2.2051],[-67.2094,-2.2219],[-67.204,-2.2458],[-67.1683,-2.253],[-67.1326,-2.2474],[-67.1049,-2.2681],[-67.0785,-2.2741],[-67.041,-2.2568],[-67.015,-2.2513],[-66.969,-2.2512],[-66.9459,-2.2453],[-66.9217,-2.2295],[-66.8575,-2.2201],[-66.8257,-2.2005],[-66.791,-2.2024],[-66.7788,-2.1536],[-66.7622,-2.1495],[-66.7141,-2.1658],[-66.6661,-2.1461],[-66.6501,-2.1528],[-66.6211,-2.151],[-66.5998,-2.1178],[-66.5584,-2.1078],[-66.5291,-2.0643],[-66.5386,-2.0244],[-66.5338,-2],[-66.5188,-1.9794],[-66.46,-1.9343],[-66.4318,-1.9327],[-66.4101,-1.9715],[-66.405,-1.9958],[-66.3574,-2.0439],[-66.3373,-2.0563],[-66.3503,-2.067],[-66.3493,-2.0839],[-66.323,-2.0564],[-66.3111,-2.057],[-66.3165,-2.0385],[-66.3052,-2.0297],[-66.2651,-2.0236],[-66.2614,-2.032],[-66.2435,-2.0162],[-66.1766,-1.9863],[-66.164,-1.9854],[-66.1623,-2.0209],[-66.1531,-2.0346],[-66.1747,-2.032],[-66.174,-2.0631],[-66.1361,-2.075],[-66.1201,-2.0718],[-66.0898,-2.0783],[-66.0564,-2.0739],[-66.0395,-2.0872],[-66.0358,-2.1132],[-66.0182,-2.1415],[-66.0013,-2.1448]]]}},{"type":"Feature","properties":{"codarea":"1302108","centroide":[-68.32113638627382,-1.6971243338269055],"codigo_ibge":1302108,"nome_ig":"Mamirauá"},"geometry":{"type":"Polygon","coordinates":[[[-67.6495,-1.512],[-67.6167,-1.5665],[-67.6191,-1.5959],[-67.6085,-1.6122],[-67.59,-1.6169],[-67.5546,-1.6399],[-67.5266,-1.6509],[-67.4892,-1.6521],[-67.4388,-1.6407],[-67.3939,-1.6653],[-67.3857,-1.6643],[-67.3693,-1.6318],[-67.3438,-1.6183],[-67.3304,-1.6198],[-67.2862,-1.6096],[-67.2542,-1.6199],[-67.2148,-1.6089],[-67.1514,-1.6043],[-67.11,-1.5821],[-67.0497,-1.5817],[-67.0061,-1.5946],[-66.9731,-1.5909],[-66.9185,-1.6102],[-66.8821,-1.605],[-66.8526,-1.6077],[-66.8184,-1.5989],[-66.7752,-1.6016],[-66.7379,-1.624],[-66.7051,-1.6238],[-66.6574,-1.6014],[-66.6302,-1.5713],[-66.5518,-1.5363],[-66.4955,-1.5191],[-66.4531,-1.4787],[-66.4178,-1.4793],[-66.387,-1.4694],[-66.3637,-1.485],[-66.3721,-1.5332],[-66.3457,-1.5633],[-66.3168,-1.5692],[-66.2881,-1.5485],[-66.2686,-1.5194],[-66.2415,-1.4919],[-66.1928,-1.4723],[-66.1633,-1.4508],[-66.1241,-1.4305],[-66.0974,-1.423],[-66.0015,-1.4137],[-66.0013,-2.1448],[-66.0182,-2.1415],[-66.0358,-2.1132],[-66.0395,-2.0872],[-66.0564,-2.0739],[-66.0898,-2.0783],[-66.1201,-2.0718],[-66.1361,-2.075],[-66.174,-2.0631],[-66.1747,-2.032],[-66.1531,-2.0346],[-66.1623,-2.0209],[-66.164,-1.9854],[-66.1766,-1.9863],[-66.2435,-2.0162],[-66.2614,-2.032],[-66.2651,-2.0236],[-66.3052,-2.0297],[-66.3165,-2.0385],[-66.3111,-2.057],[-66.323,-2.0564],[-66.3493,-2.0839],[-66.3503,-2.067],[-66.3373,-2.0563],[-66.3574,-2.0439],[-66.405,-1.9958],[-66.4101,-1.9715],[-66.4318,-1.9327],[-66.46,-1.9343],[-66.5188,-1.9794],[-66.5338,-2],[-66.5386,-2.0244],[-66.5291,-2.0643],[-66.5584,-2.1078],[-66.5998,-2.1178],[-66.6211,-2.151],[-66.6501,-2.1528],[-66.6661,-2.1461],[-66.7141,-2.1658],[-66.7622,-2.1495],[-66.7788,-2.1536],[-66.791,-2.2024],[-66.8257,-2.2005],[-66.8575,-2.2201],[-66.9217,-2.2295],[-66.9459,-2.2453],[-66.969,-2.2512],[-67.015,-2.2513],[-67.041,-2.2568],[-67.0785,-2.2741],[-67.1049,-2.2681],[-67.1326,-2.2474],[-67.1683,-2.253],[-67.204,-2.2458],[-67.2094,-2.2219],[-67.2315,-2.2051],[-67.2637,-2.196],[-67.2838,-2.1765],[-67.3093,-2.1731],[-67.3348,-2.2092],[-67.3462,-2.2333],[-67.3381,-2.2573],[-67.3803,-2.2825],[-67.393,-2.3048],[-67.411,-2.3053],[-67.4651,-2.3378],[-67.4897,-2.3453],[-67.5208,-2.3695],[-67.542,-2.3723],[-67.5564,-2.3854],[-67.555,-2.4101],[-67.5647,-2.4287],[-67.5717,-2.4747],[-67.592,-2.4762],[-67.6044,-2.4881],[-67.6312,-2.4935],[-67.6411,-2.5612],[-67.6686,-2.5858],[-67.6944,-2.59],[-67.6978,-2.6056],[-67.7434,-2.633],[-67.7357,-2.6576],[-67.7532,-2.6856],[-67.7627,-2.7145],[-67.7965,-2.7082],[-67.8238,-2.733],[-67.8566,-2.7168],[-67.8684,-2.7028],[-67.897,-2.6899],[-67.9275,-2.6878],[-67.9512,-2.6681],[-67.969,-2.6891],[-68.0151,-2.6644],[-68.0235,-2.6474],[-68.0559,-2.609],[-68.0512,-2.5716],[-68.0586,-2.5539],[-68.0896,-2.5608],[-68.1094,-2.543],[-68.1739,-2.5542],[-68.1902,-2.5726],[-68.214,-2.5716],[-68.2447,-2.542],[-68.2895,-2.5298],[-68.3082,-2.53],[-68.3251,-2.5544],[-68.3381,-2.5961],[-68.3574,-2.6162],[-68.4026,-2.6196],[-68.4674,-2.598],[-68.4919,-2.5932],[-68.5084,-2.6023],[-68.5459,-2.6092],[-68.5627,-2.656],[-68.6126,-2.6467],[-68.6349,-2.6755],[-68.6533,-2.7118],[-68.6774,-2.7273],[-68.7029,-2.7338],[-68.7366,-2.7514],[-68.753,-2.7708],[-68.7756,-2.7819],[-68.8144,-2.7827],[-68.8403,-2.8058],[-68.8878,-2.7942],[-68.9347,-2.802],[-68.957,-2.816],[-68.973,-2.8111],[-69.0004,-2.7813],[-69.0294,-2.8028],[-69.0376,-2.8256],[-69.0568,-2.8409],[-69.0666,-2.8381],[-69.0948,-2.7866],[-69.1169,-2.7741],[-69.1275,-2.7475],[-69.1515,-2.7282],[-69.1734,-2.7358],[-69.1719,-2.706],[-69.1828,-2.681],[-69.1834,-2.6428],[-69.2045,-2.607],[-69.229,-2.6058],[-69.2392,-2.5934],[-69.3087,-2.6155],[-69.317,-2.5888],[-69.3458,-2.5515],[-69.3755,-2.5314],[-69.4418,-2.5311],[-69.4317,-2.4914],[-69.4704,-2.4743],[-69.5067,-2.4494],[-69.5959,-2.4396],[-69.6134,-2.4402],[-69.5344,-2.0005],[-69.4533,-1.5314],[-69.4574,-1.4934],[-69.4353,-1.4578],[-69.4371,-1.4174],[-69.4296,-1.3873],[-69.3999,-1.3707],[-69.4094,-1.3338],[-69.4111,-1.2817],[-69.4307,-1.2419],[-69.4303,-1.2246],[-69.4141,-1.1867],[-69.4132,-1.1577],[-69.3983,-1.1444],[-69.4008,-1.1139],[-69.425,-1.0836],[-69.4243,-1.0494],[-69.4434,-1.0366],[-69.421,-1.0122],[-69.4216,-1.0004],[-69.4501,-0.9982],[-69.4641,-0.9842],[-69.4635,-0.9673],[-69.5273,-0.9219],[-69.5232,-0.8862],[-69.5385,-0.8619],[-69.5737,-0.8422],[-69.5595,-0.8229],[-69.5742,-0.801],[-69.612,-0.7702],[-69.6263,-0.7497],[-69.6226,-0.7321],[-69.6038,-0.7217],[-69.5986,-0.6996],[-69.5642,-0.6398],[-69.5882,-0.6227],[-69.6049,-0.6],[-69.5932,-0.5676],[-69.6146,-0.5403],[-69.6111,-0.5134],[-69.6449,-0.483],[-69.7177,-0.4551],[-69.7392,-0.4404],[-69.7753,-0.4002],[-69.8235,-0.381],[-69.8448,-0.3457],[-69.8925,-0.3491],[-69.9231,-0.3315],[-69.9372,-0.3063],[-69.9638,-0.2849],[-69.9971,-0.2347],[-70.0574,-0.1867],[-70.0581,-0.1583],[-70.0416,-0.1241],[-70.0463,-0.021],[-70.0463,0.0683],[-69.9983,0.0593],[-69.9876,0.046],[-69.9892,0.0062],[-69.9845,-0.0057],[-69.9518,-0.0205],[-69.9418,-0.0853],[-69.9062,-0.1084],[-69.8834,-0.1433],[-69.8666,-0.1432],[-69.8481,-0.1232],[-69.8126,-0.1183],[-69.7979,-0.0813],[-69.7745,-0.0776],[-69.7554,-0.1066],[-69.7604,-0.1327],[-69.7479,-0.1599],[-69.7065,-0.172],[-69.6768,-0.1676],[-69.6601,-0.1754],[-69.6471,-0.1946],[-69.6041,-0.2208],[-69.6073,-0.278],[-69.6038,-0.3105],[-69.5751,-0.3342],[-69.5432,-0.3382],[-69.4876,-0.3714],[-69.4857,-0.401],[-69.4769,-0.4089],[-69.4574,-0.4021],[-69.4212,-0.4007],[-69.3743,-0.4386],[-69.354,-0.4771],[-69.3094,-0.4894],[-69.2953,-0.5101],[-69.2698,-0.5214],[-69.2189,-0.5115],[-69.181,-0.5237],[-69.1586,-0.5385],[-69.1175,-0.5339],[-69.1046,-0.5158],[-69.0634,-0.4997],[-69.0326,-0.5031],[-69.014,-0.4849],[-68.9833,-0.4885],[-68.96,-0.4775],[-68.9211,-0.4841],[-68.9075,-0.4962],[-68.8627,-0.5114],[-68.8427,-0.527],[-68.8203,-0.5278],[-68.7839,-0.5496],[-68.6974,-0.571],[-68.6922,-0.585],[-68.6605,-0.6241],[-68.6605,-0.6241],[-68.6251,-0.663],[-68.6206,-0.6982],[-68.5953,-0.7241],[-68.5762,-0.7267],[-68.5541,-0.7471],[-68.5039,-0.7573],[-68.4899,-0.7517],[-68.425,-0.7608],[-68.4046,-0.735],[-68.3609,-0.7331],[-68.3123,-0.6952],[-68.2996,-0.6987],[-68.2895,-0.6803],[-68.2647,-0.6802],[-68.2599,-0.6646],[-68.2495,-0.6762],[-68.2258,-0.6616],[-68.165,-0.6711],[-68.1611,-0.999],[-68.1606,-1.4834],[-68.1271,-1.4997],[-68.0888,-1.4987],[-68.0352,-1.4746],[-67.9929,-1.4795],[-67.9625,-1.4903],[-67.9341,-1.5126],[-67.9045,-1.5173],[-67.878,-1.5085],[-67.8538,-1.4895],[-67.8317,-1.4819],[-67.8004,-1.4867],[-67.7447,-1.522],[-67.7113,-1.5278],[-67.6495,-1.512]]]}},{"type":"Feature","properties":{"codarea":"1302207","centroide":[-66.30770508302184,-3.524407639465952],"codigo_ibge":1302207,"nome_ig":"Mamirauá"},"geometry":{"type":"Polygon","coordinates":[[[-65.3401,-2.4738],[-65.3145,-2.4766],[-65.2852,-2.525],[-65.2564,-2.5639],[-65.2541,-2.5848],[-65.2618,-2.6067],[-65.3125,-2.6382],[-65.3577,-2.649],[-65.3794,-2.6665],[-65.3862,-2.6872],[-65.3769,-2.7177],[-65.3531,-2.7583],[-65.3383,-2.7739],[-65.3461,-2.8198],[-65.3811,-2.854],[-65.4267,-2.8734],[-65.4492,-2.8552],[-65.4689,-2.8676],[-65.4971,-2.8589],[-65.5315,-2.8839],[-65.5598,-2.8885],[-65.5892,-2.8716],[-65.6043,-2.8902],[-65.6046,-2.9146],[-65.6147,-2.9288],[-65.6409,-2.9372],[-65.6574,-2.954],[-65.6782,-3.0003],[-65.7072,-3.0515],[-65.7319,-3.0763],[-65.7329,-3.0944],[-65.7523,-3.1563],[-65.7637,-3.1709],[-65.8023,-3.1837],[-65.8321,-3.2407],[-65.8394,-3.2674],[-65.869,-3.3042],[-65.8707,-3.3405],[-65.8871,-3.3623],[-65.9145,-3.3819],[-65.9214,-3.4177],[-65.9425,-3.4617],[-65.9781,-3.4873],[-65.9858,-3.5257],[-65.9845,-3.5665],[-65.9889,-3.5855],[-65.9921,-3.6503],[-65.9849,-3.6743],[-65.9932,-3.7102],[-65.9915,-3.728],[-65.9615,-3.731],[-65.9495,-3.7518],[-65.9829,-3.7934],[-65.9866,-3.8582],[-65.9809,-3.9027],[-65.9583,-3.9329],[-65.9482,-3.9577],[-65.9551,-3.9987],[-65.9436,-4.0176],[-65.9209,-4.0345],[-65.9063,-4.0694],[-65.8701,-4.1328],[-65.8627,-4.1462],[-65.8659,-4.1697],[-65.9028,-4.1957],[-65.916,-4.2172],[-65.9254,-4.2609],[-65.9088,-4.2926],[-65.9209,-4.3045],[-65.9501,-4.2946],[-66.0006,-4.297],[-66.932,-4.2956],[-66.9329,-4.2612],[-66.9155,-4.232],[-66.9223,-4.2197],[-66.9611,-4.201],[-66.9778,-4.1868],[-66.999,-4.1884],[-67.0043,-4.1762],[-67.0457,-4.1427],[-67.0643,-4.1217],[-67.0659,-4.0882],[-67.0754,-4.0587],[-67.1075,-4.0338],[-67.1232,-4.0375],[-67.1565,-4.0058],[-67.1712,-3.9824],[-67.1774,-3.9483],[-67.1982,-3.9204],[-67.187,-3.8778],[-67.1725,-3.8855],[-67.1355,-3.9327],[-67.1028,-3.9466],[-67.043,-3.9646],[-67.0038,-3.9867],[-67.0038,-3.9867],[-66.9874,-3.979],[-66.9795,-3.9535],[-66.9883,-3.9226],[-67.0088,-3.9031],[-67.0089,-3.8759],[-66.9885,-3.8553],[-66.971,-3.861],[-66.9684,-3.8347],[-66.9727,-3.7913],[-66.9797,-3.7757],[-66.9766,-3.7476],[-66.9892,-3.7077],[-66.9672,-3.6751],[-66.9415,-3.6554],[-66.9234,-3.625],[-66.9109,-3.5865],[-66.9151,-3.5715],[-66.9467,-3.5537],[-66.9982,-3.5486],[-67.0281,-3.529],[-67.0335,-3.5113],[-67.0269,-3.4838],[-67.0349,-3.4156],[-67.0236,-3.3936],[-66.9926,-3.373],[-66.9957,-3.3412],[-66.9674,-3.3275],[-66.9417,-3.3037],[-66.9347,-3.2783],[-66.9377,-3.2453],[-66.9068,-3.1657],[-66.8633,-3.1364],[-66.8318,-3.1423],[-66.8014,-3.1414],[-66.7759,-3.1681],[-66.7357,-3.1528],[-66.7003,-3.1633],[-66.6733,-3.1477],[-66.6588,-3.1509],[-66.6271,-3.1338],[-66.6241,-3.144],[-66.5977,-3.1407],[-66.5603,-3.1513],[-66.5376,-3.1416],[-66.4954,-3.1403],[-66.4724,-3.1489],[-66.4598,-3.1307],[-66.4254,-3.1465],[-66.4143,-3.1309],[-66.3778,-3.1456],[-66.342,-3.1444],[-66.3354,-3.1614],[-66.3046,-3.1564],[-66.2926,-3.1285],[-66.255,-3.1253],[-66.2391,-3.1085],[-66.2413,-3.0933],[-66.2094,-3.0681],[-66.2193,-3.0541],[-66.2068,-3.037],[-66.2117,-3.0181],[-66.1986,-3.0101],[-66.2066,-2.991],[-66.1921,-2.9866],[-66.1959,-2.9704],[-66.1851,-2.9503],[-66.171,-2.9534],[-66.1676,-2.9273],[-66.1472,-2.9023],[-66.1252,-2.8958],[-66.1054,-2.8795],[-66.1158,-2.8525],[-66.1009,-2.8429],[-66.09,-2.8131],[-66.0713,-2.7912],[-66.0692,-2.7638],[-66.0531,-2.7249],[-66.0293,-2.7273],[-66.0177,-2.6929],[-66.0052,-2.6964],[-65.9873,-2.6755],[-65.9826,-2.6429],[-65.9465,-2.6072],[-65.9337,-2.6163],[-65.8972,-2.6088],[-65.8958,-2.59],[-65.8821,-2.5943],[-65.8823,-2.6154],[-65.8584,-2.6123],[-65.844,-2.5947],[-65.8302,-2.6058],[-65.8008,-2.5896],[-65.7943,-2.6169],[-65.7719,-2.6333],[-65.7534,-2.6301],[-65.7746,-2.5911],[-65.8006,-2.5641],[-65.8158,-2.5315],[-65.8174,-2.5003],[-65.7838,-2.4794],[-65.7407,-2.5066],[-65.7215,-2.5273],[-65.7138,-2.5641],[-65.7141,-2.612],[-65.679,-2.6531],[-65.6637,-2.6622],[-65.6148,-2.6625],[-65.5893,-2.6573],[-65.5576,-2.6339],[-65.5239,-2.6018],[-65.5087,-2.5641],[-65.4884,-2.5392],[-65.4508,-2.5163],[-65.4246,-2.4882],[-65.3992,-2.47],[-65.3911,-2.4455],[-65.3723,-2.4612],[-65.3401,-2.4738]]]}},{"type":"Feature","properties":{"codarea":"1302306","centroide":[-68.40604786236996,-4.715224838449866],"codigo_ibge":1302306,"nome_ig":"Mamirauá"},"geometry":{"type":"Polygon","coordinates":[[[-66.5977,-3.1407],[-66.6241,-3.144],[-66.6271,-3.1338],[-66.6588,-3.1509],[-66.6733,-3.1477],[-66.7003,-3.1633],[-66.7357,-3.1528],[-66.7759,-3.1681],[-66.8014,-3.1414],[-66.8318,-3.1423],[-66.8633,-3.1364],[-66.9068,-3.1657],[-66.9377,-3.2453],[-66.9347,-3.2783],[-66.9417,-3.3037],[-66.9674,-3.3275],[-66.9957,-3.3412],[-66.9926,-3.373],[-67.0236,-3.3936],[-67.0349,-3.4156],[-67.0269,-3.4838],[-67.0335,-3.5113],[-67.0281,-3.529],[-66.9982,-3.5486],[-66.9467,-3.5537],[-66.9151,-3.5715],[-66.9109,-3.5865],[-66.9234,-3.625],[-66.9415,-3.6554],[-66.9672,-3.6751],[-66.9892,-3.7077],[-66.9766,-3.7476],[-66.9797,-3.7757],[-66.9727,-3.7913],[-66.9684,-3.8347],[-66.971,-3.861],[-66.9885,-3.8553],[-67.0089,-3.8759],[-67.0088,-3.9031],[-66.9883,-3.9226],[-66.9795,-3.9535],[-66.9874,-3.979],[-67.0038,-3.9867],[-67.0038,-3.9867],[-67.043,-3.9646],[-67.1028,-3.9466],[-67.1355,-3.9327],[-67.1725,-3.8855],[-67.187,-3.8778],[-67.1982,-3.9204],[-67.1774,-3.9483],[-67.1712,-3.9824],[-67.1565,-4.0058],[-67.1232,-4.0375],[-67.1075,-4.0338],[-67.0754,-4.0587],[-67.0659,-4.0882],[-67.0643,-4.1217],[-67.0457,-4.1427],[-67.0043,-4.1762],[-66.999,-4.1884],[-66.9778,-4.1868],[-66.9611,-4.201],[-66.9223,-4.2197],[-66.9155,-4.232],[-66.9329,-4.2612],[-66.932,-4.2956],[-66.9206,-4.3152],[-66.9186,-4.3368],[-66.8911,-4.3723],[-66.8873,-4.4275],[-66.8953,-4.436],[-66.8993,-4.4818],[-67.0314,-4.5104],[-67.0494,-4.5054],[-67.0488,-4.4895],[-67.128,-4.482],[-67.1469,-4.4931],[-67.149,-4.4837],[-67.2162,-4.4811],[-67.2417,-4.473],[-67.2423,-4.4623],[-67.2704,-4.448],[-67.269,-4.4571],[-67.2993,-4.4791],[-67.2869,-4.4875],[-67.3206,-4.5264],[-67.3315,-4.5158],[-67.3522,-4.5213],[-67.3562,-4.5547],[-67.3782,-4.5433],[-67.4068,-4.5144],[-67.4305,-4.5056],[-67.4768,-4.5129],[-67.4969,-4.5396],[-67.5441,-4.5384],[-67.5698,-4.5427],[-67.6035,-4.5903],[-67.612,-4.5919],[-67.6492,-4.5714],[-67.6813,-4.58],[-67.7101,-4.5976],[-67.7681,-4.6569],[-67.8134,-4.68],[-67.8522,-4.7294],[-67.8609,-4.7692],[-67.8728,-4.7804],[-67.9127,-4.7775],[-67.9447,-4.7813],[-67.9687,-4.7498],[-67.9866,-4.7619],[-67.9979,-4.7926],[-67.9932,-4.8423],[-68.0074,-4.8627],[-67.9947,-4.881],[-68.0032,-4.9094],[-67.9975,-4.9479],[-68.0289,-4.9662],[-68.049,-4.9928],[-68.0414,-5.0417],[-68.0624,-5.0668],[-68.0716,-5.0513],[-68.0921,-5.0471],[-68.0978,-5.0812],[-68.1135,-5.0872],[-68.1344,-5.1164],[-68.1605,-5.1392],[-68.1719,-5.1635],[-68.1698,-5.1811],[-68.1898,-5.1979],[-68.2008,-5.2206],[-68.1952,-5.2821],[-68.2045,-5.2997],[-68.2228,-5.3673],[-68.2094,-5.3975],[-68.2181,-5.4485],[-68.205,-5.4586],[-68.2203,-5.4782],[-68.2363,-5.4742],[-68.2743,-5.503],[-68.2603,-5.521],[-68.2732,-5.575],[-68.2341,-5.5873],[-68.276,-5.6381],[-68.2816,-5.6537],[-68.232,-5.6864],[-68.2266,-5.7101],[-68.2496,-5.7576],[-68.2186,-5.8058],[-68.2247,-5.8228],[-68.2097,-5.8692],[-68.2146,-5.9252],[-68.2472,-5.9245],[-68.2661,-5.9074],[-68.2958,-5.9222],[-68.3128,-5.9586],[-68.298,-6.0077],[-68.3054,-6.0509],[-68.3066,-6.0613],[-68.3444,-6.0816],[-68.3686,-6.0843],[-68.3727,-6.1091],[-68.4186,-6.1432],[-68.4326,-6.1645],[-68.4508,-6.1641],[-68.4637,-6.1758],[-68.4876,-6.1789],[-68.5107,-6.1938],[-68.5438,-6.1956],[-68.5547,-6.2086],[-68.573,-6.2085],[-68.5866,-6.2297],[-68.602,-6.2357],[-68.6094,-6.263],[-68.6305,-6.2689],[-68.6816,-6.3069],[-68.6866,-6.3222],[-68.6738,-6.329],[-68.6825,-6.3549],[-68.666,-6.3712],[-68.6635,-6.4049],[-68.6941,-6.4067],[-68.7406,-6.4254],[-68.7552,-6.4154],[-68.7525,-6.3986],[-68.7691,-6.4013],[-68.8092,-6.3891],[-68.8107,-6.4118],[-68.8233,-6.4245],[-68.8793,-6.4169],[-68.8727,-6.4027],[-68.8868,-6.3912],[-68.9023,-6.3623],[-68.9169,-6.3715],[-68.9474,-6.3755],[-68.9947,-6.3594],[-69.0187,-6.3894],[-69.0368,-6.3986],[-69.0912,-6.3704],[-69.1108,-6.3721],[-69.1576,-6.418],[-69.1808,-6.4052],[-69.2174,-6.4323],[-69.234,-6.4285],[-69.237,-6.4131],[-69.2165,-6.3804],[-69.2104,-6.3451],[-69.2157,-6.3352],[-69.2681,-6.2842],[-69.2836,-6.2836],[-69.3118,-6.3066],[-69.3238,-6.3486],[-69.3335,-6.3613],[-69.3456,-6.3636],[-69.3949,-6.3559],[-69.4134,-6.3572],[-69.487,-6.3889],[-69.5088,-6.4042],[-69.5326,-6.4573],[-69.5485,-6.4679],[-69.5885,-6.4608],[-69.6077,-6.4383],[-69.6511,-6.4284],[-69.6868,-6.4338],[-69.7016,-6.4226],[-69.7684,-6.4393],[-69.7828,-6.4498],[-69.7965,-6.474],[-69.7945,-6.5279],[-69.8088,-6.5651],[-69.8332,-6.57],[-69.8562,-6.5507],[-69.8867,-6.5438],[-69.9105,-6.5482],[-69.9328,-6.5809],[-69.9531,-6.5696],[-69.9823,-6.5635],[-70.0149,-6.589],[-70.0217,-6.5721],[-70.04,-6.5638],[-70.0531,-6.5729],[-70.0515,-6.5916],[-70.0824,-6.6016],[-70.092,-6.6319],[-70.1434,-6.6084],[-70.1943,-6.6121],[-70.2056,-6.5868],[-70.2304,-6.5913],[-70.2456,-6.6025],[-70.2613,-6.6347],[-70.2768,-6.637],[-70.2878,-6.6093],[-70.2961,-6.6101],[-70.3081,-6.6354],[-70.368,-6.645],[-70.3749,-6.6173],[-70.4165,-6.609],[-70.4197,-6.5797],[-70.4411,-6.5662],[-70.4901,-6.5776],[-70.5364,-6.5629],[-70.5513,-6.5429],[-70.5718,-6.5345],[-70.5718,-6.5049],[-70.5647,-6.4847],[-70.5326,-6.4574],[-70.5005,-6.4093],[-70.4702,-6.4013],[-70.4625,-6.3853],[-70.4217,-6.3715],[-70.4044,-6.3754],[-70.4022,-6.3577],[-70.3854,-6.3342],[-70.3853,-6.3136],[-70.3652,-6.2933],[-70.3489,-6.2903],[-70.3377,-6.3067],[-70.3058,-6.2938],[-70.2877,-6.2749],[-70.2617,-6.2672],[-70.2295,-6.2441],[-70.2055,-6.2417],[-70.1875,-6.2219],[-70.1671,-6.2151],[-70.1343,-6.1567],[-70.1238,-6.1506],[-70.1166,-6.1246],[-70.1271,-6.1014],[-70.1139,-6.0806],[-70.1112,-6.0496],[-70.0794,-6.0344],[-70.0265,-5.9896],[-69.9991,-5.9417],[-70.0011,-5.9223],[-70.0137,-5.9178],[-70.0143,-5.8838],[-70.0008,-5.866],[-69.9812,-5.7886],[-69.9479,-5.7608],[-69.9225,-5.7568],[-69.9043,-5.7063],[-69.9046,-5.6663],[-69.9201,-5.6433],[-69.9164,-5.6247],[-69.8831,-5.6169],[-69.8801,-5.6039],[-69.8939,-5.5579],[-69.8943,-5.5412],[-69.8715,-5.5113],[-69.8545,-5.5059],[-69.8585,-5.475],[-69.884,-5.4401],[-69.9013,-5.4033],[-69.9256,-5.3947],[-69.9298,-5.3696],[-69.9067,-5.3559],[-69.8814,-5.3543],[-69.8509,-5.3424],[-69.794,-5.35],[-69.7843,-5.3464],[-69.7884,-5.3113],[-69.7829,-5.2869],[-69.756,-5.2786],[-69.7426,-5.2652],[-69.7007,-5.2583],[-69.6912,-5.2407],[-69.6558,-5.2389],[-69.5941,-5.2068],[-69.5672,-5.21],[-69.576,-5.2385],[-69.5477,-5.2443],[-69.5333,-5.219],[-69.5313,-5.1774],[-69.5201,-5.1499],[-69.4788,-5.1293],[-69.4671,-5.1155],[-69.4578,-5.084],[-69.4271,-5.0388],[-69.4233,-5.0005],[-69.4341,-4.9794],[-69.417,-4.9635],[-69.3872,-4.9894],[-69.3598,-4.9817],[-69.3441,-4.9648],[-69.3159,-4.9061],[-69.2905,-4.8803],[-69.2827,-4.852],[-69.2668,-4.8356],[-69.2221,-4.8041],[-69.1814,-4.7947],[-69.1656,-4.772],[-69.1621,-4.7365],[-69.149,-4.7191],[-69.1219,-4.7234],[-69.0913,-4.6658],[-69.0836,-4.6206],[-69.0655,-4.5969],[-69.0398,-4.5783],[-69.0279,-4.5246],[-69.0287,-4.412],[-69.0234,-4.3674],[-69.0121,-4.3446],[-68.9425,-4.3263],[-68.9361,-4.2743],[-68.9512,-4.2333],[-68.9507,-4.2086],[-68.9356,-4.1691],[-68.9207,-4.1471],[-68.9105,-4.1063],[-68.8898,-4.0937],[-68.8802,-4.0704],[-68.8579,-4.0607],[-68.8376,-4.0253],[-68.8281,-3.9843],[-68.8156,-3.9544],[-68.8148,-3.9281],[-68.8354,-3.9119],[-68.8392,-3.8874],[-68.8207,-3.8592],[-68.8326,-3.8269],[-68.8188,-3.7967],[-68.8276,-3.7601],[-68.8249,-3.7439],[-68.8089,-3.7355],[-68.7971,-3.7503],[-68.7711,-3.747],[-68.7601,-3.7057],[-68.745,-3.6997],[-68.6944,-3.7015],[-68.6675,-3.7077],[-68.6246,-3.6921],[-68.6099,-3.6837],[-68.6013,-3.6612],[-68.5783,-3.649],[-68.5563,-3.674],[-68.5348,-3.688],[-68.5084,-3.7229],[-68.4583,-3.7548],[-68.4471,-3.775],[-68.4157,-3.7714],[-68.4031,-3.7623],[-68.3837,-3.7232],[-68.3354,-3.7261],[-68.3064,-3.707],[-68.2844,-3.7069],[-68.256,-3.6937],[-68.2109,-3.7208],[-68.1964,-3.7612],[-68.1819,-3.7705],[-68.1057,-3.7645],[-68.0901,-3.7528],[-68.0556,-3.7491],[-68.0356,-3.7348],[-68.0404,-3.7112],[-68.0343,-3.6857],[-68.0374,-3.6394],[-68.0247,-3.5974],[-68.0099,-3.589],[-68.0047,-3.5715],[-68.0127,-3.5582],[-68.0314,-3.5532],[-68.0473,-3.5325],[-68.0298,-3.4909],[-68.0295,-3.4649],[-68.0682,-3.4366],[-68.0636,-3.4145],[-67.994,-3.4197],[-67.9641,-3.4314],[-67.9123,-3.4224],[-67.8914,-3.4065],[-67.8674,-3.4062],[-67.8454,-3.3814],[-67.8513,-3.3495],[-67.834,-3.3343],[-67.8279,-3.3265],[-67.834,-3.3012],[-67.8312,-3.2565],[-67.81,-3.1979],[-67.8055,-3.1726],[-67.7917,-3.1451],[-67.7892,-3.1113],[-67.7776,-3.0641],[-67.7661,-2.9971],[-67.7549,-2.9718],[-67.7428,-2.9336],[-67.7107,-2.9038],[-67.6894,-2.8953],[-67.6625,-2.8953],[-67.645,-2.9063],[-67.6063,-2.9425],[-67.5841,-2.926],[-67.5752,-2.8929],[-67.5331,-2.8895],[-67.5274,-2.8813],[-67.4875,-2.8773],[-67.4619,-2.8689],[-67.44,-2.8915],[-67.4235,-2.8921],[-67.3834,-2.8784],[-67.3512,-2.8791],[-67.3407,-2.8595],[-67.306,-2.8838],[-67.2909,-2.8833],[-67.291,-2.5423],[-67.2574,-2.5545],[-67.2435,-2.5896],[-67.2368,-2.6395],[-67.2186,-2.6791],[-67.1914,-2.6894],[-67.1618,-2.6796],[-67.1437,-2.6538],[-67.1305,-2.6236],[-67.1026,-2.61],[-67.0814,-2.6071],[-67.0569,-2.6165],[-67.0416,-2.645],[-67.0518,-2.6798],[-67.048,-2.6977],[-67.0239,-2.7153],[-66.9757,-2.7282],[-66.9414,-2.7275],[-66.9219,-2.7153],[-66.912,-2.6894],[-66.8825,-2.6624],[-66.8561,-2.6618],[-66.834,-2.676],[-66.8032,-2.6832],[-66.7627,-2.7171],[-66.7305,-2.7181],[-66.6712,-2.6877],[-66.6236,-2.6571],[-66.6089,-2.6421],[-66.5982,-2.6084],[-66.5987,-2.5883],[-66.6171,-2.5536],[-66.6137,-2.5164],[-66.635,-2.4672],[-66.6482,-2.4219],[-66.641,-2.3887],[-66.623,-2.3773],[-66.5996,-2.3775],[-66.5613,-2.3988],[-66.5106,-2.3992],[-66.447,-2.3897],[-66.4134,-2.403],[-66.402,-2.4317],[-66.4035,-2.5065],[-66.3966,-2.5268],[-66.372,-2.556],[-66.3332,-2.5624],[-66.3375,-2.6005],[-66.3747,-2.6349],[-66.3659,-2.6568],[-66.3369,-2.6781],[-66.29,-2.6782],[-66.2858,-2.6918],[-66.2985,-2.7033],[-66.3499,-2.7204],[-66.3687,-2.7052],[-66.393,-2.7155],[-66.4123,-2.6904],[-66.4467,-2.686],[-66.4631,-2.6913],[-66.4894,-2.7421],[-66.5434,-2.7692],[-66.5617,-2.7703],[-66.5914,-2.7851],[-66.5936,-2.8026],[-66.5622,-2.8338],[-66.5565,-2.852],[-66.57,-2.8865],[-66.6,-2.8985],[-66.6218,-2.9436],[-66.6107,-2.9677],[-66.5961,-2.9783],[-66.5894,-2.9981],[-66.6104,-3.0295],[-66.6182,-3.0517],[-66.6104,-3.0835],[-66.593,-3.1104],[-66.5977,-3.1407]]]}},{"type":"Feature","properties":{"codarea":"1302801","centroide":[-65.03934677870004,-2.4269294595514896],"codigo_ibge":1302801,"nome_ig":"Mamirauá"},"geometry":{"type":"Polygon","coordinates":[[[-65.3111,-1.7785],[-65.2908,-1.7857],[-65.2291,-1.7759],[-65.2093,-1.7818],[-65.187,-1.8106],[-65.1771,-1.8477],[-65.1831,-1.937],[-65.1714,-1.9597],[-65.1363,-1.9747],[-65.0849,-1.9618],[-65.058,-1.9696],[-65.0415,-1.9533],[-65.0202,-1.9131],[-64.9735,-1.887],[-64.9437,-1.887],[-64.9343,-1.8996],[-64.9496,-2.0003],[-64.9282,-2.0264],[-64.9249,-2.0447],[-64.9359,-2.0942],[-64.9306,-2.11],[-64.8867,-2.1001],[-64.8669,-2.0803],[-64.8028,-2.0733],[-64.7869,-2.0468],[-64.7504,-2.0361],[-64.722,-2.0184],[-64.7044,-2.0196],[-64.6879,-2.0576],[-64.6947,-2.0896],[-64.7083,-2.1197],[-64.7118,-2.1424],[-64.701,-2.163],[-64.6659,-2.1946],[-64.6633,-2.2142],[-64.6449,-2.2121],[-64.616,-2.2413],[-64.6061,-2.2252],[-64.5902,-2.2234],[-64.5708,-2.2365],[-64.5335,-2.2453],[-64.5117,-2.2354],[-64.5039,-2.1917],[-64.4965,-2.1805],[-64.4625,-2.1854],[-64.4076,-2.2078],[-64.3673,-2.2534],[-64.3672,-2.2651],[-64.4029,-2.2713],[-64.4171,-2.2844],[-64.4503,-2.2837],[-64.448,-2.3239],[-64.5184,-2.312],[-64.5293,-2.3367],[-64.5181,-2.3772],[-64.4918,-2.43],[-64.4903,-2.4602],[-64.4613,-2.4708],[-64.4574,-2.4881],[-64.4649,-2.5223],[-64.4347,-2.5521],[-64.4374,-2.5726],[-64.4203,-2.6073],[-64.4253,-2.6391],[-64.3833,-2.6494],[-64.3587,-2.6495],[-64.339,-2.671],[-64.3376,-2.6926],[-64.3574,-2.7189],[-64.384,-2.7152],[-64.4187,-2.7183],[-64.428,-2.7344],[-64.4517,-2.7389],[-64.5031,-2.7382],[-64.4968,-2.7934],[-64.4757,-2.8003],[-64.4565,-2.8459],[-64.4427,-2.8498],[-64.4523,-2.8894],[-64.4428,-2.9174],[-64.4482,-2.9246],[-64.4359,-2.9478],[-64.4045,-2.9623],[-64.4052,-2.9739],[-64.373,-2.9927],[-64.362,-3.0121],[-64.3305,-3.0268],[-64.3402,-3.0398],[-64.3289,-3.0577],[-64.3276,-3.0903],[-64.2934,-3.1005],[-64.2881,-3.0863],[-64.2708,-3.0818],[-64.2688,-3.0982],[-64.2547,-3.0893],[-64.2454,-3.1026],[-64.2693,-3.1078],[-64.2732,-3.1379],[-64.2825,-3.1318],[-64.2913,-3.1517],[-64.2547,-3.1703],[-64.2508,-3.1858],[-64.2374,-3.1876],[-64.2374,-3.2033],[-64.217,-3.2096],[-64.2251,-3.2181],[-64.206,-3.228],[-64.194,-3.2514],[-64.1629,-3.2375],[-64.1501,-3.2703],[-64.1627,-3.2808],[-64.1526,-3.2963],[-64.1416,-3.2913],[-64.1395,-3.2672],[-64.128,-3.2902],[-64.1157,-3.2869],[-64.1086,-3.3259],[-64.1008,-3.3155],[-64.0874,-3.3303],[-64.0853,-3.3609],[-64.1129,-3.3682],[-64.1285,-3.3646],[-64.1311,-3.3905],[-64.1502,-3.4166],[-64.1528,-3.4347],[-64.1367,-3.449],[-64.1582,-3.4773],[-64.1583,-3.5112],[-64.1288,-3.5166],[-64.105,-3.5403],[-64.0873,-3.5292],[-64.0625,-3.5436],[-64.0573,-3.5582],[-64.0723,-3.5574],[-64.0701,-3.5751],[-64.0423,-3.5758],[-64.0255,-3.594],[-64.0125,-3.6272],[-63.9863,-3.6027],[-63.9722,-3.6115],[-63.9715,-3.6313],[-63.9591,-3.6305],[-63.9498,-3.5994],[-63.9377,-3.6165],[-63.9421,-3.6351],[-63.9102,-3.6645],[-63.9417,-3.6564],[-63.9421,-3.6713],[-63.9218,-3.6878],[-63.9184,-3.715],[-63.9264,-3.7368],[-63.9172,-3.7562],[-63.9009,-3.7656],[-63.8815,-3.792],[-63.8445,-3.7985],[-63.8315,-3.7801],[-63.789,-3.7797],[-63.7599,-3.7952],[-63.867,-3.8111],[-63.9421,-3.8128],[-63.9551,-3.8022],[-63.9777,-3.7645],[-63.9739,-3.7455],[-63.9878,-3.7067],[-64.0715,-3.7043],[-64.1296,-3.6877],[-64.1773,-3.6625],[-64.2157,-3.6245],[-64.2915,-3.5705],[-64.3549,-3.5367],[-64.387,-3.5034],[-64.4239,-3.4842],[-64.4441,-3.4635],[-64.4628,-3.4139],[-64.5088,-3.3512],[-64.522,-3.3269],[-64.5438,-3.3117],[-64.6206,-3.2887],[-64.6745,-3.2637],[-64.7031,-3.2218],[-64.7282,-3.2076],[-64.7849,-3.1587],[-64.7866,-3.1449],[-64.7695,-3.1321],[-64.719,-3.1194],[-64.7147,-3.1067],[-64.7331,-3.0866],[-64.758,-3.0752],[-64.7921,-3.0355],[-64.8038,-3.0145],[-64.8106,-2.9472],[-64.8167,-2.9368],[-64.8572,-2.9076],[-64.8924,-2.875],[-64.8918,-2.8439],[-64.8771,-2.8125],[-64.8663,-2.7354],[-64.8881,-2.7122],[-64.9167,-2.7104],[-64.9813,-2.7227],[-65.0036,-2.7032],[-64.9936,-2.6401],[-64.9807,-2.5956],[-64.998,-2.5603],[-65.0558,-2.507],[-65.0979,-2.4219],[-65.1163,-2.3949],[-65.139,-2.3373],[-65.1512,-2.3258],[-65.1757,-2.3256],[-65.1884,-2.3157],[-65.1932,-2.2835],[-65.2129,-2.2795],[-65.2195,-2.2905],[-65.2125,-2.3595],[-65.216,-2.3804],[-65.2294,-2.388],[-65.2553,-2.3825],[-65.2746,-2.3653],[-65.2801,-2.3166],[-65.3028,-2.3117],[-65.3094,-2.3364],[-65.3278,-2.3513],[-65.3533,-2.3428],[-65.3717,-2.328],[-65.3699,-2.3477],[-65.3795,-2.3591],[-65.3939,-2.3495],[-65.4158,-2.3514],[-65.43,-2.3648],[-65.4267,-2.3924],[-65.4721,-2.4008],[-65.475,-2.366],[-65.458,-2.3492],[-65.4574,-2.33],[-65.4886,-2.3198],[-65.5187,-2.325],[-65.5166,-2.3466],[-65.4904,-2.3456],[-65.485,-2.355],[-65.5046,-2.3887],[-65.5274,-2.3801],[-65.5366,-2.3628],[-65.555,-2.3577],[-65.5876,-2.3844],[-65.6088,-2.3831],[-65.6158,-2.3595],[-65.5954,-2.3158],[-65.6204,-2.3057],[-65.6283,-2.2907],[-65.6019,-2.2815],[-65.5851,-2.2549],[-65.616,-2.2375],[-65.6523,-2.2511],[-65.6635,-2.2756],[-65.6849,-2.2783],[-65.6983,-2.26],[-65.7301,-2.264],[-65.7634,-2.2559],[-65.8029,-2.2537],[-65.8101,-2.2671],[-65.8299,-2.251],[-65.8508,-2.248],[-65.8622,-2.2879],[-65.8962,-2.3054],[-65.9036,-2.2895],[-65.9025,-2.2599],[-65.9385,-2.2548],[-65.947,-2.2335],[-65.9574,-2.1637],[-65.9721,-2.1506],[-66.0013,-2.1448],[-66.0015,-1.4137],[-65.9819,-1.4171],[-65.9422,-1.4125],[-65.8939,-1.4325],[-65.8765,-1.4601],[-65.8605,-1.4715],[-65.8177,-1.4731],[-65.7832,-1.4942],[-65.759,-1.503],[-65.7217,-1.4977],[-65.6865,-1.5019],[-65.6623,-1.5158],[-65.6395,-1.5566],[-65.6479,-1.6056],[-65.6409,-1.6361],[-65.6048,-1.6629],[-65.5597,-1.66],[-65.5424,-1.6679],[-65.525,-1.6975],[-65.5258,-1.7672],[-65.514,-1.7929],[-65.4959,-1.7983],[-65.4667,-1.744],[-65.4389,-1.7335],[-65.4205,-1.7354],[-65.3909,-1.7544],[-65.3111,-1.7785]]]}},{"type":"Feature","properties":{"codarea":"1304203","centroide":[-65.53148105493504,-4.4698930696149315],"codigo_ibge":1304203,"nome_ig":"Mamirauá"},"geometry":{"type":"Polygon","coordinates":[[[-64.0715,-3.7043],[-64.0764,-3.7674],[-64.0927,-3.7528],[-64.1109,-3.7598],[-64.1598,-3.8116],[-64.1579,-3.8293],[-64.1665,-3.8655],[-64.19,-3.8719],[-64.2369,-3.8936],[-64.2509,-3.8879],[-64.27,-3.9103],[-64.2819,-3.9392],[-64.317,-3.9524],[-64.3215,-3.9628],[-64.3502,-3.9756],[-64.3872,-3.9672],[-64.4392,-3.9875],[-64.4567,-3.9847],[-64.4841,-3.9675],[-64.5258,-3.9594],[-64.5557,-3.9766],[-64.567,-4.0004],[-64.5671,-4.0332],[-64.5829,-4.0542],[-64.6112,-4.0651],[-64.6244,-4.0773],[-64.636,-4.104],[-64.6599,-4.1284],[-64.6961,-4.1166],[-64.718,-4.1425],[-64.7248,-4.1886],[-64.7315,-4.1958],[-64.777,-4.2066],[-64.7913,-4.2224],[-64.8145,-4.2671],[-64.8361,-4.2815],[-64.8639,-4.2893],[-64.8903,-4.2829],[-64.9175,-4.2949],[-64.9454,-4.298],[-64.9793,-4.2834],[-65.0033,-4.3104],[-65.0154,-4.3618],[-65.0162,-4.4053],[-65.0329,-4.4358],[-65.0474,-4.4442],[-65.0921,-4.4551],[-65.1088,-4.4734],[-65.1232,-4.5168],[-65.1848,-4.5656],[-65.2183,-4.5863],[-65.2575,-4.6201],[-65.2875,-4.6259],[-65.3188,-4.6228],[-65.3535,-4.6059],[-65.364,-4.6099],[-65.3818,-4.6537],[-65.405,-4.6663],[-65.4315,-4.6677],[-65.4466,-4.6802],[-65.463,-4.7622],[-65.4714,-4.7775],[-65.504,-4.8037],[-65.542,-4.8551],[-65.5747,-4.8844],[-65.5793,-4.9004],[-65.5709,-4.9441],[-65.5769,-4.9606],[-65.5971,-4.9812],[-65.6229,-5.0237],[-65.6669,-5.0322],[-65.6862,-5.0447],[-65.697,-5.0781],[-65.6978,-5.1054],[-65.6852,-5.1129],[-65.6599,-5.1067],[-65.6449,-5.1186],[-65.65,-5.135],[-65.6904,-5.1731],[-65.7002,-5.1892],[-65.6964,-5.2224],[-65.6784,-5.2612],[-65.6766,-5.2994],[-65.6908,-5.3107],[-65.7273,-5.2857],[-65.7701,-5.3066],[-65.8038,-5.2992],[-65.8301,-5.3076],[-65.8532,-5.3237],[-65.8713,-5.3453],[-65.889,-5.3777],[-65.9005,-5.4369],[-65.9129,-5.4383],[-65.9409,-5.407],[-65.9648,-5.3983],[-65.9978,-5.417],[-66.0313,-5.4221],[-66.0748,-5.4184],[-66.094,-5.4025],[-66.0845,-5.3791],[-66.116,-5.37],[-66.144,-5.3904],[-66.1577,-5.3698],[-66.2685,-5.3565],[-66.2943,-5.3601],[-66.3368,-5.3859],[-66.3521,-5.3819],[-66.389,-5.4141],[-66.4285,-5.432],[-66.4949,-5.4335],[-66.5178,-5.4447],[-66.5324,-5.4389],[-66.5377,-5.4211],[-66.5519,-5.412],[-66.544,-5.3951],[-66.5552,-5.371],[-66.5699,-5.3671],[-66.5764,-5.3803],[-66.5647,-5.3935],[-66.584,-5.4669],[-66.6305,-5.4871],[-66.6421,-5.5202],[-66.6695,-5.5293],[-66.6852,-5.5593],[-66.7055,-5.5598],[-66.715,-5.5458],[-66.7555,-5.5482],[-66.7697,-5.5546],[-66.7856,-5.5471],[-66.7831,-5.5311],[-66.7961,-5.5229],[-66.8097,-5.5306],[-66.8537,-5.5279],[-66.8576,-5.52],[-66.9032,-5.4969],[-66.9034,-5.4524],[-66.9413,-5.4251],[-66.9581,-5.4198],[-66.9736,-5.3924],[-66.9572,-5.3567],[-66.9541,-5.3331],[-66.9333,-5.3197],[-66.9384,-5.2775],[-66.9333,-5.2613],[-66.9095,-5.2637],[-66.8847,-5.2189],[-66.8662,-5.2028],[-66.839,-5.1935],[-66.8155,-5.1621],[-66.7909,-5.1522],[-66.7802,-5.1302],[-66.7697,-5.0845],[-66.7165,-5.0557],[-66.6571,-5.069],[-66.6257,-5.0856],[-66.6047,-5.0734],[-66.5887,-5.0532],[-66.5631,-5.0007],[-66.5482,-4.9893],[-66.5241,-4.9449],[-66.4916,-4.9215],[-66.4725,-4.9149],[-66.4607,-4.8921],[-66.4086,-4.8543],[-66.3874,-4.8243],[-66.3631,-4.828],[-66.3398,-4.8047],[-66.3047,-4.7845],[-66.2697,-4.7803],[-66.2547,-4.7685],[-66.2426,-4.7086],[-66.2456,-4.6837],[-66.2385,-4.6681],[-66.1996,-4.6389],[-66.1958,-4.6034],[-66.2062,-4.571],[-66.2037,-4.5258],[-66.2139,-4.5093],[-66.2105,-4.4924],[-66.188,-4.4816],[-66.1532,-4.4441],[-66.1507,-4.4249],[-66.125,-4.4036],[-66.1005,-4.3954],[-66.0594,-4.4008],[-66.0268,-4.3713],[-65.9753,-4.3162],[-65.9501,-4.2946],[-65.9209,-4.3045],[-65.9088,-4.2926],[-65.8726,-4.2526],[-65.8459,-4.2491],[-65.8167,-4.2216],[-65.7678,-4.2154],[-65.7328,-4.1949],[-65.6943,-4.1639],[-65.6688,-4.1551],[-65.6554,-4.1277],[-65.6441,-4.1295],[-65.6149,-4.1164],[-65.5852,-4.1143],[-65.516,-4.088],[-65.48,-4.0505],[-65.4434,-4.0385],[-65.4286,-4.0278],[-65.4055,-4.0311],[-65.3877,-4.0116],[-65.311,-3.9653],[-65.2854,-3.964],[-65.2774,-3.9498],[-65.2533,-3.9535],[-65.2252,-3.9332],[-65.2053,-3.9309],[-65.1963,-3.9132],[-65.1581,-3.9054],[-65.1571,-3.8877],[-65.1187,-3.8691],[-65.1281,-3.8549],[-65.119,-3.8333],[-65.0731,-3.7875],[-65.0512,-3.7946],[-65.0194,-3.7836],[-65.03,-3.7272],[-65.0141,-3.686],[-65.0378,-3.6643],[-65.0141,-3.6559],[-64.9976,-3.6377],[-64.9719,-3.6227],[-64.9911,-3.5893],[-64.9904,-3.5671],[-64.9622,-3.5368],[-64.9808,-3.5063],[-64.9715,-3.4889],[-64.9492,-3.4906],[-64.9224,-3.4529],[-64.8928,-3.4246],[-64.8858,-3.3926],[-64.8453,-3.378],[-64.8124,-3.3413],[-64.7988,-3.3375],[-64.7784,-3.3098],[-64.7223,-3.2931],[-64.7218,-3.2781],[-64.6791,-3.2799],[-64.6745,-3.2637],[-64.6206,-3.2887],[-64.5438,-3.3117],[-64.522,-3.3269],[-64.5088,-3.3512],[-64.4628,-3.4139],[-64.4441,-3.4635],[-64.4239,-3.4842],[-64.387,-3.5034],[-64.3549,-3.5367],[-64.2915,-3.5705],[-64.2157,-3.6245],[-64.1773,-3.6625],[-64.1296,-3.6877],[-64.0715,-3.7043]]]}},{"type":"Feature","properties":{"codarea":"1304237","centroide":[-67.82613138756781,-2.691614888090998],"codigo_ibge":1304237,"nome_ig":"Mamirauá"},"geometry":{"type":"Polygon","coordinates":[[[-67.1305,-2.6236],[-67.1437,-2.6538],[-67.1618,-2.6796],[-67.1914,-2.6894],[-67.2186,-2.6791],[-67.2368,-2.6395],[-67.2435,-2.5896],[-67.2574,-2.5545],[-67.291,-2.5423],[-67.2909,-2.8833],[-67.306,-2.8838],[-67.3407,-2.8595],[-67.3512,-2.8791],[-67.3834,-2.8784],[-67.4235,-2.8921],[-67.44,-2.8915],[-67.4619,-2.8689],[-67.4875,-2.8773],[-67.5274,-2.8813],[-67.5331,-2.8895],[-67.5752,-2.8929],[-67.5841,-2.926],[-67.6063,-2.9425],[-67.645,-2.9063],[-67.6625,-2.8953],[-67.6894,-2.8953],[-67.7107,-2.9038],[-67.7428,-2.9336],[-67.7549,-2.9718],[-68.0447,-2.9742],[-68.0604,-2.9792],[-68.0885,-2.9708],[-68.1239,-2.9479],[-68.144,-2.965],[-68.1594,-2.9618],[-68.1765,-2.9721],[-68.1943,-2.9697],[-68.2074,-2.9418],[-68.236,-2.9482],[-68.2531,-2.8988],[-68.2784,-2.8942],[-68.3159,-2.9011],[-68.35,-2.8824],[-68.3784,-2.8769],[-68.3839,-2.8519],[-68.4331,-2.8482],[-68.4821,-2.8499],[-68.4981,-2.8407],[-68.5168,-2.8479],[-68.5522,-2.8433],[-68.5784,-2.8506],[-68.6029,-2.8391],[-68.6375,-2.7886],[-68.6726,-2.7796],[-68.6895,-2.7683],[-68.7029,-2.7338],[-68.6774,-2.7273],[-68.6533,-2.7118],[-68.6349,-2.6755],[-68.6126,-2.6467],[-68.5627,-2.656],[-68.5459,-2.6092],[-68.5084,-2.6023],[-68.4919,-2.5932],[-68.4674,-2.598],[-68.4026,-2.6196],[-68.3574,-2.6162],[-68.3381,-2.5961],[-68.3251,-2.5544],[-68.3082,-2.53],[-68.2895,-2.5298],[-68.2447,-2.542],[-68.214,-2.5716],[-68.1902,-2.5726],[-68.1739,-2.5542],[-68.1094,-2.543],[-68.0896,-2.5608],[-68.0586,-2.5539],[-68.0512,-2.5716],[-68.0559,-2.609],[-68.0235,-2.6474],[-68.0151,-2.6644],[-67.969,-2.6891],[-67.9512,-2.6681],[-67.9275,-2.6878],[-67.897,-2.6899],[-67.8684,-2.7028],[-67.8566,-2.7168],[-67.8238,-2.733],[-67.7965,-2.7082],[-67.7627,-2.7145],[-67.7532,-2.6856],[-67.7357,-2.6576],[-67.7434,-2.633],[-67.6978,-2.6056],[-67.6944,-2.59],[-67.6686,-2.5858],[-67.6411,-2.5612],[-67.6312,-2.4935],[-67.6044,-2.4881],[-67.592,-2.4762],[-67.5717,-2.4747],[-67.5647,-2.4287],[-67.555,-2.4101],[-67.5564,-2.3854],[-67.542,-2.3723],[-67.5208,-2.3695],[-67.4897,-2.3453],[-67.4651,-2.3378],[-67.411,-2.3053],[-67.393,-2.3048],[-67.3803,-2.2825],[-67.3381,-2.2573],[-67.3462,-2.2333],[-67.3348,-2.2092],[-67.3093,-2.1731],[-67.2703,-2.231],[-67.2444,-2.2375],[-67.2419,-2.2652],[-67.2748,-2.3006],[-67.2525,-2.3029],[-67.2198,-2.3163],[-67.2025,-2.3357],[-67.1717,-2.389],[-67.1746,-2.4202],[-67.1932,-2.4079],[-67.2381,-2.4601],[-67.2457,-2.4756],[-67.2199,-2.5107],[-67.2117,-2.5355],[-67.2129,-2.565],[-67.2009,-2.5979],[-67.1733,-2.6051],[-67.1305,-2.6236]]]}},{"type":"Feature","properties":{"codarea":"1304260","centroide":[-65.41055148362616,-3.165477722921235],"codigo_ibge":1304260,"nome_ig":"Mamirauá"},"geometry":{"type":"Polygon","coordinates":[[[-64.7849,-3.1587],[-64.8033,-3.1493],[-64.826,-3.1122],[-64.8682,-3.0964],[-64.8965,-3.0974],[-64.9147,-3.0771],[-64.9452,-3.0604],[-64.9739,-3.0565],[-64.9747,-3.0935],[-65.0072,-3.1388],[-65.0356,-3.1713],[-65.0477,-3.1941],[-65.0522,-3.2477],[-65.0677,-3.302],[-65.1082,-3.3605],[-65.132,-3.3872],[-65.1574,-3.3893],[-65.1665,-3.4269],[-65.2075,-3.461],[-65.25,-3.4654],[-65.2851,-3.4819],[-65.3322,-3.4891],[-65.3755,-3.5071],[-65.4046,-3.5374],[-65.4261,-3.5756],[-65.4745,-3.6004],[-65.5026,-3.581],[-65.5343,-3.6191],[-65.5511,-3.6275],[-65.6047,-3.6255],[-65.6295,-3.6202],[-65.6556,-3.6384],[-65.6586,-3.6926],[-65.683,-3.7111],[-65.7073,-3.738],[-65.7169,-3.7625],[-65.724,-3.8075],[-65.784,-3.8378],[-65.797,-3.8609],[-65.7973,-3.8816],[-65.8342,-3.9228],[-65.8554,-3.9578],[-65.8633,-3.9976],[-65.8557,-4.0308],[-65.8422,-4.0532],[-65.8424,-4.0783],[-65.8587,-4.0986],[-65.8701,-4.1328],[-65.9063,-4.0694],[-65.9209,-4.0345],[-65.9436,-4.0176],[-65.9551,-3.9987],[-65.9482,-3.9577],[-65.9583,-3.9329],[-65.9809,-3.9027],[-65.9866,-3.8582],[-65.9829,-3.7934],[-65.9495,-3.7518],[-65.9615,-3.731],[-65.9915,-3.728],[-65.9932,-3.7102],[-65.9849,-3.6743],[-65.9921,-3.6503],[-65.9889,-3.5855],[-65.9845,-3.5665],[-65.9858,-3.5257],[-65.9781,-3.4873],[-65.9425,-3.4617],[-65.9214,-3.4177],[-65.9145,-3.3819],[-65.8871,-3.3623],[-65.8707,-3.3405],[-65.869,-3.3042],[-65.8394,-3.2674],[-65.8321,-3.2407],[-65.8023,-3.1837],[-65.7637,-3.1709],[-65.7523,-3.1563],[-65.7329,-3.0944],[-65.7319,-3.0763],[-65.7072,-3.0515],[-65.6782,-3.0003],[-65.6574,-2.954],[-65.6409,-2.9372],[-65.6147,-2.9288],[-65.6046,-2.9146],[-65.6043,-2.8902],[-65.5892,-2.8716],[-65.5598,-2.8885],[-65.5315,-2.8839],[-65.4971,-2.8589],[-65.4689,-2.8676],[-65.4492,-2.8552],[-65.4267,-2.8734],[-65.3811,-2.854],[-65.3461,-2.8198],[-65.3383,-2.7739],[-65.3531,-2.7583],[-65.3769,-2.7177],[-65.3862,-2.6872],[-65.3794,-2.6665],[-65.3577,-2.649],[-65.3125,-2.6382],[-65.2618,-2.6067],[-65.2541,-2.5848],[-65.2564,-2.5639],[-65.2852,-2.525],[-65.3145,-2.4766],[-65.3401,-2.4738],[-65.3383,-2.4604],[-65.3134,-2.4359],[-65.3093,-2.4102],[-65.3536,-2.3939],[-65.3876,-2.4006],[-65.3747,-2.3721],[-65.353,-2.3631],[-65.32,-2.3615],[-65.276,-2.38],[-65.2553,-2.3825],[-65.2294,-2.388],[-65.216,-2.3804],[-65.2125,-2.3595],[-65.2195,-2.2905],[-65.2129,-2.2795],[-65.1932,-2.2835],[-65.1884,-2.3157],[-65.1757,-2.3256],[-65.1512,-2.3258],[-65.139,-2.3373],[-65.1163,-2.3949],[-65.0979,-2.4219],[-65.0558,-2.507],[-64.998,-2.5603],[-64.9807,-2.5956],[-64.9936,-2.6401],[-65.0036,-2.7032],[-64.9813,-2.7227],[-64.9167,-2.7104],[-64.8881,-2.7122],[-64.8663,-2.7354],[-64.8771,-2.8125],[-64.8918,-2.8439],[-64.8924,-2.875],[-64.8572,-2.9076],[-64.8167,-2.9368],[-64.8106,-2.9472],[-64.8038,-3.0145],[-64.7921,-3.0355],[-64.758,-3.0752],[-64.7331,-3.0866],[-64.7147,-3.1067],[-64.719,-3.1194],[-64.7695,-3.1321],[-64.7866,-3.1449],[-64.7849,-3.1587]]]}}]}