{"type":"FeatureCollection","features":[{"type":"Feature","properties":{"codarea":"4101408","centroide":[-51.44645721422177,-23.57280216539827],"codigo_ibge":4101408,"nome_ig":"Mandaguari"},"geometry":{"type":"Polygon","coordinates":[[[-51.5906,-23.4262],[-51.5954,-23.4371],[-51.5735,-23.4448],[-51.5567,-23.441],[-51.554,-23.4532],[-51.5352,-23.4526],[-51.5077,-23.4914],[-51.4771,-23.5014],[-51.4478,-23.4953],[-51.4379,-23.5146],[-51.4215,-23.5061],[-51.4064,-23.5153],[-51.3518,-23.5254],[-51.3447,-23.5389],[-51.3194,-23.5494],[-51.3013,-23.5477],[-51.2898,-23.5639],[-51.2703,-23.5683],[-51.2272,-23.5556],[-51.2169,-23.5705],[-51.2197,-23.5874],[-51.2348,-23.5938],[-51.2397,-23.6249],[-51.2741,-23.6199],[-51.2948,-23.6328],[-51.3464,-23.6385],[-51.3786,-23.6158],[-51.4068,-23.6711],[-51.4354,-23.6941],[-51.429,-23.6992],[-51.4384,-23.7095],[-51.4472,-23.7303],[-51.4691,-23.7372],[-51.4748,-23.725],[-51.4807,-23.6994],[-51.4782,-23.6815],[-51.5075,-23.6559],[-51.5024,-23.6442],[-51.5287,-23.6296],[-51.5396,-23.6113],[-51.5595,-23.5996],[-51.5758,-23.5722],[-51.577,-23.5424],[-51.5996,-23.5211],[-51.6114,-23.4837],[-51.6212,-23.4718],[-51.6118,-23.4628],[-51.6312,-23.4518],[-51.6259,-23.4263],[-51.6146,-23.4178],[-51.6042,-23.4326],[-51.5906,-23.4262]]]}},{"type":"Feature","properties":{"codarea":"4101507","centroide":[-51.42853460548134,-23.440588177164948],"codigo_ibge":4101507,"nome_ig":"Mandaguari"},"geometry":{"type":"Polygon","coordinates":[[[-51.3101,-23.3834],[-51.3101,-23.3835],[-51.3215,-23.4317],[-51.3108,-23.4625],[-51.3013,-23.5477],[-51.3194,-23.5494],[-51.3447,-23.5389],[-51.3518,-23.5254],[-51.4064,-23.5153],[-51.4215,-23.5061],[-51.4379,-23.5146],[-51.4478,-23.4953],[-51.4771,-23.5014],[-51.5077,-23.4914],[-51.5352,-23.4526],[-51.554,-23.4532],[-51.5567,-23.441],[-51.5735,-23.4448],[-51.5954,-23.4371],[-51.5906,-23.4262],[-51.5562,-23.4013],[-51.5514,-23.3858],[-51.5064,-23.3514],[-51.5004,-23.3423],[-51.4746,-23.3587],[-51.4546,-23.3821],[-51.4423,-23.3631],[-51.4201,-23.3555],[-51.3963,-23.36],[-51.3684,-23.3831],[-51.3637,-23.3945],[-51.3157,-23.3898],[-51.3101,-23.3834]]]}},{"type":"Feature","properties":{"codarea":"4103800","centroide":[-51.56759476264054,-23.62912096762449],"codigo_ibge":4103800,"nome_ig":"Mandaguari"},"geometry":{"type":"Polygon","coordinates":[[[-51.6114,-23.4837],[-51.5996,-23.5211],[-51.577,-23.5424],[-51.5758,-23.5722],[-51.5595,-23.5996],[-51.5396,-23.6113],[-51.5287,-23.6296],[-51.5024,-23.6442],[-51.5075,-23.6559],[-51.4782,-23.6815],[-51.4807,-23.6994],[-51.4993,-23.6906],[-51.5149,-23.6982],[-51.5266,-23.7169],[-51.5169,-23.7284],[-51.5397,-23.737],[-51.5461,-23.7066],[-51.5619,-23.6913],[-51.593,-23.7045],[-51.5945,-23.6912],[-51.6105,-23.6874],[-51.6008,-23.6816],[-51.6119,-23.6642],[-51.6089,-23.6262],[-51.6143,-23.6027],[-51.602,-23.5815],[-51.6254,-23.5502],[-51.6313,-23.5317],[-51.6219,-23.4893],[-51.6114,-23.4837]]]}},{"type":"Feature","properties":{"codarea":"4112108","centroide":[-51.685188172538034,-23.627192759170452],"codigo_ibge":4112108,"nome_ig":"Mandaguari"},"geometry":{"type":"Polygon","coordinates":[[[-51.6105,-23.6874],[-51.6339,-23.6668],[-51.6579,-23.679],[-51.6804,-23.7028],[-51.6949,-23.7042],[-51.6959,-23.6803],[-51.7085,-23.6727],[-51.7395,-23.6707],[-51.7461,-23.6578],[-51.7659,-23.6576],[-51.7738,-23.6271],[-51.7957,-23.6308],[-51.7935,-23.6069],[-51.756,-23.6],[-51.7359,-23.5801],[-51.7216,-23.586],[-51.7066,-23.5728],[-51.6854,-23.5799],[-51.6448,-23.5758],[-51.6254,-23.5502],[-51.602,-23.5815],[-51.6143,-23.6027],[-51.6089,-23.6262],[-51.6119,-23.6642],[-51.6008,-23.6816],[-51.6105,-23.6874]]]}},{"type":"Feature","properties":{"codarea":"4114203","centroide":[-51.706471790508274,-23.482967729306893],"codigo_ibge":4114203,"nome_ig":"Mandaguari"},"geometry":{"type":"Polygon","coordinates":[[[-51.6902,-23.3776],[-51.6607,-23.396],[-51.6276,-23.4086],[-51.6259,-23.4263],[-51.6312,-23.4518],[-51.6118,-23.4628],[-51.6212,-23.4718],[-51.6114,-23.4837],[-51.6219,-23.4893],[-51.6313,-23.5317],[-51.6254,-23.5502],[-51.6448,-23.5758],[-51.6854,-23.5799],[-51.7066,-23.5728],[-51.7216,-23.586],[-51.7359,-23.5801],[-51.756,-23.6],[-51.7935,-23.6069],[-51.7957,-23.6308],[-51.8206,-23.6483],[-51.8358,-23.6319],[-51.8235,-23.6072],[-51.8028,-23.6034],[-51.7776,-23.5726],[-51.7687,-23.5511],[-51.7098,-23.5035],[-51.7148,-23.4925],[-51.7538,-23.4937],[-51.7629,-23.4863],[-51.7722,-23.4139],[-51.7638,-23.3727],[-51.7763,-23.3354],[-51.765,-23.3467],[-51.7132,-23.3534],[-51.6998,-23.3874],[-51.6902,-23.3776]]]}},{"type":"Feature","properties":{"codarea":"4114807","centroide":[-51.86678695430186,-23.530497753695347],"codigo_ibge":4114807,"nome_ig":"Mandaguari"},"geometry":{"type":"Polygon","coordinates":[[[-51.7763,-23.3354],[-51.7638,-23.3727],[-51.7722,-23.4139],[-51.7629,-23.4863],[-51.7538,-23.4937],[-51.7148,-23.4925],[-51.7098,-23.5035],[-51.7687,-23.5511],[-51.7776,-23.5726],[-51.8028,-23.6034],[-51.8235,-23.6072],[-51.8358,-23.6319],[-51.8557,-23.6415],[-51.8705,-23.6383],[-51.8994,-23.6535],[-51.9127,-23.6718],[-51.9224,-23.6624],[-51.9399,-23.673],[-51.9366,-23.6396],[-51.958,-23.6207],[-52.0037,-23.6192],[-52.0332,-23.6377],[-52.0246,-23.6458],[-52.0526,-23.6619],[-52.0615,-23.6507],[-52.0458,-23.6376],[-52.0272,-23.5887],[-51.9997,-23.5565],[-51.9704,-23.5207],[-51.9486,-23.4851],[-51.9115,-23.477],[-51.9224,-23.5001],[-51.9094,-23.5099],[-51.928,-23.5334],[-51.9123,-23.5607],[-51.9005,-23.5567],[-51.8762,-23.5225],[-51.8529,-23.5108],[-51.8534,-23.4579],[-51.8452,-23.4462],[-51.8266,-23.4595],[-51.8064,-23.445],[-51.7971,-23.409],[-51.8169,-23.3938],[-51.843,-23.3936],[-51.8393,-23.359],[-51.8463,-23.3279],[-51.8025,-23.3238],[-51.7911,-23.3407],[-51.7763,-23.3354]]]}}]}