{"type":"FeatureCollection","features":[{"type":"Feature","properties":{"codarea":"4114302","centroide":[-49.32275668148412,-25.84204543057904],"codigo_ibge":4114302,"nome_ig":"Mandirituba"},"geometry":{"type":"Polygon","coordinates":[[[-49.2455,-25.754],[-49.25,-25.7695],[-49.2414,-25.7977],[-49.2563,-25.819],[-49.2317,-25.8133],[-49.2078,-25.8251],[-49.2176,-25.851],[-49.2077,-25.865],[-49.2213,-25.8811],[-49.2431,-25.8858],[-49.2637,-25.9037],[-49.2614,-25.9251],[-49.2938,-25.9235],[-49.3056,-25.9452],[-49.3245,-25.9551],[-49.3608,-25.9521],[-49.3787,-25.9296],[-49.421,-25.9394],[-49.4504,-25.9204],[-49.424,-25.8699],[-49.402,-25.8585],[-49.3909,-25.8283],[-49.3701,-25.8039],[-49.3697,-25.7888],[-49.365,-25.7847],[-49.3629,-25.7368],[-49.3573,-25.7276],[-49.3601,-25.6837],[-49.3551,-25.6734],[-49.3472,-25.6766],[-49.3351,-25.712],[-49.2942,-25.7378],[-49.2654,-25.7362],[-49.2455,-25.754]]]}}]}