{"type":"FeatureCollection","features":[{"type":"Feature","properties":{"codarea":"1502004","centroide":[-48.877441359231646,-0.8688947675644155],"codigo_ibge":1502004,"nome_ig":"Marajó"},"geometry":{"type":"MultiPolygon","coordinates":[[[[-49.0065,-0.4453],[-48.9977,-0.5006],[-48.962,-0.6514],[-48.7569,-0.751],[-48.7543,-0.7716],[-48.7344,-0.7972],[-48.6908,-0.8784],[-48.6755,-0.8779],[-48.6604,-0.8915],[-48.6381,-0.8959],[-48.624,-0.9131],[-48.6305,-0.931],[-48.6097,-0.9443],[-48.5811,-0.9499],[-48.5294,-0.9733],[-48.4629,-0.9705],[-48.4395,-0.9788],[-48.4392,-0.9824],[-48.4694,-1.0194],[-48.493,-1.0384],[-48.5244,-1.0839],[-48.5479,-1.1113],[-48.6075,-1.1721],[-48.6735,-1.1745],[-48.7139,-1.1881],[-48.7449,-1.1877],[-48.7889,-1.2087],[-48.8196,-1.2132],[-48.8691,-1.2016],[-48.8947,-1.168],[-48.8927,-1.158],[-48.9191,-1.1311],[-48.914,-1.0892],[-48.9238,-1.0687],[-48.914,-1.0514],[-48.9281,-1.0401],[-48.9513,-1.0436],[-48.9666,-1.0337],[-48.9698,-0.9972],[-48.9579,-0.9849],[-48.9681,-0.9723],[-48.9956,-0.9778],[-49.0297,-0.9587],[-49.0477,-0.896],[-49.0915,-0.8856],[-49.1428,-0.8407],[-49.1498,-0.8189],[-49.1791,-0.8268],[-49.1904,-0.8198],[-49.1861,-0.7744],[-49.1918,-0.7404],[-49.189,-0.7175],[-49.1655,-0.7205],[-49.1536,-0.7055],[-49.1376,-0.6542],[-49.1474,-0.6091],[-49.1676,-0.6001],[-49.1841,-0.582],[-49.1939,-0.5503],[-49.2067,-0.5351],[-49.208,-0.5099],[-49.192,-0.5042],[-49.1716,-0.4744],[-49.1608,-0.4723],[-49.1447,-0.4891],[-49.1189,-0.4733],[-49.1032,-0.4401],[-49.0931,-0.4351],[-49.0775,-0.4532],[-49.0473,-0.4454],[-49.0206,-0.4208],[-49.0003,-0.4182],[-49.0065,-0.4453]]]]}},{"type":"Feature","properties":{"codarea":"1502509","centroide":[-49.829394315796044,-0.02945550976212077],"codigo_ibge":1502509,"nome_ig":"Marajó"},"geometry":{"type":"MultiPolygon","coordinates":[[[[-50.0939,0.702],[-50.092,0.6471],[-50.0594,0.6164],[-50.0408,0.5735],[-50.0355,0.5088],[-50.0434,0.4861],[-50.0525,0.3722],[-50.0612,0.3384],[-50.028,0.3358],[-49.9672,0.3206],[-49.9581,0.3312],[-49.9033,0.311],[-49.8378,0.3396],[-49.828,0.3263],[-49.8143,0.3338],[-49.783,0.3355],[-49.7631,0.349],[-49.7394,0.3223],[-49.7421,0.3495],[-49.6823,0.3662],[-49.6423,0.3419],[-49.6129,0.3072],[-49.6015,0.2666],[-49.5622,0.2029],[-49.511,0.1325],[-49.4755,0.0789],[-49.458,0.0649],[-49.4353,0.0677],[-49.4167,0.0525],[-49.3934,0.0477],[-49.3834,0.0326],[-49.3969,0.0157],[-49.3676,-0.0003],[-49.0082,-0.1604],[-49,-0.1819],[-48.9544,-0.2064],[-48.916,-0.2315],[-48.9272,-0.2567],[-48.921,-0.2805],[-48.9425,-0.3352],[-48.9613,-0.36],[-49.0065,-0.4453],[-49.0003,-0.4182],[-49.0206,-0.4208],[-49.0473,-0.4454],[-49.0775,-0.4532],[-49.0931,-0.4351],[-49.1032,-0.4401],[-49.1189,-0.4733],[-49.1447,-0.4891],[-49.1608,-0.4723],[-49.1716,-0.4744],[-49.192,-0.5042],[-49.208,-0.5099],[-49.2191,-0.4834],[-49.2381,-0.4792],[-49.2508,-0.4595],[-49.2781,-0.4399],[-49.3063,-0.3699],[-49.3316,-0.3371],[-49.3674,-0.3519],[-49.3937,-0.3774],[-49.4091,-0.4124],[-49.4048,-0.4271],[-49.4178,-0.5018],[-49.4354,-0.5096],[-49.4493,-0.5292],[-49.4573,-0.5712],[-49.4489,-0.5879],[-49.454,-0.605],[-49.4713,-0.6234],[-49.4716,-0.6432],[-49.4892,-0.667],[-49.5004,-0.6494],[-49.5376,-0.6246],[-49.6199,-0.5858],[-49.6522,-0.5562],[-49.6703,-0.5544],[-49.7417,-0.5951],[-49.7753,-0.6047],[-49.8205,-0.6003],[-49.8519,-0.58],[-49.9022,-0.531],[-49.9652,-0.4934],[-50.0067,-0.4793],[-50.081,-0.4801],[-50.0803,-0.4663],[-50.1072,-0.4708],[-50.1959,-0.2135],[-50.2986,-0.1015],[-50.2988,-0.0682],[-50.3318,-0.0131],[-50.3802,0.0257],[-50.3956,0.0504],[-50.4129,0.1124],[-50.4328,0.1495],[-50.4708,0.1775],[-50.523,0.1883],[-50.5801,0.2271],[-50.5996,0.2493],[-50.5797,0.2699],[-50.5529,0.3124],[-50.5238,0.3723],[-50.5039,0.435],[-50.4859,0.4589],[-50.4712,0.4996],[-50.4672,0.5309],[-50.4365,0.6001],[-50.4098,0.6233],[-50.3585,0.66],[-50.3285,0.6743],[-50.2717,0.6882],[-50.2105,0.699],[-50.1569,0.7051],[-50.0939,0.702]]]]}},{"type":"Feature","properties":{"codarea":"1504901","centroide":[-49.309140818569034,-1.356029518746749],"codigo_ibge":1504901,"nome_ig":"Marajó"},"geometry":{"type":"MultiPolygon","coordinates":[[[[-48.9476,-1.5509],[-49.0125,-1.5732],[-49.0405,-1.5991],[-49.0637,-1.6114],[-49.1312,-1.6847],[-49.1545,-1.7017],[-49.1716,-1.7161],[-49.2163,-1.7061],[-49.3226,-1.7037],[-49.4158,-1.7188],[-49.4507,-1.6516],[-49.4964,-1.6177],[-49.5019,-1.6068],[-49.5046,-1.5199],[-49.4967,-1.5003],[-49.5204,-1.4949],[-49.5198,-1.4557],[-49.4963,-1.4211],[-49.5071,-1.3974],[-49.5251,-1.3999],[-49.5444,-1.3797],[-49.5669,-1.3797],[-49.5845,-1.3663],[-49.6006,-1.3681],[-49.6233,-1.3462],[-49.6181,-1.3339],[-49.5901,-1.3322],[-49.5266,-1.188],[-49.5071,-1.1136],[-49.5062,-1.0686],[-49.4668,-1.0527],[-49.4832,-1.0403],[-49.4834,-1.0255],[-49.5014,-1.0119],[-49.5334,-1.0051],[-49.5476,-1.0129],[-49.5433,-0.9912],[-49.5243,-0.9708],[-49.5079,-0.9823],[-49.4792,-0.9894],[-49.4725,-0.9717],[-49.4522,-0.9687],[-49.4451,-0.956],[-49.4521,-0.9356],[-49.4364,-0.9135],[-49.422,-0.9105],[-49.394,-0.9322],[-49.3642,-0.9286],[-49.3376,-0.9322],[-49.3254,-0.9494],[-49.3266,-0.9716],[-49.22,-1.0003],[-49.215,-1.0172],[-49.2003,-1.0235],[-49.1999,-1.0488],[-49.1768,-1.0628],[-49.1911,-1.0931],[-49.2128,-1.1073],[-49.1973,-1.1306],[-49.194,-1.1563],[-49.1657,-1.1563],[-49.1492,-1.1736],[-49.1465,-1.1903],[-49.1295,-1.2008],[-49.1146,-1.2404],[-49.1032,-1.2372],[-49.0951,-1.2533],[-49.1018,-1.2717],[-49.0889,-1.2804],[-49.1093,-1.3114],[-49.1101,-1.3461],[-49.0958,-1.3606],[-49.1097,-1.3771],[-49.1369,-1.3857],[-49.1421,-1.4145],[-49.115,-1.4002],[-49.1027,-1.3833],[-49.1024,-1.4039],[-48.9905,-1.4841],[-48.9694,-1.4897],[-48.9639,-1.5241],[-48.9476,-1.5509]]]]}},{"type":"Feature","properties":{"codarea":"1505700","centroide":[-49.07726311823247,-1.1171833422368698],"codigo_ibge":1505700,"nome_ig":"Marajó"},"geometry":{"type":"MultiPolygon","coordinates":[[[[-49.1918,-0.7404],[-49.1861,-0.7744],[-49.1904,-0.8198],[-49.1791,-0.8268],[-49.1498,-0.8189],[-49.1428,-0.8407],[-49.0915,-0.8856],[-49.0477,-0.896],[-49.0297,-0.9587],[-48.9956,-0.9778],[-48.9681,-0.9723],[-48.9579,-0.9849],[-48.9698,-0.9972],[-48.9666,-1.0337],[-48.9513,-1.0436],[-48.9281,-1.0401],[-48.914,-1.0514],[-48.9238,-1.0687],[-48.914,-1.0892],[-48.9191,-1.1311],[-48.8927,-1.158],[-48.8947,-1.168],[-48.8691,-1.2016],[-48.8196,-1.2132],[-48.7889,-1.2087],[-48.7449,-1.1877],[-48.7139,-1.1881],[-48.6735,-1.1745],[-48.6075,-1.1721],[-48.6244,-1.1921],[-48.6683,-1.26],[-48.7022,-1.3223],[-48.7399,-1.4],[-48.7606,-1.4525],[-48.7759,-1.474],[-48.8374,-1.5214],[-48.9067,-1.5374],[-48.9476,-1.5509],[-48.9639,-1.5241],[-48.9694,-1.4897],[-48.9905,-1.4841],[-49.1024,-1.4039],[-49.1027,-1.3833],[-49.115,-1.4002],[-49.1421,-1.4145],[-49.1369,-1.3857],[-49.1097,-1.3771],[-49.0958,-1.3606],[-49.1101,-1.3461],[-49.1093,-1.3114],[-49.0889,-1.2804],[-49.1018,-1.2717],[-49.0951,-1.2533],[-49.1032,-1.2372],[-49.1146,-1.2404],[-49.1295,-1.2008],[-49.1465,-1.1903],[-49.1492,-1.1736],[-49.1657,-1.1563],[-49.194,-1.1563],[-49.1973,-1.1306],[-49.2128,-1.1073],[-49.1911,-1.0931],[-49.1768,-1.0628],[-49.1999,-1.0488],[-49.2003,-1.0235],[-49.215,-1.0172],[-49.22,-1.0003],[-49.3266,-0.9716],[-49.3254,-0.9494],[-49.3376,-0.9322],[-49.3642,-0.9286],[-49.394,-0.9322],[-49.422,-0.9105],[-49.4364,-0.9135],[-49.4521,-0.9356],[-49.4451,-0.956],[-49.4522,-0.9687],[-49.4725,-0.9717],[-49.4792,-0.9894],[-49.5079,-0.9823],[-49.5243,-0.9708],[-49.5178,-0.9597],[-49.5311,-0.9442],[-49.544,-0.8759],[-49.5004,-0.7493],[-49.4871,-0.7315],[-49.4874,-0.7052],[-49.4792,-0.677],[-49.4862,-0.6687],[-49.3624,-0.7383],[-49.3206,-0.7254],[-49.318,-0.7549],[-49.299,-0.7719],[-49.279,-0.7543],[-49.2494,-0.7676],[-49.2377,-0.7626],[-49.2137,-0.7327],[-49.1918,-0.7404]]]]}},{"type":"Feature","properties":{"codarea":"1506302","centroide":[-48.60920659375247,-0.8008252938329313],"codigo_ibge":1506302,"nome_ig":"Marajó"},"geometry":{"type":"MultiPolygon","coordinates":[[[[-48.3726,-0.854],[-48.4194,-0.9236],[-48.4395,-0.9788],[-48.4629,-0.9705],[-48.5294,-0.9733],[-48.5811,-0.9499],[-48.6097,-0.9443],[-48.6305,-0.931],[-48.624,-0.9131],[-48.6381,-0.8959],[-48.6604,-0.8915],[-48.6755,-0.8779],[-48.6908,-0.8784],[-48.7344,-0.7972],[-48.7543,-0.7716],[-48.7569,-0.751],[-48.962,-0.6514],[-48.8239,-0.6499],[-48.7908,-0.667],[-48.7845,-0.6572],[-48.7212,-0.6674],[-48.6955,-0.6564],[-48.6774,-0.6691],[-48.6464,-0.6571],[-48.6308,-0.67],[-48.6288,-0.6559],[-48.5983,-0.6817],[-48.5897,-0.6481],[-48.5807,-0.6507],[-48.5724,-0.6805],[-48.5538,-0.7058],[-48.5395,-0.7062],[-48.5355,-0.7221],[-48.5174,-0.7419],[-48.4913,-0.7562],[-48.4347,-0.8176],[-48.3726,-0.854]]]]}},{"type":"Feature","properties":{"codarea":"1506401","centroide":[-49.31429414627847,-0.5832286643096593],"codigo_ibge":1506401,"nome_ig":"Marajó"},"geometry":{"type":"MultiPolygon","coordinates":[[[[-49.208,-0.5099],[-49.2067,-0.5351],[-49.1939,-0.5503],[-49.1841,-0.582],[-49.1676,-0.6001],[-49.1474,-0.6091],[-49.1376,-0.6542],[-49.1536,-0.7055],[-49.1655,-0.7205],[-49.189,-0.7175],[-49.1918,-0.7404],[-49.2137,-0.7327],[-49.2377,-0.7626],[-49.2494,-0.7676],[-49.279,-0.7543],[-49.299,-0.7719],[-49.318,-0.7549],[-49.3206,-0.7254],[-49.3624,-0.7383],[-49.4862,-0.6687],[-49.4892,-0.667],[-49.4716,-0.6432],[-49.4713,-0.6234],[-49.454,-0.605],[-49.4489,-0.5879],[-49.4573,-0.5712],[-49.4493,-0.5292],[-49.4354,-0.5096],[-49.4178,-0.5018],[-49.4048,-0.4271],[-49.4091,-0.4124],[-49.3937,-0.3774],[-49.3674,-0.3519],[-49.3316,-0.3371],[-49.3063,-0.3699],[-49.2781,-0.4399],[-49.2508,-0.4595],[-49.2381,-0.4792],[-49.2191,-0.4834],[-49.208,-0.5099]]]]}},{"type":"Feature","properties":{"codarea":"1507904","centroide":[-48.63727685694942,-0.49259292366625723],"codigo_ibge":1507904,"nome_ig":"Marajó"},"geometry":{"type":"MultiPolygon","coordinates":[[[[-48.236,-0.5817],[-48.24,-0.61],[-48.2565,-0.6402],[-48.2587,-0.6668],[-48.2705,-0.6886],[-48.2932,-0.7134],[-48.3279,-0.7777],[-48.3545,-0.8154],[-48.3726,-0.854],[-48.4347,-0.8176],[-48.4913,-0.7562],[-48.5174,-0.7419],[-48.5355,-0.7221],[-48.5395,-0.7062],[-48.5538,-0.7058],[-48.5724,-0.6805],[-48.5807,-0.6507],[-48.5897,-0.6481],[-48.5983,-0.6817],[-48.6288,-0.6559],[-48.6308,-0.67],[-48.6464,-0.6571],[-48.6774,-0.6691],[-48.6955,-0.6564],[-48.7212,-0.6674],[-48.7845,-0.6572],[-48.7908,-0.667],[-48.8239,-0.6499],[-48.962,-0.6514],[-48.9977,-0.5006],[-49.0065,-0.4453],[-48.9613,-0.36],[-48.9425,-0.3352],[-48.921,-0.2805],[-48.9272,-0.2567],[-48.916,-0.2315],[-48.889,-0.2214],[-48.8419,-0.2188],[-48.7872,-0.2215],[-48.7752,-0.2403],[-48.7382,-0.2527],[-48.7028,-0.2571],[-48.6378,-0.2319],[-48.5878,-0.232],[-48.5602,-0.2421],[-48.5524,-0.2359],[-48.5084,-0.2444],[-48.4727,-0.2318],[-48.4122,-0.2572],[-48.3928,-0.2771],[-48.3841,-0.3013],[-48.3904,-0.3632],[-48.4338,-0.4033],[-48.4445,-0.4249],[-48.4572,-0.4737],[-48.4725,-0.499],[-48.236,-0.5817]]]]}}]}