{"type":"FeatureCollection","features":[{"type":"Feature","properties":{"codarea":"4114807","centroide":[-51.86678695430186,-23.530497753695347],"codigo_ibge":4114807,"nome_ig":"Marialva"},"geometry":{"type":"Polygon","coordinates":[[[-51.7763,-23.3354],[-51.7638,-23.3727],[-51.7722,-23.4139],[-51.7629,-23.4863],[-51.7538,-23.4937],[-51.7148,-23.4925],[-51.7098,-23.5035],[-51.7687,-23.5511],[-51.7776,-23.5726],[-51.8028,-23.6034],[-51.8235,-23.6072],[-51.8358,-23.6319],[-51.8557,-23.6415],[-51.8705,-23.6383],[-51.8994,-23.6535],[-51.9127,-23.6718],[-51.9224,-23.6624],[-51.9399,-23.673],[-51.9366,-23.6396],[-51.958,-23.6207],[-52.0037,-23.6192],[-52.0332,-23.6377],[-52.0246,-23.6458],[-52.0526,-23.6619],[-52.0615,-23.6507],[-52.0458,-23.6376],[-52.0272,-23.5887],[-51.9997,-23.5565],[-51.9704,-23.5207],[-51.9486,-23.4851],[-51.9115,-23.477],[-51.9224,-23.5001],[-51.9094,-23.5099],[-51.928,-23.5334],[-51.9123,-23.5607],[-51.9005,-23.5567],[-51.8762,-23.5225],[-51.8529,-23.5108],[-51.8534,-23.4579],[-51.8452,-23.4462],[-51.8266,-23.4595],[-51.8064,-23.445],[-51.7971,-23.409],[-51.8169,-23.3938],[-51.843,-23.3936],[-51.8393,-23.359],[-51.8463,-23.3279],[-51.8025,-23.3238],[-51.7911,-23.3407],[-51.7763,-23.3354]]]}},{"type":"Feature","properties":{"codarea":"4126256","centroide":[-51.86763548927676,-23.468117212395025],"codigo_ibge":4126256,"nome_ig":"Marialva"},"geometry":{"type":"Polygon","coordinates":[[[-51.9115,-23.477],[-51.8756,-23.4152],[-51.8756,-23.4152],[-51.8398,-23.4065],[-51.843,-23.3936],[-51.8169,-23.3938],[-51.7971,-23.409],[-51.8064,-23.445],[-51.8266,-23.4595],[-51.8452,-23.4462],[-51.8534,-23.4579],[-51.8529,-23.5108],[-51.8762,-23.5225],[-51.9005,-23.5567],[-51.9123,-23.5607],[-51.928,-23.5334],[-51.9094,-23.5099],[-51.9224,-23.5001],[-51.9115,-23.477]]]}}]}