{"type":"FeatureCollection","features":[{"type":"Feature","properties":{"codarea":"3100302","centroide":[-42.4431693005557,-20.273319477437198],"codigo_ibge":3100302,"nome_ig":"Matas de Minas"},"geometry":{"type":"Polygon","coordinates":[[[-42.3107,-20.1427],[-42.3221,-20.1769],[-42.3149,-20.2019],[-42.3254,-20.2143],[-42.3211,-20.2332],[-42.3595,-20.2451],[-42.374,-20.2675],[-42.3687,-20.282],[-42.3908,-20.2805],[-42.411,-20.3189],[-42.4152,-20.3499],[-42.426,-20.358],[-42.4191,-20.4152],[-42.4343,-20.4354],[-42.456,-20.4384],[-42.4685,-20.426],[-42.5015,-20.4169],[-42.5265,-20.4249],[-42.5317,-20.4098],[-42.5134,-20.3699],[-42.5278,-20.355],[-42.543,-20.3597],[-42.5554,-20.3558],[-42.551,-20.3229],[-42.541,-20.3185],[-42.5416,-20.2966],[-42.555,-20.2943],[-42.555,-20.2943],[-42.5551,-20.2676],[-42.552,-20.2615],[-42.5362,-20.258],[-42.518,-20.2129],[-42.4964,-20.1948],[-42.4627,-20.1861],[-42.438,-20.1934],[-42.4199,-20.1442],[-42.4,-20.1377],[-42.393,-20.1244],[-42.3689,-20.1241],[-42.3569,-20.1402],[-42.3477,-20.1354],[-42.3107,-20.1427]]]}},{"type":"Feature","properties":{"codarea":"3102050","centroide":[-41.86501748877961,-20.45905262310166],"codigo_ibge":3102050,"nome_ig":"Matas de Minas"},"geometry":{"type":"Polygon","coordinates":[[[-41.8366,-20.4091],[-41.8033,-20.4222],[-41.7994,-20.4772],[-41.8254,-20.4832],[-41.838,-20.4817],[-41.8502,-20.4981],[-41.8669,-20.4921],[-41.8962,-20.5022],[-41.9143,-20.4881],[-41.9145,-20.5051],[-41.9314,-20.5163],[-41.9625,-20.5045],[-41.9322,-20.4923],[-41.9273,-20.4705],[-41.8727,-20.4177],[-41.8759,-20.4007],[-41.8366,-20.4091]]]}},{"type":"Feature","properties":{"codarea":"3153509","centroide":[-41.94972676653751,-20.43774358985936],"codigo_ibge":3153509,"nome_ig":"Matas de Minas"},"geometry":{"type":"Polygon","coordinates":[[[-41.8594,-20.3729],[-41.845,-20.3773],[-41.8366,-20.4091],[-41.8759,-20.4007],[-41.8727,-20.4177],[-41.9273,-20.4705],[-41.9322,-20.4923],[-41.9625,-20.5045],[-41.9711,-20.5062],[-41.9861,-20.4817],[-42.0165,-20.4869],[-42.0222,-20.4991],[-42.0585,-20.4994],[-42.0624,-20.482],[-42.024,-20.4737],[-42.0188,-20.4521],[-42.0063,-20.4436],[-42.0126,-20.4104],[-41.9927,-20.3978],[-41.9695,-20.3969],[-41.9634,-20.4065],[-41.9509,-20.3873],[-41.9288,-20.3959],[-41.9218,-20.3854],[-41.8818,-20.3806],[-41.8594,-20.3729]]]}},{"type":"Feature","properties":{"codarea":"3103702","centroide":[-42.499022140750945,-20.662459190595964],"codigo_ibge":3103702,"nome_ig":"Matas de Minas"},"geometry":{"type":"Polygon","coordinates":[[[-42.4074,-20.5773],[-42.379,-20.5889],[-42.4106,-20.6355],[-42.4185,-20.6675],[-42.4292,-20.6671],[-42.4489,-20.6868],[-42.4675,-20.689],[-42.4804,-20.7217],[-42.471,-20.7499],[-42.4792,-20.7601],[-42.4949,-20.7674],[-42.5135,-20.7532],[-42.5223,-20.768],[-42.542,-20.7772],[-42.5625,-20.7661],[-42.5747,-20.7747],[-42.5926,-20.7687],[-42.605,-20.7529],[-42.6215,-20.7641],[-42.6504,-20.7585],[-42.6214,-20.7573],[-42.6146,-20.7439],[-42.5886,-20.7464],[-42.5762,-20.7328],[-42.5761,-20.7024],[-42.5683,-20.6932],[-42.5679,-20.6418],[-42.5577,-20.5984],[-42.5352,-20.6045],[-42.5362,-20.5835],[-42.4871,-20.5776],[-42.4863,-20.5572],[-42.4627,-20.5634],[-42.4397,-20.5585],[-42.4074,-20.5773]]]}},{"type":"Feature","properties":{"codarea":"3110103","centroide":[-41.907351044390914,-20.726965946662812],"codigo_ibge":3110103,"nome_ig":"Matas de Minas"},"geometry":{"type":"Polygon","coordinates":[[[-41.8506,-20.6911],[-41.8612,-20.7226],[-41.8589,-20.7434],[-41.8708,-20.7423],[-41.8747,-20.7659],[-41.8791,-20.7791],[-41.905,-20.7973],[-41.9282,-20.794],[-41.9383,-20.7771],[-41.9268,-20.7437],[-41.9336,-20.7356],[-41.9681,-20.7326],[-41.9575,-20.6951],[-41.9111,-20.6611],[-41.8867,-20.6827],[-41.8506,-20.6911]]]}},{"type":"Feature","properties":{"codarea":"3110202","centroide":[-42.7644506999313,-20.78482013696677],"codigo_ibge":3110202,"nome_ig":"Matas de Minas"},"geometry":{"type":"Polygon","coordinates":[[[-42.7126,-20.8156],[-42.7319,-20.8032],[-42.7414,-20.8127],[-42.7681,-20.8138],[-42.7842,-20.8254],[-42.8105,-20.8076],[-42.83,-20.8088],[-42.824,-20.8009],[-42.8311,-20.7697],[-42.8257,-20.7563],[-42.7717,-20.7582],[-42.7535,-20.7451],[-42.7293,-20.7499],[-42.7236,-20.78],[-42.6895,-20.7735],[-42.679,-20.7803],[-42.7126,-20.8156]]]}},{"type":"Feature","properties":{"codarea":"3111705","centroide":[-42.62142975446997,-20.667469903849163],"codigo_ibge":3111705,"nome_ig":"Matas de Minas"},"geometry":{"type":"Polygon","coordinates":[[[-42.6411,-20.5834],[-42.6294,-20.5983],[-42.58,-20.606],[-42.5577,-20.5984],[-42.5679,-20.6418],[-42.5683,-20.6932],[-42.5761,-20.7024],[-42.5762,-20.7328],[-42.5886,-20.7464],[-42.6146,-20.7439],[-42.6214,-20.7573],[-42.6504,-20.7585],[-42.6304,-20.7484],[-42.6463,-20.7185],[-42.6737,-20.7202],[-42.6655,-20.7009],[-42.69,-20.696],[-42.6733,-20.685],[-42.6749,-20.667],[-42.6977,-20.6572],[-42.6824,-20.6496],[-42.6806,-20.6329],[-42.6681,-20.6352],[-42.675,-20.6002],[-42.6575,-20.6067],[-42.6411,-20.5834]]]}},{"type":"Feature","properties":{"codarea":"3112109","centroide":[-41.94961376907808,-20.527825454244848],"codigo_ibge":3112109,"nome_ig":"Matas de Minas"},"geometry":{"type":"Polygon","coordinates":[[[-41.9625,-20.5045],[-41.9314,-20.5163],[-41.9145,-20.5051],[-41.9143,-20.4881],[-41.8962,-20.5022],[-41.8669,-20.4921],[-41.8502,-20.4981],[-41.8641,-20.5243],[-41.8706,-20.5698],[-41.89,-20.5691],[-41.8989,-20.5806],[-41.9259,-20.5603],[-41.9624,-20.5565],[-41.9799,-20.574],[-41.9934,-20.5525],[-42.0332,-20.5359],[-42.0437,-20.5187],[-42.0658,-20.5171],[-42.0687,-20.5095],[-42.0585,-20.4994],[-42.0222,-20.4991],[-42.0165,-20.4869],[-41.9861,-20.4817],[-41.9711,-20.5062],[-41.9625,-20.5045]]]}},{"type":"Feature","properties":{"codarea":"3112901","centroide":[-42.252624096996385,-20.175677752743745],"codigo_ibge":3112901,"nome_ig":"Matas de Minas"},"geometry":{"type":"Polygon","coordinates":[[[-42.2099,-20.0893],[-42.2096,-20.1315],[-42.1967,-20.1477],[-42.2128,-20.1691],[-42.1942,-20.1951],[-42.201,-20.2364],[-42.2176,-20.24],[-42.2062,-20.2565],[-42.213,-20.2832],[-42.2505,-20.2739],[-42.2522,-20.2474],[-42.2857,-20.2123],[-42.302,-20.2262],[-42.3141,-20.2196],[-42.3149,-20.2019],[-42.3221,-20.1769],[-42.3107,-20.1427],[-42.309,-20.1168],[-42.2717,-20.0987],[-42.2498,-20.0943],[-42.2477,-20.0837],[-42.2099,-20.0893]]]}},{"type":"Feature","properties":{"codarea":"3113305","centroide":[-42.086130833409285,-20.702651309498908],"codigo_ibge":3113305,"nome_ig":"Matas de Minas"},"geometry":{"type":"Polygon","coordinates":[[[-41.9575,-20.6951],[-41.9681,-20.7326],[-41.9673,-20.7545],[-41.9867,-20.7859],[-41.9994,-20.7714],[-42.0199,-20.7745],[-42.0474,-20.7419],[-42.0606,-20.7434],[-42.0858,-20.7306],[-42.1271,-20.7497],[-42.1459,-20.7495],[-42.1722,-20.7857],[-42.1792,-20.8025],[-42.2013,-20.8159],[-42.2169,-20.7938],[-42.2058,-20.7632],[-42.2274,-20.7431],[-42.2472,-20.7371],[-42.2374,-20.7204],[-42.2376,-20.6874],[-42.222,-20.6834],[-42.2161,-20.6662],[-42.2095,-20.679],[-42.1837,-20.689],[-42.1342,-20.6904],[-42.0953,-20.6534],[-42.0929,-20.6164],[-42.0773,-20.5996],[-42.0624,-20.5985],[-42.0218,-20.613],[-41.9992,-20.6085],[-41.9781,-20.6133],[-41.9892,-20.6353],[-41.9876,-20.6573],[-41.9756,-20.6641],[-41.9575,-20.6951]]]}},{"type":"Feature","properties":{"codarea":"3113404","centroide":[-42.10159332432195,-19.711621143802436],"codigo_ibge":3113404,"nome_ig":"Matas de Minas"},"geometry":{"type":"Polygon","coordinates":[[[-42.2783,-19.4437],[-42.2749,-19.4475],[-42.3015,-19.4874],[-42.289,-19.4877],[-42.2996,-19.5208],[-42.2827,-19.533],[-42.2542,-19.5331],[-42.2441,-19.547],[-42.2143,-19.5585],[-42.2068,-19.6024],[-42.2117,-19.6154],[-42.1617,-19.6154],[-42.1668,-19.6477],[-42.1565,-19.6741],[-42.1212,-19.6768],[-42.1208,-19.7178],[-42.112,-19.741],[-42.0959,-19.7394],[-42.0901,-19.7778],[-42.0592,-19.7916],[-42.0629,-19.8336],[-42.0467,-19.8383],[-42.0267,-19.8254],[-42.0159,-19.83],[-41.9987,-19.7874],[-42.0083,-19.7327],[-41.9816,-19.725],[-41.9615,-19.7274],[-41.9568,-19.7062],[-41.9169,-19.6686],[-41.9031,-19.6212],[-41.8907,-19.6228],[-41.8781,-19.6005],[-41.8542,-19.5833],[-41.8145,-19.5944],[-41.8017,-19.6215],[-41.8374,-19.6346],[-41.8137,-19.6525],[-41.8194,-19.6771],[-41.8316,-19.6759],[-41.8183,-19.708],[-41.7919,-19.73],[-41.7781,-19.7528],[-41.7961,-19.7741],[-41.784,-19.7901],[-41.78,-19.814],[-41.81,-19.8276],[-41.802,-19.8321],[-41.8264,-19.8286],[-41.8619,-19.8614],[-41.8706,-19.8582],[-41.8904,-19.886],[-41.9286,-19.8782],[-41.9548,-19.885],[-41.9739,-19.8807],[-41.9739,-19.9382],[-41.9875,-19.924],[-42.0203,-19.9173],[-42.0221,-19.8997],[-42.051,-19.9014],[-42.0752,-19.8854],[-42.0767,-19.8451],[-42.1063,-19.8476],[-42.1405,-19.8306],[-42.1499,-19.8382],[-42.1735,-19.834],[-42.1678,-19.8603],[-42.1525,-19.8786],[-42.1648,-19.8944],[-42.1566,-19.9134],[-42.1691,-19.9383],[-42.1898,-19.9216],[-42.2234,-19.9307],[-42.2359,-19.9257],[-42.2463,-19.9148],[-42.2435,-19.8952],[-42.2324,-19.8906],[-42.2348,-19.8725],[-42.2494,-19.8506],[-42.2262,-19.8322],[-42.2051,-19.8309],[-42.233,-19.7966],[-42.2314,-19.7467],[-42.2407,-19.727],[-42.221,-19.7047],[-42.2255,-19.6877],[-42.1929,-19.6987],[-42.2008,-19.6807],[-42.1978,-19.6504],[-42.2189,-19.6468],[-42.2208,-19.6021],[-42.2276,-19.5887],[-42.2576,-19.5951],[-42.2635,-19.5828],[-42.269,-19.5527],[-42.2837,-19.5549],[-42.3011,-19.5382],[-42.3205,-19.541],[-42.3246,-19.5563],[-42.3515,-19.5684],[-42.347,-19.5894],[-42.3986,-19.6042],[-42.4086,-19.6026],[-42.4234,-19.5784],[-42.4896,-19.5436],[-42.5037,-19.5149],[-42.5217,-19.5037],[-42.5143,-19.4923],[-42.5023,-19.492],[-42.4918,-19.493],[-42.4759,-19.467],[-42.4399,-19.4641],[-42.432,-19.4394],[-42.3943,-19.4502],[-42.3873,-19.4665],[-42.3705,-19.447],[-42.3705,-19.447],[-42.3381,-19.4449],[-42.2951,-19.4552],[-42.2783,-19.4437]]]}},{"type":"Feature","properties":{"codarea":"3116001","centroide":[-41.659845067012775,-20.0304703594509],"codigo_ibge":3116001,"nome_ig":"Matas de Minas"},"geometry":{"type":"Polygon","coordinates":[[[-41.6485,-19.9731],[-41.6301,-19.9928],[-41.6164,-19.9832],[-41.5939,-20.0018],[-41.5658,-19.9864],[-41.5477,-19.9963],[-41.5594,-20.0332],[-41.5813,-20.069],[-41.586,-20.057],[-41.6292,-20.0701],[-41.6625,-20.097],[-41.7267,-20.1022],[-41.7442,-20.061],[-41.7323,-20.0533],[-41.7506,-20.042],[-41.7446,-20.0222],[-41.7198,-19.9977],[-41.7223,-19.9873],[-41.7032,-19.9743],[-41.6984,-19.9554],[-41.6793,-19.9587],[-41.6565,-19.942],[-41.6578,-19.9702],[-41.6485,-19.9731]]]}},{"type":"Feature","properties":{"codarea":"3116704","centroide":[-42.7909089728435,-20.84346623774007],"codigo_ibge":3116704,"nome_ig":"Matas de Minas"},"geometry":{"type":"Polygon","coordinates":[[[-42.7126,-20.8156],[-42.7093,-20.8392],[-42.7041,-20.854],[-42.7298,-20.8616],[-42.7633,-20.8815],[-42.797,-20.8662],[-42.7989,-20.8806],[-42.8333,-20.8705],[-42.8516,-20.8804],[-42.8775,-20.8464],[-42.886,-20.8466],[-42.8861,-20.8248],[-42.8453,-20.8388],[-42.8434,-20.815],[-42.83,-20.8088],[-42.8105,-20.8076],[-42.7842,-20.8254],[-42.7681,-20.8138],[-42.7414,-20.8127],[-42.7319,-20.8032],[-42.7126,-20.8156]]]}},{"type":"Feature","properties":{"codarea":"3117405","centroide":[-41.686400044785024,-19.913297926105084],"codigo_ibge":3117405,"nome_ig":"Matas de Minas"},"geometry":{"type":"Polygon","coordinates":[[[-41.5909,-19.8073],[-41.5875,-19.8414],[-41.5739,-19.849],[-41.6057,-19.8929],[-41.5977,-19.9348],[-41.6146,-19.9416],[-41.6087,-19.9537],[-41.6485,-19.9731],[-41.6578,-19.9702],[-41.6565,-19.942],[-41.6793,-19.9587],[-41.6984,-19.9554],[-41.7032,-19.9743],[-41.7223,-19.9873],[-41.7198,-19.9977],[-41.7459,-19.9886],[-41.7816,-19.9839],[-41.8074,-19.9895],[-41.7986,-19.9817],[-41.8023,-19.9565],[-41.8151,-19.9425],[-41.8286,-19.9479],[-41.8414,-19.9253],[-41.7952,-19.9244],[-41.7831,-19.9147],[-41.776,-19.9272],[-41.7373,-19.9143],[-41.7083,-19.8632],[-41.6725,-19.8601],[-41.652,-19.8458],[-41.655,-19.832],[-41.6418,-19.8223],[-41.6162,-19.8195],[-41.5909,-19.8073]]]}},{"type":"Feature","properties":{"codarea":"3122009","centroide":[-42.175062651454354,-20.590846996526956],"codigo_ibge":3122009,"nome_ig":"Matas de Minas"},"geometry":{"type":"Polygon","coordinates":[[[-42.1359,-20.4686],[-42.1345,-20.4936],[-42.0981,-20.4947],[-42.0896,-20.5074],[-42.0687,-20.5095],[-42.0658,-20.5171],[-42.0873,-20.5451],[-42.074,-20.5648],[-42.0773,-20.5996],[-42.0929,-20.6164],[-42.0953,-20.6534],[-42.1342,-20.6904],[-42.1837,-20.689],[-42.2095,-20.679],[-42.2161,-20.6662],[-42.2445,-20.652],[-42.2632,-20.6152],[-42.2863,-20.6123],[-42.2967,-20.585],[-42.3181,-20.5697],[-42.3272,-20.5784],[-42.3582,-20.5789],[-42.3454,-20.5606],[-42.3482,-20.5441],[-42.3193,-20.5469],[-42.2979,-20.5386],[-42.2871,-20.5549],[-42.2769,-20.5479],[-42.2615,-20.5685],[-42.2373,-20.5659],[-42.2108,-20.593],[-42.1881,-20.5732],[-42.1956,-20.5525],[-42.167,-20.5267],[-42.1641,-20.4812],[-42.1562,-20.4676],[-42.1359,-20.4686]]]}},{"type":"Feature","properties":{"codarea":"3123528","centroide":[-41.79553209447592,-20.146816854618226],"codigo_ibge":3123528,"nome_ig":"Matas de Minas"},"geometry":{"type":"Polygon","coordinates":[[[-41.7442,-20.061],[-41.7267,-20.1022],[-41.7451,-20.1319],[-41.7362,-20.1921],[-41.7567,-20.2068],[-41.7749,-20.26],[-41.7886,-20.2411],[-41.8202,-20.2341],[-41.8173,-20.2082],[-41.873,-20.1979],[-41.8873,-20.1692],[-41.8297,-20.1151],[-41.8172,-20.0853],[-41.8245,-20.0655],[-41.8107,-20.0424],[-41.7897,-20.043],[-41.7848,-20.0544],[-41.7442,-20.061]]]}},{"type":"Feature","properties":{"codarea":"3123858","centroide":[-42.24131185509392,-19.653964176460267],"codigo_ibge":3123858,"nome_ig":"Matas de Minas"},"geometry":{"type":"Polygon","coordinates":[[[-42.2635,-19.5828],[-42.2576,-19.5951],[-42.2276,-19.5887],[-42.2208,-19.6021],[-42.2189,-19.6468],[-42.1978,-19.6504],[-42.2008,-19.6807],[-42.1929,-19.6987],[-42.2255,-19.6877],[-42.221,-19.7047],[-42.2407,-19.727],[-42.2609,-19.7188],[-42.2618,-19.6966],[-42.2717,-19.6754],[-42.2528,-19.6558],[-42.2808,-19.6511],[-42.2841,-19.635],[-42.267,-19.6106],[-42.2773,-19.5949],[-42.2635,-19.5828]]]}},{"type":"Feature","properties":{"codarea":"3124005","centroide":[-42.600947328991474,-20.84957017067523],"codigo_ibge":3124005,"nome_ig":"Matas de Minas"},"geometry":{"type":"Polygon","coordinates":[[[-42.4792,-20.7601],[-42.4889,-20.7817],[-42.4828,-20.7893],[-42.4994,-20.8461],[-42.514,-20.867],[-42.5249,-20.8931],[-42.5474,-20.8922],[-42.5661,-20.922],[-42.582,-20.953],[-42.6118,-20.9862],[-42.6282,-20.9773],[-42.6258,-20.966],[-42.6425,-20.9153],[-42.6576,-20.895],[-42.6651,-20.9073],[-42.6929,-20.9079],[-42.7206,-20.8954],[-42.7298,-20.8616],[-42.7041,-20.854],[-42.7093,-20.8392],[-42.6749,-20.813],[-42.6592,-20.7812],[-42.6615,-20.7557],[-42.6504,-20.7585],[-42.6215,-20.7641],[-42.605,-20.7529],[-42.5926,-20.7687],[-42.5747,-20.7747],[-42.5625,-20.7661],[-42.542,-20.7772],[-42.5223,-20.768],[-42.5135,-20.7532],[-42.4949,-20.7674],[-42.4792,-20.7601]]]}},{"type":"Feature","properties":{"codarea":"3124203","centroide":[-41.92852081760289,-20.598476523858313],"codigo_ibge":3124203,"nome_ig":"Matas de Minas"},"geometry":{"type":"Polygon","coordinates":[[[-41.8254,-20.4832],[-41.8118,-20.5166],[-41.8118,-20.5166],[-41.8083,-20.5505],[-41.8283,-20.5572],[-41.8412,-20.6004],[-41.8562,-20.6173],[-41.8174,-20.6245],[-41.8072,-20.6436],[-41.8506,-20.6911],[-41.8867,-20.6827],[-41.9111,-20.6611],[-41.9575,-20.6951],[-41.9756,-20.6641],[-41.9876,-20.6573],[-41.9892,-20.6353],[-41.9781,-20.6133],[-41.9992,-20.6085],[-42.0218,-20.613],[-42.0624,-20.5985],[-42.0773,-20.5996],[-42.074,-20.5648],[-42.0873,-20.5451],[-42.0658,-20.5171],[-42.0437,-20.5187],[-42.0332,-20.5359],[-41.9934,-20.5525],[-41.9799,-20.574],[-41.9624,-20.5565],[-41.9259,-20.5603],[-41.8989,-20.5806],[-41.89,-20.5691],[-41.8706,-20.5698],[-41.8641,-20.5243],[-41.8502,-20.4981],[-41.838,-20.4817],[-41.8254,-20.4832]]]}},{"type":"Feature","properties":{"codarea":"3124906","centroide":[-42.22300234617508,-21.0144255005874],"codigo_ibge":3124906,"nome_ig":"Matas de Minas"},"geometry":{"type":"Polygon","coordinates":[[[-42.1873,-20.8698],[-42.1695,-20.8958],[-42.1716,-20.9223],[-42.1593,-20.9363],[-42.1646,-20.9736],[-42.181,-20.9744],[-42.1923,-20.9924],[-42.2175,-21.0083],[-42.2205,-21.0238],[-42.1707,-21.0398],[-42.1647,-21.0586],[-42.1184,-21.0747],[-42.1312,-21.0793],[-42.1397,-21.1028],[-42.1636,-21.1006],[-42.1744,-21.1317],[-42.1921,-21.1335],[-42.2131,-21.119],[-42.2322,-21.1339],[-42.2626,-21.1286],[-42.2738,-21.1424],[-42.2988,-21.1225],[-42.2961,-21.0862],[-42.2848,-21.0695],[-42.2723,-21.0715],[-42.2539,-21.0511],[-42.279,-21.0385],[-42.3025,-21.0183],[-42.2986,-21.0001],[-42.2733,-20.973],[-42.2596,-20.9053],[-42.2329,-20.8901],[-42.2318,-20.8791],[-42.2098,-20.8543],[-42.1873,-20.8698]]]}},{"type":"Feature","properties":{"codarea":"3125309","centroide":[-42.036456459072845,-20.780932911810304],"codigo_ibge":3125309,"nome_ig":"Matas de Minas"},"geometry":{"type":"Polygon","coordinates":[[[-41.9681,-20.7326],[-41.9336,-20.7356],[-41.9268,-20.7437],[-41.9383,-20.7771],[-41.9282,-20.794],[-41.9353,-20.829],[-41.9297,-20.8435],[-41.9537,-20.8337],[-41.9565,-20.8241],[-41.9794,-20.8187],[-41.9841,-20.8281],[-42.0022,-20.8175],[-42.0141,-20.8221],[-42.0374,-20.8076],[-42.0698,-20.8125],[-42.1023,-20.805],[-42.1196,-20.7942],[-42.1412,-20.7969],[-42.1722,-20.7857],[-42.1459,-20.7495],[-42.1271,-20.7497],[-42.0858,-20.7306],[-42.0606,-20.7434],[-42.0474,-20.7419],[-42.0199,-20.7745],[-41.9994,-20.7714],[-41.9867,-20.7859],[-41.9673,-20.7545],[-41.9681,-20.7326]]]}},{"type":"Feature","properties":{"codarea":"3125952","centroide":[-42.34638270379053,-20.68035204832083],"codigo_ibge":3125952,"nome_ig":"Matas de Minas"},"geometry":{"type":"Polygon","coordinates":[[[-42.2161,-20.6662],[-42.222,-20.6834],[-42.2376,-20.6874],[-42.2374,-20.7204],[-42.2472,-20.7371],[-42.2542,-20.752],[-42.2937,-20.7357],[-42.3088,-20.7233],[-42.3079,-20.7097],[-42.3242,-20.708],[-42.3239,-20.7484],[-42.3502,-20.7772],[-42.3614,-20.7776],[-42.3936,-20.7534],[-42.4222,-20.7659],[-42.4338,-20.7512],[-42.471,-20.7499],[-42.4804,-20.7217],[-42.4675,-20.689],[-42.4489,-20.6868],[-42.4292,-20.6671],[-42.4185,-20.6675],[-42.4106,-20.6355],[-42.379,-20.5889],[-42.3582,-20.5789],[-42.3272,-20.5784],[-42.3181,-20.5697],[-42.2967,-20.585],[-42.2863,-20.6123],[-42.2632,-20.6152],[-42.2445,-20.652],[-42.2161,-20.6662]]]}},{"type":"Feature","properties":{"codarea":"3130556","centroide":[-41.966823203993364,-19.617101278178584],"codigo_ibge":3130556,"nome_ig":"Matas de Minas"},"geometry":{"type":"Polygon","coordinates":[[[-41.9017,-19.565],[-41.8891,-19.5716],[-41.9027,-19.6046],[-41.9031,-19.6212],[-41.9169,-19.6686],[-41.9568,-19.7062],[-41.9615,-19.7274],[-41.9816,-19.725],[-42.0083,-19.7327],[-42.0184,-19.7088],[-41.9911,-19.6947],[-41.9686,-19.6982],[-41.9851,-19.6812],[-41.967,-19.6629],[-41.965,-19.637],[-41.9896,-19.638],[-42.0019,-19.6204],[-42.0369,-19.6339],[-42.0484,-19.6209],[-42.0458,-19.5998],[-42.0486,-19.5717],[-42.0246,-19.5658],[-41.9914,-19.5386],[-41.9131,-19.5525],[-41.9017,-19.565]]]}},{"type":"Feature","properties":{"codarea":"3130903","centroide":[-41.9670540950558,-19.498822151230573],"codigo_ibge":3130903,"nome_ig":"Matas de Minas"},"geometry":{"type":"Polygon","coordinates":[[[-41.8228,-19.4273],[-41.8238,-19.4464],[-41.8354,-19.4598],[-41.8035,-19.4565],[-41.7908,-19.4691],[-41.7622,-19.475],[-41.7799,-19.4832],[-41.7794,-19.4984],[-41.7581,-19.5079],[-41.7293,-19.4975],[-41.6983,-19.4977],[-41.6636,-19.4546],[-41.666,-19.4892],[-41.6523,-19.5101],[-41.6531,-19.5325],[-41.7018,-19.5698],[-41.7514,-19.5945],[-41.8045,-19.5776],[-41.8145,-19.5944],[-41.8542,-19.5833],[-41.8781,-19.6005],[-41.8907,-19.6228],[-41.9031,-19.6212],[-41.9027,-19.6046],[-41.8891,-19.5716],[-41.9017,-19.565],[-41.8942,-19.5377],[-41.9377,-19.4981],[-41.9577,-19.454],[-41.9847,-19.4461],[-41.9997,-19.4587],[-42.0104,-19.4586],[-42.019,-19.4852],[-42.0352,-19.5009],[-42.0574,-19.499],[-42.076,-19.5221],[-42.0555,-19.5558],[-42.0638,-19.5685],[-42.0486,-19.5717],[-42.0458,-19.5998],[-42.0972,-19.6034],[-42.1114,-19.5942],[-42.1126,-19.6145],[-42.1272,-19.6237],[-42.1617,-19.6154],[-42.2117,-19.6154],[-42.2068,-19.6024],[-42.2143,-19.5585],[-42.2441,-19.547],[-42.2349,-19.5286],[-42.2102,-19.501],[-42.215,-19.4895],[-42.1995,-19.4841],[-42.1871,-19.4586],[-42.1746,-19.4589],[-42.1527,-19.438],[-42.1362,-19.4149],[-42.1174,-19.4152],[-42.1078,-19.4281],[-42.0807,-19.4215],[-42.0753,-19.4049],[-42.0283,-19.3767],[-42.0042,-19.3861],[-41.9746,-19.3696],[-41.9779,-19.3622],[-41.9585,-19.3437],[-41.9124,-19.3806],[-41.8879,-19.3861],[-41.8456,-19.4232],[-41.8424,-19.4362],[-41.8228,-19.4273]]]}},{"type":"Feature","properties":{"codarea":"3135506","centroide":[-42.62059203218605,-20.47383333960381],"codigo_ibge":3135506,"nome_ig":"Matas de Minas"},"geometry":{"type":"Polygon","coordinates":[[[-42.543,-20.3597],[-42.5278,-20.355],[-42.5134,-20.3699],[-42.5317,-20.4098],[-42.5265,-20.4249],[-42.5303,-20.4564],[-42.5063,-20.468],[-42.5101,-20.4931],[-42.5026,-20.5015],[-42.5137,-20.5187],[-42.4863,-20.5572],[-42.4871,-20.5776],[-42.5362,-20.5835],[-42.5352,-20.6045],[-42.5577,-20.5984],[-42.58,-20.606],[-42.6294,-20.5983],[-42.6411,-20.5834],[-42.6329,-20.5629],[-42.6505,-20.5589],[-42.6794,-20.5313],[-42.7022,-20.5338],[-42.7243,-20.5202],[-42.7459,-20.5249],[-42.7644,-20.5151],[-42.7475,-20.4887],[-42.7573,-20.4557],[-42.7448,-20.4444],[-42.7518,-20.4083],[-42.7458,-20.3975],[-42.7278,-20.3933],[-42.6891,-20.3444],[-42.6783,-20.3424],[-42.6427,-20.3576],[-42.6423,-20.3728],[-42.617,-20.3759],[-42.5751,-20.3718],[-42.5509,-20.3746],[-42.543,-20.3597]]]}},{"type":"Feature","properties":{"codarea":"3137700","centroide":[-41.58808688839477,-20.143364049465326],"codigo_ibge":3137700,"nome_ig":"Matas de Minas"},"geometry":{"type":"Polygon","coordinates":[[[-41.4118,-20.2061],[-41.4155,-20.2073],[-41.666,-20.2069],[-41.7567,-20.2068],[-41.7362,-20.1921],[-41.7451,-20.1319],[-41.7267,-20.1022],[-41.6625,-20.097],[-41.6292,-20.0701],[-41.586,-20.057],[-41.5813,-20.069],[-41.5594,-20.0332],[-41.5384,-20.0581],[-41.516,-20.0521],[-41.4988,-20.0759],[-41.5033,-20.1037],[-41.4908,-20.1196],[-41.4685,-20.1108],[-41.4539,-20.1208],[-41.4282,-20.1647],[-41.4375,-20.1913],[-41.4118,-20.2061]]]}},{"type":"Feature","properties":{"codarea":"3138674","centroide":[-42.07433045606811,-20.436323394368635],"codigo_ibge":3138674,"nome_ig":"Matas de Minas"},"geometry":{"type":"Polygon","coordinates":[[[-42.0456,-20.3768],[-42.0126,-20.4104],[-42.0063,-20.4436],[-42.0188,-20.4521],[-42.024,-20.4737],[-42.0624,-20.482],[-42.0585,-20.4994],[-42.0687,-20.5095],[-42.0896,-20.5074],[-42.0981,-20.4947],[-42.1345,-20.4936],[-42.1359,-20.4686],[-42.1163,-20.4089],[-42.1162,-20.3881],[-42.0887,-20.3604],[-42.0456,-20.3768]]]}},{"type":"Feature","properties":{"codarea":"3139409","centroide":[-42.10610648887762,-20.19557432023002],"codigo_ibge":3139409,"nome_ig":"Matas de Minas"},"geometry":{"type":"Polygon","coordinates":[[[-42.1255,-20.019],[-42.122,-20.0389],[-42.0818,-20.0747],[-42.0726,-20.1168],[-42.0825,-20.149],[-42.0677,-20.1678],[-42.051,-20.1679],[-42.0189,-20.1511],[-42.0012,-20.1698],[-42.0013,-20.1545],[-41.9701,-20.1497],[-41.9585,-20.156],[-41.9574,-20.1811],[-41.9686,-20.1842],[-41.9684,-20.2102],[-41.9935,-20.217],[-42.0052,-20.2419],[-41.9988,-20.2875],[-42.0002,-20.3098],[-42.0082,-20.3386],[-42.0251,-20.3432],[-42.0328,-20.3715],[-42.0456,-20.3768],[-42.0887,-20.3604],[-42.1164,-20.3551],[-42.1244,-20.3427],[-42.1099,-20.3196],[-42.1166,-20.3037],[-42.1518,-20.2908],[-42.1893,-20.2877],[-42.1967,-20.2936],[-42.213,-20.2832],[-42.2062,-20.2565],[-42.2176,-20.24],[-42.201,-20.2364],[-42.1942,-20.1951],[-42.2128,-20.1691],[-42.1967,-20.1477],[-42.2096,-20.1315],[-42.2099,-20.0893],[-42.1959,-20.0326],[-42.2035,-20.0276],[-42.1973,-20.0035],[-42.1632,-19.9898],[-42.1417,-20.0157],[-42.1255,-20.019]]]}},{"type":"Feature","properties":{"codarea":"3139508","centroide":[-41.9383087564533,-20.346453675538637],"codigo_ibge":3139508,"nome_ig":"Matas de Minas"},"geometry":{"type":"Polygon","coordinates":[[[-41.8876,-20.3052],[-41.8509,-20.2961],[-41.8221,-20.3109],[-41.8532,-20.3505],[-41.8594,-20.3729],[-41.8818,-20.3806],[-41.9218,-20.3854],[-41.9288,-20.3959],[-41.9509,-20.3873],[-41.9634,-20.4065],[-41.9695,-20.3969],[-41.9927,-20.3978],[-42.0126,-20.4104],[-42.0456,-20.3768],[-42.0328,-20.3715],[-42.0251,-20.3432],[-42.0082,-20.3386],[-42.0002,-20.3098],[-41.987,-20.2946],[-41.9556,-20.3007],[-41.9544,-20.2941],[-41.9207,-20.2914],[-41.9116,-20.3128],[-41.8876,-20.3052]]]}},{"type":"Feature","properties":{"codarea":"3140530","centroide":[-41.842761112278296,-20.257847368038608],"codigo_ibge":3140530,"nome_ig":"Matas de Minas"},"geometry":{"type":"Polygon","coordinates":[[[-41.7749,-20.26],[-41.7821,-20.2944],[-41.8221,-20.3109],[-41.8509,-20.2961],[-41.8876,-20.3052],[-41.9031,-20.2721],[-41.8931,-20.2523],[-41.8975,-20.2272],[-41.873,-20.1979],[-41.8173,-20.2082],[-41.8202,-20.2341],[-41.7886,-20.2411],[-41.7749,-20.26]]]}},{"type":"Feature","properties":{"codarea":"3140902","centroide":[-42.31563071570065,-20.307941998527905],"codigo_ibge":3140902,"nome_ig":"Matas de Minas"},"geometry":{"type":"Polygon","coordinates":[[[-42.213,-20.2832],[-42.1967,-20.2936],[-42.2063,-20.324],[-42.2417,-20.3431],[-42.2548,-20.3364],[-42.2808,-20.3451],[-42.2778,-20.3668],[-42.3066,-20.3809],[-42.3216,-20.37],[-42.3457,-20.3804],[-42.345,-20.3947],[-42.3654,-20.4042],[-42.3977,-20.3777],[-42.394,-20.3599],[-42.4152,-20.3499],[-42.411,-20.3189],[-42.3908,-20.2805],[-42.3687,-20.282],[-42.374,-20.2675],[-42.3595,-20.2451],[-42.3211,-20.2332],[-42.3254,-20.2143],[-42.3149,-20.2019],[-42.3141,-20.2196],[-42.302,-20.2262],[-42.2857,-20.2123],[-42.2522,-20.2474],[-42.2505,-20.2739],[-42.213,-20.2832]]]}},{"type":"Feature","properties":{"codarea":"3142106","centroide":[-42.400458068481896,-20.849068275663782],"codigo_ibge":3142106,"nome_ig":"Matas de Minas"},"geometry":{"type":"Polygon","coordinates":[[[-42.3614,-20.7776],[-42.345,-20.8058],[-42.3538,-20.8204],[-42.3252,-20.8354],[-42.3253,-20.8509],[-42.3051,-20.8632],[-42.2756,-20.8591],[-42.2598,-20.8421],[-42.2665,-20.8614],[-42.2952,-20.8719],[-42.3022,-20.9076],[-42.3218,-20.9033],[-42.3453,-20.9148],[-42.336,-20.9214],[-42.348,-20.9587],[-42.378,-20.9556],[-42.4163,-20.9439],[-42.4272,-20.9199],[-42.4233,-20.9051],[-42.4409,-20.9099],[-42.4345,-20.8889],[-42.4418,-20.8751],[-42.4636,-20.8686],[-42.514,-20.867],[-42.4994,-20.8461],[-42.4828,-20.7893],[-42.4889,-20.7817],[-42.4792,-20.7601],[-42.471,-20.7499],[-42.4338,-20.7512],[-42.4222,-20.7659],[-42.3936,-20.7534],[-42.3614,-20.7776]]]}},{"type":"Feature","properties":{"codarea":"3142205","centroide":[-42.617941558760904,-21.150589955418056],"codigo_ibge":3142205,"nome_ig":"Matas de Minas"},"geometry":{"type":"Polygon","coordinates":[[[-42.5288,-21.2026],[-42.5569,-21.223],[-42.5924,-21.2156],[-42.6125,-21.2326],[-42.6299,-21.2412],[-42.6383,-21.226],[-42.6627,-21.2201],[-42.676,-21.2364],[-42.6923,-21.2209],[-42.7275,-21.218],[-42.7528,-21.2032],[-42.7458,-21.2012],[-42.7067,-21.1418],[-42.6808,-21.1147],[-42.6894,-21.0934],[-42.66,-21.0895],[-42.6553,-21.0776],[-42.6235,-21.0771],[-42.5831,-21.0506],[-42.5597,-21.0555],[-42.5465,-21.0439],[-42.5565,-21.0739],[-42.522,-21.0768],[-42.5012,-21.0918],[-42.5191,-21.112],[-42.5213,-21.1317],[-42.5513,-21.1353],[-42.5632,-21.1443],[-42.5404,-21.1528],[-42.5215,-21.1739],[-42.5288,-21.2026]]]}},{"type":"Feature","properties":{"codarea":"3143906","centroide":[-42.421627551123954,-21.091407380425885],"codigo_ibge":3143906,"nome_ig":"Matas de Minas"},"geometry":{"type":"Polygon","coordinates":[[[-42.348,-20.9587],[-42.3431,-20.9739],[-42.3278,-20.9739],[-42.2945,-20.9952],[-42.2986,-21.0001],[-42.3025,-21.0183],[-42.279,-21.0385],[-42.2539,-21.0511],[-42.2723,-21.0715],[-42.2848,-21.0695],[-42.2961,-21.0862],[-42.2988,-21.1225],[-42.3082,-21.1315],[-42.3226,-21.1813],[-42.3361,-21.1838],[-42.3274,-21.2103],[-42.3623,-21.2168],[-42.3643,-21.233],[-42.3425,-21.2439],[-42.3315,-21.2719],[-42.3468,-21.3016],[-42.3637,-21.3063],[-42.399,-21.3006],[-42.3981,-21.2902],[-42.4183,-21.2592],[-42.4451,-21.2546],[-42.4629,-21.2694],[-42.4916,-21.2484],[-42.5328,-21.2303],[-42.5288,-21.2026],[-42.5215,-21.1739],[-42.5404,-21.1528],[-42.5632,-21.1443],[-42.5513,-21.1353],[-42.5213,-21.1317],[-42.5191,-21.112],[-42.5012,-21.0918],[-42.522,-21.0768],[-42.5565,-21.0739],[-42.5465,-21.0439],[-42.5261,-21.0275],[-42.5384,-20.9993],[-42.5281,-20.9881],[-42.5084,-21.0057],[-42.4813,-21.0133],[-42.4556,-21.0084],[-42.4399,-21.0162],[-42.4231,-20.9816],[-42.4276,-20.9545],[-42.443,-20.9523],[-42.4609,-20.965],[-42.4893,-20.9582],[-42.4976,-20.944],[-42.5221,-20.9508],[-42.5285,-20.9379],[-42.5661,-20.922],[-42.5474,-20.8922],[-42.5249,-20.8931],[-42.514,-20.867],[-42.4636,-20.8686],[-42.4418,-20.8751],[-42.4345,-20.8889],[-42.4409,-20.9099],[-42.4233,-20.9051],[-42.4272,-20.9199],[-42.4163,-20.9439],[-42.378,-20.9556],[-42.348,-20.9587]]]}},{"type":"Feature","properties":{"codarea":"3144003","centroide":[-41.44672519498333,-19.9193532678889],"codigo_ibge":3144003,"nome_ig":"Matas de Minas"},"geometry":{"type":"Polygon","coordinates":[[[-41.2979,-19.9376],[-41.3198,-19.9786],[-41.3087,-19.997],[-41.3185,-20.0415],[-41.3326,-20.0576],[-41.3381,-20.0881],[-41.3824,-20.189],[-41.4118,-20.2061],[-41.4375,-20.1913],[-41.4282,-20.1647],[-41.4539,-20.1208],[-41.4685,-20.1108],[-41.4908,-20.1196],[-41.5033,-20.1037],[-41.4988,-20.0759],[-41.516,-20.0521],[-41.5384,-20.0581],[-41.5594,-20.0332],[-41.5477,-19.9963],[-41.5658,-19.9864],[-41.5939,-20.0018],[-41.6164,-19.9832],[-41.6301,-19.9928],[-41.6485,-19.9731],[-41.6087,-19.9537],[-41.6146,-19.9416],[-41.5977,-19.9348],[-41.6057,-19.8929],[-41.5739,-19.849],[-41.5875,-19.8414],[-41.5909,-19.8073],[-41.5795,-19.7902],[-41.5805,-19.7733],[-41.5541,-19.754],[-41.5558,-19.7298],[-41.5234,-19.721],[-41.4953,-19.6965],[-41.4904,-19.681],[-41.455,-19.6934],[-41.4272,-19.6928],[-41.4196,-19.6732],[-41.3864,-19.6582],[-41.3802,-19.6743],[-41.3877,-19.6997],[-41.3807,-19.712],[-41.393,-19.7492],[-41.3802,-19.7677],[-41.3525,-19.7673],[-41.3427,-19.7963],[-41.3267,-19.802],[-41.3344,-19.8353],[-41.287,-19.8627],[-41.2891,-19.8852],[-41.2795,-19.8802],[-41.2755,-19.8997],[-41.2999,-19.9045],[-41.2915,-19.9281],[-41.2979,-19.9376]]]}},{"type":"Feature","properties":{"codarea":"3145877","centroide":[-42.2129757383848,-20.515101927749825],"codigo_ibge":3145877,"nome_ig":"Matas de Minas"},"geometry":{"type":"Polygon","coordinates":[[[-42.1882,-20.4339],[-42.1844,-20.4496],[-42.1589,-20.4574],[-42.1562,-20.4676],[-42.1641,-20.4812],[-42.167,-20.5267],[-42.1956,-20.5525],[-42.1881,-20.5732],[-42.2108,-20.593],[-42.2373,-20.5659],[-42.2615,-20.5685],[-42.2769,-20.5479],[-42.2677,-20.5162],[-42.2461,-20.4966],[-42.2426,-20.481],[-42.2178,-20.4696],[-42.2041,-20.4369],[-42.1882,-20.4339]]]}},{"type":"Feature","properties":{"codarea":"3148301","centroide":[-42.985343682098616,-20.855610527799758],"codigo_ibge":3148301,"nome_ig":"Matas de Minas"},"geometry":{"type":"Polygon","coordinates":[[[-42.9969,-20.7564],[-42.9571,-20.7755],[-42.9528,-20.8129],[-42.9413,-20.8188],[-42.921,-20.8068],[-42.8861,-20.8248],[-42.886,-20.8466],[-42.9074,-20.8595],[-42.9115,-20.8911],[-42.9274,-20.9026],[-42.9482,-20.9386],[-42.9331,-20.9473],[-42.9442,-20.9542],[-42.9426,-20.9845],[-42.9535,-20.9677],[-42.9666,-20.9759],[-42.9826,-20.9542],[-42.9922,-20.9273],[-43.0368,-20.9294],[-43.0343,-20.9134],[-43.0424,-20.8818],[-43.0763,-20.8691],[-43.0817,-20.8531],[-43.0545,-20.836],[-43.0817,-20.8162],[-43.0574,-20.7973],[-43.0404,-20.7984],[-43.036,-20.7707],[-43.0239,-20.7563],[-42.9969,-20.7564]]]}},{"type":"Feature","properties":{"codarea":"3148756","centroide":[-42.37505218619805,-20.477090587606277],"codigo_ibge":3148756,"nome_ig":"Matas de Minas"},"geometry":{"type":"Polygon","coordinates":[[[-42.345,-20.3947],[-42.3441,-20.4364],[-42.3263,-20.4681],[-42.335,-20.4956],[-42.3173,-20.5065],[-42.3193,-20.5469],[-42.3482,-20.5441],[-42.3454,-20.5606],[-42.3582,-20.5789],[-42.379,-20.5889],[-42.4074,-20.5773],[-42.415,-20.5625],[-42.4065,-20.5331],[-42.396,-20.5289],[-42.3856,-20.5046],[-42.4042,-20.4826],[-42.4044,-20.4483],[-42.4343,-20.4354],[-42.4191,-20.4152],[-42.426,-20.358],[-42.4152,-20.3499],[-42.394,-20.3599],[-42.3977,-20.3777],[-42.3654,-20.4042],[-42.345,-20.3947]]]}},{"type":"Feature","properties":{"codarea":"3149002","centroide":[-42.15350016688534,-20.827018606988315],"codigo_ibge":3149002,"nome_ig":"Matas de Minas"},"geometry":{"type":"Polygon","coordinates":[[[-42.1023,-20.805],[-42.0973,-20.8376],[-42.1111,-20.8585],[-42.1341,-20.8485],[-42.1725,-20.8549],[-42.1873,-20.8698],[-42.2098,-20.8543],[-42.2028,-20.8384],[-42.2099,-20.8222],[-42.2013,-20.8159],[-42.1792,-20.8025],[-42.1722,-20.7857],[-42.1412,-20.7969],[-42.1196,-20.7942],[-42.1023,-20.805]]]}},{"type":"Feature","properties":{"codarea":"3150158","centroide":[-42.04470992141729,-19.76249258421627],"codigo_ibge":3150158,"nome_ig":"Matas de Minas"},"geometry":{"type":"Polygon","coordinates":[[[-42.0184,-19.7088],[-42.0083,-19.7327],[-41.9987,-19.7874],[-42.0159,-19.83],[-42.0267,-19.8254],[-42.0467,-19.8383],[-42.0629,-19.8336],[-42.0592,-19.7916],[-42.0901,-19.7778],[-42.0959,-19.7394],[-42.0816,-19.7286],[-42.0803,-19.7081],[-42.0664,-19.6876],[-42.0451,-19.7029],[-42.0184,-19.7088]]]}},{"type":"Feature","properties":{"codarea":"3152303","centroide":[-43.08069877748,-20.662844387071548],"codigo_ibge":3152303,"nome_ig":"Matas de Minas"},"geometry":{"type":"Polygon","coordinates":[[[-42.9672,-20.6781],[-42.9686,-20.6926],[-42.9948,-20.6969],[-43.0024,-20.7075],[-42.9921,-20.7317],[-43.0022,-20.7322],[-42.9969,-20.7564],[-43.0239,-20.7563],[-43.036,-20.7707],[-43.0499,-20.7684],[-43.07,-20.7258],[-43.0996,-20.7075],[-43.13,-20.7195],[-43.1631,-20.7243],[-43.1749,-20.7137],[-43.1694,-20.6895],[-43.1398,-20.6893],[-43.1371,-20.68],[-43.1644,-20.6602],[-43.1581,-20.6433],[-43.1761,-20.6301],[-43.1867,-20.5858],[-43.1678,-20.5699],[-43.1472,-20.5821],[-43.1379,-20.5618],[-43.1224,-20.5731],[-43.1197,-20.6039],[-43.0802,-20.5817],[-43.0607,-20.5977],[-43.0197,-20.6002],[-43.0096,-20.6208],[-43.0203,-20.6555],[-42.9964,-20.6571],[-42.9875,-20.668],[-42.9785,-20.6565],[-42.9672,-20.6781]]]}},{"type":"Feature","properties":{"codarea":"3154002","centroide":[-42.39049272786161,-20.012540624057312],"codigo_ibge":3154002,"nome_ig":"Matas de Minas"},"geometry":{"type":"Polygon","coordinates":[[[-42.3704,-19.8597],[-42.3514,-19.9058],[-42.3626,-19.9099],[-42.3566,-19.9273],[-42.2977,-19.9365],[-42.2864,-19.9242],[-42.274,-19.9314],[-42.2359,-19.9257],[-42.2234,-19.9307],[-42.1898,-19.9216],[-42.1691,-19.9383],[-42.1592,-19.9571],[-42.1632,-19.9898],[-42.1973,-20.0035],[-42.2047,-19.991],[-42.2287,-19.9931],[-42.2707,-19.9663],[-42.2873,-19.9716],[-42.2709,-19.981],[-42.2644,-19.9995],[-42.3106,-20.0076],[-42.3208,-20.0178],[-42.3145,-20.0331],[-42.3241,-20.0534],[-42.3058,-20.0588],[-42.2841,-20.0781],[-42.2477,-20.0837],[-42.2498,-20.0943],[-42.2717,-20.0987],[-42.309,-20.1168],[-42.3107,-20.1427],[-42.3477,-20.1354],[-42.3569,-20.1402],[-42.3689,-20.1241],[-42.393,-20.1244],[-42.4,-20.1377],[-42.4199,-20.1442],[-42.438,-20.1934],[-42.4627,-20.1861],[-42.4964,-20.1948],[-42.4775,-20.1575],[-42.4902,-20.1342],[-42.5246,-20.1372],[-42.5288,-20.08],[-42.5172,-20.0588],[-42.5041,-20.0527],[-42.5086,-20.0285],[-42.5,-20.0082],[-42.5017,-19.9676],[-42.535,-19.958],[-42.533,-19.926],[-42.5442,-19.9167],[-42.5516,-19.886],[-42.5515,-19.8859],[-42.5509,-19.8855],[-42.508,-19.9072],[-42.4845,-19.8984],[-42.4791,-19.9088],[-42.4582,-19.8983],[-42.4424,-19.858],[-42.4273,-19.8541],[-42.3884,-19.8654],[-42.3704,-19.8597]]]}},{"type":"Feature","properties":{"codarea":"3154150","centroide":[-41.94016943023742,-20.237788613031814],"codigo_ibge":3154150,"nome_ig":"Matas de Minas"},"geometry":{"type":"Polygon","coordinates":[[[-41.8873,-20.1692],[-41.873,-20.1979],[-41.8975,-20.2272],[-41.8931,-20.2523],[-41.9031,-20.2721],[-41.8876,-20.3052],[-41.9116,-20.3128],[-41.9207,-20.2914],[-41.9544,-20.2941],[-41.9556,-20.3007],[-41.987,-20.2946],[-42.0002,-20.3098],[-41.9988,-20.2875],[-42.0052,-20.2419],[-41.9935,-20.217],[-41.9684,-20.2102],[-41.9686,-20.1842],[-41.9574,-20.1811],[-41.9585,-20.156],[-41.9471,-20.1692],[-41.9222,-20.1736],[-41.8873,-20.1692]]]}},{"type":"Feature","properties":{"codarea":"3156452","centroide":[-42.51055648258677,-20.979634730287742],"codigo_ibge":3156452,"nome_ig":"Matas de Minas"},"geometry":{"type":"Polygon","coordinates":[[[-42.5465,-21.0439],[-42.5587,-21.0268],[-42.5547,-21.0149],[-42.5712,-21.0111],[-42.5804,-20.9903],[-42.5648,-20.9677],[-42.582,-20.953],[-42.5661,-20.922],[-42.5285,-20.9379],[-42.5221,-20.9508],[-42.4976,-20.944],[-42.4893,-20.9582],[-42.4609,-20.965],[-42.443,-20.9523],[-42.4276,-20.9545],[-42.4231,-20.9816],[-42.4399,-21.0162],[-42.4556,-21.0084],[-42.4813,-21.0133],[-42.5084,-21.0057],[-42.5281,-20.9881],[-42.5384,-20.9993],[-42.5261,-21.0275],[-42.5465,-21.0439]]]}},{"type":"Feature","properties":{"codarea":"3157252","centroide":[-42.107082669170595,-19.94506987778432],"codigo_ibge":3157252,"nome_ig":"Matas de Minas"},"geometry":{"type":"Polygon","coordinates":[[[-42.0203,-19.9173],[-42.0616,-19.9509],[-42.075,-19.9371],[-42.0857,-19.9606],[-42.1045,-19.9672],[-42.1079,-20.0007],[-42.1255,-20.019],[-42.1417,-20.0157],[-42.1632,-19.9898],[-42.1592,-19.9571],[-42.1691,-19.9383],[-42.1566,-19.9134],[-42.1315,-19.9098],[-42.0961,-19.9199],[-42.0943,-19.8957],[-42.0752,-19.8854],[-42.051,-19.9014],[-42.0221,-19.8997],[-42.0203,-19.9173]]]}},{"type":"Feature","properties":{"codarea":"3157906","centroide":[-42.266852485849206,-20.428463159428894],"codigo_ibge":3157906,"nome_ig":"Matas de Minas"},"geometry":{"type":"Polygon","coordinates":[[[-42.2063,-20.324],[-42.1848,-20.3577],[-42.1943,-20.3787],[-42.1793,-20.4065],[-42.1882,-20.4339],[-42.2041,-20.4369],[-42.2178,-20.4696],[-42.2426,-20.481],[-42.2461,-20.4966],[-42.2677,-20.5162],[-42.2769,-20.5479],[-42.2871,-20.5549],[-42.2979,-20.5386],[-42.3193,-20.5469],[-42.3173,-20.5065],[-42.335,-20.4956],[-42.3263,-20.4681],[-42.3441,-20.4364],[-42.345,-20.3947],[-42.3457,-20.3804],[-42.3216,-20.37],[-42.3066,-20.3809],[-42.2778,-20.3668],[-42.2808,-20.3451],[-42.2548,-20.3364],[-42.2417,-20.3431],[-42.2063,-20.324]]]}},{"type":"Feature","properties":{"codarea":"3159357","centroide":[-42.12366837342794,-19.873902953290425],"codigo_ibge":3159357,"nome_ig":"Matas de Minas"},"geometry":{"type":"Polygon","coordinates":[[[-42.0752,-19.8854],[-42.0943,-19.8957],[-42.0961,-19.9199],[-42.1315,-19.9098],[-42.1566,-19.9134],[-42.1648,-19.8944],[-42.1525,-19.8786],[-42.1678,-19.8603],[-42.1735,-19.834],[-42.1499,-19.8382],[-42.1405,-19.8306],[-42.1063,-19.8476],[-42.0767,-19.8451],[-42.0752,-19.8854]]]}},{"type":"Feature","properties":{"codarea":"3158904","centroide":[-41.89212451594952,-20.05544720610678],"codigo_ibge":3158904,"nome_ig":"Matas de Minas"},"geometry":{"type":"Polygon","coordinates":[[[-41.8414,-19.9253],[-41.8286,-19.9479],[-41.8151,-19.9425],[-41.8023,-19.9565],[-41.7986,-19.9817],[-41.8074,-19.9895],[-41.8131,-20.0085],[-41.8044,-20.0257],[-41.8107,-20.0424],[-41.8245,-20.0655],[-41.8172,-20.0853],[-41.8297,-20.1151],[-41.8873,-20.1692],[-41.9222,-20.1736],[-41.9471,-20.1692],[-41.9585,-20.156],[-41.9764,-20.1315],[-41.9755,-20.1029],[-41.953,-20.0919],[-41.9515,-20.0801],[-41.9699,-20.0707],[-41.9663,-20.058],[-41.9839,-20.0537],[-41.9784,-20.034],[-41.9872,-20.0157],[-41.9852,-19.996],[-41.9544,-19.982],[-41.9138,-19.9889],[-41.8956,-19.9974],[-41.8843,-19.9807],[-41.8953,-19.9738],[-41.8849,-19.9508],[-41.8555,-19.9418],[-41.8438,-19.9251],[-41.8414,-19.9253]]]}},{"type":"Feature","properties":{"codarea":"3160959","centroide":[-42.03002402587138,-19.523868696700028],"codigo_ibge":3160959,"nome_ig":"Matas de Minas"},"geometry":{"type":"Polygon","coordinates":[[[-41.9997,-19.4587],[-41.9986,-19.5269],[-41.9914,-19.5386],[-42.0246,-19.5658],[-42.0486,-19.5717],[-42.0638,-19.5685],[-42.0555,-19.5558],[-42.076,-19.5221],[-42.0574,-19.499],[-42.0352,-19.5009],[-42.019,-19.4852],[-42.0104,-19.4586],[-41.9997,-19.4587]]]}},{"type":"Feature","properties":{"codarea":"3161403","centroide":[-42.2816158342658,-20.79297277631566],"codigo_ibge":3161403,"nome_ig":"Matas de Minas"},"geometry":{"type":"Polygon","coordinates":[[[-42.2472,-20.7371],[-42.2274,-20.7431],[-42.2058,-20.7632],[-42.2169,-20.7938],[-42.2013,-20.8159],[-42.2099,-20.8222],[-42.2343,-20.8374],[-42.2598,-20.8421],[-42.2756,-20.8591],[-42.3051,-20.8632],[-42.3253,-20.8509],[-42.3252,-20.8354],[-42.3538,-20.8204],[-42.345,-20.8058],[-42.3614,-20.7776],[-42.3502,-20.7772],[-42.3239,-20.7484],[-42.3242,-20.708],[-42.3079,-20.7097],[-42.3088,-20.7233],[-42.2937,-20.7357],[-42.2542,-20.752],[-42.2472,-20.7371]]]}},{"type":"Feature","properties":{"codarea":"3162559","centroide":[-42.15362755546802,-20.369978390238842],"codigo_ibge":3162559,"nome_ig":"Matas de Minas"},"geometry":{"type":"Polygon","coordinates":[[[-42.0887,-20.3604],[-42.1162,-20.3881],[-42.1163,-20.4089],[-42.1359,-20.4686],[-42.1562,-20.4676],[-42.1589,-20.4574],[-42.1844,-20.4496],[-42.1882,-20.4339],[-42.1793,-20.4065],[-42.1943,-20.3787],[-42.1848,-20.3577],[-42.2063,-20.324],[-42.1967,-20.2936],[-42.1893,-20.2877],[-42.1518,-20.2908],[-42.1166,-20.3037],[-42.1099,-20.3196],[-42.1244,-20.3427],[-42.1164,-20.3551],[-42.0887,-20.3604]]]}},{"type":"Feature","properties":{"codarea":"3163607","centroide":[-41.771254648961396,-20.018684143941194],"codigo_ibge":3163607,"nome_ig":"Matas de Minas"},"geometry":{"type":"Polygon","coordinates":[[[-41.7198,-19.9977],[-41.7446,-20.0222],[-41.7506,-20.042],[-41.7323,-20.0533],[-41.7442,-20.061],[-41.7848,-20.0544],[-41.7897,-20.043],[-41.8107,-20.0424],[-41.8044,-20.0257],[-41.8131,-20.0085],[-41.8074,-19.9895],[-41.7816,-19.9839],[-41.7459,-19.9886],[-41.7198,-19.9977]]]}},{"type":"Feature","properties":{"codarea":"3163805","centroide":[-42.709702380681364,-20.72671307215289],"codigo_ibge":3163805,"nome_ig":"Matas de Minas"},"geometry":{"type":"Polygon","coordinates":[[[-42.6977,-20.6572],[-42.6749,-20.667],[-42.6733,-20.685],[-42.69,-20.696],[-42.6655,-20.7009],[-42.6737,-20.7202],[-42.6463,-20.7185],[-42.6304,-20.7484],[-42.6504,-20.7585],[-42.6615,-20.7557],[-42.6592,-20.7812],[-42.6749,-20.813],[-42.7093,-20.8392],[-42.7126,-20.8156],[-42.679,-20.7803],[-42.6895,-20.7735],[-42.7236,-20.78],[-42.7293,-20.7499],[-42.7535,-20.7451],[-42.762,-20.7266],[-42.7936,-20.7],[-42.7823,-20.6731],[-42.7691,-20.6676],[-42.7459,-20.6606],[-42.7348,-20.6698],[-42.6977,-20.6572]]]}},{"type":"Feature","properties":{"codarea":"3164431","centroide":[-42.59964048831735,-21.025172954011378],"codigo_ibge":3164431,"nome_ig":"Matas de Minas"},"geometry":{"type":"Polygon","coordinates":[[[-42.5465,-21.0439],[-42.5597,-21.0555],[-42.5831,-21.0506],[-42.6235,-21.0771],[-42.6553,-21.0776],[-42.6584,-21.0634],[-42.6428,-21.0593],[-42.6418,-21.04],[-42.6224,-21.0366],[-42.6312,-21.0102],[-42.6118,-20.9862],[-42.582,-20.953],[-42.5648,-20.9677],[-42.5804,-20.9903],[-42.5712,-21.0111],[-42.5547,-21.0149],[-42.5587,-21.0268],[-42.5465,-21.0439]]]}},{"type":"Feature","properties":{"codarea":"3164472","centroide":[-41.95825649217414,-19.507237835800744],"codigo_ibge":3164472,"nome_ig":"Matas de Minas"},"geometry":{"type":"Polygon","coordinates":[[[-41.9017,-19.565],[-41.9131,-19.5525],[-41.9914,-19.5386],[-41.9986,-19.5269],[-41.9997,-19.4587],[-41.9847,-19.4461],[-41.9577,-19.454],[-41.9377,-19.4981],[-41.8942,-19.5377],[-41.9017,-19.565]]]}},{"type":"Feature","properties":{"codarea":"3166303","centroide":[-42.45835450822411,-20.49200277883893],"codigo_ibge":3166303,"nome_ig":"Matas de Minas"},"geometry":{"type":"Polygon","coordinates":[[[-42.4343,-20.4354],[-42.4044,-20.4483],[-42.4042,-20.4826],[-42.3856,-20.5046],[-42.396,-20.5289],[-42.4065,-20.5331],[-42.415,-20.5625],[-42.4074,-20.5773],[-42.4397,-20.5585],[-42.4627,-20.5634],[-42.4863,-20.5572],[-42.5137,-20.5187],[-42.5026,-20.5015],[-42.5101,-20.4931],[-42.5063,-20.468],[-42.5303,-20.4564],[-42.5265,-20.4249],[-42.5015,-20.4169],[-42.4685,-20.426],[-42.456,-20.4384],[-42.4343,-20.4354]]]}},{"type":"Feature","properties":{"codarea":"3167608","centroide":[-41.988170604679205,-19.999266003296817],"codigo_ibge":3167608,"nome_ig":"Matas de Minas"},"geometry":{"type":"Polygon","coordinates":[[[-41.802,-19.8321],[-41.8151,-19.8386],[-41.8209,-19.8714],[-41.8077,-19.8753],[-41.8298,-19.897],[-41.8438,-19.9251],[-41.8555,-19.9418],[-41.8849,-19.9508],[-41.8953,-19.9738],[-41.8843,-19.9807],[-41.8956,-19.9974],[-41.9138,-19.9889],[-41.9544,-19.982],[-41.9852,-19.996],[-41.9872,-20.0157],[-41.9784,-20.034],[-41.9839,-20.0537],[-41.9663,-20.058],[-41.9699,-20.0707],[-41.9515,-20.0801],[-41.953,-20.0919],[-41.9755,-20.1029],[-41.9764,-20.1315],[-41.9585,-20.156],[-41.9701,-20.1497],[-42.0013,-20.1545],[-42.0012,-20.1698],[-42.0189,-20.1511],[-42.051,-20.1679],[-42.0677,-20.1678],[-42.0825,-20.149],[-42.0726,-20.1168],[-42.0818,-20.0747],[-42.122,-20.0389],[-42.1255,-20.019],[-42.1079,-20.0007],[-42.1045,-19.9672],[-42.0857,-19.9606],[-42.075,-19.9371],[-42.0616,-19.9509],[-42.0203,-19.9173],[-41.9875,-19.924],[-41.9739,-19.9382],[-41.9739,-19.8807],[-41.9548,-19.885],[-41.9286,-19.8782],[-41.8904,-19.886],[-41.8706,-19.8582],[-41.8619,-19.8614],[-41.8264,-19.8286],[-41.802,-19.8321]]]}},{"type":"Feature","properties":{"codarea":"3168507","centroide":[-42.862681156775686,-20.63239306462815],"codigo_ibge":3168507,"nome_ig":"Matas de Minas"},"geometry":{"type":"Polygon","coordinates":[[[-42.8012,-20.6059],[-42.8004,-20.6212],[-42.7832,-20.6093],[-42.7646,-20.6271],[-42.7733,-20.6469],[-42.7691,-20.6676],[-42.7823,-20.6731],[-42.7978,-20.6548],[-42.8215,-20.6789],[-42.8457,-20.6735],[-42.883,-20.6951],[-42.9109,-20.6899],[-42.9296,-20.6614],[-42.9422,-20.6424],[-42.9366,-20.627],[-42.9473,-20.6186],[-42.9368,-20.598],[-42.9178,-20.595],[-42.882,-20.5685],[-42.8696,-20.5605],[-42.8391,-20.5811],[-42.8176,-20.6061],[-42.8012,-20.6059]]]}},{"type":"Feature","properties":{"codarea":"3169208","centroide":[-42.06368499485362,-20.881228090457295],"codigo_ibge":3169208,"nome_ig":"Matas de Minas"},"geometry":{"type":"Polygon","coordinates":[[[-41.9297,-20.8435],[-41.95,-20.8582],[-41.9497,-20.8729],[-41.9673,-20.8985],[-41.9765,-20.9358],[-42.0218,-20.9253],[-42.0477,-20.9347],[-42.0937,-20.9356],[-42.1435,-20.9637],[-42.1509,-20.974],[-42.1646,-20.9736],[-42.1593,-20.9363],[-42.1716,-20.9223],[-42.1695,-20.8958],[-42.1873,-20.8698],[-42.1725,-20.8549],[-42.1341,-20.8485],[-42.1111,-20.8585],[-42.0973,-20.8376],[-42.1023,-20.805],[-42.0698,-20.8125],[-42.0374,-20.8076],[-42.0141,-20.8221],[-42.0022,-20.8175],[-41.9841,-20.8281],[-41.9794,-20.8187],[-41.9565,-20.8241],[-41.9537,-20.8337],[-41.9297,-20.8435]]]}},{"type":"Feature","properties":{"codarea":"3170057","centroide":[-42.06964379885883,-19.660682880443577],"codigo_ibge":3170057,"nome_ig":"Matas de Minas"},"geometry":{"type":"Polygon","coordinates":[[[-42.0458,-19.5998],[-42.0484,-19.6209],[-42.0369,-19.6339],[-42.0019,-19.6204],[-41.9896,-19.638],[-41.965,-19.637],[-41.967,-19.6629],[-41.9851,-19.6812],[-41.9686,-19.6982],[-41.9911,-19.6947],[-42.0184,-19.7088],[-42.0451,-19.7029],[-42.0664,-19.6876],[-42.0803,-19.7081],[-42.0816,-19.7286],[-42.0959,-19.7394],[-42.112,-19.741],[-42.1208,-19.7178],[-42.1212,-19.6768],[-42.1565,-19.6741],[-42.1668,-19.6477],[-42.1617,-19.6154],[-42.1272,-19.6237],[-42.1126,-19.6145],[-42.1114,-19.5942],[-42.0972,-19.6034],[-42.0458,-19.5998]]]}},{"type":"Feature","properties":{"codarea":"3170578","centroide":[-42.32108917823234,-19.603816686720073],"codigo_ibge":3170578,"nome_ig":"Matas de Minas"},"geometry":{"type":"Polygon","coordinates":[[[-42.2635,-19.5828],[-42.2773,-19.5949],[-42.267,-19.6106],[-42.2841,-19.635],[-42.2808,-19.6511],[-42.3123,-19.6686],[-42.3247,-19.6686],[-42.32,-19.6427],[-42.3797,-19.6401],[-42.4008,-19.6162],[-42.3986,-19.6042],[-42.347,-19.5894],[-42.3515,-19.5684],[-42.3246,-19.5563],[-42.3205,-19.541],[-42.3011,-19.5382],[-42.2837,-19.5549],[-42.269,-19.5527],[-42.2635,-19.5828]]]}},{"type":"Feature","properties":{"codarea":"3171154","centroide":[-42.25403005663249,-20.03430229366572],"codigo_ibge":3171154,"nome_ig":"Matas de Minas"},"geometry":{"type":"Polygon","coordinates":[[[-42.1973,-20.0035],[-42.2035,-20.0276],[-42.1959,-20.0326],[-42.2099,-20.0893],[-42.2477,-20.0837],[-42.2841,-20.0781],[-42.3058,-20.0588],[-42.3241,-20.0534],[-42.3145,-20.0331],[-42.3208,-20.0178],[-42.3106,-20.0076],[-42.2644,-19.9995],[-42.2709,-19.981],[-42.2873,-19.9716],[-42.2707,-19.9663],[-42.2287,-19.9931],[-42.2047,-19.991],[-42.1973,-20.0035]]]}},{"type":"Feature","properties":{"codarea":"3171303","centroide":[-42.88494180526915,-20.74113325565871],"codigo_ibge":3171303,"nome_ig":"Matas de Minas"},"geometry":{"type":"Polygon","coordinates":[[[-42.7823,-20.6731],[-42.7936,-20.7],[-42.762,-20.7266],[-42.7535,-20.7451],[-42.7717,-20.7582],[-42.8257,-20.7563],[-42.8311,-20.7697],[-42.824,-20.8009],[-42.83,-20.8088],[-42.8434,-20.815],[-42.8453,-20.8388],[-42.8861,-20.8248],[-42.921,-20.8068],[-42.9413,-20.8188],[-42.9528,-20.8129],[-42.9571,-20.7755],[-42.9969,-20.7564],[-43.0022,-20.7322],[-42.9921,-20.7317],[-43.0024,-20.7075],[-42.9948,-20.6969],[-42.9686,-20.6926],[-42.9672,-20.6781],[-42.9296,-20.6614],[-42.9109,-20.6899],[-42.883,-20.6951],[-42.8457,-20.6735],[-42.8215,-20.6789],[-42.7978,-20.6548],[-42.7823,-20.6731]]]}},{"type":"Feature","properties":{"codarea":"3171402","centroide":[-42.28207859328316,-20.91274166428769],"codigo_ibge":3171402,"nome_ig":"Matas de Minas"},"geometry":{"type":"Polygon","coordinates":[[[-42.2099,-20.8222],[-42.2028,-20.8384],[-42.2098,-20.8543],[-42.2318,-20.8791],[-42.2329,-20.8901],[-42.2596,-20.9053],[-42.2733,-20.973],[-42.2986,-21.0001],[-42.2945,-20.9952],[-42.3278,-20.9739],[-42.3431,-20.9739],[-42.348,-20.9587],[-42.336,-20.9214],[-42.3453,-20.9148],[-42.3218,-20.9033],[-42.3022,-20.9076],[-42.2952,-20.8719],[-42.2665,-20.8614],[-42.2598,-20.8421],[-42.2343,-20.8374],[-42.2099,-20.8222]]]}}]}