{"type":"FeatureCollection","features":[{"type":"Feature","properties":{"codarea":"1100015","centroide":[-62.27471965353404,-12.470099345020724],"codigo_ibge":1100015,"nome_ig":"Matas de Rondônia"},"geometry":{"type":"Polygon","coordinates":[[[-62.0504,-11.8673],[-62.0155,-11.8585],[-62.0072,-11.8681],[-61.921,-11.8668],[-61.919,-11.8906],[-61.9004,-11.892],[-61.8905,-11.9068],[-61.8865,-11.9088],[-61.8884,-11.9657],[-61.9298,-11.9856],[-61.9295,-12.0878],[-61.9682,-12.0873],[-61.9683,-12.134],[-62.008,-12.1337],[-62.0078,-12.2691],[-62.0005,-12.2692],[-62.0006,-12.7921],[-62.0192,-12.8208],[-62.0237,-12.8722],[-62.0405,-12.9077],[-62.0696,-12.907],[-62.0922,-12.9145],[-62.1041,-12.9479],[-62.1605,-12.9802],[-62.1654,-13.0043],[-62.1937,-13.0285],[-62.238,-13.0454],[-62.2518,-13.0783],[-62.281,-13.0878],[-62.296,-13.0779],[-62.2989,-13.0955],[-62.3169,-13.1094],[-62.3198,-13.0803],[-62.3364,-13.0796],[-62.3457,-13.0575],[-62.3533,-13.0787],[-62.3879,-13.1068],[-62.4105,-13.1073],[-62.4177,-13.1189],[-62.4359,-13.0984],[-62.4334,-13.0858],[-62.4591,-13.0811],[-62.4572,-13.0638],[-62.472,-13.0788],[-62.4758,-13.0574],[-62.4861,-13.0779],[-62.5026,-13.0831],[-62.5238,-13.0655],[-62.5412,-13.0755],[-62.6125,-13.0412],[-62.6068,-13.011],[-62.633,-13.0106],[-62.6314,-12.9902],[-62.6521,-12.9893],[-62.6452,-12.9745],[-62.6606,-12.9694],[-62.6749,-12.9909],[-62.6943,-12.9922],[-62.6985,-13.0028],[-62.7251,-13.0012],[-62.734,-13.0218],[-62.7522,-13.002],[-62.7564,-13.0171],[-62.779,-13.0095],[-62.7943,-12.9952],[-62.8089,-12.9621],[-62.8033,-12.945],[-62.8229,-12.9337],[-62.8458,-12.9487],[-62.8455,-12.9231],[-62.8702,-12.9106],[-62.894,-12.873],[-62.8921,-12.8588],[-62.8658,-12.8792],[-62.8426,-12.8635],[-62.8176,-12.868],[-62.7884,-12.8613],[-62.7885,-12.8774],[-62.752,-12.8731],[-62.7343,-12.8916],[-62.7413,-12.9117],[-62.7288,-12.9258],[-62.7034,-12.9208],[-62.694,-12.9022],[-62.6652,-12.9061],[-62.6492,-12.8993],[-62.6449,-12.8823],[-62.6228,-12.8718],[-62.5949,-12.8381],[-62.578,-12.8098],[-62.5602,-12.8104],[-62.5476,-12.7967],[-62.5219,-12.8095],[-62.5177,-12.7828],[-62.4995,-12.7544],[-62.4627,-12.7466],[-62.4522,-12.7274],[-62.4268,-12.7101],[-62.3999,-12.6602],[-62.3909,-12.6603],[-62.3677,-12.6211],[-62.3601,-12.5984],[-62.3266,-12.5736],[-62.2802,-12.5298],[-62.2676,-12.5076],[-62.275,-12.4732],[-62.2588,-12.4509],[-62.2642,-12.4273],[-62.252,-12.4225],[-62.2509,-12.402],[-62.2914,-12.3188],[-62.3004,-12.3163],[-62.3636,-12.3387],[-62.3946,-12.3434],[-62.4176,-12.3241],[-62.4682,-12.2992],[-62.4855,-12.302],[-62.5191,-12.2828],[-62.5356,-12.2849],[-62.5763,-12.2676],[-62.5929,-12.249],[-62.6268,-12.2521],[-62.6425,-12.2371],[-62.6392,-12.2251],[-62.6129,-12.1996],[-62.6209,-12.1833],[-62.6025,-12.1504],[-62.608,-12.1377],[-62.6063,-12.0924],[-62.6114,-12.0849],[-62.5885,-12.0692],[-62.5452,-12.0486],[-62.5442,-12.0345],[-62.5145,-12.0147],[-62.4885,-12.0048],[-62.4755,-11.9824],[-62.453,-11.9685],[-62.4353,-11.9404],[-62.4061,-11.9238],[-62.4072,-11.9154],[-62.3797,-11.9048],[-62.3503,-11.9048],[-62.3372,-11.8954],[-62.3233,-11.904],[-62.2915,-11.8993],[-62.2676,-11.906],[-62.249,-11.9003],[-62.2324,-11.9087],[-62.2067,-11.8319],[-62.1894,-11.8279],[-62.1739,-11.8545],[-62.1822,-11.8656],[-62.1575,-11.8708],[-62.1264,-11.8446],[-62.0923,-11.8395],[-62.084,-11.8765],[-62.0504,-11.8673]]]}},{"type":"Feature","properties":{"codarea":"1100379","centroide":[-61.88030700945767,-12.593537917803982],"codigo_ibge":1100379,"nome_ig":"Matas de Rondônia"},"geometry":{"type":"Polygon","coordinates":[[[-61.8884,-11.9657],[-61.8699,-11.9845],[-61.8608,-11.976],[-61.8435,-11.9865],[-61.8502,-11.9948],[-61.8324,-12.0213],[-61.8357,-12.0703],[-61.8049,-12.0977],[-61.8,-12.1196],[-61.7743,-12.1505],[-61.7475,-12.1991],[-61.7405,-12.2517],[-61.7533,-12.2749],[-61.7259,-12.3316],[-61.7262,-12.3599],[-61.7169,-12.3811],[-61.6908,-12.3993],[-61.6757,-12.4292],[-61.6394,-12.4484],[-61.6257,-12.4647],[-61.5716,-12.4731],[-61.5661,-12.4674],[-61.5549,-12.4786],[-61.5493,-12.5069],[-61.5335,-12.5171],[-61.5277,-12.5374],[-61.534,-12.5682],[-61.5247,-12.5808],[-61.5331,-12.5949],[-61.5258,-12.6112],[-61.5415,-12.6471],[-61.5379,-12.6571],[-61.5624,-12.6934],[-61.6044,-12.7057],[-61.6334,-12.7286],[-61.6807,-12.7442],[-61.719,-12.775],[-61.7555,-12.7969],[-61.7628,-12.8082],[-61.8013,-12.8185],[-61.8253,-12.8463],[-61.8555,-12.8622],[-61.8813,-12.8594],[-61.8967,-12.8829],[-61.8936,-12.9073],[-61.8993,-12.9293],[-61.9112,-12.936],[-61.9156,-12.9692],[-61.927,-12.9819],[-61.9562,-12.9945],[-61.9886,-13.0405],[-62.012,-13.083],[-62.0366,-13.1396],[-62.0556,-13.1402],[-62.0685,-13.156],[-62.0816,-13.1564],[-62.1083,-13.1815],[-62.1152,-13.1636],[-62.1348,-13.1493],[-62.151,-13.1512],[-62.1695,-13.1342],[-62.166,-13.119],[-62.1839,-13.1231],[-62.1782,-13.143],[-62.2002,-13.1505],[-62.201,-13.1245],[-62.2147,-13.1113],[-62.245,-13.1208],[-62.2459,-13.1451],[-62.2785,-13.1554],[-62.2846,-13.142],[-62.2993,-13.1505],[-62.3167,-13.1344],[-62.3214,-13.152],[-62.3305,-13.1399],[-62.3725,-13.1407],[-62.3973,-13.1301],[-62.3993,-13.1133],[-62.4177,-13.1189],[-62.4105,-13.1073],[-62.3879,-13.1068],[-62.3533,-13.0787],[-62.3457,-13.0575],[-62.3364,-13.0796],[-62.3198,-13.0803],[-62.3169,-13.1094],[-62.2989,-13.0955],[-62.296,-13.0779],[-62.281,-13.0878],[-62.2518,-13.0783],[-62.238,-13.0454],[-62.1937,-13.0285],[-62.1654,-13.0043],[-62.1605,-12.9802],[-62.1041,-12.9479],[-62.0922,-12.9145],[-62.0696,-12.907],[-62.0405,-12.9077],[-62.0237,-12.8722],[-62.0192,-12.8208],[-62.0006,-12.7921],[-62.0005,-12.2692],[-62.0078,-12.2691],[-62.008,-12.1337],[-61.9683,-12.134],[-61.9682,-12.0873],[-61.9295,-12.0878],[-61.9298,-11.9856],[-61.8884,-11.9657]]]}},{"type":"Feature","properties":{"codarea":"1100346","centroide":[-62.54654547481065,-11.31119687439974],"codigo_ibge":1100346,"nome_ig":"Matas de Rondônia"},"geometry":{"type":"Polygon","coordinates":[[[-62.1592,-11.0677],[-62.1663,-11.0962],[-62.146,-11.115],[-62.1497,-11.1514],[-62.1209,-11.1979],[-62.1395,-11.2077],[-62.152,-11.2327],[-62.1812,-11.2591],[-62.1827,-11.2831],[-62.1434,-11.2808],[-62.1379,-11.2973],[-62.1105,-11.2825],[-62.0932,-11.2958],[-62.1013,-11.2977],[-62.116,-11.3534],[-62.129,-11.382],[-62.151,-11.3942],[-62.1834,-11.4327],[-62.1973,-11.4234],[-62.2172,-11.435],[-62.24,-11.4289],[-62.2757,-11.4381],[-62.2906,-11.448],[-62.3217,-11.4978],[-62.3401,-11.5065],[-62.3462,-11.524],[-62.3695,-11.5374],[-62.3854,-11.564],[-62.4109,-11.5662],[-62.4236,-11.5793],[-62.4258,-11.5975],[-62.4392,-11.6157],[-62.4429,-11.6042],[-62.4648,-11.5998],[-62.4618,-11.5893],[-62.4778,-11.5749],[-62.4906,-11.5501],[-62.4878,-11.5394],[-62.5057,-11.5196],[-62.5087,-11.5003],[-62.527,-11.477],[-62.5553,-11.4686],[-62.5819,-11.4828],[-62.5997,-11.4847],[-62.6402,-11.4434],[-62.6507,-11.449],[-62.6691,-11.4339],[-62.6945,-11.4327],[-62.713,-11.4473],[-62.745,-11.4479],[-62.7546,-11.44],[-62.7282,-11.4125],[-62.7326,-11.3943],[-62.7757,-11.3863],[-62.7987,-11.3551],[-62.8025,-11.3372],[-62.8245,-11.3347],[-62.8379,-11.3032],[-62.9024,-11.3202],[-62.94,-11.3549],[-62.9597,-11.3571],[-62.972,-11.3456],[-63.008,-11.3453],[-63.0453,-11.3378],[-63.0851,-11.3568],[-63.102,-11.3332],[-63.0959,-11.3124],[-63.1033,-11.2797],[-63.1183,-11.257],[-63.1126,-11.215],[-63.1411,-11.1968],[-63.1497,-11.1603],[-63.1392,-11.1293],[-63.1534,-11.1132],[-63.1715,-11.1165],[-63.1954,-11.1033],[-63.1964,-11.0825],[-63.1743,-11.08],[-63.1537,-11.0886],[-63.1296,-11.145],[-63.1123,-11.1678],[-63.1123,-11.1946],[-63.0895,-11.1857],[-63.0502,-11.1816],[-63.0381,-11.1895],[-63.0219,-11.1832],[-63.0004,-11.2013],[-62.9594,-11.2012],[-62.9389,-11.2081],[-62.9059,-11.204],[-62.8925,-11.2121],[-62.8823,-11.2018],[-62.8547,-11.1978],[-62.8302,-11.202],[-62.8141,-11.1873],[-62.7965,-11.1966],[-62.7683,-11.1959],[-62.764,-11.183],[-62.7364,-11.1833],[-62.7345,-11.156],[-62.7225,-11.1412],[-62.6913,-11.1298],[-62.5841,-11.2247],[-62.4453,-11.1765],[-62.2648,-11.1723],[-62.2389,-11.1079],[-62.2165,-11.1105],[-62.2176,-11.0765],[-62.2029,-11.0736],[-62.188,-11.053],[-62.1828,-11.0676],[-62.1592,-11.0677]]]}},{"type":"Feature","properties":{"codarea":"1100049","centroide":[-61.32502487052614,-11.30108158560274],"codigo_ibge":1100049,"nome_ig":"Matas de Rondônia"},"geometry":{"type":"Polygon","coordinates":[[[-61.0005,-10.9922],[-61.001,-11.3983],[-61.0184,-11.4179],[-61.0375,-11.4152],[-61.0565,-11.4247],[-61.067,-11.4474],[-61.0828,-11.4382],[-61.1019,-11.4531],[-61.1272,-11.4934],[-61.1539,-11.4981],[-61.1725,-11.5109],[-61.1901,-11.5102],[-61.2117,-11.5291],[-61.2531,-11.524],[-61.2527,-11.5168],[-61.2935,-11.4981],[-61.3153,-11.5079],[-61.3566,-11.5053],[-61.3728,-11.5102],[-61.3727,-11.5368],[-61.3623,-11.5628],[-61.3692,-11.5828],[-61.3504,-11.6051],[-61.3526,-11.6174],[-61.5489,-11.6191],[-61.5668,-11.6028],[-61.6142,-11.5838],[-61.6305,-11.5607],[-61.6493,-11.5609],[-61.6834,-11.5461],[-61.6878,-11.5324],[-61.7168,-11.5115],[-61.716,-11.4632],[-61.7271,-11.4661],[-61.7387,-11.4129],[-61.7853,-11.4084],[-61.7957,-11.3978],[-61.783,-11.4019],[-61.7669,-11.3806],[-61.7551,-11.3783],[-61.7422,-11.3334],[-61.5012,-11.3335],[-61.5008,-11.1143],[-61.4267,-11.1139],[-61.429,-10.9875],[-61.0005,-10.9922]]]}},{"type":"Feature","properties":{"codarea":"1100908","centroide":[-61.88011936995134,-11.470485331508614],"codigo_ibge":1100908,"nome_ig":"Matas de Rondônia"},"geometry":{"type":"Polygon","coordinates":[[[-61.7957,-11.3978],[-61.7853,-11.4084],[-61.7387,-11.4129],[-61.7271,-11.4661],[-61.716,-11.4632],[-61.7168,-11.5115],[-61.6878,-11.5324],[-61.6834,-11.5461],[-61.6493,-11.5609],[-61.6305,-11.5607],[-61.6142,-11.5838],[-61.9137,-11.585],[-62.0013,-11.5853],[-62.0004,-11.5002],[-62.0861,-11.5005],[-62.0786,-11.4587],[-62.0407,-11.4311],[-62.0266,-11.4138],[-62.025,-11.3879],[-61.9905,-11.3276],[-61.9781,-11.3239],[-61.9524,-11.2904],[-61.9179,-11.2924],[-61.8948,-11.3279],[-61.8831,-11.3328],[-61.8601,-11.3687],[-61.8348,-11.3842],[-61.7969,-11.3906],[-61.7957,-11.3978]]]}},{"type":"Feature","properties":{"codarea":"1100098","centroide":[-60.78478437226925,-11.350900506630541],"codigo_ibge":1100098,"nome_ig":"Matas de Rondônia"},"geometry":{"type":"Polygon","coordinates":[[[-60.4585,-10.9893],[-60.46,-10.9898],[-60.4691,-10.9999],[-60.4644,-11.0186],[-60.4752,-11.046],[-60.5128,-11.0663],[-60.5069,-11.0981],[-60.5278,-11.1167],[-60.5192,-11.1289],[-60.5198,-11.1688],[-60.5321,-11.1827],[-60.5375,-11.216],[-60.528,-11.2545],[-60.5104,-11.2776],[-60.4837,-11.2928],[-60.4928,-11.3057],[-60.484,-11.3684],[-60.4608,-11.3581],[-60.4587,-11.3842],[-60.4426,-11.4071],[-60.438,-11.4468],[-60.4633,-11.4648],[-60.4738,-11.4637],[-60.4912,-11.4828],[-60.5116,-11.479],[-60.5224,-11.4944],[-60.5327,-11.5324],[-60.5428,-11.5502],[-60.5639,-11.5606],[-60.5771,-11.5845],[-60.5925,-11.589],[-60.5905,-11.6207],[-60.6398,-11.6498],[-60.6716,-11.6951],[-60.7337,-11.695],[-60.7571,-11.7072],[-60.8065,-11.6966],[-60.8261,-11.6997],[-60.8434,-11.7197],[-60.8943,-11.7213],[-60.9185,-11.7261],[-60.9252,-11.7473],[-61.2117,-11.5291],[-61.1901,-11.5102],[-61.1725,-11.5109],[-61.1539,-11.4981],[-61.1272,-11.4934],[-61.1019,-11.4531],[-61.0828,-11.4382],[-61.067,-11.4474],[-61.0565,-11.4247],[-61.0375,-11.4152],[-61.0184,-11.4179],[-61.001,-11.3983],[-61.0005,-10.9922],[-61.0005,-10.9883],[-60.46,-10.9898],[-60.4585,-10.9893]]]}},{"type":"Feature","properties":{"codarea":"1101203","centroide":[-61.56891970245387,-11.160153329956463],"codigo_ibge":1101203,"nome_ig":"Matas de Rondônia"},"geometry":{"type":"Polygon","coordinates":[[[-61.429,-10.9875],[-61.4267,-11.1139],[-61.5008,-11.1143],[-61.5012,-11.3335],[-61.7422,-11.3334],[-61.7443,-11.3234],[-61.727,-11.301],[-61.7071,-11.2952],[-61.7036,-11.2706],[-61.6662,-11.2588],[-61.667,-11.1184],[-61.6323,-11.1181],[-61.632,-10.9862],[-61.5502,-10.986],[-61.429,-10.9875]]]}},{"type":"Feature","properties":{"codarea":"1100148","centroide":[-62.2802526085436,-11.64322599051361],"codigo_ibge":1100148,"nome_ig":"Matas de Rondônia"},"geometry":{"type":"Polygon","coordinates":[[[-61.9524,-11.2904],[-61.9781,-11.3239],[-61.9905,-11.3276],[-62.025,-11.3879],[-62.0266,-11.4138],[-62.0407,-11.4311],[-62.0786,-11.4587],[-62.0861,-11.5005],[-62.1081,-11.5089],[-62.1202,-11.5271],[-62.1403,-11.5228],[-62.1727,-11.5473],[-62.1637,-11.5654],[-62.1759,-11.586],[-62.1715,-11.6134],[-62.1796,-11.619],[-62.1907,-11.6518],[-62.2036,-11.666],[-62.194,-11.6792],[-62.2129,-11.7167],[-62.2027,-11.7313],[-62.1898,-11.7757],[-62.1881,-11.8123],[-62.2067,-11.8319],[-62.2324,-11.9087],[-62.249,-11.9003],[-62.2676,-11.906],[-62.2915,-11.8993],[-62.3233,-11.904],[-62.3372,-11.8954],[-62.3503,-11.9048],[-62.3797,-11.9048],[-62.4072,-11.9154],[-62.4061,-11.9238],[-62.4353,-11.9404],[-62.453,-11.9685],[-62.4649,-11.9588],[-62.4654,-11.8644],[-62.4786,-11.8598],[-62.4799,-11.7423],[-62.476,-11.6554],[-62.4778,-11.5749],[-62.4618,-11.5893],[-62.4648,-11.5998],[-62.4429,-11.6042],[-62.4392,-11.6157],[-62.4258,-11.5975],[-62.4236,-11.5793],[-62.4109,-11.5662],[-62.3854,-11.564],[-62.3695,-11.5374],[-62.3462,-11.524],[-62.3401,-11.5065],[-62.3217,-11.4978],[-62.2906,-11.448],[-62.2757,-11.4381],[-62.24,-11.4289],[-62.2172,-11.435],[-62.1973,-11.4234],[-62.1834,-11.4327],[-62.151,-11.3942],[-62.129,-11.382],[-62.116,-11.3534],[-62.1013,-11.2977],[-62.0932,-11.2958],[-62.0811,-11.2918],[-62.054,-11.3062],[-62.038,-11.2979],[-62.0195,-11.3048],[-62.0013,-11.2888],[-61.9713,-11.3017],[-61.9524,-11.2904]]]}},{"type":"Feature","properties":{"codarea":"1100502","centroide":[-62.08268974283056,-11.680894022299968],"codigo_ibge":1100502,"nome_ig":"Matas de Rondônia"},"geometry":{"type":"Polygon","coordinates":[[[-61.9137,-11.585],[-61.9269,-11.616],[-61.9624,-11.6313],[-61.9594,-11.6595],[-61.9789,-11.6711],[-61.972,-11.6886],[-61.9772,-11.7218],[-61.9588,-11.7352],[-61.9891,-11.7526],[-61.9944,-11.7695],[-62.0185,-11.7962],[-62.0261,-11.8192],[-62.0376,-11.825],[-62.0363,-11.8462],[-62.0504,-11.8673],[-62.084,-11.8765],[-62.0923,-11.8395],[-62.1264,-11.8446],[-62.1575,-11.8708],[-62.1822,-11.8656],[-62.1739,-11.8545],[-62.1894,-11.8279],[-62.2067,-11.8319],[-62.1881,-11.8123],[-62.1898,-11.7757],[-62.2027,-11.7313],[-62.2129,-11.7167],[-62.194,-11.6792],[-62.2036,-11.666],[-62.1907,-11.6518],[-62.1796,-11.619],[-62.1715,-11.6134],[-62.1759,-11.586],[-62.1637,-11.5654],[-62.1727,-11.5473],[-62.1403,-11.5228],[-62.1202,-11.5271],[-62.1081,-11.5089],[-62.0861,-11.5005],[-62.0004,-11.5002],[-62.0013,-11.5853],[-61.9137,-11.585]]]}},{"type":"Feature","properties":{"codarea":"1101476","centroide":[-61.315366960461546,-11.878330836435321],"codigo_ibge":1101476,"nome_ig":"Matas de Rondônia"},"geometry":{"type":"Polygon","coordinates":[[[-61.1901,-12.0005],[-61.3326,-12.0005],[-61.3496,-12.0093],[-61.366,-12.0362],[-61.3981,-12.0521],[-61.4171,-12.0863],[-61.4174,-11.9437],[-61.3999,-11.9226],[-61.382,-11.9271],[-61.3777,-11.9032],[-61.3636,-11.8891],[-61.3913,-11.8888],[-61.3918,-11.744],[-61.4148,-11.7439],[-61.4248,-11.7299],[-61.2644,-11.7298],[-61.2697,-11.7471],[-61.1933,-11.7466],[-61.1945,-11.7714],[-61.2189,-11.7994],[-61.221,-11.8181],[-61.2383,-11.8413],[-61.2443,-11.8858],[-61.2407,-11.9019],[-61.226,-11.9079],[-61.2197,-11.9564],[-61.2075,-11.9885],[-61.1901,-12.0005]]]}},{"type":"Feature","properties":{"codarea":"1100288","centroide":[-61.77107891172576,-11.732774800762995],"codigo_ibge":1100288,"nome_ig":"Matas de Rondônia"},"geometry":{"type":"Polygon","coordinates":[[[-61.5489,-11.6191],[-61.5586,-11.6339],[-61.5592,-11.6566],[-61.5742,-11.665],[-61.5641,-11.6941],[-61.5441,-11.7006],[-61.5482,-11.7218],[-61.5345,-11.7431],[-61.5218,-11.7582],[-61.5253,-11.7867],[-61.5381,-11.8154],[-61.5642,-11.8563],[-61.832,-11.8569],[-61.839,-11.8684],[-61.8835,-11.8851],[-61.8905,-11.9068],[-61.9004,-11.892],[-61.919,-11.8906],[-61.921,-11.8668],[-62.0072,-11.8681],[-62.0155,-11.8585],[-62.0504,-11.8673],[-62.0363,-11.8462],[-62.0376,-11.825],[-62.0261,-11.8192],[-62.0185,-11.7962],[-61.9944,-11.7695],[-61.9891,-11.7526],[-61.9588,-11.7352],[-61.9772,-11.7218],[-61.972,-11.6886],[-61.9789,-11.6711],[-61.9594,-11.6595],[-61.9624,-11.6313],[-61.9269,-11.616],[-61.9137,-11.585],[-61.6142,-11.5838],[-61.5668,-11.6028],[-61.5489,-11.6191]]]}},{"type":"Feature","properties":{"codarea":"1100296","centroide":[-61.70080042807097,-12.026314539572796],"codigo_ibge":1100296,"nome_ig":"Matas de Rondônia"},"geometry":{"type":"Polygon","coordinates":[[[-61.5305,-12.0889],[-61.6786,-12.0897],[-61.6779,-12.2642],[-61.6757,-12.4292],[-61.6908,-12.3993],[-61.7169,-12.3811],[-61.7262,-12.3599],[-61.7259,-12.3316],[-61.7533,-12.2749],[-61.7405,-12.2517],[-61.7475,-12.1991],[-61.7743,-12.1505],[-61.8,-12.1196],[-61.8049,-12.0977],[-61.8357,-12.0703],[-61.8324,-12.0213],[-61.8502,-11.9948],[-61.8435,-11.9865],[-61.8608,-11.976],[-61.8699,-11.9845],[-61.8884,-11.9657],[-61.8865,-11.9088],[-61.8905,-11.9068],[-61.8835,-11.8851],[-61.839,-11.8684],[-61.832,-11.8569],[-61.5642,-11.8563],[-61.5306,-11.8561],[-61.5305,-12.0889]]]}},{"type":"Feature","properties":{"codarea":"1101484","centroide":[-61.46661419490701,-11.905622929668809],"codigo_ibge":1101484,"nome_ig":"Matas de Rondônia"},"geometry":{"type":"Polygon","coordinates":[[[-61.4148,-11.7439],[-61.3918,-11.744],[-61.3913,-11.8888],[-61.3636,-11.8891],[-61.3777,-11.9032],[-61.382,-11.9271],[-61.3999,-11.9226],[-61.4174,-11.9437],[-61.4171,-12.0863],[-61.4451,-12.0797],[-61.4726,-12.0878],[-61.5305,-12.0889],[-61.5306,-11.8561],[-61.5642,-11.8563],[-61.5381,-11.8154],[-61.5253,-11.7867],[-61.5218,-11.7582],[-61.5345,-11.7431],[-61.4148,-11.7439]]]}},{"type":"Feature","properties":{"codarea":"1100320","centroide":[-62.983062616389795,-11.614653757936141],"codigo_ibge":1100320,"nome_ig":"Matas de Rondônia"},"geometry":{"type":"Polygon","coordinates":[[[-63.1954,-11.1033],[-63.1715,-11.1165],[-63.1534,-11.1132],[-63.1392,-11.1293],[-63.1497,-11.1603],[-63.1411,-11.1968],[-63.1126,-11.215],[-63.1183,-11.257],[-63.1033,-11.2797],[-63.0959,-11.3124],[-63.102,-11.3332],[-63.0851,-11.3568],[-63.0453,-11.3378],[-63.008,-11.3453],[-62.972,-11.3456],[-62.9597,-11.3571],[-62.94,-11.3549],[-62.9024,-11.3202],[-62.8379,-11.3032],[-62.8245,-11.3347],[-62.8025,-11.3372],[-62.7987,-11.3551],[-62.7757,-11.3863],[-62.7326,-11.3943],[-62.7282,-11.4125],[-62.7546,-11.44],[-62.745,-11.4479],[-62.713,-11.4473],[-62.6945,-11.4327],[-62.6691,-11.4339],[-62.6507,-11.449],[-62.6402,-11.4434],[-62.5997,-11.4847],[-62.5819,-11.4828],[-62.5553,-11.4686],[-62.527,-11.477],[-62.5087,-11.5003],[-62.5057,-11.5196],[-62.4878,-11.5394],[-62.4906,-11.5501],[-62.4778,-11.5749],[-62.476,-11.6554],[-62.4799,-11.7423],[-62.4786,-11.8598],[-62.4654,-11.8644],[-62.4649,-11.9588],[-62.453,-11.9685],[-62.4755,-11.9824],[-62.4885,-12.0048],[-62.5145,-12.0147],[-62.5442,-12.0345],[-62.5452,-12.0486],[-62.5885,-12.0692],[-62.6114,-12.0849],[-62.6063,-12.0924],[-62.608,-12.1377],[-62.6025,-12.1504],[-62.6209,-12.1833],[-62.6129,-12.1996],[-62.6392,-12.2251],[-62.6425,-12.2371],[-62.7313,-12.1098],[-62.7363,-12.1282],[-62.7574,-12.1425],[-62.7663,-12.1748],[-62.7988,-12.1859],[-62.8139,-12.2021],[-62.8556,-12.1946],[-62.9152,-12.197],[-62.9538,-12.2064],[-63.0315,-12.1951],[-63.1288,-12.202],[-63.1194,-12.1817],[-63.1222,-12.1408],[-63.1164,-12.1352],[-63.1256,-12.1076],[-63.122,-12.0843],[-63.0979,-12.0683],[-63.1017,-12.0527],[-63.0588,-12.0276],[-63.0483,-12.027],[-63.0305,-12.0015],[-63.0136,-11.9889],[-63.017,-11.9774],[-62.9575,-11.9521],[-62.9047,-11.9416],[-62.8753,-11.9474],[-62.8722,-11.9337],[-62.8504,-11.9089],[-62.8376,-11.885],[-62.8527,-11.8578],[-62.8599,-11.8169],[-62.8815,-11.8189],[-62.9172,-11.8061],[-62.9378,-11.7716],[-62.9636,-11.7531],[-62.9911,-11.7484],[-62.9904,-11.7173],[-62.9983,-11.6672],[-62.987,-11.6335],[-62.9746,-11.6258],[-62.969,-11.6024],[-62.979,-11.5954],[-63.0035,-11.5528],[-63.0473,-11.5609],[-63.0548,-11.5362],[-63.0752,-11.5294],[-63.0886,-11.5418],[-63.1197,-11.5462],[-63.1223,-11.5091],[-63.1351,-11.4967],[-63.1702,-11.4822],[-63.2263,-11.4889],[-63.2332,-11.4858],[-63.2726,-11.4986],[-63.2841,-11.5169],[-63.3352,-11.5329],[-63.3737,-11.5328],[-63.4239,-11.5545],[-63.4636,-11.5561],[-63.4772,-11.5377],[-63.4912,-11.5404],[-63.5231,-11.579],[-63.5755,-11.6087],[-63.6048,-11.602],[-63.5986,-11.5936],[-63.6222,-11.5375],[-63.5945,-11.5044],[-63.6061,-11.4912],[-63.6046,-11.4541],[-63.5964,-11.4221],[-63.602,-11.4168],[-63.5491,-11.4144],[-63.5521,-11.3934],[-63.5266,-11.3755],[-63.5216,-11.3579],[-63.5429,-11.3253],[-63.5371,-11.315],[-63.5755,-11.2828],[-63.5884,-11.2829],[-63.5905,-11.2397],[-63.577,-11.2251],[-63.5877,-11.2097],[-63.5883,-11.1814],[-63.6026,-11.1427],[-63.5939,-11.0804],[-63.5822,-11.0691],[-63.5805,-11.0311],[-63.5964,-11.0176],[-63.6173,-11.0158],[-63.627,-11.005],[-63.5824,-11.0106],[-63.5665,-11.0339],[-63.5405,-11.0353],[-63.5281,-11.0457],[-63.5002,-11.0426],[-63.4811,-11.0271],[-63.433,-11.0299],[-63.4127,-11.0496],[-63.3841,-11.0572],[-63.384,-11.072],[-63.3642,-11.0747],[-63.3413,-11.0637],[-63.329,-11.0749],[-63.3299,-11.1019],[-63.3024,-11.1314],[-63.3061,-11.1416],[-63.2873,-11.1534],[-63.254,-11.1519],[-63.2332,-11.1272],[-63.1954,-11.1033]]]}},{"type":"Feature","properties":{"codarea":"1101500","centroide":[-63.23080620395207,-11.806837917764408],"codigo_ibge":1101500,"nome_ig":"Matas de Rondônia"},"geometry":{"type":"Polygon","coordinates":[[[-63.1288,-12.202],[-63.1437,-12.2247],[-63.1534,-12.2167],[-63.16,-12.2367],[-63.1735,-12.2402],[-63.1944,-12.2302],[-63.2356,-12.252],[-63.2301,-12.2765],[-63.2428,-12.2996],[-63.2892,-12.2857],[-63.298,-12.3094],[-63.309,-12.2939],[-63.3284,-12.2859],[-63.3374,-12.2683],[-63.3281,-12.2437],[-63.3293,-12.2187],[-63.3186,-12.2017],[-63.2952,-12.139],[-63.2867,-12.0656],[-63.2662,-12.0522],[-63.2552,-12.022],[-63.2639,-12.0059],[-63.2774,-11.9569],[-63.3026,-11.9436],[-63.3314,-11.9365],[-63.3777,-11.8862],[-63.3833,-11.8621],[-63.3666,-11.8394],[-63.581,-11.839],[-63.6068,-11.8004],[-63.5851,-11.7736],[-63.5499,-11.7577],[-63.5467,-11.7272],[-63.6019,-11.7036],[-63.6522,-11.6898],[-63.6799,-11.6444],[-63.6783,-11.6238],[-63.6654,-11.6291],[-63.6576,-11.6089],[-63.6453,-11.6263],[-63.6365,-11.6075],[-63.6048,-11.602],[-63.5755,-11.6087],[-63.5231,-11.579],[-63.4912,-11.5404],[-63.4772,-11.5377],[-63.4636,-11.5561],[-63.4239,-11.5545],[-63.3737,-11.5328],[-63.3352,-11.5329],[-63.2841,-11.5169],[-63.2726,-11.4986],[-63.2332,-11.4858],[-63.2263,-11.4889],[-63.1702,-11.4822],[-63.1351,-11.4967],[-63.1223,-11.5091],[-63.1197,-11.5462],[-63.0886,-11.5418],[-63.0752,-11.5294],[-63.0548,-11.5362],[-63.0473,-11.5609],[-63.0035,-11.5528],[-62.979,-11.5954],[-62.969,-11.6024],[-62.9746,-11.6258],[-62.987,-11.6335],[-62.9983,-11.6672],[-62.9904,-11.7173],[-62.9911,-11.7484],[-62.9636,-11.7531],[-62.9378,-11.7716],[-62.9172,-11.8061],[-62.8815,-11.8189],[-62.8599,-11.8169],[-62.8527,-11.8578],[-62.8376,-11.885],[-62.8504,-11.9089],[-62.8722,-11.9337],[-62.8753,-11.9474],[-62.9047,-11.9416],[-62.9575,-11.9521],[-63.017,-11.9774],[-63.0136,-11.9889],[-63.0305,-12.0015],[-63.0483,-12.027],[-63.0588,-12.0276],[-63.1017,-12.0527],[-63.0979,-12.0683],[-63.122,-12.0843],[-63.1256,-12.1076],[-63.1164,-12.1352],[-63.1222,-12.1408],[-63.1194,-12.1817],[-63.1288,-12.202]]]}}]}