{"type":"FeatureCollection","features":[{"type":"Feature","properties":{"codarea":"1302900","centroide":[-58.06087405219109,-4.984458022909954],"codigo_ibge":1302900,"nome_ig":"Maués"},"geometry":{"type":"Polygon","coordinates":[[[-57.3701,-3.5139],[-57.359,-3.5442],[-57.3432,-3.5543],[-57.3261,-3.588],[-57.3004,-3.5957],[-57.2948,-3.6109],[-57.2667,-3.607],[-57.2538,-3.6249],[-57.2583,-3.6511],[-57.2451,-3.6738],[-57.231,-3.665],[-57.2,-3.6767],[-57.1818,-3.6594],[-57.1468,-3.6615],[-57.1329,-3.6375],[-57.1166,-3.6316],[-57.122,-3.602],[-57.1056,-3.5948],[-57.0884,-3.6017],[-57.064,-3.5922],[-57.0227,-3.6023],[-57.007,-3.5962],[-56.9897,-3.5766],[-56.9741,-3.5837],[-56.9482,-3.5777],[-56.922,-3.5581],[-56.9137,-3.5622],[-56.956,-3.6586],[-57.0004,-3.7591],[-57.4753,-4.7675],[-57.5855,-5.0007],[-57.8606,-5.6007],[-58.034,-5.9784],[-58.2552,-6.4541],[-58.2667,-6.4755],[-58.2931,-6.4938],[-58.327,-6.5003],[-58.3323,-6.5329],[-58.3498,-6.5624],[-58.3806,-6.5805],[-58.4273,-6.6161],[-58.4475,-6.6513],[-58.4651,-6.67],[-58.4784,-6.6996],[-58.4817,-6.7814],[-58.4628,-6.8372],[-58.4345,-6.9088],[-58.3802,-6.9705],[-58.3556,-6.9716],[-58.3354,-6.9863],[-58.2882,-7.0616],[-58.2685,-7.0795],[-58.2458,-7.0888],[-58.2227,-7.1242],[-58.2095,-7.1342],[-58.1809,-7.1817],[-58.168,-7.2313],[-58.1748,-7.2714],[-58.17,-7.3132],[-58.1473,-7.3432],[-58.5003,-7.3501],[-58.5403,-7.3425],[-58.574,-7.2876],[-58.5421,-7.2598],[-58.5297,-7.2376],[-58.5639,-7.1989],[-58.529,-7.1864],[-58.5378,-7.1652],[-58.5253,-7.13],[-58.5063,-7.1143],[-58.4929,-7.068],[-58.4966,-7.052],[-58.5321,-7.052],[-58.5418,-7.0361],[-58.5674,-7.0329],[-58.5747,-7.0498],[-58.5831,-7.0357],[-58.6016,-7.0373],[-58.617,-7.0057],[-58.6328,-7.0079],[-58.6508,-6.9781],[-58.6523,-6.9619],[-58.6755,-6.9283],[-58.6982,-6.9212],[-58.7439,-6.8868],[-58.7516,-6.8571],[-58.7678,-6.8582],[-58.785,-6.8322],[-58.7941,-6.7767],[-58.8327,-6.7447],[-58.8378,-6.7287],[-58.8588,-6.7054],[-58.868,-6.6753],[-58.8645,-6.6282],[-58.8746,-6.5894],[-58.8668,-6.5434],[-58.8359,-6.4708],[-58.837,-6.4227],[-58.8552,-6.3814],[-58.8688,-6.3525],[-58.88,-6.3537],[-58.8913,-6.3321],[-58.907,-6.3224],[-58.9196,-6.2775],[-58.9108,-6.2543],[-58.8975,-6.2516],[-58.8691,-6.2204],[-58.8475,-6.2126],[-58.8309,-6.1327],[-58.815,-6.115],[-58.8022,-6.0749],[-58.8138,-6.0705],[-58.8014,-6.0528],[-58.8312,-6.0136],[-58.8343,-5.9856],[-58.8193,-5.9785],[-58.8287,-5.965],[-58.819,-5.9113],[-58.8341,-5.9025],[-58.8258,-5.8815],[-58.8294,-5.8638],[-58.8115,-5.8451],[-58.8295,-5.8203],[-58.8144,-5.7915],[-58.8256,-5.7659],[-58.8116,-5.7399],[-58.8206,-5.7171],[-58.8367,-5.7052],[-58.8289,-5.6826],[-58.8466,-5.6692],[-58.8299,-5.6549],[-58.8319,-5.6363],[-58.8192,-5.5907],[-58.8403,-5.556],[-58.8507,-5.5577],[-58.8553,-5.5197],[-58.8337,-5.5049],[-58.838,-5.4801],[-58.8279,-5.4686],[-58.8355,-5.4479],[-58.8212,-5.4232],[-58.8082,-5.4253],[-58.8055,-5.4098],[-58.8227,-5.4015],[-58.8057,-5.3855],[-58.8111,-5.3419],[-58.7761,-5.3301],[-58.7379,-5.33],[-58.7162,-5.3071],[-58.7373,-5.3078],[-58.7357,-5.291],[-58.7145,-5.2818],[-58.7293,-5.2694],[-58.7038,-5.2632],[-58.6884,-5.2235],[-58.6513,-5.2303],[-58.6533,-5.2034],[-58.6261,-5.2204],[-58.6219,-5.2095],[-58.6414,-5.1877],[-58.606,-5.1863],[-58.583,-5.1772],[-58.5806,-5.1594],[-58.5622,-5.1549],[-58.5799,-5.1333],[-58.547,-5.126],[-58.5434,-5.1428],[-58.5319,-5.1273],[-58.5152,-5.1363],[-58.5154,-5.1191],[-58.5026,-5.1036],[-58.4883,-5.1146],[-58.4765,-5.107],[-58.4986,-5.0923],[-58.4715,-5.0905],[-58.4702,-5.0718],[-58.4408,-5.0735],[-58.4503,-5.0394],[-58.4315,-5.0482],[-58.4229,-5.0201],[-58.408,-5.0133],[-58.4136,-4.9928],[-58.4033,-4.9669],[-58.3746,-4.9487],[-58.3959,-4.9199],[-58.362,-4.9151],[-58.3603,-4.888],[-58.3417,-4.8917],[-58.3653,-4.8548],[-58.3259,-4.8397],[-58.331,-4.8178],[-58.3211,-4.8075],[-58.313,-4.8266],[-58.2962,-4.7667],[-58.3007,-4.7495],[-58.2877,-4.7323],[-58.2762,-4.7359],[-58.2809,-4.7077],[-58.2694,-4.7094],[-58.267,-4.6602],[-58.2507,-4.6389],[-58.2642,-4.613],[-58.2561,-4.5963],[-58.2305,-4.6023],[-58.2208,-4.5858],[-58.2318,-4.581],[-58.2335,-4.5508],[-58.2022,-4.5464],[-58.2148,-4.5143],[-58.2016,-4.508],[-58.1973,-4.4887],[-58.1815,-4.498],[-58.1739,-4.4845],[-58.1837,-4.4564],[-58.1527,-4.4436],[-58.1522,-4.4338],[-58.1269,-4.4308],[-58.1294,-4.3963],[-58.1195,-4.3707],[-58.1553,-4.2401],[-58.1622,-4.2276],[-58.2053,-4.2167],[-58.2193,-4.2317],[-58.2536,-4.2261],[-58.2606,-4.1985],[-58.2834,-4.1605],[-58.307,-4.1557],[-58.3229,-4.1357],[-58.3084,-4.1178],[-58.3349,-4.0886],[-58.346,-4.0577],[-58.3736,-4.0381],[-58.4015,-4.0099],[-58.4058,-3.9952],[-58.4203,-3.9986],[-58.4157,-3.9835],[-58.4346,-3.9902],[-58.4323,-3.9663],[-58.4563,-3.9591],[-58.4654,-3.9253],[-58.4375,-3.9109],[-58.4274,-3.9159],[-58.4092,-3.8955],[-58.3449,-3.8865],[-58.3263,-3.8676],[-58.3219,-3.839],[-58.2862,-3.8128],[-58.2922,-3.7776],[-58.3092,-3.7434],[-58.294,-3.6924],[-58.2541,-3.6873],[-58.2102,-3.6965],[-58.2011,-3.6665],[-58.2282,-3.6513],[-58.2346,-3.612],[-58.298,-3.5969],[-58.3372,-3.581],[-58.3496,-3.5828],[-58.3628,-3.5827],[-58.3837,-3.5618],[-58.3783,-3.532],[-58.3648,-3.5153],[-58.3703,-3.5003],[-58.1813,-3.4965],[-58.1812,-3.4534],[-58.1739,-3.4146],[-58.1771,-3.3677],[-58.1506,-3.3451],[-58.1081,-3.3482],[-58.0878,-3.3348],[-58.0886,-3.315],[-58.0704,-3.3063],[-58.0622,-3.3392],[-58.0424,-3.3488],[-58.0291,-3.3409],[-57.9508,-3.3441],[-57.9006,-3.2843],[-57.8779,-3.2933],[-57.8621,-3.2818],[-57.8349,-3.2777],[-57.8256,-3.2454],[-57.8093,-3.2249],[-57.8033,-3.1817],[-57.7942,-3.1665],[-57.7958,-3.1335],[-57.6161,-3.1337],[-57.6097,-3.1684],[-57.6275,-3.1692],[-57.6384,-3.2118],[-57.6366,-3.2481],[-57.6254,-3.2571],[-57.6286,-3.2904],[-57.6218,-3.3061],[-57.602,-3.3155],[-57.5894,-3.3399],[-57.5674,-3.3214],[-57.5287,-3.3169],[-57.5159,-3.3245],[-57.5096,-3.3701],[-57.5012,-3.3863],[-57.498,-3.4178],[-57.4874,-3.4433],[-57.4653,-3.4611],[-57.4349,-3.5002],[-57.3701,-3.5139]]]}}]}