{"type":"FeatureCollection","features":[{"type":"Feature","properties":{"codarea":"2900108","centroide":[-41.74263621987588,-13.295836369659947],"codigo_ibge":2900108,"nome_ig":"Microrregião Abaíra"},"geometry":{"type":"MultiPolygon","coordinates":[[[[-41.6051,-13.4248],[-41.6112,-13.4278],[-41.633,-13.4139],[-41.6718,-13.3529],[-41.6998,-13.3709],[-41.7131,-13.3526],[-41.7225,-13.3576],[-41.7465,-13.3248],[-41.7659,-13.35],[-41.7833,-13.3617],[-41.7952,-13.3835],[-41.7921,-13.4238],[-41.8043,-13.4187],[-41.8404,-13.3839],[-41.8725,-13.3606],[-41.8693,-13.3473],[-41.8848,-13.3279],[-41.9091,-13.3114],[-41.9011,-13.302],[-41.9125,-13.264],[-41.9186,-13.2494],[-41.8882,-13.2107],[-41.8745,-13.2113],[-41.8579,-13.1892],[-41.8349,-13.2154],[-41.8025,-13.2697],[-41.7894,-13.2806],[-41.7347,-13.2528],[-41.7256,-13.2355],[-41.6902,-13.2162],[-41.6736,-13.193],[-41.6766,-13.1795],[-41.6535,-13.1683],[-41.5989,-13.2296],[-41.5903,-13.2688],[-41.6022,-13.2709],[-41.5983,-13.3069],[-41.6087,-13.3228],[-41.6099,-13.3823],[-41.6051,-13.4248]]]]}},{"type":"Feature","properties":{"codarea":"2918605","centroide":[-41.59909394805314,-13.515104961583972],"codigo_ibge":2918605,"nome_ig":"Microrregião Abaíra"},"geometry":{"type":"MultiPolygon","coordinates":[[[[-41.6112,-13.4278],[-41.5967,-13.4461],[-41.6027,-13.4609],[-41.595,-13.4811],[-41.58,-13.4727],[-41.5719,-13.45],[-41.5374,-13.4428],[-41.5116,-13.447],[-41.4991,-13.4811],[-41.5012,-13.5195],[-41.4872,-13.5236],[-41.4754,-13.585],[-41.4716,-13.6235],[-41.4573,-13.6278],[-41.4438,-13.6619],[-41.4318,-13.6683],[-41.4745,-13.6603],[-41.5107,-13.6651],[-41.608,-13.6601],[-41.6037,-13.6253],[-41.607,-13.5809],[-41.6156,-13.5444],[-41.6465,-13.5722],[-41.6716,-13.5276],[-41.6716,-13.5276],[-41.6936,-13.5234],[-41.6978,-13.4787],[-41.7133,-13.4578],[-41.7444,-13.4394],[-41.7629,-13.4428],[-41.7703,-13.418],[-41.7526,-13.4117],[-41.7558,-13.3937],[-41.7423,-13.3669],[-41.7465,-13.3248],[-41.7225,-13.3576],[-41.7131,-13.3526],[-41.6998,-13.3709],[-41.6718,-13.3529],[-41.633,-13.4139],[-41.6112,-13.4278]]]]}},{"type":"Feature","properties":{"codarea":"2921906","centroide":[-41.474866694765936,-13.065153612482549],"codigo_ibge":2921906,"nome_ig":"Microrregião Abaíra"},"geometry":{"type":"MultiPolygon","coordinates":[[[[-41.4393,-12.71],[-41.4391,-12.7106],[-41.4107,-12.8034],[-41.3805,-12.8801],[-41.3566,-12.8896],[-41.3411,-12.9231],[-41.3305,-12.9308],[-41.3194,-12.9607],[-41.3127,-13.0178],[-41.298,-13.0571],[-41.2557,-13.0968],[-41.2519,-13.1211],[-41.2623,-13.1345],[-41.281,-13.138],[-41.28,-13.1566],[-41.2686,-13.1658],[-41.2331,-13.1639],[-41.2262,-13.1757],[-41.1992,-13.1919],[-41.1851,-13.2299],[-41.2905,-13.3224],[-41.3058,-13.3176],[-41.3483,-13.2824],[-41.3802,-13.2725],[-41.3925,-13.2566],[-41.3988,-13.225],[-41.415,-13.2458],[-41.4459,-13.2506],[-41.4539,-13.263],[-41.4537,-13.2958],[-41.4386,-13.3191],[-41.4382,-13.35],[-41.4458,-13.3835],[-41.5474,-13.4258],[-41.5506,-13.4102],[-41.5694,-13.4108],[-41.6051,-13.4248],[-41.6099,-13.3823],[-41.6087,-13.3228],[-41.5983,-13.3069],[-41.6022,-13.2709],[-41.5903,-13.2688],[-41.5989,-13.2296],[-41.6535,-13.1683],[-41.6347,-13.1585],[-41.6392,-13.1485],[-41.6262,-13.1298],[-41.6479,-13.0824],[-41.6634,-13.0712],[-41.6946,-12.9983],[-41.6996,-12.9948],[-41.6403,-12.898],[-41.6436,-12.8818],[-41.6307,-12.8672],[-41.6209,-12.8273],[-41.6365,-12.7813],[-41.6155,-12.7591],[-41.6053,-12.7115],[-41.5748,-12.7132],[-41.4393,-12.71]]]]}},{"type":"Feature","properties":{"codarea":"2924306","centroide":[-41.87705566195913,-13.045807663141845],"codigo_ibge":2924306,"nome_ig":"Microrregião Abaíra"},"geometry":{"type":"MultiPolygon","coordinates":[[[[-41.6996,-12.9948],[-41.6946,-12.9983],[-41.6634,-13.0712],[-41.6479,-13.0824],[-41.6262,-13.1298],[-41.6392,-13.1485],[-41.6347,-13.1585],[-41.6535,-13.1683],[-41.6766,-13.1795],[-41.6736,-13.193],[-41.6902,-13.2162],[-41.7256,-13.2355],[-41.7347,-13.2528],[-41.7894,-13.2806],[-41.8025,-13.2697],[-41.8349,-13.2154],[-41.8579,-13.1892],[-41.8745,-13.2113],[-41.8882,-13.2107],[-41.9186,-13.2494],[-41.9125,-13.264],[-41.9317,-13.2528],[-41.9754,-13.2409],[-42.0057,-13.2102],[-42.0154,-13.1883],[-42.032,-13.1779],[-42.0594,-13.181],[-42.0726,-13.1525],[-42.1036,-13.1327],[-42.1028,-13.0678],[-42.1117,-13.0339],[-42.1252,-13.0183],[-42.1239,-13.0004],[-42.095,-13.0022],[-42.0914,-12.9796],[-42.0822,-12.9853],[-42.0642,-12.9497],[-42.0501,-12.9432],[-42.0527,-12.9121],[-42.0135,-12.9202],[-42.0245,-12.8893],[-42.0184,-12.8561],[-41.9936,-12.8557],[-41.978,-12.8303],[-41.9509,-12.8209],[-41.9147,-12.819],[-41.8949,-12.8036],[-41.8594,-12.8249],[-41.8297,-12.8142],[-41.8129,-12.8208],[-41.7978,-12.8085],[-41.7638,-12.8663],[-41.7064,-12.9762],[-41.6996,-12.9948]]]]}}]}