{"type":"FeatureCollection","features":[{"type":"Feature","properties":{"codarea":"4302105","centroide":[-51.55196752981711,-29.12595476068055],"codigo_ibge":4302105,"nome_ig":"Monte Belo"},"geometry":{"type":"Polygon","coordinates":[[[-51.5055,-29.0813],[-51.4966,-29.0872],[-51.5017,-29.1143],[-51.474,-29.1322],[-51.4791,-29.1468],[-51.4583,-29.1687],[-51.4229,-29.165],[-51.4231,-29.1561],[-51.3884,-29.156],[-51.3907,-29.197],[-51.4921,-29.1983],[-51.5265,-29.1972],[-51.654,-29.1992],[-51.6655,-29.1881],[-51.6166,-29.1872],[-51.6167,-29.1672],[-51.5884,-29.1675],[-51.6147,-29.1447],[-51.615,-29.1253],[-51.6493,-29.0937],[-51.6817,-29.0889],[-51.6779,-29.0707],[-51.6377,-29.0886],[-51.6342,-29.0732],[-51.6493,-29.0603],[-51.6788,-29.0638],[-51.6575,-29.019],[-51.6369,-29.0136],[-51.6304,-29.0218],[-51.636,-29.039],[-51.6203,-29.0408],[-51.6095,-29.0613],[-51.5948,-29.0447],[-51.5663,-29.0442],[-51.5531,-29.015],[-51.5353,-29.0226],[-51.5577,-29.0444],[-51.5396,-29.0558],[-51.5199,-29.0793],[-51.5055,-29.0813]]]}},{"type":"Feature","properties":{"codarea":"4317251","centroide":[-51.71067515408717,-29.16404621914046],"codigo_ibge":4317251,"nome_ig":"Monte Belo"},"geometry":{"type":"Polygon","coordinates":[[[-51.714,-29.0906],[-51.6954,-29.0972],[-51.6954,-29.1583],[-51.6651,-29.1588],[-51.6655,-29.1881],[-51.654,-29.1992],[-51.6775,-29.1992],[-51.6833,-29.213],[-51.75,-29.208],[-51.758,-29.1851],[-51.7337,-29.1777],[-51.7564,-29.1407],[-51.7391,-29.1367],[-51.7122,-29.1156],[-51.7299,-29.0945],[-51.7195,-29.0791],[-51.714,-29.0906]]]}}]}