{"type":"FeatureCollection","features":[{"type":"Feature","properties":{"codarea":"3200102","centroide":[-41.12636797293909,-20.089723517180417],"codigo_ibge":3200102,"nome_ig":"Montanhas do Espírito Santo"},"geometry":{"type":"MultiPolygon","coordinates":[[[[-40.9705,-19.977],[-40.9688,-20.039],[-40.9476,-20.0741],[-40.9476,-20.0868],[-40.9861,-20.1208],[-40.9996,-20.1239],[-41.0119,-20.11],[-41.0363,-20.1323],[-41.0176,-20.1497],[-41.0217,-20.1707],[-41.0167,-20.1941],[-41.0026,-20.2144],[-41.0257,-20.2124],[-41.0302,-20.2311],[-41.0529,-20.2354],[-41.0678,-20.2203],[-41.0687,-20.245],[-41.0808,-20.2624],[-41.1043,-20.2746],[-41.1282,-20.2674],[-41.1366,-20.2876],[-41.158,-20.2824],[-41.1655,-20.2678],[-41.1852,-20.2594],[-41.1952,-20.2708],[-41.2247,-20.2807],[-41.2387,-20.2775],[-41.2428,-20.265],[-41.2267,-20.2599],[-41.2399,-20.2203],[-41.2556,-20.212],[-41.2421,-20.2003],[-41.2521,-20.181],[-41.2428,-20.1574],[-41.2302,-20.1635],[-41.2261,-20.1217],[-41.2391,-20.1135],[-41.254,-20.0822],[-41.2327,-20.0518],[-41.2531,-20.0279],[-41.2386,-20.0061],[-41.2522,-19.9846],[-41.264,-19.9865],[-41.2611,-19.9607],[-41.2739,-19.9585],[-41.2714,-19.9422],[-41.2444,-19.9373],[-41.2296,-19.907],[-41.205,-19.9031],[-41.1869,-19.8915],[-41.177,-19.9062],[-41.1552,-19.8909],[-41.1417,-19.8929],[-41.1258,-19.9184],[-41.1244,-19.9351],[-41.1103,-19.9567],[-41.0722,-19.9836],[-41.0563,-19.9865],[-40.9955,-19.9609],[-40.9947,-19.9702],[-40.9705,-19.977]]]]}},{"type":"Feature","properties":{"codarea":"3200300","centroide":[-40.827523272964484,-20.563843110047365],"codigo_ibge":3200300,"nome_ig":"Montanhas do Espírito Santo"},"geometry":{"type":"MultiPolygon","coordinates":[[[[-40.9124,-20.4486],[-40.9044,-20.4621],[-40.8719,-20.4638],[-40.8541,-20.4919],[-40.8122,-20.4828],[-40.8072,-20.4918],[-40.822,-20.5173],[-40.8157,-20.5231],[-40.7867,-20.5099],[-40.7784,-20.4971],[-40.7607,-20.5045],[-40.748,-20.4935],[-40.7362,-20.4665],[-40.7101,-20.4594],[-40.7144,-20.441],[-40.6883,-20.4344],[-40.6561,-20.4602],[-40.677,-20.4687],[-40.6764,-20.4885],[-40.6935,-20.4992],[-40.6938,-20.5263],[-40.7022,-20.5365],[-40.6729,-20.5447],[-40.6804,-20.5571],[-40.682,-20.5781],[-40.6708,-20.5933],[-40.7112,-20.6142],[-40.7277,-20.6322],[-40.7262,-20.6458],[-40.7411,-20.6447],[-40.7702,-20.6771],[-40.7709,-20.7055],[-40.8335,-20.6813],[-40.8385,-20.6875],[-40.8554,-20.6856],[-40.882,-20.6704],[-40.9099,-20.6858],[-40.9297,-20.6782],[-40.9342,-20.6627],[-40.9158,-20.6439],[-40.9141,-20.6135],[-40.9362,-20.5995],[-40.9626,-20.6016],[-40.956,-20.5918],[-40.9683,-20.5762],[-40.955,-20.5593],[-40.9661,-20.5426],[-40.9598,-20.4974],[-40.9686,-20.4972],[-40.9689,-20.4625],[-40.9871,-20.4582],[-40.9881,-20.4368],[-40.9299,-20.4368],[-40.9124,-20.4486]]]]}},{"type":"Feature","properties":{"codarea":"3201159","centroide":[-41.29656740641167,-20.124169912948993],"codigo_ibge":3201159,"nome_ig":"Montanhas do Espírito Santo"},"geometry":{"type":"MultiPolygon","coordinates":[[[[-41.2979,-19.9376],[-41.2714,-19.9422],[-41.2739,-19.9585],[-41.2611,-19.9607],[-41.264,-19.9865],[-41.2522,-19.9846],[-41.2386,-20.0061],[-41.2531,-20.0279],[-41.2327,-20.0518],[-41.254,-20.0822],[-41.2391,-20.1135],[-41.2261,-20.1217],[-41.2302,-20.1635],[-41.2428,-20.1574],[-41.2521,-20.181],[-41.2421,-20.2003],[-41.2556,-20.212],[-41.2399,-20.2203],[-41.2267,-20.2599],[-41.2428,-20.265],[-41.2387,-20.2775],[-41.2665,-20.2641],[-41.2567,-20.2533],[-41.2785,-20.2323],[-41.2809,-20.2415],[-41.3025,-20.2299],[-41.309,-20.2393],[-41.2944,-20.2543],[-41.3104,-20.2693],[-41.317,-20.2573],[-41.3505,-20.2345],[-41.3385,-20.2239],[-41.35,-20.1981],[-41.3772,-20.2056],[-41.3815,-20.2235],[-41.4102,-20.2302],[-41.4155,-20.2073],[-41.4118,-20.2061],[-41.3824,-20.189],[-41.3381,-20.0881],[-41.3326,-20.0576],[-41.3185,-20.0415],[-41.3087,-19.997],[-41.3198,-19.9786],[-41.2979,-19.9376]]]]}},{"type":"Feature","properties":{"codarea":"3201407","centroide":[-41.2041311813394,-20.551254434013835],"codigo_ibge":3201407,"nome_ig":"Montanhas do Espírito Santo"},"geometry":{"type":"MultiPolygon","coordinates":[[[[-41.0528,-20.4599],[-41.051,-20.4787],[-41.0394,-20.4837],[-41.0255,-20.5151],[-41.0459,-20.5231],[-41.0458,-20.5361],[-41.0188,-20.5329],[-41.0176,-20.5446],[-41.0343,-20.5683],[-41.0576,-20.568],[-41.0808,-20.5926],[-41.0663,-20.5951],[-41.0775,-20.614],[-41.0991,-20.6086],[-41.1322,-20.6153],[-41.1359,-20.6312],[-41.1802,-20.6543],[-41.1798,-20.667],[-41.2049,-20.6715],[-41.2548,-20.6629],[-41.2885,-20.6426],[-41.3056,-20.6514],[-41.32,-20.6239],[-41.3409,-20.606],[-41.3509,-20.6239],[-41.374,-20.6283],[-41.389,-20.6256],[-41.3971,-20.5959],[-41.4147,-20.5729],[-41.4004,-20.546],[-41.3717,-20.5352],[-41.3773,-20.5084],[-41.3283,-20.5143],[-41.3276,-20.4975],[-41.2977,-20.5206],[-41.2801,-20.5078],[-41.2833,-20.4879],[-41.2622,-20.4862],[-41.2424,-20.5001],[-41.2068,-20.4816],[-41.2254,-20.4612],[-41.2095,-20.4462],[-41.1911,-20.4455],[-41.1663,-20.4458],[-41.1654,-20.4256],[-41.1424,-20.4315],[-41.1144,-20.4197],[-41.1112,-20.4053],[-41.0977,-20.4088],[-41.1013,-20.4336],[-41.0756,-20.4452],[-41.0678,-20.4602],[-41.0528,-20.4599]]]]}},{"type":"Feature","properties":{"codarea":"3201704","centroide":[-41.26694991695178,-20.370785294641678],"codigo_ibge":3201704,"nome_ig":"Montanhas do Espírito Santo"},"geometry":{"type":"MultiPolygon","coordinates":[[[[-41.2387,-20.2775],[-41.2247,-20.2807],[-41.1952,-20.2708],[-41.1852,-20.2594],[-41.1655,-20.2678],[-41.158,-20.2824],[-41.1797,-20.3124],[-41.1896,-20.3072],[-41.2171,-20.3278],[-41.2097,-20.3361],[-41.2185,-20.3562],[-41.2047,-20.3636],[-41.2029,-20.3811],[-41.1764,-20.3974],[-41.1995,-20.4231],[-41.1911,-20.4455],[-41.2095,-20.4462],[-41.2254,-20.4612],[-41.2068,-20.4816],[-41.2424,-20.5001],[-41.2622,-20.4862],[-41.2833,-20.4879],[-41.2801,-20.5078],[-41.2977,-20.5206],[-41.3276,-20.4975],[-41.3178,-20.4913],[-41.3206,-20.4686],[-41.3148,-20.4272],[-41.3232,-20.3954],[-41.3458,-20.3875],[-41.3575,-20.3484],[-41.361,-20.3179],[-41.3504,-20.302],[-41.314,-20.2959],[-41.3193,-20.2736],[-41.3104,-20.2693],[-41.2944,-20.2543],[-41.309,-20.2393],[-41.3025,-20.2299],[-41.2809,-20.2415],[-41.2785,-20.2323],[-41.2567,-20.2533],[-41.2665,-20.2641],[-41.2387,-20.2775]]]]}},{"type":"Feature","properties":{"codarea":"3201902","centroide":[-40.84911781302877,-20.307645259572123],"codigo_ibge":3201902,"nome_ig":"Montanhas do Espírito Santo"},"geometry":{"type":"MultiPolygon","coordinates":[[[[-40.752,-20.1761],[-40.7452,-20.1888],[-40.7182,-20.1832],[-40.6813,-20.1886],[-40.6602,-20.2073],[-40.6645,-20.2176],[-40.6338,-20.2158],[-40.6263,-20.2367],[-40.61,-20.2521],[-40.5945,-20.2452],[-40.6059,-20.2519],[-40.5994,-20.2792],[-40.5826,-20.2924],[-40.5796,-20.3217],[-40.5948,-20.3626],[-40.5633,-20.3867],[-40.5348,-20.3906],[-40.5563,-20.4089],[-40.588,-20.4155],[-40.6151,-20.4138],[-40.6252,-20.4242],[-40.647,-20.4015],[-40.6454,-20.3872],[-40.6659,-20.3843],[-40.69,-20.393],[-40.7093,-20.3781],[-40.7297,-20.3893],[-40.7404,-20.3853],[-40.7329,-20.3469],[-40.7586,-20.347],[-40.7781,-20.3656],[-40.7894,-20.4062],[-40.8208,-20.3931],[-40.8343,-20.3753],[-40.8558,-20.3854],[-40.8726,-20.3836],[-40.8948,-20.3988],[-40.8885,-20.4215],[-40.8992,-20.4234],[-40.902,-20.4495],[-40.9124,-20.4486],[-40.9299,-20.4368],[-40.9881,-20.4368],[-41.0004,-20.426],[-41.0105,-20.4346],[-41.005,-20.4687],[-41.0188,-20.4839],[-41.0394,-20.4837],[-41.051,-20.4787],[-41.0528,-20.4599],[-41.0523,-20.4392],[-41.0714,-20.3898],[-41.0924,-20.3803],[-41.0871,-20.3529],[-41.0984,-20.344],[-41.1048,-20.3042],[-41.1366,-20.2876],[-41.1282,-20.2674],[-41.1043,-20.2746],[-41.0808,-20.2624],[-41.0687,-20.245],[-41.0678,-20.2203],[-41.0529,-20.2354],[-41.0302,-20.2311],[-41.0257,-20.2124],[-41.0026,-20.2144],[-40.9806,-20.2274],[-40.9688,-20.2121],[-40.9741,-20.2006],[-40.9575,-20.1893],[-40.9399,-20.1999],[-40.8971,-20.2031],[-40.8853,-20.1926],[-40.8624,-20.1923],[-40.8209,-20.164],[-40.7707,-20.1608],[-40.752,-20.1761]]]]}},{"type":"Feature","properties":{"codarea":"3202603","centroide":[-40.85741699114662,-20.754885097350506],"codigo_ibge":3202603,"nome_ig":"Montanhas do Espírito Santo"},"geometry":{"type":"MultiPolygon","coordinates":[[[[-40.8385,-20.6875],[-40.8275,-20.6903],[-40.7946,-20.7257],[-40.8103,-20.7505],[-40.7761,-20.7553],[-40.7707,-20.7872],[-40.828,-20.8559],[-40.828,-20.8085],[-40.8559,-20.8142],[-40.8626,-20.8057],[-40.8895,-20.8184],[-40.9054,-20.8078],[-40.944,-20.7643],[-40.9255,-20.7387],[-40.9255,-20.7387],[-40.9325,-20.7322],[-40.9099,-20.6858],[-40.882,-20.6704],[-40.8554,-20.6856],[-40.8385,-20.6875]]]]}},{"type":"Feature","properties":{"codarea":"3202702","centroide":[-40.86470874219531,-19.728703561765805],"codigo_ibge":3202702,"nome_ig":"Montanhas do Espírito Santo"},"geometry":{"type":"MultiPolygon","coordinates":[[[[-40.834,-19.5687],[-40.8529,-19.5784],[-40.8538,-19.6168],[-40.8344,-19.617],[-40.8219,-19.5928],[-40.8047,-19.5952],[-40.7899,-19.5807],[-40.7741,-19.6156],[-40.7792,-19.6345],[-40.7564,-19.6523],[-40.7742,-19.6976],[-40.7742,-19.7461],[-40.7818,-19.7589],[-40.7735,-19.7883],[-40.7747,-19.8138],[-40.7806,-19.83],[-40.8114,-19.8427],[-40.8272,-19.8642],[-40.8141,-19.8881],[-40.8293,-19.8915],[-40.8848,-19.8345],[-40.916,-19.8437],[-40.9449,-19.8608],[-40.9546,-19.8588],[-40.9492,-19.8425],[-40.958,-19.8302],[-40.9373,-19.8166],[-40.9409,-19.805],[-40.9937,-19.8009],[-40.9968,-19.7877],[-40.9835,-19.7357],[-40.9729,-19.7252],[-40.9452,-19.7306],[-40.9448,-19.7124],[-40.9272,-19.6892],[-40.9371,-19.6421],[-40.9224,-19.604],[-40.8824,-19.5923],[-40.8491,-19.5594],[-40.834,-19.5687]]]]}},{"type":"Feature","properties":{"codarea":"3202900","centroide":[-40.88918018004654,-19.9488452521864],"codigo_ibge":3202900,"nome_ig":"Montanhas do Espírito Santo"},"geometry":{"type":"MultiPolygon","coordinates":[[[[-40.8141,-19.8881],[-40.8153,-19.9097],[-40.797,-19.9102],[-40.7741,-19.9443],[-40.785,-19.9612],[-40.826,-19.9874],[-40.8385,-19.9806],[-40.8616,-19.9931],[-40.8668,-20.0232],[-40.8876,-20.0298],[-40.9109,-20.0561],[-40.9445,-20.0623],[-40.9476,-20.0741],[-40.9688,-20.039],[-40.9705,-19.977],[-40.9437,-19.9328],[-40.9444,-19.9015],[-40.9314,-19.8789],[-40.9546,-19.8588],[-40.9449,-19.8608],[-40.916,-19.8437],[-40.8848,-19.8345],[-40.8293,-19.8915],[-40.8141,-19.8881]]]]}},{"type":"Feature","properties":{"codarea":"3203346","centroide":[-40.7735696434472,-20.43145744663402],"codigo_ibge":3203346,"nome_ig":"Montanhas do Espírito Santo"},"geometry":{"type":"MultiPolygon","coordinates":[[[[-40.6252,-20.4242],[-40.6219,-20.4358],[-40.6324,-20.4622],[-40.6262,-20.4678],[-40.6561,-20.4602],[-40.6883,-20.4344],[-40.7144,-20.441],[-40.7101,-20.4594],[-40.7362,-20.4665],[-40.748,-20.4935],[-40.7607,-20.5045],[-40.7784,-20.4971],[-40.7867,-20.5099],[-40.8157,-20.5231],[-40.822,-20.5173],[-40.8072,-20.4918],[-40.8122,-20.4828],[-40.8541,-20.4919],[-40.8719,-20.4638],[-40.9044,-20.4621],[-40.9124,-20.4486],[-40.902,-20.4495],[-40.8992,-20.4234],[-40.8885,-20.4215],[-40.8948,-20.3988],[-40.8726,-20.3836],[-40.8558,-20.3854],[-40.8343,-20.3753],[-40.8208,-20.3931],[-40.7894,-20.4062],[-40.7781,-20.3656],[-40.7586,-20.347],[-40.7329,-20.3469],[-40.7404,-20.3853],[-40.7297,-20.3893],[-40.7093,-20.3781],[-40.69,-20.393],[-40.6659,-20.3843],[-40.6454,-20.3872],[-40.647,-20.4015],[-40.6252,-20.4242]]]]}},{"type":"Feature","properties":{"codarea":"3204401","centroide":[-40.91938496732701,-20.81750434209297],"codigo_ibge":3204401,"nome_ig":"Montanhas do Espírito Santo"},"geometry":{"type":"MultiPolygon","coordinates":[[[[-40.9099,-20.6858],[-40.9325,-20.7322],[-40.9255,-20.7387],[-40.9255,-20.7387],[-40.944,-20.7643],[-40.9054,-20.8078],[-40.8895,-20.8184],[-40.8626,-20.8057],[-40.8559,-20.8142],[-40.828,-20.8085],[-40.828,-20.8559],[-40.828,-20.8908],[-40.8517,-20.8861],[-40.8683,-20.8927],[-40.9267,-20.8911],[-40.9795,-20.8693],[-40.9916,-20.8376],[-40.9778,-20.8231],[-40.9957,-20.7929],[-40.9943,-20.7794],[-40.9655,-20.7457],[-40.956,-20.6917],[-40.9297,-20.6782],[-40.9099,-20.6858]]]]}},{"type":"Feature","properties":{"codarea":"3204500","centroide":[-40.53969758878805,-20.123099492712612],"codigo_ibge":3204500,"nome_ig":"Montanhas do Espírito Santo"},"geometry":{"type":"MultiPolygon","coordinates":[[[[-40.4545,-19.9465],[-40.4474,-19.9944],[-40.4167,-20.0162],[-40.4167,-20.0162],[-40.4162,-20.0166],[-40.4333,-20.0949],[-40.4357,-20.1352],[-40.4113,-20.17],[-40.3928,-20.1721],[-40.3733,-20.2148],[-40.4077,-20.2312],[-40.4654,-20.2197],[-40.4874,-20.2378],[-40.5022,-20.2289],[-40.5305,-20.2564],[-40.5577,-20.2702],[-40.5937,-20.2711],[-40.5945,-20.2452],[-40.61,-20.2521],[-40.6263,-20.2367],[-40.6338,-20.2158],[-40.6645,-20.2176],[-40.6602,-20.2073],[-40.6813,-20.1886],[-40.7182,-20.1832],[-40.7452,-20.1888],[-40.752,-20.1761],[-40.7453,-20.1784],[-40.7071,-20.1429],[-40.6834,-20.1387],[-40.675,-20.0935],[-40.662,-20.0861],[-40.6432,-20.0921],[-40.6379,-20.1099],[-40.6245,-20.1069],[-40.6026,-20.0822],[-40.6223,-20.046],[-40.5999,-20.0075],[-40.6068,-19.9669],[-40.5981,-19.9598],[-40.5862,-19.9879],[-40.5446,-19.9899],[-40.5323,-19.9797],[-40.5132,-19.9828],[-40.5109,-19.9548],[-40.4851,-19.9634],[-40.4545,-19.9465]]]]}},{"type":"Feature","properties":{"codarea":"3204559","centroide":[-40.805500212539116,-20.086032426477573],"codigo_ibge":3204559,"nome_ig":"Montanhas do Espírito Santo"},"geometry":{"type":"MultiPolygon","coordinates":[[[[-40.5981,-19.9598],[-40.6068,-19.9669],[-40.5999,-20.0075],[-40.6223,-20.046],[-40.6026,-20.0822],[-40.6245,-20.1069],[-40.6379,-20.1099],[-40.6432,-20.0921],[-40.662,-20.0861],[-40.675,-20.0935],[-40.6834,-20.1387],[-40.7071,-20.1429],[-40.7453,-20.1784],[-40.752,-20.1761],[-40.7707,-20.1608],[-40.8209,-20.164],[-40.8624,-20.1923],[-40.8853,-20.1926],[-40.8971,-20.2031],[-40.9399,-20.1999],[-40.9575,-20.1893],[-40.9741,-20.2006],[-40.9688,-20.2121],[-40.9806,-20.2274],[-41.0026,-20.2144],[-41.0167,-20.1941],[-41.0217,-20.1707],[-41.0176,-20.1497],[-41.0363,-20.1323],[-41.0119,-20.11],[-40.9996,-20.1239],[-40.9861,-20.1208],[-40.9476,-20.0868],[-40.9476,-20.0741],[-40.9445,-20.0623],[-40.9109,-20.0561],[-40.8876,-20.0298],[-40.8668,-20.0232],[-40.8616,-19.9931],[-40.8385,-19.9806],[-40.826,-19.9874],[-40.785,-19.9612],[-40.7668,-19.9672],[-40.7822,-19.9754],[-40.7803,-19.9918],[-40.7189,-19.9815],[-40.6932,-19.981],[-40.672,-19.9636],[-40.6456,-19.9532],[-40.6407,-19.9772],[-40.5981,-19.9598]]]]}},{"type":"Feature","properties":{"codarea":"3204609","centroide":[-40.637208932181856,-19.87866591795626],"codigo_ibge":3204609,"nome_ig":"Montanhas do Espírito Santo"},"geometry":{"type":"MultiPolygon","coordinates":[[[[-40.5179,-19.7459],[-40.5285,-19.8094],[-40.5142,-19.8312],[-40.5051,-19.8536],[-40.5032,-19.8762],[-40.4775,-19.9046],[-40.4744,-19.937],[-40.4527,-19.9372],[-40.4545,-19.9465],[-40.4851,-19.9634],[-40.5109,-19.9548],[-40.5132,-19.9828],[-40.5323,-19.9797],[-40.5446,-19.9899],[-40.5862,-19.9879],[-40.5981,-19.9598],[-40.6407,-19.9772],[-40.6456,-19.9532],[-40.672,-19.9636],[-40.6932,-19.981],[-40.7189,-19.9815],[-40.7803,-19.9918],[-40.7822,-19.9754],[-40.7668,-19.9672],[-40.785,-19.9612],[-40.7741,-19.9443],[-40.797,-19.9102],[-40.8153,-19.9097],[-40.8141,-19.8881],[-40.8272,-19.8642],[-40.8114,-19.8427],[-40.7806,-19.83],[-40.7747,-19.8138],[-40.7467,-19.831],[-40.7278,-19.828],[-40.7088,-19.8125],[-40.7048,-19.786],[-40.6949,-19.7736],[-40.6264,-19.7708],[-40.6103,-19.757],[-40.5917,-19.7546],[-40.5515,-19.7342],[-40.5179,-19.7459]]]]}},{"type":"Feature","properties":{"codarea":"3205036","centroide":[-41.004172601810254,-20.647430765706652],"codigo_ibge":3205036,"nome_ig":"Montanhas do Espírito Santo"},"geometry":{"type":"MultiPolygon","coordinates":[[[[-40.9881,-20.4368],[-40.9871,-20.4582],[-40.9689,-20.4625],[-40.9686,-20.4972],[-40.9598,-20.4974],[-40.9661,-20.5426],[-40.955,-20.5593],[-40.9683,-20.5762],[-40.956,-20.5918],[-40.9626,-20.6016],[-40.9362,-20.5995],[-40.9141,-20.6135],[-40.9158,-20.6439],[-40.9342,-20.6627],[-40.9297,-20.6782],[-40.956,-20.6917],[-40.9655,-20.7457],[-40.9943,-20.7794],[-40.9957,-20.7929],[-40.9778,-20.8231],[-40.9916,-20.8376],[-40.9795,-20.8693],[-41.0061,-20.8693],[-41.0307,-20.8544],[-41.0152,-20.8224],[-41.023,-20.8163],[-41.0233,-20.787],[-41.0463,-20.7879],[-41.0323,-20.7599],[-41.0498,-20.7527],[-41.0712,-20.7261],[-41.0617,-20.7154],[-41.0828,-20.7125],[-41.0849,-20.6828],[-41.0552,-20.6322],[-41.0775,-20.614],[-41.0663,-20.5951],[-41.0808,-20.5926],[-41.0576,-20.568],[-41.0343,-20.5683],[-41.0176,-20.5446],[-41.0188,-20.5329],[-41.0458,-20.5361],[-41.0459,-20.5231],[-41.0255,-20.5151],[-41.0394,-20.4837],[-41.0188,-20.4839],[-41.005,-20.4687],[-41.0105,-20.4346],[-41.0004,-20.426],[-40.9881,-20.4368]]]]}},{"type":"Feature","properties":{"codarea":"3205069","centroide":[-41.14013447744866,-20.37055661690473],"codigo_ibge":3205069,"nome_ig":"Montanhas do Espírito Santo"},"geometry":{"type":"MultiPolygon","coordinates":[[[[-41.1366,-20.2876],[-41.1048,-20.3042],[-41.0984,-20.344],[-41.0871,-20.3529],[-41.0924,-20.3803],[-41.0714,-20.3898],[-41.0523,-20.4392],[-41.0528,-20.4599],[-41.0678,-20.4602],[-41.0756,-20.4452],[-41.1013,-20.4336],[-41.0977,-20.4088],[-41.1112,-20.4053],[-41.1144,-20.4197],[-41.1424,-20.4315],[-41.1654,-20.4256],[-41.1663,-20.4458],[-41.1911,-20.4455],[-41.1995,-20.4231],[-41.1764,-20.3974],[-41.2029,-20.3811],[-41.2047,-20.3636],[-41.2185,-20.3562],[-41.2097,-20.3361],[-41.2171,-20.3278],[-41.1896,-20.3072],[-41.1797,-20.3124],[-41.158,-20.2824],[-41.1366,-20.2876]]]]}}]}