{"type":"FeatureCollection","features":[{"type":"Feature","properties":{"codarea":"4116208","centroide":[-48.85622163901592,-25.51826792542555],"codigo_ibge":4116208,"nome_ig":"Morretes"},"geometry":{"type":"Polygon","coordinates":[[[-48.8448,-25.3099],[-48.8529,-25.3211],[-48.8414,-25.3369],[-48.8495,-25.3682],[-48.8291,-25.3763],[-48.8345,-25.3878],[-48.8189,-25.443],[-48.7847,-25.4786],[-48.7198,-25.4837],[-48.7083,-25.4968],[-48.6838,-25.5025],[-48.6804,-25.5296],[-48.7041,-25.5678],[-48.6991,-25.5937],[-48.6846,-25.6172],[-48.6883,-25.627],[-48.6995,-25.6179],[-48.7464,-25.5988],[-48.7762,-25.6098],[-48.7898,-25.6228],[-48.8125,-25.6244],[-48.8482,-25.6108],[-48.8731,-25.6556],[-48.8658,-25.667],[-48.9032,-25.6677],[-48.9236,-25.6997],[-48.9412,-25.7032],[-48.9734,-25.7264],[-48.9656,-25.6986],[-48.9697,-25.6648],[-48.9548,-25.6454],[-48.9566,-25.5977],[-48.9422,-25.5814],[-48.9727,-25.5759],[-48.9657,-25.5624],[-48.9728,-25.5457],[-48.9614,-25.5383],[-48.9701,-25.5226],[-48.9749,-25.5086],[-48.9641,-25.4917],[-48.9409,-25.4757],[-48.9628,-25.4447],[-48.9684,-25.4267],[-48.9487,-25.417],[-48.9497,-25.4015],[-48.9307,-25.3805],[-48.919,-25.3794],[-48.8989,-25.3463],[-48.9063,-25.333],[-48.9056,-25.3093],[-48.8844,-25.2902],[-48.8448,-25.3099]]]}}]}