{"type":"FeatureCollection","features":[{"type":"Feature","properties":{"codarea":"4111704","centroide":[-50.0799766728833,-23.71842235348424],"codigo_ibge":4111704,"nome_ig":"Norte Pioneiro"},"geometry":{"type":"Polygon","coordinates":[[[-50.0491,-23.6513],[-50.0308,-23.6553],[-50.0408,-23.6851],[-50.0307,-23.7024],[-50.0145,-23.692],[-50.0071,-23.7255],[-50.0199,-23.738],[-50.0339,-23.7719],[-50.094,-23.7915],[-50.1005,-23.7577],[-50.1181,-23.7551],[-50.1422,-23.7041],[-50.1485,-23.7116],[-50.1764,-23.6992],[-50.1686,-23.6785],[-50.149,-23.6691],[-50.1385,-23.6826],[-50.088,-23.6784],[-50.0617,-23.6657],[-50.0631,-23.6471],[-50.0491,-23.6513]]]}},{"type":"Feature","properties":{"codarea":"4112306","centroide":[-50.162749157873755,-23.732996656476217],"codigo_ibge":4112306,"nome_ig":"Norte Pioneiro"},"geometry":{"type":"Polygon","coordinates":[[[-50.1909,-23.5701],[-50.1936,-23.602],[-50.1744,-23.6391],[-50.1941,-23.6667],[-50.1822,-23.682],[-50.1686,-23.6785],[-50.1764,-23.6992],[-50.1485,-23.7116],[-50.1422,-23.7041],[-50.1181,-23.7551],[-50.1005,-23.7577],[-50.094,-23.7915],[-50.0771,-23.8212],[-50.0841,-23.8442],[-50.1069,-23.8437],[-50.1203,-23.8558],[-50.1719,-23.8163],[-50.1821,-23.8178],[-50.1823,-23.7893],[-50.1909,-23.7589],[-50.2187,-23.7298],[-50.2021,-23.6987],[-50.2065,-23.6622],[-50.2364,-23.6347],[-50.2236,-23.6071],[-50.241,-23.5821],[-50.2074,-23.5648],[-50.1909,-23.5701]]]}},{"type":"Feature","properties":{"codarea":"4119202","centroide":[-50.06243959873254,-23.90382288169865],"codigo_ibge":4119202,"nome_ig":"Norte Pioneiro"},"geometry":{"type":"Polygon","coordinates":[[[-49.9731,-23.9021],[-49.9717,-23.966],[-50.0088,-23.9752],[-50.0417,-23.9903],[-50.0714,-23.9777],[-50.0814,-23.961],[-50.1183,-23.9621],[-50.1518,-23.9408],[-50.1617,-23.942],[-50.1638,-23.9308],[-50.1157,-23.8855],[-50.1203,-23.8558],[-50.1069,-23.8437],[-50.0841,-23.8442],[-50.0771,-23.8212],[-50.094,-23.7915],[-50.0339,-23.7719],[-50.0199,-23.738],[-50.0593,-23.8911],[-50.0113,-23.903],[-49.9731,-23.9021]]]}},{"type":"Feature","properties":{"codarea":"4127809","centroide":[-49.96298725748587,-23.72600343045121],"codigo_ibge":4127809,"nome_ig":"Norte Pioneiro"},"geometry":{"type":"Polygon","coordinates":[[[-50.0384,-23.5486],[-50.0243,-23.5666],[-49.9844,-23.5901],[-49.9537,-23.5993],[-49.9026,-23.6004],[-49.9095,-23.6193],[-49.8882,-23.6207],[-49.8604,-23.6635],[-49.8663,-23.6868],[-49.8504,-23.6925],[-49.8605,-23.7173],[-49.8339,-23.7474],[-49.8256,-23.7656],[-49.8814,-23.8331],[-49.9234,-23.8437],[-49.9595,-23.8529],[-49.9349,-23.8647],[-49.9675,-23.8751],[-49.9558,-23.8932],[-49.9731,-23.9021],[-50.0113,-23.903],[-50.0593,-23.8911],[-50.0199,-23.738],[-50.0071,-23.7255],[-50.0145,-23.692],[-50.0307,-23.7024],[-50.0408,-23.6851],[-50.0308,-23.6553],[-50.0491,-23.6513],[-50.0685,-23.632],[-50.0844,-23.6341],[-50.0664,-23.6113],[-50.0872,-23.602],[-50.0895,-23.5848],[-50.0709,-23.5664],[-50.0923,-23.5656],[-50.0827,-23.537],[-50.052,-23.5519],[-50.0384,-23.5486]]]}}]}