{"type":"FeatureCollection","features":[{"type":"Feature","properties":{"codarea":"4100103","centroide":[-50.31080393721522,-23.30756949760988],"codigo_ibge":4100103,"nome_ig":"Norte Pioneiro do Paraná"},"geometry":{"type":"Polygon","coordinates":[[[-50.2347,-23.3567],[-50.2586,-23.3545],[-50.2987,-23.3704],[-50.3041,-23.3824],[-50.3143,-23.3574],[-50.3407,-23.3552],[-50.379,-23.3598],[-50.4094,-23.3369],[-50.4157,-23.323],[-50.46,-23.3082],[-50.481,-23.2686],[-50.468,-23.2603],[-50.4668,-23.2601],[-50.4671,-23.2844],[-50.4514,-23.2939],[-50.4396,-23.2811],[-50.3982,-23.2851],[-50.3826,-23.2789],[-50.3338,-23.2986],[-50.3041,-23.2591],[-50.2743,-23.2486],[-50.2604,-23.2525],[-50.2339,-23.2374],[-50.2249,-23.2244],[-50.2278,-23.2354],[-50.2039,-23.2337],[-50.2131,-23.2592],[-50.1919,-23.2825],[-50.2066,-23.2878],[-50.2069,-23.3042],[-50.2213,-23.3055],[-50.2137,-23.3433],[-50.2347,-23.3567]]]}},{"type":"Feature","properties":{"codarea":"4101101","centroide":[-50.27162351396386,-23.018590789488673],"codigo_ibge":4101101,"nome_ig":"Norte Pioneiro do Paraná"},"geometry":{"type":"Polygon","coordinates":[[[-50.2038,-22.9527],[-50.1943,-22.9911],[-50.2103,-23.026],[-50.1977,-23.0485],[-50.1751,-23.0638],[-50.1702,-23.0773],[-50.1994,-23.0818],[-50.2161,-23.0714],[-50.2497,-23.0757],[-50.2501,-23.1011],[-50.2619,-23.1149],[-50.2817,-23.1175],[-50.2838,-23.1034],[-50.2665,-23.1023],[-50.291,-23.0837],[-50.3077,-23.0919],[-50.3045,-23.0752],[-50.3245,-23.0863],[-50.3346,-23.0766],[-50.3304,-23.0538],[-50.3606,-23.0762],[-50.3699,-23.0595],[-50.3479,-23.039],[-50.3449,-23.0077],[-50.3356,-22.9785],[-50.3401,-22.948],[-50.3412,-22.9457],[-50.3401,-22.948],[-50.3233,-22.9512],[-50.2755,-22.9316],[-50.2476,-22.9377],[-50.2432,-22.9509],[-50.2038,-22.9527]]]}},{"type":"Feature","properties":{"codarea":"4101903","centroide":[-50.87614810245382,-23.40457174891838],"codigo_ibge":4101903,"nome_ig":"Norte Pioneiro do Paraná"},"geometry":{"type":"Polygon","coordinates":[[[-50.7608,-23.2875],[-50.7551,-23.3076],[-50.7581,-23.3389],[-50.7672,-23.3473],[-50.7787,-23.3848],[-50.7996,-23.3884],[-50.8059,-23.4268],[-50.7835,-23.4506],[-50.796,-23.4924],[-50.8118,-23.4865],[-50.8189,-23.5073],[-50.8349,-23.5054],[-50.8732,-23.53],[-50.883,-23.5435],[-50.9006,-23.5379],[-50.9004,-23.5542],[-50.9153,-23.5474],[-50.9071,-23.5354],[-50.9312,-23.537],[-50.9238,-23.5216],[-50.9484,-23.5197],[-50.9463,-23.4927],[-50.9279,-23.4808],[-50.9292,-23.4475],[-50.9646,-23.4608],[-50.9534,-23.4161],[-50.9707,-23.4194],[-50.9893,-23.4084],[-50.9938,-23.3785],[-51.0104,-23.3556],[-50.9871,-23.359],[-50.9809,-23.3425],[-50.9926,-23.3086],[-50.9634,-23.3034],[-50.942,-23.3125],[-50.8982,-23.3495],[-50.874,-23.3488],[-50.8739,-23.3323],[-50.8456,-23.2829],[-50.8249,-23.2845],[-50.802,-23.3051],[-50.7608,-23.2875]]]}},{"type":"Feature","properties":{"codarea":"4102406","centroide":[-50.345662584980374,-23.161794632549803],"codigo_ibge":4102406,"nome_ig":"Norte Pioneiro do Paraná"},"geometry":{"type":"Polygon","coordinates":[[[-50.3699,-23.0595],[-50.3606,-23.0762],[-50.3304,-23.0538],[-50.3346,-23.0766],[-50.3245,-23.0863],[-50.3045,-23.0752],[-50.3077,-23.0919],[-50.291,-23.0837],[-50.2665,-23.1023],[-50.2838,-23.1034],[-50.2817,-23.1175],[-50.2619,-23.1149],[-50.2501,-23.1011],[-50.2344,-23.1045],[-50.2406,-23.1354],[-50.2195,-23.1524],[-50.2094,-23.1876],[-50.2307,-23.1866],[-50.2414,-23.1971],[-50.2144,-23.2018],[-50.2249,-23.2244],[-50.2339,-23.2374],[-50.2604,-23.2525],[-50.2743,-23.2486],[-50.3041,-23.2591],[-50.3299,-23.2755],[-50.3481,-23.2692],[-50.3584,-23.2472],[-50.3933,-23.2479],[-50.42,-23.2279],[-50.4684,-23.2087],[-50.4651,-23.1943],[-50.4386,-23.1812],[-50.4644,-23.1666],[-50.449,-23.1438],[-50.4597,-23.1175],[-50.4431,-23.1043],[-50.4567,-23.0951],[-50.4759,-23.0988],[-50.4509,-23.0816],[-50.4478,-23.0313],[-50.4441,-23.0421],[-50.4135,-23.0458],[-50.4114,-23.0674],[-50.3699,-23.0595]]]}},{"type":"Feature","properties":{"codarea":"4102703","centroide":[-50.1583301882077,-23.105824385516232],"codigo_ibge":4102703,"nome_ig":"Norte Pioneiro do Paraná"},"geometry":{"type":"Polygon","coordinates":[[[-50.0627,-23.0932],[-50.0627,-23.1118],[-50.1125,-23.1444],[-50.1342,-23.1448],[-50.1365,-23.1313],[-50.1907,-23.1358],[-50.2002,-23.1463],[-50.2283,-23.1233],[-50.2406,-23.1354],[-50.2344,-23.1045],[-50.2501,-23.1011],[-50.2497,-23.0757],[-50.2161,-23.0714],[-50.1994,-23.0818],[-50.1702,-23.0773],[-50.1393,-23.0745],[-50.1325,-23.0811],[-50.1119,-23.0673],[-50.0886,-23.0892],[-50.0627,-23.0932]]]}},{"type":"Feature","properties":{"codarea":"4103602","centroide":[-50.08272034325962,-22.997003518511576],"codigo_ibge":4103602,"nome_ig":"Norte Pioneiro do Paraná"},"geometry":{"type":"Polygon","coordinates":[[[-49.9739,-22.9565],[-49.9741,-22.9544],[-49.9712,-23.0173],[-50.0059,-23.0385],[-50.0072,-23.0559],[-50.05,-23.0757],[-50.0513,-23.0942],[-50.0627,-23.0932],[-50.0886,-23.0892],[-50.1119,-23.0673],[-50.1325,-23.0811],[-50.1393,-23.0745],[-50.1702,-23.0773],[-50.1751,-23.0638],[-50.1977,-23.0485],[-50.2103,-23.026],[-50.1943,-22.9911],[-50.2038,-22.9527],[-50.185,-22.954],[-50.1529,-22.9356],[-50.133,-22.9399],[-50.1154,-22.9397],[-50.0928,-22.9225],[-50.0715,-22.9281],[-50.0527,-22.9052],[-50.0146,-22.9112],[-50.0016,-22.9293],[-49.9904,-22.9252],[-49.9988,-22.9017],[-49.9861,-22.8975],[-49.9657,-22.9141],[-49.9613,-22.9308],[-49.9741,-22.9544],[-49.9739,-22.9565]]]}},{"type":"Feature","properties":{"codarea":"4104709","centroide":[-49.712084176939406,-23.459068508198623],"codigo_ibge":4104709,"nome_ig":"Norte Pioneiro do Paraná"},"geometry":{"type":"Polygon","coordinates":[[[-49.598,-23.4582],[-49.6032,-23.4784],[-49.6155,-23.4734],[-49.6213,-23.4933],[-49.6137,-23.5101],[-49.6242,-23.5233],[-49.6523,-23.5467],[-49.6741,-23.5553],[-49.706,-23.55],[-49.737,-23.5603],[-49.7716,-23.5558],[-49.7982,-23.5642],[-49.8186,-23.5588],[-49.8265,-23.5312],[-49.8124,-23.4985],[-49.8399,-23.4721],[-49.8699,-23.4612],[-49.8412,-23.4346],[-49.81,-23.4401],[-49.8039,-23.4242],[-49.819,-23.4216],[-49.8201,-23.4071],[-49.7919,-23.3902],[-49.7682,-23.396],[-49.748,-23.3905],[-49.7413,-23.3651],[-49.7257,-23.3713],[-49.6945,-23.3607],[-49.6862,-23.351],[-49.6438,-23.3634],[-49.6378,-23.3495],[-49.6118,-23.3546],[-49.5967,-23.3654],[-49.5924,-23.3895],[-49.605,-23.3844],[-49.6025,-23.4084],[-49.5691,-23.4254],[-49.5699,-23.4419],[-49.5887,-23.4357],[-49.598,-23.4582]]]}},{"type":"Feature","properties":{"codarea":"4106001","centroide":[-50.50441471819352,-23.60574174462683],"codigo_ibge":4106001,"nome_ig":"Norte Pioneiro do Paraná"},"geometry":{"type":"Polygon","coordinates":[[[-50.4279,-23.4824],[-50.4078,-23.4821],[-50.4027,-23.4984],[-50.4147,-23.5111],[-50.4138,-23.5292],[-50.3994,-23.5373],[-50.3935,-23.575],[-50.4006,-23.5847],[-50.3875,-23.5979],[-50.3999,-23.6137],[-50.4304,-23.6256],[-50.4409,-23.659],[-50.4213,-23.6776],[-50.4186,-23.7067],[-50.4441,-23.7483],[-50.4617,-23.7313],[-50.4752,-23.7502],[-50.4819,-23.7442],[-50.5006,-23.7602],[-50.5221,-23.764],[-50.5585,-23.748],[-50.5464,-23.7412],[-50.5762,-23.7262],[-50.5808,-23.7119],[-50.5631,-23.6952],[-50.5797,-23.6417],[-50.6112,-23.629],[-50.6248,-23.6121],[-50.6042,-23.5943],[-50.6152,-23.5704],[-50.5988,-23.5064],[-50.6175,-23.5026],[-50.5997,-23.4941],[-50.5659,-23.4826],[-50.4279,-23.4824]]]}},{"type":"Feature","properties":{"codarea":"4106100","centroide":[-50.130035815940026,-23.59695370418572],"codigo_ibge":4106100,"nome_ig":"Norte Pioneiro do Paraná"},"geometry":{"type":"Polygon","coordinates":[[[-50.0827,-23.537],[-50.0923,-23.5656],[-50.0709,-23.5664],[-50.0895,-23.5848],[-50.0872,-23.602],[-50.0664,-23.6113],[-50.0844,-23.6341],[-50.0685,-23.632],[-50.0491,-23.6513],[-50.0631,-23.6471],[-50.0617,-23.6657],[-50.088,-23.6784],[-50.1385,-23.6826],[-50.149,-23.6691],[-50.1686,-23.6785],[-50.1822,-23.682],[-50.1941,-23.6667],[-50.1744,-23.6391],[-50.1936,-23.602],[-50.1909,-23.5701],[-50.1806,-23.5411],[-50.1583,-23.5304],[-50.1626,-23.5094],[-50.147,-23.5088],[-50.1406,-23.4896],[-50.0944,-23.5058],[-50.0802,-23.5177],[-50.0932,-23.5324],[-50.0827,-23.537]]]}},{"type":"Feature","properties":{"codarea":"4106407","centroide":[-50.62271307575094,-23.22677273189118],"codigo_ibge":4106407,"nome_ig":"Norte Pioneiro do Paraná"},"geometry":{"type":"Polygon","coordinates":[[[-50.4651,-23.1943],[-50.4684,-23.2087],[-50.4765,-23.2339],[-50.4668,-23.2601],[-50.468,-23.2603],[-50.4715,-23.2506],[-50.4914,-23.2661],[-50.4787,-23.2737],[-50.4741,-23.2962],[-50.4923,-23.2951],[-50.4658,-23.3153],[-50.4827,-23.3256],[-50.4876,-23.3413],[-50.545,-23.3726],[-50.56,-23.3661],[-50.5746,-23.3753],[-50.5895,-23.3474],[-50.6406,-23.3452],[-50.6752,-23.3171],[-50.6906,-23.3117],[-50.7,-23.2896],[-50.7127,-23.2959],[-50.7343,-23.2752],[-50.7359,-23.2508],[-50.7281,-23.2413],[-50.7539,-23.2159],[-50.7703,-23.2141],[-50.7563,-23.1974],[-50.7845,-23.1879],[-50.7832,-23.1718],[-50.8022,-23.1652],[-50.802,-23.1367],[-50.7799,-23.1242],[-50.7494,-23.1411],[-50.7182,-23.1327],[-50.6895,-23.1109],[-50.679,-23.1199],[-50.6671,-23.0846],[-50.6373,-23.0609],[-50.6371,-23.0347],[-50.6207,-23.0145],[-50.6071,-23.0479],[-50.6083,-23.0646],[-50.6281,-23.0895],[-50.6072,-23.115],[-50.6056,-23.1387],[-50.5913,-23.1434],[-50.5411,-23.1976],[-50.5131,-23.2081],[-50.4772,-23.1902],[-50.4651,-23.1943]]]}},{"type":"Feature","properties":{"codarea":"4107009","centroide":[-50.464129357026394,-24.01236569174324],"codigo_ibge":4107009,"nome_ig":"Norte Pioneiro do Paraná"},"geometry":{"type":"Polygon","coordinates":[[[-50.2903,-23.9589],[-50.2893,-23.9916],[-50.3007,-23.9971],[-50.31,-24.022],[-50.3363,-24.0249],[-50.3443,-24.0667],[-50.3306,-24.1225],[-50.4296,-24.1009],[-50.4757,-24.1057],[-50.4966,-24.0895],[-50.5031,-24.0966],[-50.5535,-24.0614],[-50.5764,-24.0639],[-50.5913,-24.0769],[-50.5984,-24.0677],[-50.6208,-24.0778],[-50.6587,-24.0733],[-50.6788,-24.0416],[-50.6929,-24.0366],[-50.7028,-24.0248],[-50.6994,-24.0091],[-50.6723,-24.0038],[-50.6463,-23.9859],[-50.6068,-23.9939],[-50.5899,-23.9903],[-50.5708,-23.9704],[-50.5472,-23.9606],[-50.5341,-23.9326],[-50.5377,-23.9239],[-50.4832,-23.9515],[-50.4642,-23.9596],[-50.426,-23.9577],[-50.399,-23.9211],[-50.4023,-23.8969],[-50.3836,-23.8592],[-50.3667,-23.8623],[-50.3563,-23.8782],[-50.3715,-23.9035],[-50.3487,-23.8922],[-50.3395,-23.9173],[-50.3193,-23.9205],[-50.3232,-23.9418],[-50.2903,-23.9589]]]}},{"type":"Feature","properties":{"codarea":"4107751","centroide":[-50.430581856207816,-23.876808358365324],"codigo_ibge":4107751,"nome_ig":"Norte Pioneiro do Paraná"},"geometry":{"type":"Polygon","coordinates":[[[-50.3836,-23.8592],[-50.4023,-23.8969],[-50.399,-23.9211],[-50.426,-23.9577],[-50.4642,-23.9596],[-50.4832,-23.9515],[-50.477,-23.9198],[-50.4793,-23.8798],[-50.4652,-23.856],[-50.4322,-23.844],[-50.4246,-23.817],[-50.4309,-23.8092],[-50.4186,-23.7843],[-50.4497,-23.7561],[-50.4158,-23.7622],[-50.3918,-23.7892],[-50.3994,-23.8174],[-50.3774,-23.8425],[-50.3836,-23.8592]]]}},{"type":"Feature","properties":{"codarea":"4109005","centroide":[-50.07583849076402,-23.467537063791276],"codigo_ibge":4109005,"nome_ig":"Norte Pioneiro do Paraná"},"geometry":{"type":"Polygon","coordinates":[[[-50.0043,-23.4451],[-50.0275,-23.4558],[-50.0185,-23.4801],[-50.001,-23.4943],[-49.9838,-23.4964],[-50.004,-23.5336],[-50.0384,-23.5486],[-50.052,-23.5519],[-50.0827,-23.537],[-50.0932,-23.5324],[-50.0802,-23.5177],[-50.0944,-23.5058],[-50.1406,-23.4896],[-50.1368,-23.4751],[-50.1177,-23.4637],[-50.146,-23.4597],[-50.159,-23.4349],[-50.155,-23.4187],[-50.1723,-23.4109],[-50.171,-23.3973],[-50.1424,-23.4029],[-50.1358,-23.3946],[-50.1061,-23.3932],[-50.0765,-23.4097],[-50.0503,-23.4113],[-50.0043,-23.4451]]]}},{"type":"Feature","properties":{"codarea":"4109708","centroide":[-50.28757478700818,-23.776935668323127],"codigo_ibge":4109708,"nome_ig":"Norte Pioneiro do Paraná"},"geometry":{"type":"Polygon","coordinates":[[[-50.1203,-23.8558],[-50.1157,-23.8855],[-50.1638,-23.9308],[-50.1617,-23.942],[-50.2208,-23.9974],[-50.2393,-23.965],[-50.2684,-23.9549],[-50.2903,-23.9589],[-50.3232,-23.9418],[-50.3193,-23.9205],[-50.3395,-23.9173],[-50.3487,-23.8922],[-50.3715,-23.9035],[-50.3563,-23.8782],[-50.3667,-23.8623],[-50.3836,-23.8592],[-50.3774,-23.8425],[-50.3994,-23.8174],[-50.3918,-23.7892],[-50.4158,-23.7622],[-50.4497,-23.7561],[-50.4752,-23.7502],[-50.4617,-23.7313],[-50.4441,-23.7483],[-50.4186,-23.7067],[-50.4213,-23.6776],[-50.4409,-23.659],[-50.4304,-23.6256],[-50.3999,-23.6137],[-50.3875,-23.5979],[-50.2981,-23.5883],[-50.241,-23.5821],[-50.2236,-23.6071],[-50.2364,-23.6347],[-50.2065,-23.6622],[-50.2021,-23.6987],[-50.2187,-23.7298],[-50.1909,-23.7589],[-50.1823,-23.7893],[-50.1821,-23.8178],[-50.1719,-23.8163],[-50.1203,-23.8558]]]}},{"type":"Feature","properties":{"codarea":"4111001","centroide":[-50.413591799532654,-22.982658682357116],"codigo_ibge":4111001,"nome_ig":"Norte Pioneiro do Paraná"},"geometry":{"type":"Polygon","coordinates":[[[-50.3592,-22.916],[-50.3412,-22.9457],[-50.3401,-22.948],[-50.3356,-22.9785],[-50.3449,-23.0077],[-50.3479,-23.039],[-50.3699,-23.0595],[-50.4114,-23.0674],[-50.4135,-23.0458],[-50.4441,-23.0421],[-50.4478,-23.0313],[-50.4649,-23.0273],[-50.4659,-23.0104],[-50.4995,-22.9774],[-50.5418,-22.9661],[-50.5283,-22.9611],[-50.5267,-22.9348],[-50.511,-22.9446],[-50.4827,-22.9369],[-50.4594,-22.9452],[-50.4303,-22.9464],[-50.4164,-22.9127],[-50.379,-22.9054],[-50.3592,-22.916]]]}},{"type":"Feature","properties":{"codarea":"4111704","centroide":[-50.0799766728833,-23.71842235348424],"codigo_ibge":4111704,"nome_ig":"Norte Pioneiro do Paraná"},"geometry":{"type":"Polygon","coordinates":[[[-50.0491,-23.6513],[-50.0308,-23.6553],[-50.0408,-23.6851],[-50.0307,-23.7024],[-50.0145,-23.692],[-50.0071,-23.7255],[-50.0199,-23.738],[-50.0339,-23.7719],[-50.094,-23.7915],[-50.1005,-23.7577],[-50.1181,-23.7551],[-50.1422,-23.7041],[-50.1485,-23.7116],[-50.1764,-23.6992],[-50.1686,-23.6785],[-50.149,-23.6691],[-50.1385,-23.6826],[-50.088,-23.6784],[-50.0617,-23.6657],[-50.0631,-23.6471],[-50.0491,-23.6513]]]}},{"type":"Feature","properties":{"codarea":"4111803","centroide":[-49.946557099770786,-23.150734487175814],"codigo_ibge":4111803,"nome_ig":"Norte Pioneiro do Paraná"},"geometry":{"type":"Polygon","coordinates":[[[-49.9739,-22.9565],[-49.9725,-22.9585],[-49.9545,-22.9784],[-49.9326,-22.9824],[-49.8995,-23.002],[-49.9159,-23.0347],[-49.9116,-23.0511],[-49.8674,-23.0716],[-49.8336,-23.0659],[-49.8193,-23.0769],[-49.8094,-23.0892],[-49.8171,-23.1008],[-49.8089,-23.1154],[-49.8398,-23.1276],[-49.8347,-23.1419],[-49.8624,-23.1735],[-49.8527,-23.1872],[-49.8694,-23.2062],[-49.8606,-23.2162],[-49.893,-23.237],[-49.8842,-23.2692],[-49.8449,-23.2862],[-49.8256,-23.2809],[-49.8213,-23.3004],[-49.8345,-23.327],[-49.8914,-23.335],[-49.8967,-23.3242],[-49.9152,-23.3299],[-49.9224,-23.3056],[-49.9329,-23.3061],[-49.9562,-23.2614],[-49.9555,-23.2495],[-50.0076,-23.2157],[-50.0376,-23.2102],[-50.0724,-23.1801],[-50.1034,-23.1706],[-50.1233,-23.1835],[-50.1179,-23.1692],[-50.1342,-23.1448],[-50.1125,-23.1444],[-50.0627,-23.1118],[-50.0627,-23.0932],[-50.0513,-23.0942],[-50.05,-23.0757],[-50.0072,-23.0559],[-50.0059,-23.0385],[-49.9712,-23.0173],[-49.9741,-22.9544],[-49.9739,-22.9565]]]}},{"type":"Feature","properties":{"codarea":"4112306","centroide":[-50.162749157873755,-23.732996656476217],"codigo_ibge":4112306,"nome_ig":"Norte Pioneiro do Paraná"},"geometry":{"type":"Polygon","coordinates":[[[-50.1909,-23.5701],[-50.1936,-23.602],[-50.1744,-23.6391],[-50.1941,-23.6667],[-50.1822,-23.682],[-50.1686,-23.6785],[-50.1764,-23.6992],[-50.1485,-23.7116],[-50.1422,-23.7041],[-50.1181,-23.7551],[-50.1005,-23.7577],[-50.094,-23.7915],[-50.0771,-23.8212],[-50.0841,-23.8442],[-50.1069,-23.8437],[-50.1203,-23.8558],[-50.1719,-23.8163],[-50.1821,-23.8178],[-50.1823,-23.7893],[-50.1909,-23.7589],[-50.2187,-23.7298],[-50.2021,-23.6987],[-50.2065,-23.6622],[-50.2364,-23.6347],[-50.2236,-23.6071],[-50.241,-23.5821],[-50.2074,-23.5648],[-50.1909,-23.5701]]]}},{"type":"Feature","properties":{"codarea":"4112801","centroide":[-49.910718156397365,-23.45733158321744],"codigo_ibge":4112801,"nome_ig":"Norte Pioneiro do Paraná"},"geometry":{"type":"Polygon","coordinates":[[[-49.8914,-23.335],[-49.8647,-23.3524],[-49.8685,-23.3828],[-49.8541,-23.3883],[-49.8412,-23.4346],[-49.8699,-23.4612],[-49.8399,-23.4721],[-49.8124,-23.4985],[-49.8265,-23.5312],[-49.8186,-23.5588],[-49.8502,-23.5714],[-49.8564,-23.5541],[-49.8453,-23.5414],[-49.8638,-23.5328],[-49.8845,-23.5061],[-49.9229,-23.5571],[-49.9513,-23.5392],[-49.9731,-23.533],[-50.004,-23.5336],[-49.9838,-23.4964],[-50.001,-23.4943],[-50.0185,-23.4801],[-50.0275,-23.4558],[-50.0043,-23.4451],[-49.9829,-23.4429],[-49.9469,-23.4286],[-49.9251,-23.3907],[-49.9355,-23.3707],[-49.9381,-23.3437],[-49.9288,-23.3167],[-49.9329,-23.3061],[-49.9224,-23.3056],[-49.9152,-23.3299],[-49.8967,-23.3242],[-49.8914,-23.335]]]}},{"type":"Feature","properties":{"codarea":"4112900","centroide":[-50.231645270741474,-23.47268409685252],"codigo_ibge":4112900,"nome_ig":"Norte Pioneiro do Paraná"},"geometry":{"type":"Polygon","coordinates":[[[-50.2347,-23.3567],[-50.2218,-23.3782],[-50.171,-23.3973],[-50.1723,-23.4109],[-50.155,-23.4187],[-50.159,-23.4349],[-50.146,-23.4597],[-50.1177,-23.4637],[-50.1368,-23.4751],[-50.1406,-23.4896],[-50.147,-23.5088],[-50.1626,-23.5094],[-50.1583,-23.5304],[-50.1806,-23.5411],[-50.1909,-23.5701],[-50.2074,-23.5648],[-50.241,-23.5821],[-50.2981,-23.5883],[-50.299,-23.3865],[-50.3041,-23.3824],[-50.2987,-23.3704],[-50.2586,-23.3545],[-50.2347,-23.3567]]]}},{"type":"Feature","properties":{"codarea":"4113403","centroide":[-50.711885579582784,-23.028102425811284],"codigo_ibge":4113403,"nome_ig":"Norte Pioneiro do Paraná"},"geometry":{"type":"Polygon","coordinates":[[[-50.6372,-22.9069],[-50.6309,-22.9387],[-50.6092,-22.9574],[-50.6207,-23.0145],[-50.6371,-23.0347],[-50.6373,-23.0609],[-50.6671,-23.0846],[-50.679,-23.1199],[-50.6895,-23.1109],[-50.7182,-23.1327],[-50.7494,-23.1411],[-50.7799,-23.1242],[-50.802,-23.1367],[-50.8165,-23.1383],[-50.8426,-23.1103],[-50.7972,-23.0797],[-50.7902,-23.0571],[-50.7748,-23.0434],[-50.7708,-23.0087],[-50.782,-22.9712],[-50.7959,-22.9511],[-50.7586,-22.9476],[-50.7363,-22.9633],[-50.713,-22.9559],[-50.682,-22.9061],[-50.6635,-22.8956],[-50.6372,-22.9069]]]}},{"type":"Feature","properties":{"codarea":"4116604","centroide":[-50.706831469524694,-23.34756258068611],"codigo_ibge":4116604,"nome_ig":"Norte Pioneiro do Paraná"},"geometry":{"type":"Polygon","coordinates":[[[-50.6406,-23.3452],[-50.6517,-23.3444],[-50.6647,-23.3631],[-50.6533,-23.372],[-50.6465,-23.3983],[-50.6294,-23.4083],[-50.6377,-23.4188],[-50.6511,-23.419],[-50.6629,-23.3923],[-50.7205,-23.4155],[-50.7361,-23.4032],[-50.7359,-23.3674],[-50.7672,-23.3473],[-50.7581,-23.3389],[-50.7551,-23.3076],[-50.7608,-23.2875],[-50.7359,-23.2508],[-50.7343,-23.2752],[-50.7127,-23.2959],[-50.7,-23.2896],[-50.6906,-23.3117],[-50.6752,-23.3171],[-50.6406,-23.3452]]]}},{"type":"Feature","properties":{"codarea":"4117008","centroide":[-50.539021236347814,-23.417161220430202],"codigo_ibge":4117008,"nome_ig":"Norte Pioneiro do Paraná"},"geometry":{"type":"Polygon","coordinates":[[[-50.4279,-23.4824],[-50.5659,-23.4826],[-50.5997,-23.4941],[-50.6202,-23.4888],[-50.6081,-23.4772],[-50.6115,-23.4553],[-50.6295,-23.4553],[-50.6249,-23.447],[-50.6377,-23.4188],[-50.6294,-23.4083],[-50.6465,-23.3983],[-50.6533,-23.372],[-50.6647,-23.3631],[-50.6517,-23.3444],[-50.6406,-23.3452],[-50.5895,-23.3474],[-50.5746,-23.3753],[-50.56,-23.3661],[-50.545,-23.3726],[-50.4876,-23.3413],[-50.4827,-23.3256],[-50.4679,-23.3274],[-50.4768,-23.3442],[-50.4573,-23.3582],[-50.4479,-23.3763],[-50.4629,-23.395],[-50.4405,-23.3839],[-50.4416,-23.403],[-50.455,-23.4196],[-50.4394,-23.4235],[-50.4409,-23.4477],[-50.4121,-23.4638],[-50.4279,-23.4824]]]}},{"type":"Feature","properties":{"codarea":"4117214","centroide":[-50.741435949545,-23.59316573580471],"codigo_ibge":4117214,"nome_ig":"Norte Pioneiro do Paraná"},"geometry":{"type":"Polygon","coordinates":[[[-50.6872,-23.5642],[-50.6865,-23.5802],[-50.6656,-23.5916],[-50.6579,-23.6225],[-50.6942,-23.6179],[-50.7015,-23.6088],[-50.7235,-23.6127],[-50.7509,-23.6064],[-50.7918,-23.6149],[-50.8283,-23.6061],[-50.8254,-23.5932],[-50.8479,-23.5988],[-50.8321,-23.5858],[-50.7856,-23.5788],[-50.7756,-23.5657],[-50.7483,-23.5781],[-50.7413,-23.5641],[-50.7154,-23.5696],[-50.6872,-23.5642]]]}},{"type":"Feature","properties":{"codarea":"4119202","centroide":[-50.06243959873254,-23.90382288169865],"codigo_ibge":4119202,"nome_ig":"Norte Pioneiro do Paraná"},"geometry":{"type":"Polygon","coordinates":[[[-49.9731,-23.9021],[-49.9717,-23.966],[-50.0088,-23.9752],[-50.0417,-23.9903],[-50.0714,-23.9777],[-50.0814,-23.961],[-50.1183,-23.9621],[-50.1518,-23.9408],[-50.1617,-23.942],[-50.1638,-23.9308],[-50.1157,-23.8855],[-50.1203,-23.8558],[-50.1069,-23.8437],[-50.0841,-23.8442],[-50.0771,-23.8212],[-50.094,-23.7915],[-50.0339,-23.7719],[-50.0199,-23.738],[-50.0593,-23.8911],[-50.0113,-23.903],[-49.9731,-23.9021]]]}},{"type":"Feature","properties":{"codarea":"4120705","centroide":[-49.93325388816871,-23.563002407649908],"codigo_ibge":4120705,"nome_ig":"Norte Pioneiro do Paraná"},"geometry":{"type":"Polygon","coordinates":[[[-49.8502,-23.5714],[-49.872,-23.5808],[-49.8776,-23.6073],[-49.9026,-23.6004],[-49.9537,-23.5993],[-49.9844,-23.5901],[-50.0243,-23.5666],[-50.0384,-23.5486],[-50.004,-23.5336],[-49.9731,-23.533],[-49.9513,-23.5392],[-49.9229,-23.5571],[-49.8845,-23.5061],[-49.8638,-23.5328],[-49.8453,-23.5414],[-49.8564,-23.5541],[-49.8502,-23.5714]]]}},{"type":"Feature","properties":{"codarea":"4121307","centroide":[-50.91903500428082,-23.0799780120856],"codigo_ibge":4121307,"nome_ig":"Norte Pioneiro do Paraná"},"geometry":{"type":"Polygon","coordinates":[[[-50.8551,-23.1115],[-50.8713,-23.1467],[-50.9032,-23.1473],[-50.9595,-23.1478],[-50.9934,-23.1398],[-50.9716,-23.1294],[-50.9483,-23.1063],[-50.9771,-23.0947],[-50.9777,-23.0719],[-50.9887,-23.0475],[-50.9661,-23.0459],[-50.9412,-23.0314],[-50.9537,-23.0151],[-50.9463,-22.9818],[-50.9295,-22.9787],[-50.9306,-22.9965],[-50.8929,-23.0129],[-50.8794,-23.0449],[-50.8662,-23.0531],[-50.8784,-23.0664],[-50.855,-23.0681],[-50.8551,-23.1115]]]}},{"type":"Feature","properties":{"codarea":"4121802","centroide":[-49.76190048090027,-23.26120108926559],"codigo_ibge":4121802,"nome_ig":"Norte Pioneiro do Paraná"},"geometry":{"type":"Polygon","coordinates":[[[-49.7164,-23.1483],[-49.6777,-23.1749],[-49.6537,-23.212],[-49.6271,-23.2817],[-49.6311,-23.3056],[-49.6216,-23.3318],[-49.6378,-23.3495],[-49.6438,-23.3634],[-49.6862,-23.351],[-49.6945,-23.3607],[-49.7257,-23.3713],[-49.7413,-23.3651],[-49.748,-23.3905],[-49.7682,-23.396],[-49.7919,-23.3902],[-49.8201,-23.4071],[-49.819,-23.4216],[-49.8039,-23.4242],[-49.81,-23.4401],[-49.8412,-23.4346],[-49.8541,-23.3883],[-49.8685,-23.3828],[-49.8647,-23.3524],[-49.8914,-23.335],[-49.8345,-23.327],[-49.8213,-23.3004],[-49.8256,-23.2809],[-49.8449,-23.2862],[-49.8842,-23.2692],[-49.893,-23.237],[-49.8606,-23.2162],[-49.8694,-23.2062],[-49.8527,-23.1872],[-49.8624,-23.1735],[-49.8347,-23.1419],[-49.8398,-23.1276],[-49.8089,-23.1154],[-49.8171,-23.1008],[-49.8094,-23.0892],[-49.7891,-23.1033],[-49.7629,-23.1055],[-49.7513,-23.0977],[-49.7255,-23.1094],[-49.7349,-23.1328],[-49.7164,-23.1483]]]}},{"type":"Feature","properties":{"codarea":"4121901","centroide":[-50.37171022898465,-23.450830420574505],"codigo_ibge":4121901,"nome_ig":"Norte Pioneiro do Paraná"},"geometry":{"type":"Polygon","coordinates":[[[-50.468,-23.2603],[-50.481,-23.2686],[-50.46,-23.3082],[-50.4157,-23.323],[-50.4094,-23.3369],[-50.379,-23.3598],[-50.3407,-23.3552],[-50.3143,-23.3574],[-50.3041,-23.3824],[-50.299,-23.3865],[-50.2981,-23.5883],[-50.3875,-23.5979],[-50.4006,-23.5847],[-50.3935,-23.575],[-50.3994,-23.5373],[-50.4138,-23.5292],[-50.4147,-23.5111],[-50.4027,-23.4984],[-50.4078,-23.4821],[-50.4279,-23.4824],[-50.4121,-23.4638],[-50.4409,-23.4477],[-50.4394,-23.4235],[-50.455,-23.4196],[-50.4416,-23.403],[-50.4405,-23.3839],[-50.4629,-23.395],[-50.4479,-23.3763],[-50.4573,-23.3582],[-50.4768,-23.3442],[-50.4679,-23.3274],[-50.4827,-23.3256],[-50.4658,-23.3153],[-50.4923,-23.2951],[-50.4741,-23.2962],[-50.4787,-23.2737],[-50.4914,-23.2661],[-50.4715,-23.2506],[-50.468,-23.2603]]]}},{"type":"Feature","properties":{"codarea":"4122909","centroide":[-49.68248388480444,-23.630174015890105],"codigo_ibge":4122909,"nome_ig":"Norte Pioneiro do Paraná"},"geometry":{"type":"Polygon","coordinates":[[[-49.6021,-23.6521],[-49.6511,-23.6886],[-49.6701,-23.6905],[-49.7117,-23.7096],[-49.7381,-23.7141],[-49.7408,-23.6873],[-49.7648,-23.6454],[-49.7677,-23.6275],[-49.7967,-23.6199],[-49.8309,-23.6181],[-49.7985,-23.6043],[-49.7806,-23.6119],[-49.7419,-23.6096],[-49.7157,-23.5931],[-49.6822,-23.6025],[-49.6766,-23.6128],[-49.6511,-23.5602],[-49.6523,-23.5467],[-49.6242,-23.5233],[-49.6002,-23.5356],[-49.6078,-23.5667],[-49.6028,-23.5839],[-49.6188,-23.5942],[-49.6209,-23.6111],[-49.6075,-23.6321],[-49.616,-23.6405],[-49.6021,-23.6521]]]}},{"type":"Feature","properties":{"codarea":"4123105","centroide":[-50.41158540536697,-23.25912495661686],"codigo_ibge":4123105,"nome_ig":"Norte Pioneiro do Paraná"},"geometry":{"type":"Polygon","coordinates":[[[-50.3041,-23.2591],[-50.3338,-23.2986],[-50.3826,-23.2789],[-50.3982,-23.2851],[-50.4396,-23.2811],[-50.4514,-23.2939],[-50.4671,-23.2844],[-50.4668,-23.2601],[-50.4765,-23.2339],[-50.4684,-23.2087],[-50.42,-23.2279],[-50.3933,-23.2479],[-50.3584,-23.2472],[-50.3481,-23.2692],[-50.3299,-23.2755],[-50.3041,-23.2591]]]}},{"type":"Feature","properties":{"codarea":"4123204","centroide":[-50.79952740945966,-23.544067851601003],"codigo_ibge":4123204,"nome_ig":"Norte Pioneiro do Paraná"},"geometry":{"type":"Polygon","coordinates":[[[-50.796,-23.4924],[-50.7784,-23.5112],[-50.7524,-23.5194],[-50.7111,-23.5514],[-50.687,-23.5642],[-50.6872,-23.5642],[-50.7154,-23.5696],[-50.7413,-23.5641],[-50.7483,-23.5781],[-50.7756,-23.5657],[-50.7856,-23.5788],[-50.8321,-23.5858],[-50.8479,-23.5988],[-50.8471,-23.5724],[-50.8745,-23.5584],[-50.883,-23.5435],[-50.8732,-23.53],[-50.8349,-23.5054],[-50.8189,-23.5073],[-50.8118,-23.4865],[-50.796,-23.4924]]]}},{"type":"Feature","properties":{"codarea":"4123907","centroide":[-50.53857668493799,-23.060703127363425],"codigo_ibge":4123907,"nome_ig":"Norte Pioneiro do Paraná"},"geometry":{"type":"Polygon","coordinates":[[[-50.5267,-22.9348],[-50.5283,-22.9611],[-50.5418,-22.9661],[-50.4995,-22.9774],[-50.4659,-23.0104],[-50.4649,-23.0273],[-50.4478,-23.0313],[-50.4509,-23.0816],[-50.4759,-23.0988],[-50.4567,-23.0951],[-50.4431,-23.1043],[-50.4597,-23.1175],[-50.449,-23.1438],[-50.4644,-23.1666],[-50.4386,-23.1812],[-50.4651,-23.1943],[-50.4772,-23.1902],[-50.5131,-23.2081],[-50.5411,-23.1976],[-50.5913,-23.1434],[-50.6056,-23.1387],[-50.6072,-23.115],[-50.6281,-23.0895],[-50.6083,-23.0646],[-50.6071,-23.0479],[-50.6207,-23.0145],[-50.6092,-22.9574],[-50.6309,-22.9387],[-50.6372,-22.9069],[-50.6038,-22.9231],[-50.5772,-22.904],[-50.53,-22.9191],[-50.5267,-22.9348]]]}},{"type":"Feature","properties":{"codarea":"4124004","centroide":[-49.631631951222765,-23.750551428695054],"codigo_ibge":4124004,"nome_ig":"Norte Pioneiro do Paraná"},"geometry":{"type":"Polygon","coordinates":[[[-49.5746,-23.676],[-49.5491,-23.704],[-49.5513,-23.7387],[-49.5673,-23.7367],[-49.5596,-23.7936],[-49.56,-23.8119],[-49.5726,-23.827],[-49.5903,-23.8279],[-49.5896,-23.8418],[-49.608,-23.8393],[-49.63,-23.8468],[-49.6453,-23.8319],[-49.6626,-23.8382],[-49.678,-23.8262],[-49.6964,-23.7428],[-49.7381,-23.7476],[-49.7624,-23.737],[-49.7671,-23.7313],[-49.7381,-23.7141],[-49.7117,-23.7096],[-49.6701,-23.6905],[-49.6511,-23.6886],[-49.6021,-23.6521],[-49.5853,-23.6588],[-49.5746,-23.676]]]}},{"type":"Feature","properties":{"codarea":"4124103","centroide":[-50.08565843055957,-23.295612007862978],"codigo_ibge":4124103,"nome_ig":"Norte Pioneiro do Paraná"},"geometry":{"type":"Polygon","coordinates":[[[-50.1342,-23.1448],[-50.1179,-23.1692],[-50.1233,-23.1835],[-50.1034,-23.1706],[-50.0724,-23.1801],[-50.0376,-23.2102],[-50.0076,-23.2157],[-49.9555,-23.2495],[-49.9562,-23.2614],[-49.9329,-23.3061],[-49.9288,-23.3167],[-49.9381,-23.3437],[-49.9355,-23.3707],[-49.9251,-23.3907],[-49.9469,-23.4286],[-49.9829,-23.4429],[-50.0043,-23.4451],[-50.0503,-23.4113],[-50.0765,-23.4097],[-50.1061,-23.3932],[-50.1358,-23.3946],[-50.1424,-23.4029],[-50.171,-23.3973],[-50.2218,-23.3782],[-50.2347,-23.3567],[-50.2137,-23.3433],[-50.2213,-23.3055],[-50.2069,-23.3042],[-50.2066,-23.2878],[-50.1919,-23.2825],[-50.2131,-23.2592],[-50.2039,-23.2337],[-50.2278,-23.2354],[-50.2249,-23.2244],[-50.2144,-23.2018],[-50.2414,-23.1971],[-50.2307,-23.1866],[-50.2094,-23.1876],[-50.2195,-23.1524],[-50.2406,-23.1354],[-50.2283,-23.1233],[-50.2002,-23.1463],[-50.1907,-23.1358],[-50.1365,-23.1313],[-50.1342,-23.1448]]]}},{"type":"Feature","properties":{"codarea":"4124301","centroide":[-50.630759113237275,-23.578931028309835],"codigo_ibge":4124301,"nome_ig":"Norte Pioneiro do Paraná"},"geometry":{"type":"Polygon","coordinates":[[[-50.5997,-23.4941],[-50.6175,-23.5026],[-50.5988,-23.5064],[-50.6152,-23.5704],[-50.6042,-23.5943],[-50.6248,-23.6121],[-50.6112,-23.629],[-50.5797,-23.6417],[-50.5631,-23.6952],[-50.5808,-23.7119],[-50.5987,-23.7011],[-50.6022,-23.6861],[-50.6291,-23.6881],[-50.6388,-23.6429],[-50.6579,-23.6225],[-50.6656,-23.5916],[-50.6865,-23.5802],[-50.6872,-23.5642],[-50.687,-23.5642],[-50.6817,-23.523],[-50.6876,-23.5115],[-50.6712,-23.496],[-50.6459,-23.4886],[-50.6402,-23.4554],[-50.6295,-23.4553],[-50.6115,-23.4553],[-50.6081,-23.4772],[-50.6202,-23.4888],[-50.5997,-23.4941]]]}},{"type":"Feature","properties":{"codarea":"4124707","centroide":[-50.778430043010296,-23.716496357704923],"codigo_ibge":4124707,"nome_ig":"Norte Pioneiro do Paraná"},"geometry":{"type":"Polygon","coordinates":[[[-50.883,-23.5435],[-50.8745,-23.5584],[-50.8471,-23.5724],[-50.8479,-23.5988],[-50.8254,-23.5932],[-50.8283,-23.6061],[-50.7918,-23.6149],[-50.7509,-23.6064],[-50.7235,-23.6127],[-50.7015,-23.6088],[-50.6942,-23.6179],[-50.6579,-23.6225],[-50.6388,-23.6429],[-50.6291,-23.6881],[-50.6022,-23.6861],[-50.5987,-23.7011],[-50.5808,-23.7119],[-50.5762,-23.7262],[-50.5464,-23.7412],[-50.5585,-23.748],[-50.5718,-23.7361],[-50.6007,-23.7427],[-50.62,-23.7819],[-50.631,-23.7788],[-50.6259,-23.7998],[-50.6457,-23.8208],[-50.6747,-23.8123],[-50.6956,-23.8255],[-50.7049,-23.8185],[-50.733,-23.8233],[-50.7558,-23.8562],[-50.7734,-23.8712],[-50.8049,-23.8764],[-50.8436,-23.8944],[-50.8477,-23.8796],[-50.8948,-23.8421],[-50.886,-23.8058],[-50.899,-23.7955],[-50.8993,-23.777],[-50.8755,-23.767],[-50.8941,-23.7436],[-50.9153,-23.7143],[-50.8982,-23.6999],[-50.8762,-23.6945],[-50.886,-23.6754],[-50.903,-23.6762],[-50.9213,-23.6612],[-50.9221,-23.6382],[-50.9333,-23.6078],[-50.9458,-23.606],[-50.9505,-23.5855],[-50.9351,-23.5834],[-50.9303,-23.5653],[-50.9529,-23.5405],[-50.9484,-23.5197],[-50.9238,-23.5216],[-50.9312,-23.537],[-50.9071,-23.5354],[-50.9153,-23.5474],[-50.9004,-23.5542],[-50.9006,-23.5379],[-50.883,-23.5435]]]}},{"type":"Feature","properties":{"codarea":"4125407","centroide":[-49.67099362610367,-23.958910511497656],"codigo_ibge":4125407,"nome_ig":"Norte Pioneiro do Paraná"},"geometry":{"type":"Polygon","coordinates":[[[-49.608,-23.8393],[-49.587,-23.8888],[-49.5552,-23.9231],[-49.5358,-23.9281],[-49.5384,-23.9428],[-49.5704,-23.9492],[-49.5626,-23.9616],[-49.5838,-23.9609],[-49.6225,-23.9976],[-49.6183,-24.017],[-49.6331,-24.0343],[-49.622,-24.0532],[-49.6344,-24.0706],[-49.6911,-24.0775],[-49.6975,-24.0654],[-49.7211,-24.0702],[-49.7312,-24.0827],[-49.7425,-24.0752],[-49.7594,-24.084],[-49.7552,-24.0655],[-49.793,-24.0038],[-49.7716,-24.0037],[-49.7192,-23.9673],[-49.7389,-23.9383],[-49.7587,-23.9308],[-49.7719,-23.902],[-49.7464,-23.898],[-49.7388,-23.8831],[-49.7066,-23.8737],[-49.6726,-23.8459],[-49.678,-23.8262],[-49.6626,-23.8382],[-49.6453,-23.8319],[-49.63,-23.8468],[-49.608,-23.8393]]]}},{"type":"Feature","properties":{"codarea":"4126009","centroide":[-50.72288351392255,-23.455345717891205],"codigo_ibge":4126009,"nome_ig":"Norte Pioneiro do Paraná"},"geometry":{"type":"Polygon","coordinates":[[[-50.6377,-23.4188],[-50.6249,-23.447],[-50.6295,-23.4553],[-50.6402,-23.4554],[-50.6459,-23.4886],[-50.6712,-23.496],[-50.6876,-23.5115],[-50.6817,-23.523],[-50.687,-23.5642],[-50.7111,-23.5514],[-50.7524,-23.5194],[-50.7784,-23.5112],[-50.796,-23.4924],[-50.7835,-23.4506],[-50.8059,-23.4268],[-50.7996,-23.3884],[-50.7787,-23.3848],[-50.7672,-23.3473],[-50.7359,-23.3674],[-50.7361,-23.4032],[-50.7205,-23.4155],[-50.6629,-23.3923],[-50.6511,-23.419],[-50.6377,-23.4188]]]}},{"type":"Feature","properties":{"codarea":"4126207","centroide":[-50.604037320167635,-23.875117462106303],"codigo_ibge":4126207,"nome_ig":"Norte Pioneiro do Paraná"},"geometry":{"type":"Polygon","coordinates":[[[-50.5585,-23.748],[-50.5221,-23.764],[-50.5006,-23.7602],[-50.4819,-23.7442],[-50.4752,-23.7502],[-50.4497,-23.7561],[-50.4186,-23.7843],[-50.4309,-23.8092],[-50.4246,-23.817],[-50.4322,-23.844],[-50.4652,-23.856],[-50.4793,-23.8798],[-50.477,-23.9198],[-50.4832,-23.9515],[-50.5377,-23.9239],[-50.5341,-23.9326],[-50.5472,-23.9606],[-50.5708,-23.9704],[-50.5899,-23.9903],[-50.6068,-23.9939],[-50.6463,-23.9859],[-50.6723,-24.0038],[-50.6994,-24.0091],[-50.7028,-24.0248],[-50.7218,-24.0278],[-50.7418,-24.0089],[-50.7346,-23.9878],[-50.7612,-23.9672],[-50.7416,-23.9661],[-50.732,-23.9476],[-50.7569,-23.922],[-50.7871,-23.9055],[-50.7903,-23.8886],[-50.8049,-23.8764],[-50.7734,-23.8712],[-50.7558,-23.8562],[-50.733,-23.8233],[-50.7049,-23.8185],[-50.6956,-23.8255],[-50.6747,-23.8123],[-50.6457,-23.8208],[-50.6259,-23.7998],[-50.631,-23.7788],[-50.62,-23.7819],[-50.6007,-23.7427],[-50.5718,-23.7361],[-50.5585,-23.748]]]}},{"type":"Feature","properties":{"codarea":"4126405","centroide":[-50.874686789687914,-22.93435011659213],"codigo_ibge":4126405,"nome_ig":"Norte Pioneiro do Paraná"},"geometry":{"type":"Polygon","coordinates":[[[-50.9276,-22.7977],[-50.8953,-22.7943],[-50.8423,-22.8313],[-50.8236,-22.8661],[-50.7978,-22.8885],[-50.7931,-22.9051],[-50.8061,-22.9402],[-50.7959,-22.9511],[-50.782,-22.9712],[-50.7708,-23.0087],[-50.7748,-23.0434],[-50.7902,-23.0571],[-50.7972,-23.0797],[-50.8426,-23.1103],[-50.8551,-23.1115],[-50.855,-23.0681],[-50.8784,-23.0664],[-50.8662,-23.0531],[-50.8794,-23.0449],[-50.8929,-23.0129],[-50.9306,-22.9965],[-50.9295,-22.9787],[-50.9463,-22.9818],[-50.9494,-22.9667],[-50.9784,-22.9632],[-50.9794,-22.9371],[-50.9495,-22.928],[-50.9333,-22.9088],[-50.9368,-22.8741],[-50.9606,-22.8472],[-50.9854,-22.8574],[-50.9963,-22.8533],[-50.9769,-22.8184],[-51.007,-22.8151],[-51.0043,-22.7937],[-50.9786,-22.7826],[-50.9616,-22.7862],[-50.9456,-22.8039],[-50.9276,-22.7977]]]}},{"type":"Feature","properties":{"codarea":"4126603","centroide":[-49.792902758117776,-23.63879510494235],"codigo_ibge":4126603,"nome_ig":"Norte Pioneiro do Paraná"},"geometry":{"type":"Polygon","coordinates":[[[-49.6523,-23.5467],[-49.6511,-23.5602],[-49.6766,-23.6128],[-49.6822,-23.6025],[-49.7157,-23.5931],[-49.7419,-23.6096],[-49.7806,-23.6119],[-49.7985,-23.6043],[-49.8309,-23.6181],[-49.7967,-23.6199],[-49.7677,-23.6275],[-49.7648,-23.6454],[-49.7408,-23.6873],[-49.7381,-23.7141],[-49.7671,-23.7313],[-49.7624,-23.737],[-49.7914,-23.7334],[-49.7916,-23.747],[-49.8256,-23.7656],[-49.8339,-23.7474],[-49.8605,-23.7173],[-49.8504,-23.6925],[-49.8663,-23.6868],[-49.8604,-23.6635],[-49.8882,-23.6207],[-49.9095,-23.6193],[-49.9026,-23.6004],[-49.8776,-23.6073],[-49.872,-23.5808],[-49.8502,-23.5714],[-49.8186,-23.5588],[-49.7982,-23.5642],[-49.7716,-23.5558],[-49.737,-23.5603],[-49.706,-23.55],[-49.6741,-23.5553],[-49.6523,-23.5467]]]}},{"type":"Feature","properties":{"codarea":"4127809","centroide":[-49.96298725748587,-23.72600343045121],"codigo_ibge":4127809,"nome_ig":"Norte Pioneiro do Paraná"},"geometry":{"type":"Polygon","coordinates":[[[-50.0384,-23.5486],[-50.0243,-23.5666],[-49.9844,-23.5901],[-49.9537,-23.5993],[-49.9026,-23.6004],[-49.9095,-23.6193],[-49.8882,-23.6207],[-49.8604,-23.6635],[-49.8663,-23.6868],[-49.8504,-23.6925],[-49.8605,-23.7173],[-49.8339,-23.7474],[-49.8256,-23.7656],[-49.8814,-23.8331],[-49.9234,-23.8437],[-49.9595,-23.8529],[-49.9349,-23.8647],[-49.9675,-23.8751],[-49.9558,-23.8932],[-49.9731,-23.9021],[-50.0113,-23.903],[-50.0593,-23.8911],[-50.0199,-23.738],[-50.0071,-23.7255],[-50.0145,-23.692],[-50.0307,-23.7024],[-50.0408,-23.6851],[-50.0308,-23.6553],[-50.0491,-23.6513],[-50.0685,-23.632],[-50.0844,-23.6341],[-50.0664,-23.6113],[-50.0872,-23.602],[-50.0895,-23.5848],[-50.0709,-23.5664],[-50.0923,-23.5656],[-50.0827,-23.537],[-50.052,-23.5519],[-50.0384,-23.5486]]]}},{"type":"Feature","properties":{"codarea":"4128401","centroide":[-50.82943724576647,-23.217135804083338],"codigo_ibge":4128401,"nome_ig":"Norte Pioneiro do Paraná"},"geometry":{"type":"Polygon","coordinates":[[[-50.8426,-23.1103],[-50.8165,-23.1383],[-50.802,-23.1367],[-50.8022,-23.1652],[-50.7832,-23.1718],[-50.7845,-23.1879],[-50.7563,-23.1974],[-50.7703,-23.2141],[-50.7539,-23.2159],[-50.7281,-23.2413],[-50.7359,-23.2508],[-50.7608,-23.2875],[-50.802,-23.3051],[-50.8249,-23.2845],[-50.8456,-23.2829],[-50.9002,-23.2825],[-50.9032,-23.1473],[-50.8713,-23.1467],[-50.8551,-23.1115],[-50.8426,-23.1103]]]}},{"type":"Feature","properties":{"codarea":"4128500","centroide":[-49.784031121498735,-23.855478971605496],"codigo_ibge":4128500,"nome_ig":"Norte Pioneiro do Paraná"},"geometry":{"type":"Polygon","coordinates":[[[-49.7624,-23.737],[-49.7381,-23.7476],[-49.6964,-23.7428],[-49.678,-23.8262],[-49.6726,-23.8459],[-49.7066,-23.8737],[-49.7388,-23.8831],[-49.7464,-23.898],[-49.7719,-23.902],[-49.7587,-23.9308],[-49.7389,-23.9383],[-49.7192,-23.9673],[-49.7716,-24.0037],[-49.793,-24.0038],[-49.8125,-23.98],[-49.8292,-23.9788],[-49.8366,-23.9486],[-49.8302,-23.9362],[-49.8553,-23.8997],[-49.8734,-23.8866],[-49.8946,-23.8846],[-49.9234,-23.8437],[-49.8814,-23.8331],[-49.8256,-23.7656],[-49.7916,-23.747],[-49.7914,-23.7334],[-49.7624,-23.737]]]}}]}