{"type":"FeatureCollection","features":[{"type":"Feature","properties":{"codarea":"3104502","centroide":[-45.9884011925966,-15.75078153315245],"codigo_ibge":3104502,"nome_ig":"Norte de Minas"},"geometry":{"type":"Polygon","coordinates":[[[-45.8182,-15.405],[-45.7887,-15.4297],[-45.7638,-15.4102],[-45.7464,-15.4266],[-45.7207,-15.4382],[-45.7066,-15.4279],[-45.6599,-15.4167],[-45.5991,-15.4427],[-45.5847,-15.5137],[-45.6044,-15.5371],[-45.5835,-15.5803],[-45.5905,-15.6169],[-45.5822,-15.6318],[-45.5892,-15.6567],[-45.5805,-15.6762],[-45.5597,-15.6928],[-45.5836,-15.7078],[-45.586,-15.7184],[-45.5985,-15.7409],[-45.6217,-15.7517],[-45.6271,-15.7651],[-45.6591,-15.7915],[-45.6804,-15.8249],[-45.7234,-15.8673],[-45.7373,-15.9103],[-45.759,-15.9297],[-45.7874,-15.9753],[-45.7969,-16.0094],[-45.8057,-16.0621],[-45.85,-16.0918],[-45.8629,-16.0892],[-45.8929,-16.109],[-45.9061,-16.107],[-45.9017,-16.0805],[-45.9361,-16.0904],[-45.9479,-16.0648],[-45.9332,-16.0758],[-45.9299,-16.061],[-45.9458,-16.0403],[-45.9878,-16.0155],[-46.0005,-16.0364],[-46.0369,-16.0466],[-46.0413,-16.0828],[-46.0557,-16.1318],[-46.079,-16.1694],[-46.0834,-16.2112],[-46.0998,-16.2285],[-46.1341,-16.2452],[-46.1525,-16.2345],[-46.1651,-16.2409],[-46.197,-16.24],[-46.2153,-16.2306],[-46.2308,-16.2377],[-46.2623,-16.2248],[-46.2662,-16.2094],[-46.2942,-16.1713],[-46.2933,-16.1483],[-46.2541,-16.1474],[-46.2345,-16.1304],[-46.221,-16.1057],[-46.2326,-16.0895],[-46.2204,-16.0791],[-46.2138,-16.0543],[-46.1838,-16.0262],[-46.203,-16.0178],[-46.247,-15.9827],[-46.2629,-15.9832],[-46.2882,-15.9689],[-46.3157,-15.9751],[-46.3401,-15.9565],[-46.3649,-15.9613],[-46.3738,-15.938],[-46.4222,-15.8904],[-46.4469,-15.8751],[-46.4577,-15.8515],[-46.4363,-15.8527],[-46.4109,-15.8354],[-46.3768,-15.8368],[-46.3085,-15.8145],[-46.2539,-15.7935],[-46.2657,-15.728],[-46.2642,-15.6794],[-46.2482,-15.6056],[-46.2551,-15.5713],[-46.2701,-15.5598],[-46.2778,-15.5405],[-46.2699,-15.5259],[-46.2928,-15.507],[-46.2719,-15.4859],[-46.2774,-15.4806],[-46.2786,-15.4411],[-46.2924,-15.4427],[-46.2877,-15.4122],[-46.262,-15.4037],[-46.2568,-15.3913],[-46.2469,-15.409],[-46.2199,-15.4168],[-46.2027,-15.4416],[-46.1947,-15.4066],[-46.1573,-15.4044],[-46.1464,-15.4136],[-46.1123,-15.4026],[-46.0976,-15.419],[-46.063,-15.4224],[-46.0329,-15.4062],[-46.0221,-15.3668],[-46.0003,-15.3654],[-45.9862,-15.3824],[-45.9644,-15.384],[-45.9566,-15.3714],[-45.9349,-15.383],[-45.9208,-15.4114],[-45.9009,-15.4226],[-45.8602,-15.4184],[-45.8431,-15.4251],[-45.8182,-15.405]]]}},{"type":"Feature","properties":{"codarea":"3107307","centroide":[-43.687978632963215,-17.286962767168827],"codigo_ibge":3107307,"nome_ig":"Norte de Minas"},"geometry":{"type":"Polygon","coordinates":[[[-43.6858,-16.9273],[-43.6982,-16.9449],[-43.7016,-16.999],[-43.7093,-17.0241],[-43.7072,-17.067],[-43.7191,-17.0832],[-43.6846,-17.1051],[-43.6767,-17.1396],[-43.6822,-17.1438],[-43.6681,-17.1705],[-43.6246,-17.172],[-43.6009,-17.1967],[-43.5689,-17.1943],[-43.5639,-17.18],[-43.5369,-17.1898],[-43.5342,-17.2045],[-43.4886,-17.1777],[-43.4638,-17.1704],[-43.4419,-17.1723],[-43.4226,-17.1613],[-43.3952,-17.1566],[-43.3735,-17.1632],[-43.3587,-17.1515],[-43.3081,-17.1453],[-43.2757,-17.1265],[-43.2656,-17.1364],[-43.2289,-17.1369],[-43.2069,-17.1056],[-43.1752,-17.127],[-43.163,-17.1171],[-43.1437,-17.12],[-43.1316,-17.1376],[-43.1046,-17.1338],[-43.0931,-17.1668],[-43.1087,-17.1946],[-43.0696,-17.2244],[-43.0835,-17.2531],[-43.1098,-17.2878],[-43.1322,-17.2891],[-43.1307,-17.3038],[-43.1703,-17.2915],[-43.1903,-17.2918],[-43.1867,-17.3069],[-43.2172,-17.3174],[-43.2284,-17.3445],[-43.2009,-17.363],[-43.1964,-17.4046],[-43.2176,-17.4142],[-43.2324,-17.4093],[-43.2374,-17.4271],[-43.2374,-17.4271],[-43.2822,-17.3831],[-43.2954,-17.3796],[-43.3339,-17.3562],[-43.3376,-17.3283],[-43.3653,-17.3059],[-43.3835,-17.3001],[-43.3918,-17.2823],[-43.4157,-17.2758],[-43.454,-17.2759],[-43.4662,-17.2659],[-43.4991,-17.2645],[-43.525,-17.2362],[-43.5424,-17.2332],[-43.5634,-17.251],[-43.5808,-17.2759],[-43.6085,-17.2542],[-43.626,-17.2572],[-43.6693,-17.2081],[-43.684,-17.2142],[-43.7007,-17.2064],[-43.7167,-17.2214],[-43.7304,-17.2163],[-43.761,-17.2432],[-43.7675,-17.2585],[-43.7844,-17.2471],[-43.8086,-17.2644],[-43.8045,-17.296],[-43.8156,-17.3128],[-43.8148,-17.3332],[-43.7752,-17.37],[-43.7336,-17.3694],[-43.7186,-17.4164],[-43.7555,-17.4876],[-43.7434,-17.5136],[-43.7672,-17.5222],[-43.7737,-17.5464],[-43.7734,-17.6131],[-43.7786,-17.6239],[-43.7649,-17.6349],[-43.7768,-17.6794],[-43.7655,-17.7028],[-43.7521,-17.7052],[-43.7716,-17.7368],[-43.7597,-17.7507],[-43.7542,-17.7853],[-43.7794,-17.7906],[-43.7556,-17.8225],[-43.7758,-17.8381],[-43.7649,-17.8582],[-43.7652,-17.8774],[-43.7505,-17.8901],[-43.7636,-17.9245],[-43.7748,-17.901],[-43.8041,-17.889],[-43.8157,-17.8541],[-43.8406,-17.8333],[-43.8435,-17.8052],[-43.87,-17.7791],[-43.8653,-17.7615],[-43.8933,-17.743],[-43.901,-17.7284],[-43.8875,-17.7101],[-43.9003,-17.6635],[-43.8877,-17.6597],[-43.8971,-17.6388],[-43.889,-17.63],[-43.8939,-17.609],[-43.9278,-17.5628],[-43.9564,-17.5552],[-43.9912,-17.5222],[-44.0041,-17.5212],[-44.0058,-17.501],[-44.0435,-17.4728],[-44.059,-17.4487],[-44.0474,-17.4446],[-44.0402,-17.421],[-44.0214,-17.4134],[-44.0283,-17.3874],[-44.0136,-17.3547],[-43.9673,-17.3795],[-43.9573,-17.3961],[-43.9436,-17.3804],[-43.9222,-17.378],[-43.8991,-17.365],[-43.8874,-17.3435],[-43.876,-17.3528],[-43.8499,-17.3138],[-43.8334,-17.2802],[-43.8585,-17.2628],[-43.8864,-17.2706],[-43.8788,-17.2298],[-43.8987,-17.2291],[-43.9384,-17.2068],[-43.9522,-17.2105],[-43.97,-17.2317],[-43.9892,-17.2159],[-43.9981,-17.1979],[-44.0496,-17.1746],[-44.059,-17.1594],[-44.101,-17.1467],[-44.1115,-17.1559],[-44.1056,-17.1457],[-44.0645,-17.1299],[-44.0268,-17.1218],[-44.0203,-17.1088],[-44.0232,-17.0688],[-44.0164,-17.0519],[-43.9662,-17.0268],[-43.9531,-16.9906],[-43.9201,-16.9652],[-43.8891,-16.9687],[-43.8873,-16.9489],[-43.8632,-16.9475],[-43.8567,-16.9387],[-43.8733,-16.9249],[-43.8638,-16.9038],[-43.8376,-16.8947],[-43.8105,-16.8999],[-43.7734,-16.8886],[-43.7444,-16.9072],[-43.718,-16.9016],[-43.7077,-16.875],[-43.7142,-16.8676],[-43.7014,-16.8509],[-43.6841,-16.879],[-43.6786,-16.9142],[-43.6858,-16.9273]]]}},{"type":"Feature","properties":{"codarea":"3108255","centroide":[-44.89754382794609,-14.994058737854848],"codigo_ibge":3108255,"nome_ig":"Norte de Minas"},"geometry":{"type":"Polygon","coordinates":[[[-44.7413,-14.467],[-44.7305,-14.5001],[-44.7503,-14.5368],[-44.7341,-14.5664],[-44.7408,-14.6251],[-44.6888,-14.6256],[-44.7041,-14.629],[-44.7439,-14.6692],[-44.785,-14.6964],[-44.7967,-14.6964],[-44.81,-14.7195],[-44.8242,-14.7652],[-44.8429,-14.7779],[-44.8294,-14.7829],[-44.7947,-14.8139],[-44.7744,-14.8128],[-44.7559,-14.7983],[-44.7388,-14.8117],[-44.719,-14.8154],[-44.7052,-14.8389],[-44.6939,-14.8369],[-44.6908,-14.8593],[-44.6768,-14.8709],[-44.6799,-14.8918],[-44.7113,-14.9104],[-44.7328,-14.9496],[-44.7038,-15.0158],[-44.6638,-15.0671],[-44.6333,-15.0777],[-44.6276,-15.1042],[-44.6323,-15.1237],[-44.6555,-15.1659],[-44.6791,-15.1847],[-44.6882,-15.2083],[-44.6745,-15.2629],[-44.657,-15.2763],[-44.6341,-15.2739],[-44.6269,-15.3395],[-44.6469,-15.3616],[-44.6588,-15.3964],[-44.6929,-15.4383],[-44.6957,-15.4542],[-44.7093,-15.4568],[-44.7618,-15.4857],[-44.7842,-15.4542],[-44.8309,-15.4406],[-44.8547,-15.4146],[-44.8812,-15.3968],[-44.9189,-15.3845],[-44.9637,-15.3515],[-44.9835,-15.3454],[-44.993,-15.3298],[-44.9954,-15.2966],[-45.0236,-15.2734],[-45.0063,-15.26],[-44.9858,-15.2129],[-44.9752,-15.1986],[-44.9959,-15.1749],[-44.998,-15.1625],[-45.032,-15.1157],[-45.0417,-15.0813],[-45.0731,-15.0749],[-45.1545,-15.0121],[-45.1855,-14.9825],[-45.2163,-14.9086],[-45.2384,-14.877],[-45.2835,-14.8625],[-45.3056,-14.8336],[-45.2744,-14.8115],[-45.2587,-14.7895],[-45.2419,-14.7865],[-45.2292,-14.7657],[-45.2055,-14.7447],[-45.1742,-14.7413],[-45.172,-14.7346],[-45.1362,-14.7474],[-45.0958,-14.7529],[-45.065,-14.7308],[-45.0541,-14.6994],[-45.0403,-14.6804],[-44.9957,-14.6678],[-44.9809,-14.6456],[-44.9079,-14.6133],[-44.9095,-14.6032],[-44.8691,-14.5933],[-44.8481,-14.5469],[-44.8243,-14.5393],[-44.8351,-14.518],[-44.8234,-14.5132],[-44.8332,-14.4998],[-44.8107,-14.5031],[-44.7943,-14.4878],[-44.7413,-14.467]]]}},{"type":"Feature","properties":{"codarea":"3108552","centroide":[-45.90257011959714,-16.95663428949476],"codigo_ibge":3108552,"nome_ig":"Norte de Minas"},"geometry":{"type":"Polygon","coordinates":[[[-45.5048,-16.9608],[-45.503,-16.9813],[-45.5151,-17.0003],[-45.5062,-17.0134],[-45.5109,-17.0355],[-45.5415,-17.0304],[-45.5611,-17.0443],[-45.5704,-17.0608],[-45.5952,-17.0718],[-45.6123,-17.0954],[-45.6512,-17.1019],[-45.6623,-17.1127],[-45.6865,-17.1098],[-45.7145,-17.117],[-45.7289,-17.1489],[-45.7577,-17.1521],[-45.7687,-17.1758],[-45.8046,-17.1457],[-45.824,-17.1389],[-45.8353,-17.154],[-45.867,-17.1432],[-45.8939,-17.1426],[-45.9085,-17.125],[-45.9006,-17.1022],[-45.9269,-17.1107],[-45.9493,-17.1343],[-45.9719,-17.1742],[-46.0074,-17.1776],[-46.0319,-17.1942],[-46.0789,-17.1848],[-46.069,-17.1676],[-46.0831,-17.1449],[-46.1216,-17.1498],[-46.1479,-17.1343],[-46.1573,-17.1099],[-46.1089,-17.0662],[-46.0923,-17.0584],[-46.0908,-17.0324],[-46.1224,-17.0482],[-46.1282,-17.0255],[-46.1527,-17.0134],[-46.1562,-16.9989],[-46.1845,-17.0055],[-46.2009,-17.0003],[-46.1963,-16.9711],[-46.2051,-16.9625],[-46.2139,-16.9547],[-46.205,-16.9393],[-46.1914,-16.9348],[-46.1805,-16.9125],[-46.1872,-16.8795],[-46.206,-16.8584],[-46.198,-16.8392],[-46.1947,-16.8022],[-46.1689,-16.7785],[-46.1374,-16.7793],[-46.1236,-16.7645],[-46.1001,-16.76],[-46.0865,-16.7446],[-46.0896,-16.7003],[-46.0581,-16.7227],[-46.0466,-16.711],[-46.0322,-16.7167],[-46.0104,-16.7109],[-46.0102,-16.6949],[-45.9915,-16.694],[-45.9587,-16.6948],[-45.9439,-16.7194],[-45.9211,-16.7088],[-45.8887,-16.7028],[-45.8851,-16.7288],[-45.8581,-16.7641],[-45.853,-16.8155],[-45.8316,-16.83],[-45.8024,-16.8314],[-45.7949,-16.8398],[-45.778,-16.8313],[-45.7742,-16.8561],[-45.7561,-16.8556],[-45.7507,-16.8739],[-45.7217,-16.898],[-45.6971,-16.8831],[-45.6713,-16.89],[-45.6534,-16.8799],[-45.6204,-16.8752],[-45.5928,-16.8908],[-45.5974,-16.9047],[-45.5796,-16.9154],[-45.5642,-16.9414],[-45.5423,-16.9354],[-45.5201,-16.9391],[-45.5048,-16.9608]]]}},{"type":"Feature","properties":{"codarea":"3108602","centroide":[-44.439006645512514,-16.24237701373168],"codigo_ibge":3108602,"nome_ig":"Norte de Minas"},"geometry":{"type":"Polygon","coordinates":[[[-44.226,-16.0817],[-44.2355,-16.0919],[-44.2717,-16.1325],[-44.2779,-16.1592],[-44.2976,-16.1805],[-44.2786,-16.2142],[-44.2513,-16.2249],[-44.2432,-16.2373],[-44.2544,-16.2528],[-44.2591,-16.2876],[-44.291,-16.3267],[-44.3093,-16.3613],[-44.3384,-16.3501],[-44.3571,-16.3684],[-44.4442,-16.4096],[-44.4719,-16.4407],[-44.5184,-16.4658],[-44.5489,-16.4763],[-44.5672,-16.4928],[-44.5868,-16.4953],[-44.5939,-16.4675],[-44.6082,-16.4677],[-44.6305,-16.4528],[-44.6381,-16.4202],[-44.6605,-16.4246],[-44.6761,-16.3964],[-44.7041,-16.3812],[-44.7042,-16.3812],[-44.7041,-16.3812],[-44.6665,-16.3364],[-44.6165,-16.3259],[-44.5981,-16.3034],[-44.5722,-16.2969],[-44.5521,-16.2776],[-44.5338,-16.2787],[-44.5139,-16.261],[-44.5329,-16.2206],[-44.5457,-16.1736],[-44.5274,-16.1565],[-44.5127,-16.1629],[-44.4927,-16.1532],[-44.4858,-16.1286],[-44.4977,-16.058],[-44.5027,-16.0394],[-44.4965,-16.0206],[-44.4759,-15.9935],[-44.4574,-15.9939],[-44.4301,-15.9731],[-44.4228,-15.9994],[-44.4054,-16.0078],[-44.3711,-15.995],[-44.3477,-16.0028],[-44.3207,-16.0342],[-44.2743,-16.0619],[-44.2521,-16.0612],[-44.226,-16.0817]]]}},{"type":"Feature","properties":{"codarea":"3109402","centroide":[-45.19187066121739,-17.285539534061193],"codigo_ibge":3109402,"nome_ig":"Norte de Minas"},"geometry":{"type":"Polygon","coordinates":[[[-45.0202,-16.754],[-45.0108,-16.7642],[-44.9339,-16.8063],[-44.919,-16.8484],[-44.9213,-16.8816],[-44.913,-16.9138],[-44.8889,-16.9139],[-44.8751,-16.9276],[-44.8767,-16.9605],[-44.8665,-16.9776],[-44.8409,-16.9918],[-44.8037,-17.0253],[-44.8061,-17.0513],[-44.7896,-17.101],[-44.7926,-17.1087],[-44.828,-17.1179],[-44.8397,-17.1534],[-44.8554,-17.1751],[-44.8482,-17.1948],[-44.8296,-17.2035],[-44.8469,-17.2162],[-44.8508,-17.2457],[-44.8733,-17.2429],[-44.8972,-17.2698],[-44.9235,-17.2656],[-44.9321,-17.279],[-44.9353,-17.3155],[-44.9567,-17.3457],[-44.9373,-17.3919],[-44.953,-17.4417],[-44.954,-17.4709],[-44.9875,-17.5188],[-44.9817,-17.551],[-45.0125,-17.5867],[-45.0371,-17.5972],[-45.0453,-17.6106],[-45.0341,-17.63],[-45.0353,-17.6585],[-45.0148,-17.6814],[-45.0187,-17.7003],[-45.0066,-17.7214],[-45.006,-17.747],[-45.0136,-17.77],[-45.0276,-17.7841],[-45.0761,-17.7816],[-45.0973,-17.804],[-45.1198,-17.8144],[-45.1259,-17.8316],[-45.1093,-17.8605],[-45.1189,-17.8851],[-45.1164,-17.9307],[-45.1574,-17.9541],[-45.1788,-17.9577],[-45.1984,-17.9878],[-45.2105,-17.9945],[-45.2236,-17.9765],[-45.241,-17.9759],[-45.2564,-17.9936],[-45.2751,-17.9848],[-45.2903,-17.9616],[-45.3377,-17.9387],[-45.35,-17.906],[-45.3879,-17.9016],[-45.4173,-17.9047],[-45.4466,-17.9167],[-45.449,-17.9032],[-45.4698,-17.9042],[-45.4657,-17.8803],[-45.4517,-17.8652],[-45.4564,-17.8471],[-45.466,-17.8334],[-45.4477,-17.8114],[-45.4532,-17.7912],[-45.4167,-17.784],[-45.4283,-17.7561],[-45.4406,-17.7526],[-45.4402,-17.7328],[-45.4252,-17.7339],[-45.4035,-17.6683],[-45.4148,-17.6463],[-45.4319,-17.6381],[-45.4487,-17.6181],[-45.437,-17.5844],[-45.4148,-17.5874],[-45.3816,-17.5792],[-45.3923,-17.5686],[-45.3825,-17.5516],[-45.3844,-17.5213],[-45.4266,-17.4842],[-45.4427,-17.4885],[-45.5022,-17.4541],[-45.5173,-17.422],[-45.546,-17.4176],[-45.5618,-17.3817],[-45.5281,-17.3548],[-45.5298,-17.3465],[-45.5053,-17.3226],[-45.5101,-17.258],[-45.4969,-17.2518],[-45.4936,-17.223],[-45.4715,-17.2032],[-45.4863,-17.1816],[-45.4533,-17.1547],[-45.4473,-17.1301],[-45.4357,-17.1175],[-45.4478,-17.1042],[-45.4731,-17.107],[-45.4911,-17.0933],[-45.501,-17.1014],[-45.5293,-17.0985],[-45.5213,-17.0836],[-45.5322,-17.075],[-45.5524,-17.0802],[-45.5427,-17.0585],[-45.561,-17.0558],[-45.5611,-17.0443],[-45.5415,-17.0304],[-45.5109,-17.0355],[-45.5062,-17.0134],[-45.5151,-17.0003],[-45.503,-16.9813],[-45.5048,-16.9608],[-45.4964,-16.9536],[-45.4608,-16.9635],[-45.438,-16.9449],[-45.4337,-16.921],[-45.4105,-16.9163],[-45.4002,-16.9033],[-45.3734,-16.9118],[-45.3475,-16.908],[-45.3362,-16.92],[-45.3323,-16.8848],[-45.321,-16.8742],[-45.3021,-16.8764],[-45.3099,-16.8494],[-45.2975,-16.8175],[-45.3074,-16.7893],[-45.279,-16.7577],[-45.2435,-16.78],[-45.2397,-16.7671],[-45.2519,-16.7382],[-45.2322,-16.7191],[-45.241,-16.6905],[-45.2155,-16.6752],[-45.1962,-16.6841],[-45.1762,-16.6829],[-45.1876,-16.6716],[-45.1861,-16.6537],[-45.1658,-16.6205],[-45.1403,-16.6152],[-45.1393,-16.5937],[-45.1047,-16.5654],[-45.0973,-16.5957],[-45.0747,-16.6178],[-45.0799,-16.6577],[-45.0668,-16.6833],[-45.021,-16.6946],[-45.0054,-16.7054],[-45.0021,-16.7257],[-45.0202,-16.754]]]}},{"type":"Feature","properties":{"codarea":"3111150","centroide":[-44.762141890180544,-16.50765472001155],"codigo_ibge":3111150,"nome_ig":"Norte de Minas"},"geometry":{"type":"Polygon","coordinates":[[[-44.7042,-16.3812],[-44.7041,-16.3812],[-44.6761,-16.3964],[-44.6605,-16.4246],[-44.6381,-16.4202],[-44.6305,-16.4528],[-44.6082,-16.4677],[-44.5939,-16.4675],[-44.5868,-16.4953],[-44.5858,-16.5061],[-44.609,-16.5226],[-44.6246,-16.5176],[-44.6294,-16.5296],[-44.6444,-16.521],[-44.6643,-16.5254],[-44.6778,-16.5455],[-44.6855,-16.5401],[-44.7041,-16.567],[-44.737,-16.5836],[-44.7498,-16.6011],[-44.7743,-16.6152],[-44.773,-16.6245],[-44.8111,-16.6491],[-44.8087,-16.6407],[-44.8273,-16.6094],[-44.8096,-16.6043],[-44.7982,-16.5895],[-44.7991,-16.5308],[-44.8334,-16.5525],[-44.8602,-16.5818],[-44.8868,-16.5976],[-44.9142,-16.6003],[-44.9345,-16.5841],[-44.9521,-16.5582],[-44.972,-16.5486],[-44.9605,-16.5518],[-44.9293,-16.5327],[-44.8962,-16.5026],[-44.8614,-16.488],[-44.8075,-16.4436],[-44.7744,-16.4311],[-44.7247,-16.3904],[-44.7042,-16.3812]]]}},{"type":"Feature","properties":{"codarea":"3112703","centroide":[-43.66447563342066,-16.13649526863238],"codigo_ibge":3112703,"nome_ig":"Norte de Minas"},"geometry":{"type":"Polygon","coordinates":[[[-43.6202,-15.7853],[-43.6307,-15.8056],[-43.6164,-15.8091],[-43.6188,-15.8548],[-43.5827,-15.8772],[-43.5702,-15.9081],[-43.5565,-15.9102],[-43.5396,-15.9527],[-43.5601,-15.9755],[-43.5635,-15.996],[-43.5362,-16.016],[-43.5441,-16.047],[-43.5275,-16.0867],[-43.5215,-16.0992],[-43.5375,-16.1205],[-43.5377,-16.142],[-43.6734,-16.2967],[-43.676,-16.4045],[-43.6962,-16.4164],[-43.7195,-16.4154],[-43.7467,-16.4052],[-43.7622,-16.4008],[-43.7635,-16.3803],[-43.7929,-16.3534],[-43.7832,-16.3415],[-43.7959,-16.2969],[-43.7788,-16.2821],[-43.7923,-16.2646],[-43.7966,-16.2341],[-43.783,-16.2326],[-43.7911,-16.207],[-43.7741,-16.195],[-43.7755,-16.1768],[-43.7647,-16.1656],[-43.7663,-16.1461],[-43.7851,-16.1261],[-43.7656,-16.0892],[-43.7596,-16.0754],[-43.7227,-16.0627],[-43.7015,-16.0408],[-43.6988,-16.0082],[-43.6872,-15.988],[-43.6691,-15.9751],[-43.641,-15.939],[-43.6464,-15.933],[-43.6312,-15.9057],[-43.6532,-15.8919],[-43.6333,-15.8898],[-43.6363,-15.8633],[-43.6625,-15.8396],[-43.6334,-15.8328],[-43.6345,-15.8194],[-43.6566,-15.7859],[-43.6235,-15.7937],[-43.6202,-15.7853]]]}},{"type":"Feature","properties":{"codarea":"3115474","centroide":[-43.09699805694581,-15.335965560553486],"codigo_ibge":3115474,"nome_ig":"Norte de Minas"},"geometry":{"type":"Polygon","coordinates":[[[-42.9626,-15.327],[-42.9386,-15.368],[-42.9396,-15.3915],[-42.9754,-15.3773],[-42.9875,-15.3887],[-43.0158,-15.3583],[-43.0345,-15.3611],[-43.0396,-15.4056],[-43.0575,-15.4003],[-43.0783,-15.4496],[-43.1074,-15.4249],[-43.1088,-15.4108],[-43.1627,-15.3586],[-43.169,-15.3413],[-43.207,-15.3247],[-43.2058,-15.2795],[-43.2346,-15.2578],[-43.2467,-15.2567],[-43.2327,-15.2546],[-43.2073,-15.233],[-43.1488,-15.2651],[-43.1048,-15.2675],[-43.0988,-15.2803],[-43.0784,-15.2862],[-43.0862,-15.2998],[-43.0685,-15.3033],[-43.0476,-15.3212],[-43.0222,-15.3312],[-42.9892,-15.3184],[-42.9626,-15.327]]]}},{"type":"Feature","properties":{"codarea":"3116159","centroide":[-45.45868551723167,-15.469237465011998],"codigo_ibge":3116159,"nome_ig":"Norte de Minas"},"geometry":{"type":"Polygon","coordinates":[[[-45.0941,-15.5867],[-45.1095,-15.5984],[-45.1228,-15.6272],[-45.1718,-15.6591],[-45.2091,-15.6965],[-45.2187,-15.7124],[-45.2433,-15.7254],[-45.2575,-15.7458],[-45.2488,-15.7616],[-45.2454,-15.7913],[-45.2256,-15.8434],[-45.2659,-15.8639],[-45.2809,-15.8819],[-45.2911,-15.8762],[-45.3086,-15.9003],[-45.3205,-15.8801],[-45.3379,-15.896],[-45.366,-15.8893],[-45.3866,-15.8886],[-45.3921,-15.8634],[-45.4096,-15.8562],[-45.422,-15.8353],[-45.445,-15.8229],[-45.4661,-15.7803],[-45.5062,-15.7856],[-45.509,-15.7648],[-45.5355,-15.7513],[-45.5542,-15.7318],[-45.586,-15.7184],[-45.5836,-15.7078],[-45.5597,-15.6928],[-45.5805,-15.6762],[-45.5892,-15.6567],[-45.5822,-15.6318],[-45.5905,-15.6169],[-45.5835,-15.5803],[-45.6044,-15.5371],[-45.5847,-15.5137],[-45.5991,-15.4427],[-45.6599,-15.4167],[-45.7066,-15.4279],[-45.7207,-15.4382],[-45.7464,-15.4266],[-45.7638,-15.4102],[-45.7887,-15.4297],[-45.8182,-15.405],[-45.7771,-15.3678],[-45.7439,-15.3527],[-45.7429,-15.3437],[-45.7103,-15.3393],[-45.7185,-15.3224],[-45.6944,-15.3201],[-45.674,-15.3084],[-45.6337,-15.2583],[-45.6081,-15.2349],[-45.5946,-15.194],[-45.637,-15.2288],[-45.6624,-15.2347],[-45.6843,-15.2286],[-45.6979,-15.2411],[-45.7198,-15.2414],[-45.7544,-15.2081],[-45.7684,-15.1801],[-45.7391,-15.1347],[-45.7398,-15.1203],[-45.7216,-15.1122],[-45.7185,-15.0956],[-45.6971,-15.0929],[-45.6731,-15.0778],[-45.6558,-15.0485],[-45.6578,-15.0284],[-45.6169,-15.0141],[-45.6185,-15.0241],[-45.5873,-15.0344],[-45.5724,-15.0265],[-45.5325,-15.0342],[-45.5096,-15.0489],[-45.4903,-15.0981],[-45.468,-15.1167],[-45.4319,-15.134],[-45.4198,-15.1538],[-45.4388,-15.163],[-45.4437,-15.1928],[-45.47,-15.2157],[-45.4555,-15.2307],[-45.4685,-15.2457],[-45.4658,-15.2719],[-45.4493,-15.2801],[-45.4345,-15.3174],[-45.3842,-15.3266],[-45.3516,-15.3492],[-45.3462,-15.3371],[-45.3206,-15.3379],[-45.3086,-15.3515],[-45.2768,-15.3555],[-45.2569,-15.3756],[-45.2551,-15.4146],[-45.2364,-15.4651],[-45.239,-15.4852],[-45.2314,-15.5106],[-45.1952,-15.5381],[-45.1815,-15.557],[-45.1557,-15.5568],[-45.1275,-15.5759],[-45.1161,-15.5714],[-45.0941,-15.5867]]]}},{"type":"Feature","properties":{"codarea":"3116506","centroide":[-44.22804816399655,-17.06985324588231],"codigo_ibge":3116506,"nome_ig":"Norte de Minas"},"geometry":{"type":"Polygon","coordinates":[[[-44.1301,-16.8214],[-44.12,-16.8798],[-44.1329,-16.8922],[-44.1414,-16.9324],[-44.1275,-16.9418],[-44.1325,-16.9643],[-44.1603,-16.9996],[-44.1505,-17.0315],[-44.1632,-17.0339],[-44.195,-17.0671],[-44.1951,-17.1036],[-44.1813,-17.096],[-44.1569,-17.1103],[-44.1269,-17.1091],[-44.0995,-17.1285],[-44.1056,-17.1457],[-44.1115,-17.1559],[-44.1114,-17.1618],[-44.1317,-17.1671],[-44.1634,-17.1892],[-44.1722,-17.2158],[-44.1934,-17.2184],[-44.1965,-17.2366],[-44.211,-17.255],[-44.2044,-17.2701],[-44.2224,-17.2779],[-44.2675,-17.2574],[-44.2844,-17.2813],[-44.2956,-17.279],[-44.3075,-17.2952],[-44.3207,-17.2723],[-44.3364,-17.2695],[-44.329,-17.2495],[-44.3245,-17.2257],[-44.306,-17.2115],[-44.306,-17.197],[-44.2708,-17.1764],[-44.2697,-17.1571],[-44.2837,-17.1461],[-44.3225,-17.1373],[-44.3238,-17.1173],[-44.3505,-17.1098],[-44.3325,-17.0448],[-44.3057,-17.0312],[-44.2909,-17.0047],[-44.2758,-16.9954],[-44.3046,-16.9625],[-44.3323,-16.9458],[-44.3123,-16.9329],[-44.281,-16.9292],[-44.247,-16.9079],[-44.2437,-16.8907],[-44.1887,-16.8519],[-44.1968,-16.9112],[-44.1833,-16.9035],[-44.1549,-16.8591],[-44.1566,-16.83],[-44.1301,-16.8214]]]}},{"type":"Feature","properties":{"codarea":"3117836","centroide":[-44.60014578058179,-14.981274202924213],"codigo_ibge":3117836,"nome_ig":"Norte de Minas"},"geometry":{"type":"Polygon","coordinates":[[[-44.5282,-14.7033],[-44.5164,-14.7133],[-44.5258,-14.7448],[-44.5105,-14.7494],[-44.5272,-14.7779],[-44.5386,-14.7853],[-44.5455,-14.8097],[-44.5295,-14.8163],[-44.5198,-14.8439],[-44.5298,-14.861],[-44.5098,-14.888],[-44.4836,-14.907],[-44.4871,-14.9643],[-44.4929,-14.9599],[-44.5205,-14.9765],[-44.5242,-14.9972],[-44.5446,-15.0105],[-44.546,-15.0338],[-44.573,-15.0706],[-44.579,-15.0938],[-44.5648,-15.1085],[-44.5777,-15.1299],[-44.5581,-15.1507],[-44.5608,-15.1701],[-44.552,-15.1885],[-44.4885,-15.2712],[-44.4687,-15.269],[-44.4509,-15.2428],[-44.456,-15.2203],[-44.4356,-15.2203],[-44.4036,-15.2524],[-44.3778,-15.3001],[-44.3626,-15.3019],[-44.3678,-15.3993],[-44.3433,-15.4129],[-44.3362,-15.4362],[-44.3647,-15.4615],[-44.4495,-15.3716],[-44.4571,-15.3553],[-44.4771,-15.3466],[-44.5015,-15.3246],[-44.5048,-15.2926],[-44.5296,-15.2874],[-44.5485,-15.3129],[-44.5913,-15.323],[-44.6269,-15.3395],[-44.6341,-15.2739],[-44.657,-15.2763],[-44.6745,-15.2629],[-44.6882,-15.2083],[-44.6791,-15.1847],[-44.6555,-15.1659],[-44.6323,-15.1237],[-44.6276,-15.1042],[-44.6333,-15.0777],[-44.6638,-15.0671],[-44.7038,-15.0158],[-44.7328,-14.9496],[-44.7113,-14.9104],[-44.6799,-14.8918],[-44.6768,-14.8709],[-44.6908,-14.8593],[-44.6939,-14.8369],[-44.7052,-14.8389],[-44.719,-14.8154],[-44.7388,-14.8117],[-44.7559,-14.7983],[-44.7744,-14.8128],[-44.7947,-14.8139],[-44.8294,-14.7829],[-44.8429,-14.7779],[-44.8242,-14.7652],[-44.81,-14.7195],[-44.7967,-14.6964],[-44.785,-14.6964],[-44.7439,-14.6692],[-44.7041,-14.629],[-44.6888,-14.6256],[-44.6356,-14.6226],[-44.625,-14.6385],[-44.5866,-14.6659],[-44.5573,-14.6641],[-44.5448,-14.6725],[-44.5446,-14.6955],[-44.5282,-14.7033]]]}},{"type":"Feature","properties":{"codarea":"3118809","centroide":[-44.379242513307986,-16.61306437608161],"codigo_ibge":3118809,"nome_ig":"Norte de Minas"},"geometry":{"type":"Polygon","coordinates":[[[-44.3093,-16.3613],[-44.2996,-16.3798],[-44.2828,-16.3909],[-44.2506,-16.386],[-44.2456,-16.3946],[-44.2109,-16.3905],[-44.1819,-16.4208],[-44.145,-16.4382],[-44.1332,-16.4606],[-44.1011,-16.466],[-44.0821,-16.4908],[-44.0652,-16.4905],[-44.0167,-16.4464],[-43.994,-16.4536],[-43.9789,-16.4716],[-43.9687,-16.5108],[-43.9814,-16.5336],[-44.0052,-16.5494],[-44.0214,-16.591],[-44.0502,-16.6179],[-44.0825,-16.6048],[-44.1082,-16.6108],[-44.1069,-16.6437],[-44.1266,-16.6711],[-44.1459,-16.7261],[-44.1709,-16.7238],[-44.2159,-16.6889],[-44.2175,-16.6575],[-44.2125,-16.6258],[-44.2475,-16.6566],[-44.2621,-16.6617],[-44.2945,-16.6592],[-44.3156,-16.6994],[-44.302,-16.7067],[-44.3025,-16.7389],[-44.2944,-16.766],[-44.325,-16.7793],[-44.3316,-16.7892],[-44.3533,-16.7817],[-44.4113,-16.7981],[-44.4279,-16.8298],[-44.4672,-16.8347],[-44.5301,-16.8483],[-44.5407,-16.8435],[-44.5666,-16.8582],[-44.6082,-16.8806],[-44.6194,-16.87],[-44.6285,-16.835],[-44.6133,-16.8139],[-44.6237,-16.8033],[-44.6246,-16.7771],[-44.6636,-16.7853],[-44.6852,-16.7987],[-44.687,-16.7779],[-44.6733,-16.7404],[-44.6811,-16.7225],[-44.6748,-16.6795],[-44.7068,-16.6747],[-44.7545,-16.7127],[-44.7931,-16.7372],[-44.8029,-16.7137],[-44.7763,-16.7077],[-44.7973,-16.687],[-44.8424,-16.7011],[-44.8538,-16.6983],[-44.8522,-16.6778],[-44.8355,-16.6718],[-44.8111,-16.6491],[-44.773,-16.6245],[-44.7743,-16.6152],[-44.7498,-16.6011],[-44.737,-16.5836],[-44.7041,-16.567],[-44.6855,-16.5401],[-44.6778,-16.5455],[-44.6654,-16.5549],[-44.6508,-16.5829],[-44.5879,-16.6215],[-44.5837,-16.6386],[-44.5162,-16.6631],[-44.4814,-16.6568],[-44.4899,-16.644],[-44.4765,-16.6318],[-44.4388,-16.6256],[-44.4347,-16.5978],[-44.4177,-16.5838],[-44.3928,-16.5833],[-44.4094,-16.5665],[-44.4184,-16.5291],[-44.4341,-16.524],[-44.4304,-16.4865],[-44.4189,-16.4778],[-44.4719,-16.4407],[-44.4442,-16.4096],[-44.3571,-16.3684],[-44.3384,-16.3501],[-44.3093,-16.3613]]]}},{"type":"Feature","properties":{"codarea":"3123809","centroide":[-44.013049600574845,-17.29688779617689],"codigo_ibge":3123809,"nome_ig":"Norte de Minas"},"geometry":{"type":"Polygon","coordinates":[[[-44.059,-17.4487],[-44.085,-17.4273],[-44.1146,-17.4105],[-44.1131,-17.3937],[-44.1272,-17.3944],[-44.1143,-17.3668],[-44.1524,-17.3234],[-44.1593,-17.2993],[-44.1224,-17.2547],[-44.1171,-17.2335],[-44.1033,-17.231],[-44.0789,-17.2087],[-44.0973,-17.186],[-44.1293,-17.1859],[-44.1114,-17.1618],[-44.1115,-17.1559],[-44.101,-17.1467],[-44.059,-17.1594],[-44.0496,-17.1746],[-43.9981,-17.1979],[-43.9892,-17.2159],[-43.97,-17.2317],[-43.9522,-17.2105],[-43.9384,-17.2068],[-43.8987,-17.2291],[-43.8788,-17.2298],[-43.8864,-17.2706],[-43.8585,-17.2628],[-43.8334,-17.2802],[-43.8499,-17.3138],[-43.876,-17.3528],[-43.8874,-17.3435],[-43.8991,-17.365],[-43.9222,-17.378],[-43.9436,-17.3804],[-43.9573,-17.3961],[-43.9673,-17.3795],[-44.0136,-17.3547],[-44.0283,-17.3874],[-44.0214,-17.4134],[-44.0402,-17.421],[-44.0474,-17.4446],[-44.059,-17.4487]]]}},{"type":"Feature","properties":{"codarea":"3124302","centroide":[-42.96643123831835,-14.858663311707794],"codigo_ibge":3124302,"nome_ig":"Norte de Minas"},"geometry":{"type":"Polygon","coordinates":[[[-42.872,-14.7646],[-42.8723,-14.7753],[-42.8423,-14.796],[-42.8353,-14.8077],[-42.7955,-14.8373],[-42.7536,-14.8477],[-42.7472,-14.8677],[-42.7233,-14.8856],[-42.7136,-14.8792],[-42.6927,-14.9024],[-42.6798,-14.9033],[-42.6264,-14.9451],[-42.6187,-14.9397],[-42.6025,-14.9246],[-42.5855,-14.9316],[-42.5606,-14.9622],[-42.5348,-14.9665],[-42.5156,-14.9829],[-42.5379,-14.9969],[-42.5343,-15.0103],[-42.5679,-15.024],[-42.5687,-15.0504],[-42.5783,-15.0471],[-42.5964,-15.0636],[-42.6305,-15.0504],[-42.6358,-15.0357],[-42.6565,-15.0369],[-42.6837,-15.0731],[-42.6825,-15.0974],[-42.7063,-15.1127],[-42.7197,-15.1004],[-42.7361,-15.1391],[-42.7778,-15.1598],[-42.7859,-15.1331],[-42.7832,-15.1107],[-42.7949,-15.1112],[-42.8026,-15.0861],[-42.8176,-15.0771],[-42.8145,-15.0609],[-42.8262,-15.0373],[-42.9036,-15.0399],[-42.8901,-15.017],[-42.8814,-14.983],[-42.8631,-14.9715],[-42.8576,-14.9528],[-42.8782,-14.9218],[-42.9013,-14.9159],[-42.8987,-14.8929],[-42.9245,-14.897],[-42.9544,-14.9335],[-42.9839,-14.9399],[-43.0029,-14.9101],[-43.0362,-14.9089],[-43.0419,-14.8903],[-43.0788,-14.8738],[-43.0967,-14.8529],[-43.1963,-14.8518],[-43.2225,-14.8368],[-43.2479,-14.8058],[-43.2858,-14.7936],[-43.3482,-14.7987],[-43.3816,-14.7803],[-43.4817,-14.8013],[-43.4869,-14.7902],[-43.4687,-14.7794],[-43.4812,-14.7678],[-43.4628,-14.7658],[-43.4612,-14.7462],[-43.4348,-14.723],[-43.4166,-14.7242],[-43.3727,-14.6991],[-43.3541,-14.698],[-43.3112,-14.6697],[-43.2981,-14.676],[-43.245,-14.6565],[-43.2076,-14.6583],[-43.1749,-14.651],[-43.1514,-14.6663],[-43.1274,-14.6656],[-43.0915,-14.6833],[-43.0839,-14.6982],[-43.068,-14.6809],[-43.0571,-14.6906],[-43.0383,-14.6828],[-43.0109,-14.7016],[-42.9773,-14.6983],[-42.9388,-14.708],[-42.9374,-14.7204],[-42.8904,-14.7668],[-42.872,-14.7646]]]}},{"type":"Feature","properties":{"codarea":"3126208","centroide":[-46.1587337759105,-15.12970494230753],"codigo_ibge":3126208,"nome_ig":"Norte de Minas"},"geometry":{"type":"Polygon","coordinates":[[[-46.0375,-14.8746],[-46.0038,-14.9022],[-46.0082,-14.9197],[-45.9958,-14.9274],[-45.966,-14.9656],[-45.9748,-15.0046],[-45.975,-15.0368],[-46.012,-15.0722],[-46.0284,-15.1141],[-46.0437,-15.1181],[-46.0477,-15.1637],[-46.0787,-15.1755],[-46.0976,-15.1926],[-46.1147,-15.1909],[-46.1165,-15.2048],[-46.0988,-15.2167],[-46.0923,-15.2479],[-46.077,-15.2646],[-46.0526,-15.2591],[-46.0555,-15.2505],[-46.0385,-15.2309],[-46.0272,-15.2002],[-45.9845,-15.1959],[-45.9717,-15.1538],[-45.9559,-15.1406],[-45.9187,-15.1333],[-45.8721,-15.1588],[-45.8349,-15.1373],[-45.8253,-15.1163],[-45.7398,-15.1203],[-45.7391,-15.1347],[-45.7684,-15.1801],[-45.7544,-15.2081],[-45.7198,-15.2414],[-45.6979,-15.2411],[-45.6843,-15.2286],[-45.6624,-15.2347],[-45.637,-15.2288],[-45.5946,-15.194],[-45.6081,-15.2349],[-45.6337,-15.2583],[-45.674,-15.3084],[-45.6944,-15.3201],[-45.7185,-15.3224],[-45.7103,-15.3393],[-45.7429,-15.3437],[-45.7439,-15.3527],[-45.7771,-15.3678],[-45.8182,-15.405],[-45.8431,-15.4251],[-45.8602,-15.4184],[-45.9009,-15.4226],[-45.9208,-15.4114],[-45.9349,-15.383],[-45.9566,-15.3714],[-45.9644,-15.384],[-45.9862,-15.3824],[-46.0003,-15.3654],[-46.0221,-15.3668],[-46.0329,-15.4062],[-46.063,-15.4224],[-46.0976,-15.419],[-46.1123,-15.4026],[-46.1464,-15.4136],[-46.1573,-15.4044],[-46.1947,-15.4066],[-46.2027,-15.4416],[-46.2199,-15.4168],[-46.2469,-15.409],[-46.2568,-15.3913],[-46.262,-15.4037],[-46.2877,-15.4122],[-46.3027,-15.3919],[-46.2996,-15.3564],[-46.3148,-15.342],[-46.3251,-15.3104],[-46.3685,-15.2809],[-46.3607,-15.2664],[-46.3736,-15.2622],[-46.417,-15.2129],[-46.4102,-15.1748],[-46.4377,-15.131],[-46.4199,-15.1235],[-46.4221,-15.0976],[-46.4535,-15.0727],[-46.4758,-15.0732],[-46.5027,-15.0508],[-46.5206,-15.0137],[-46.5308,-15.0052],[-46.521,-14.9673],[-46.5408,-14.9516],[-46.5465,-14.9254],[-46.5215,-14.8511],[-46.5319,-14.8302],[-46.5604,-14.815],[-46.5638,-14.7833],[-46.5432,-14.7686],[-46.5441,-14.753],[-46.5102,-14.7382],[-46.5034,-14.704],[-46.4677,-14.7094],[-46.464,-14.7297],[-46.4473,-14.7316],[-46.4238,-14.7559],[-46.4045,-14.7603],[-46.3657,-14.7954],[-46.355,-14.7942],[-46.3221,-14.8145],[-46.3249,-14.8477],[-46.3004,-14.858],[-46.3181,-14.8832],[-46.3193,-14.9004],[-46.2938,-14.9101],[-46.2868,-14.9281],[-46.26,-14.93],[-46.2322,-14.9222],[-46.2244,-14.9417],[-46.1999,-14.9384],[-46.1767,-14.9494],[-46.1615,-14.931],[-46.1664,-14.9084],[-46.1387,-14.9284],[-46.119,-14.9205],[-46.1103,-14.937],[-46.0881,-14.9363],[-46.0793,-14.9048],[-46.0673,-14.9097],[-46.0485,-14.8782],[-46.0375,-14.8746]]]}},{"type":"Feature","properties":{"codarea":"3126703","centroide":[-43.47870217676048,-16.393976828295713],"codigo_ibge":3126703,"nome_ig":"Norte de Minas"},"geometry":{"type":"Polygon","coordinates":[[[-43.2602,-16.121],[-43.2536,-16.1419],[-43.1918,-16.1878],[-43.1524,-16.21],[-43.1325,-16.2322],[-43.1351,-16.2523],[-43.1573,-16.2891],[-43.153,-16.3066],[-43.161,-16.3226],[-43.1645,-16.3586],[-43.1931,-16.3896],[-43.2131,-16.3838],[-43.2608,-16.403],[-43.2712,-16.4167],[-43.3151,-16.4198],[-43.3237,-16.4296],[-43.3533,-16.4285],[-43.3634,-16.416],[-43.3882,-16.4134],[-43.4171,-16.492],[-43.4087,-16.5171],[-43.4363,-16.5531],[-43.4319,-16.581],[-43.446,-16.6275],[-43.4698,-16.6736],[-43.4679,-16.6974],[-43.4889,-16.7221],[-43.4946,-16.7417],[-43.4752,-16.7821],[-43.4872,-16.8146],[-43.5053,-16.8092],[-43.5426,-16.7485],[-43.5631,-16.7305],[-43.5927,-16.7274],[-43.6231,-16.7106],[-43.6678,-16.7251],[-43.6898,-16.7105],[-43.7071,-16.6865],[-43.7028,-16.6661],[-43.7223,-16.6432],[-43.7202,-16.6331],[-43.7402,-16.6096],[-43.7406,-16.5879],[-43.7515,-16.5687],[-43.741,-16.5418],[-43.7617,-16.5331],[-43.7517,-16.5188],[-43.7585,-16.5012],[-43.7354,-16.489],[-43.7414,-16.4462],[-43.7394,-16.4166],[-43.7467,-16.4052],[-43.7195,-16.4154],[-43.6962,-16.4164],[-43.676,-16.4045],[-43.6734,-16.2967],[-43.5377,-16.142],[-43.5375,-16.1205],[-43.5215,-16.0992],[-43.5275,-16.0867],[-43.4948,-16.0971],[-43.4514,-16.0873],[-43.4389,-16.0723],[-43.426,-16.0852],[-43.3893,-16.0999],[-43.3723,-16.1214],[-43.3481,-16.1238],[-43.33,-16.1159],[-43.2941,-16.1273],[-43.2691,-16.1154],[-43.2602,-16.121]]]}},{"type":"Feature","properties":{"codarea":"3127339","centroide":[-43.25924317734454,-14.971174739230449],"codigo_ibge":3127339,"nome_ig":"Norte de Minas"},"geometry":{"type":"Polygon","coordinates":[[[-42.9839,-14.9399],[-42.9983,-14.9526],[-43.0132,-14.9871],[-43.0353,-15.0044],[-43.0218,-15.0127],[-43.0298,-15.0528],[-43.0091,-15.0677],[-43.0204,-15.0974],[-43.0395,-15.118],[-43.0451,-15.1292],[-43.0362,-15.1559],[-43.0437,-15.1697],[-43.0874,-15.1859],[-43.1159,-15.1745],[-43.1288,-15.178],[-43.1658,-15.1459],[-43.2262,-15.1582],[-43.2695,-15.1502],[-43.2726,-15.1256],[-43.2938,-15.1171],[-43.2919,-15.0906],[-43.3118,-15.0836],[-43.3249,-15.0661],[-43.3544,-15.0515],[-43.3498,-15.0662],[-43.3643,-15.0775],[-43.3689,-15.0605],[-43.4189,-15.0678],[-43.4389,-15.075],[-43.4747,-15.0725],[-43.4882,-15.0552],[-43.4867,-15.0409],[-43.5081,-15.0252],[-43.5037,-14.9866],[-43.5252,-14.9773],[-43.5395,-14.9614],[-43.5169,-14.9362],[-43.4978,-14.94],[-43.508,-14.8899],[-43.4953,-14.882],[-43.5083,-14.8492],[-43.531,-14.8154],[-43.5307,-14.8155],[-43.5111,-14.7965],[-43.4869,-14.7902],[-43.4817,-14.8013],[-43.3816,-14.7803],[-43.3482,-14.7987],[-43.2858,-14.7936],[-43.2479,-14.8058],[-43.2225,-14.8368],[-43.1963,-14.8518],[-43.0967,-14.8529],[-43.0788,-14.8738],[-43.0419,-14.8903],[-43.0362,-14.9089],[-43.0029,-14.9101],[-42.9839,-14.9399]]]}},{"type":"Feature","properties":{"codarea":"3127354","centroide":[-43.638922219914704,-16.903871745751132],"codigo_ibge":3127354,"nome_ig":"Norte de Minas"},"geometry":{"type":"Polygon","coordinates":[[[-43.6204,-16.9893],[-43.6454,-16.9734],[-43.6506,-16.9588],[-43.6858,-16.9273],[-43.6786,-16.9142],[-43.6841,-16.879],[-43.7014,-16.8509],[-43.69,-16.838],[-43.6998,-16.8276],[-43.6744,-16.8087],[-43.6524,-16.8256],[-43.6327,-16.8281],[-43.6257,-16.8515],[-43.6275,-16.8856],[-43.6055,-16.8933],[-43.5739,-16.9213],[-43.5675,-16.9447],[-43.5744,-16.9601],[-43.5915,-16.9631],[-43.601,-16.9813],[-43.6204,-16.9893]]]}},{"type":"Feature","properties":{"codarea":"3128253","centroide":[-43.61930246712081,-17.07878161011428],"codigo_ibge":3128253,"nome_ig":"Norte de Minas"},"geometry":{"type":"Polygon","coordinates":[[[-43.6204,-16.9893],[-43.6093,-16.9937],[-43.566,-16.9637],[-43.5539,-17.0071],[-43.5665,-17.0281],[-43.5622,-17.0499],[-43.5675,-17.0711],[-43.5318,-17.1293],[-43.4886,-17.1777],[-43.5342,-17.2045],[-43.5369,-17.1898],[-43.5639,-17.18],[-43.5689,-17.1943],[-43.6009,-17.1967],[-43.6246,-17.172],[-43.6681,-17.1705],[-43.6822,-17.1438],[-43.6767,-17.1396],[-43.6846,-17.1051],[-43.7191,-17.0832],[-43.7072,-17.067],[-43.7093,-17.0241],[-43.7016,-16.999],[-43.6982,-16.9449],[-43.6858,-16.9273],[-43.6506,-16.9588],[-43.6454,-16.9734],[-43.6204,-16.9893]]]}},{"type":"Feature","properties":{"codarea":"3129608","centroide":[-44.79055573664841,-16.82875785054761],"codigo_ibge":3129608,"nome_ig":"Norte de Minas"},"geometry":{"type":"Polygon","coordinates":[[[-44.6082,-16.8806],[-44.6252,-16.8995],[-44.6634,-16.9247],[-44.6857,-16.9286],[-44.7334,-16.9537],[-44.74,-16.9634],[-44.7914,-16.9751],[-44.8409,-16.9918],[-44.8665,-16.9776],[-44.8767,-16.9605],[-44.8751,-16.9276],[-44.8889,-16.9139],[-44.913,-16.9138],[-44.9213,-16.8816],[-44.919,-16.8484],[-44.9339,-16.8063],[-45.0108,-16.7642],[-45.0202,-16.754],[-44.9928,-16.749],[-44.9703,-16.7533],[-44.9579,-16.7331],[-44.9412,-16.7413],[-44.9376,-16.7243],[-44.9161,-16.7311],[-44.8889,-16.722],[-44.8753,-16.7033],[-44.8538,-16.6983],[-44.8424,-16.7011],[-44.7973,-16.687],[-44.7763,-16.7077],[-44.8029,-16.7137],[-44.7931,-16.7372],[-44.7545,-16.7127],[-44.7068,-16.6747],[-44.6748,-16.6795],[-44.6811,-16.7225],[-44.6733,-16.7404],[-44.687,-16.7779],[-44.6852,-16.7987],[-44.6636,-16.7853],[-44.6246,-16.7771],[-44.6237,-16.8033],[-44.6133,-16.8139],[-44.6285,-16.835],[-44.6194,-16.87],[-44.6082,-16.8806]]]}},{"type":"Feature","properties":{"codarea":"3129657","centroide":[-44.144977537184275,-15.698010309961694],"codigo_ibge":3129657,"nome_ig":"Norte de Minas"},"geometry":{"type":"Polygon","coordinates":[[[-44.0298,-15.4873],[-44.0479,-15.4948],[-44.0581,-15.5182],[-44.0561,-15.5359],[-44.0657,-15.5827],[-44.0546,-15.5969],[-44.0799,-15.6528],[-44.0762,-15.6671],[-44.0899,-15.6849],[-44.0756,-15.7103],[-44.0822,-15.723],[-44.0594,-15.7297],[-44.0625,-15.7712],[-44.0919,-15.7743],[-44.137,-15.7623],[-44.1237,-15.7807],[-44.1559,-15.8066],[-44.2029,-15.8285],[-44.2153,-15.8208],[-44.2375,-15.7706],[-44.2543,-15.7665],[-44.2779,-15.7438],[-44.2745,-15.7335],[-44.25,-15.7289],[-44.2354,-15.7008],[-44.2334,-15.6756],[-44.2042,-15.6868],[-44.1854,-15.6758],[-44.1955,-15.6684],[-44.1797,-15.6352],[-44.1667,-15.6476],[-44.1412,-15.6558],[-44.1225,-15.6728],[-44.1122,-15.599],[-44.0952,-15.5801],[-44.0935,-15.548],[-44.0709,-15.5113],[-44.0837,-15.5075],[-44.0703,-15.4833],[-44.0546,-15.4734],[-44.0298,-15.4873]]]}},{"type":"Feature","properties":{"codarea":"3130051","centroide":[-44.915675054422515,-16.22501075621992],"codigo_ibge":3130051,"nome_ig":"Norte de Minas"},"geometry":{"type":"Polygon","coordinates":[[[-44.6595,-16.1339],[-44.695,-16.1646],[-44.7197,-16.1789],[-44.7531,-16.1949],[-44.7756,-16.2164],[-44.7934,-16.2242],[-44.8722,-16.2885],[-44.884,-16.2904],[-44.9234,-16.3232],[-44.9458,-16.3327],[-44.9607,-16.3538],[-44.9854,-16.3545],[-44.9954,-16.3692],[-45.0292,-16.3738],[-45.0351,-16.3844],[-45.0565,-16.3645],[-45.0607,-16.2924],[-45.0465,-16.2428],[-45.0547,-16.1997],[-45.0701,-16.1762],[-45.0802,-16.1459],[-45.0795,-16.1216],[-45.0496,-16.1439],[-45.0142,-16.1494],[-45.0024,-16.1593],[-44.9761,-16.1629],[-44.9086,-16.1411],[-44.8801,-16.1413],[-44.8673,-16.1282],[-44.8284,-16.1422],[-44.8107,-16.1558],[-44.7913,-16.1504],[-44.7742,-16.1601],[-44.7459,-16.1346],[-44.7268,-16.1321],[-44.7035,-16.1119],[-44.6752,-16.0733],[-44.6595,-16.1339]]]}},{"type":"Feature","properties":{"codarea":"3132107","centroide":[-44.12491469954362,-15.176942173753059],"codigo_ibge":3132107,"nome_ig":"Norte de Minas"},"geometry":{"type":"Polygon","coordinates":[[[-44.0065,-14.9787],[-43.9973,-14.9767],[-44.0052,-15.003],[-44.0181,-15.0141],[-44.0142,-15.0525],[-44.0187,-15.0701],[-44.042,-15.1096],[-44.0352,-15.1266],[-44.0438,-15.1527],[-44.0673,-15.1906],[-44.0614,-15.2054],[-44.0425,-15.2172],[-44.0262,-15.2499],[-44.0096,-15.2612],[-43.9951,-15.2545],[-43.9593,-15.2903],[-43.93,-15.3075],[-43.9254,-15.3462],[-43.9375,-15.3671],[-43.9303,-15.4374],[-43.9426,-15.4544],[-43.9647,-15.4612],[-43.9723,-15.4783],[-44.0018,-15.5051],[-44.0136,-15.4865],[-44.0298,-15.4873],[-44.0409,-15.454],[-44.0739,-15.4379],[-44.1069,-15.4315],[-44.1318,-15.403],[-44.1456,-15.3734],[-44.1649,-15.3779],[-44.1274,-15.3185],[-44.1163,-15.2763],[-44.118,-15.2629],[-44.1357,-15.2597],[-44.1295,-15.2357],[-44.1055,-15.2104],[-44.1004,-15.1771],[-44.1034,-15.1566],[-44.1219,-15.197],[-44.1694,-15.1745],[-44.2096,-15.1753],[-44.2238,-15.1693],[-44.2417,-15.136],[-44.2407,-15.1129],[-44.2311,-15.1001],[-44.2488,-15.0862],[-44.2762,-15.0877],[-44.2946,-15.0767],[-44.3273,-15.0397],[-44.3491,-14.9924],[-44.3629,-14.9793],[-44.4102,-14.9715],[-44.4678,-14.9804],[-44.4871,-14.9643],[-44.4836,-14.907],[-44.4533,-14.9261],[-44.3813,-14.9347],[-44.3668,-14.9491],[-44.3542,-14.9353],[-44.3311,-14.9498],[-44.3303,-14.9595],[-44.2986,-14.9739],[-44.2811,-14.9919],[-44.2663,-14.9947],[-44.2582,-14.9773],[-44.2291,-14.9839],[-44.2112,-14.9683],[-44.1878,-14.9729],[-44.1385,-14.9664],[-44.1189,-14.9719],[-44.1054,-14.9627],[-44.0626,-14.9908],[-44.0065,-14.9787]]]}},{"type":"Feature","properties":{"codarea":"3135050","centroide":[-43.67461467236448,-15.233297116941516],"codigo_ibge":3135050,"nome_ig":"Norte de Minas"},"geometry":{"type":"Polygon","coordinates":[[[-43.5252,-14.9773],[-43.5037,-14.9866],[-43.5081,-15.0252],[-43.4867,-15.0409],[-43.4882,-15.0552],[-43.4747,-15.0725],[-43.4389,-15.075],[-43.4189,-15.0678],[-43.3689,-15.0605],[-43.3643,-15.0775],[-43.3498,-15.0662],[-43.3544,-15.0515],[-43.3249,-15.0661],[-43.3118,-15.0836],[-43.3305,-15.1063],[-43.3204,-15.1268],[-43.332,-15.1407],[-43.3117,-15.1652],[-43.3186,-15.1958],[-43.3094,-15.236],[-43.3233,-15.2602],[-43.3105,-15.2931],[-43.3115,-15.3271],[-43.4425,-15.3589],[-43.6718,-15.4142],[-43.6634,-15.4027],[-43.6495,-15.4081],[-43.6609,-15.3772],[-43.6861,-15.3824],[-43.6795,-15.355],[-43.7031,-15.3633],[-43.7008,-15.374],[-43.7261,-15.3842],[-43.734,-15.3779],[-43.7627,-15.4139],[-43.8037,-15.4146],[-43.8305,-15.4356],[-43.8632,-15.4442],[-43.8753,-15.4648],[-43.899,-15.479],[-43.9091,-15.4947],[-43.9201,-15.5156],[-43.9488,-15.5285],[-43.9738,-15.5307],[-44.0018,-15.5051],[-43.9723,-15.4783],[-43.9647,-15.4612],[-43.9426,-15.4544],[-43.9303,-15.4374],[-43.9375,-15.3671],[-43.9254,-15.3462],[-43.93,-15.3075],[-43.9593,-15.2903],[-43.9951,-15.2545],[-44.0096,-15.2612],[-44.0262,-15.2499],[-44.0425,-15.2172],[-44.0614,-15.2054],[-44.0673,-15.1906],[-44.0438,-15.1527],[-44.0352,-15.1266],[-44.042,-15.1096],[-44.0187,-15.0701],[-43.9994,-15.0705],[-43.7899,-15.1122],[-43.6597,-15.1132],[-43.6397,-15.1005],[-43.6134,-15.0942],[-43.6264,-15.0746],[-43.6408,-15.0708],[-43.6199,-15.0413],[-43.5842,-15.0508],[-43.5861,-15.0242],[-43.5634,-15.0411],[-43.5553,-15.0315],[-43.5762,-15.0233],[-43.5845,-15.008],[-43.5673,-15.0035],[-43.5591,-15.0164],[-43.5367,-15.0231],[-43.539,-15.0036],[-43.5703,-14.9765],[-43.5469,-14.968],[-43.528,-14.9889],[-43.5252,-14.9773]]]}},{"type":"Feature","properties":{"codarea":"3135100","centroide":[-43.396583310271645,-15.79901571296744],"codigo_ibge":3135100,"nome_ig":"Norte de Minas"},"geometry":{"type":"Polygon","coordinates":[[[-43.2772,-15.606],[-43.2752,-15.622],[-43.2999,-15.6516],[-43.2962,-15.6621],[-43.3061,-15.701],[-43.2926,-15.7278],[-43.3066,-15.7413],[-43.317,-15.7806],[-43.301,-15.7986],[-43.2907,-15.8286],[-43.2623,-15.8284],[-43.2406,-15.8178],[-43.2303,-15.8319],[-43.2161,-15.8296],[-43.2252,-15.8534],[-43.2044,-15.8744],[-43.2141,-15.9304],[-43.2262,-15.9345],[-43.215,-15.9773],[-43.2191,-16.01],[-43.2309,-16.0419],[-43.2309,-16.042],[-43.231,-16.0526],[-43.2702,-16.0831],[-43.2602,-16.121],[-43.2691,-16.1154],[-43.2941,-16.1273],[-43.33,-16.1159],[-43.3481,-16.1238],[-43.3723,-16.1214],[-43.3893,-16.0999],[-43.426,-16.0852],[-43.4389,-16.0723],[-43.4514,-16.0873],[-43.4948,-16.0971],[-43.5275,-16.0867],[-43.5441,-16.047],[-43.5362,-16.016],[-43.5635,-15.996],[-43.5601,-15.9755],[-43.5396,-15.9527],[-43.5565,-15.9102],[-43.5702,-15.9081],[-43.5827,-15.8772],[-43.6188,-15.8548],[-43.6164,-15.8091],[-43.6307,-15.8056],[-43.6202,-15.7853],[-43.6184,-15.765],[-43.5943,-15.754],[-43.5855,-15.7348],[-43.6026,-15.7205],[-43.5085,-15.6624],[-43.5003,-15.6486],[-43.3931,-15.5306],[-43.3879,-15.4994],[-43.3717,-15.4904],[-43.3631,-15.4669],[-43.3818,-15.4472],[-43.3802,-15.4186],[-43.401,-15.3896],[-43.4317,-15.3795],[-43.4425,-15.3589],[-43.3115,-15.3271],[-43.3131,-15.3429],[-43.2972,-15.367],[-43.2896,-15.3938],[-43.2944,-15.4131],[-43.2786,-15.4189],[-43.279,-15.4398],[-43.2543,-15.4786],[-43.2565,-15.5062],[-43.2717,-15.5105],[-43.2832,-15.5459],[-43.2765,-15.5496],[-43.2772,-15.606]]]}},{"type":"Feature","properties":{"codarea":"3135209","centroide":[-44.849877486069765,-15.31980935965494],"codigo_ibge":3135209,"nome_ig":"Norte de Minas"},"geometry":{"type":"Polygon","coordinates":[[[-45.3056,-14.8336],[-45.2835,-14.8625],[-45.2384,-14.877],[-45.2163,-14.9086],[-45.1855,-14.9825],[-45.1545,-15.0121],[-45.0731,-15.0749],[-45.0417,-15.0813],[-45.032,-15.1157],[-44.998,-15.1625],[-44.9959,-15.1749],[-44.9752,-15.1986],[-44.9858,-15.2129],[-45.0063,-15.26],[-45.0236,-15.2734],[-44.9954,-15.2966],[-44.993,-15.3298],[-44.9835,-15.3454],[-44.9637,-15.3515],[-44.9189,-15.3845],[-44.8812,-15.3968],[-44.8547,-15.4146],[-44.8309,-15.4406],[-44.7842,-15.4542],[-44.7618,-15.4857],[-44.7093,-15.4568],[-44.6957,-15.4542],[-44.6929,-15.4383],[-44.6588,-15.3964],[-44.6469,-15.3616],[-44.6269,-15.3395],[-44.5913,-15.323],[-44.5485,-15.3129],[-44.5296,-15.2874],[-44.5048,-15.2926],[-44.5015,-15.3246],[-44.4771,-15.3466],[-44.4571,-15.3553],[-44.4495,-15.3716],[-44.3647,-15.4615],[-44.3362,-15.4362],[-44.3433,-15.4129],[-44.3678,-15.3993],[-44.3626,-15.3019],[-44.3778,-15.3001],[-44.4036,-15.2524],[-44.4356,-15.2203],[-44.456,-15.2203],[-44.4509,-15.2428],[-44.4687,-15.269],[-44.4885,-15.2712],[-44.552,-15.1885],[-44.5608,-15.1701],[-44.5581,-15.1507],[-44.5777,-15.1299],[-44.5648,-15.1085],[-44.579,-15.0938],[-44.573,-15.0706],[-44.546,-15.0338],[-44.5446,-15.0105],[-44.5242,-14.9972],[-44.5205,-14.9765],[-44.4929,-14.9599],[-44.4871,-14.9643],[-44.4678,-14.9804],[-44.4102,-14.9715],[-44.3629,-14.9793],[-44.3491,-14.9924],[-44.3273,-15.0397],[-44.2946,-15.0767],[-44.2762,-15.0877],[-44.2488,-15.0862],[-44.2311,-15.1001],[-44.2407,-15.1129],[-44.2417,-15.136],[-44.2238,-15.1693],[-44.2096,-15.1753],[-44.1694,-15.1745],[-44.1219,-15.197],[-44.1034,-15.1566],[-44.1004,-15.1771],[-44.1055,-15.2104],[-44.1295,-15.2357],[-44.1357,-15.2597],[-44.1535,-15.2981],[-44.1496,-15.3203],[-44.1674,-15.3463],[-44.1806,-15.3899],[-44.1924,-15.3978],[-44.2341,-15.4006],[-44.2652,-15.4328],[-44.2679,-15.449],[-44.2934,-15.4755],[-44.3453,-15.4834],[-44.3731,-15.5173],[-44.3705,-15.5562],[-44.3892,-15.5931],[-44.4253,-15.6054],[-44.4539,-15.6229],[-44.4717,-15.6263],[-44.5326,-15.6889],[-44.5616,-15.7038],[-44.5834,-15.7035],[-44.609,-15.7262],[-44.6429,-15.7431],[-44.6579,-15.7654],[-44.6833,-15.7758],[-44.7198,-15.7769],[-44.7823,-15.8086],[-44.7974,-15.7724],[-44.8361,-15.7418],[-44.8635,-15.7302],[-44.8814,-15.7115],[-44.8804,-15.6975],[-44.9033,-15.6871],[-44.9145,-15.6666],[-44.9264,-15.6642],[-44.9509,-15.6422],[-44.9616,-15.6204],[-44.9831,-15.6093],[-44.9811,-15.5902],[-44.998,-15.5898],[-45.0118,-15.5621],[-45.0486,-15.554],[-45.0941,-15.5867],[-45.1161,-15.5714],[-45.1275,-15.5759],[-45.1557,-15.5568],[-45.1815,-15.557],[-45.1952,-15.5381],[-45.2314,-15.5106],[-45.239,-15.4852],[-45.2364,-15.4651],[-45.2551,-15.4146],[-45.2569,-15.3756],[-45.2768,-15.3555],[-45.3086,-15.3515],[-45.3206,-15.3379],[-45.3462,-15.3371],[-45.3516,-15.3492],[-45.3842,-15.3266],[-45.4345,-15.3174],[-45.4493,-15.2801],[-45.4658,-15.2719],[-45.4685,-15.2457],[-45.4555,-15.2307],[-45.47,-15.2157],[-45.4437,-15.1928],[-45.4388,-15.163],[-45.4198,-15.1538],[-45.4319,-15.134],[-45.468,-15.1167],[-45.4903,-15.0981],[-45.5096,-15.0489],[-45.5325,-15.0342],[-45.5724,-15.0265],[-45.5873,-15.0344],[-45.6185,-15.0241],[-45.6169,-15.0141],[-45.5934,-14.9755],[-45.5666,-14.9555],[-45.5667,-14.9448],[-45.5361,-14.9381],[-45.5206,-14.9535],[-45.4984,-14.9463],[-45.49,-14.9607],[-45.471,-14.9503],[-45.4579,-14.9547],[-45.4352,-14.9226],[-45.4102,-14.9234],[-45.3689,-14.8904],[-45.3622,-14.8707],[-45.318,-14.8525],[-45.3056,-14.8336]]]}},{"type":"Feature","properties":{"codarea":"3135357","centroide":[-44.32999912389525,-15.944572322174656],"codigo_ibge":3135357,"nome_ig":"Norte de Minas"},"geometry":{"type":"Polygon","coordinates":[[[-44.3442,-15.8238],[-44.3768,-15.8329],[-44.3567,-15.8511],[-44.3607,-15.8998],[-44.3368,-15.9198],[-44.333,-15.9365],[-44.3172,-15.9249],[-44.2992,-15.9305],[-44.2574,-15.9209],[-44.2343,-15.9011],[-44.2016,-15.9382],[-44.222,-15.9504],[-44.2356,-15.9804],[-44.2299,-15.9979],[-44.2091,-16.0183],[-44.2192,-16.0713],[-44.226,-16.0817],[-44.2521,-16.0612],[-44.2743,-16.0619],[-44.3207,-16.0342],[-44.3477,-16.0028],[-44.3711,-15.995],[-44.4054,-16.0078],[-44.4228,-15.9994],[-44.4301,-15.9731],[-44.4354,-15.9561],[-44.4115,-15.9282],[-44.4227,-15.9079],[-44.4114,-15.893],[-44.415,-15.8668],[-44.4385,-15.851],[-44.4394,-15.8255],[-44.4272,-15.8054],[-44.4012,-15.7904],[-44.3689,-15.7851],[-44.3447,-15.8101],[-44.3442,-15.8238]]]}},{"type":"Feature","properties":{"codarea":"3135605","centroide":[-44.4753371450049,-17.20943617219137],"codigo_ibge":3135605,"nome_ig":"Norte de Minas"},"geometry":{"type":"Polygon","coordinates":[[[-44.3323,-16.9458],[-44.3046,-16.9625],[-44.2758,-16.9954],[-44.2909,-17.0047],[-44.3057,-17.0312],[-44.3325,-17.0448],[-44.3505,-17.1098],[-44.3238,-17.1173],[-44.3225,-17.1373],[-44.2837,-17.1461],[-44.2697,-17.1571],[-44.2708,-17.1764],[-44.306,-17.197],[-44.306,-17.2115],[-44.3245,-17.2257],[-44.329,-17.2495],[-44.3571,-17.2576],[-44.3471,-17.2781],[-44.3593,-17.2804],[-44.3732,-17.3021],[-44.405,-17.3071],[-44.4066,-17.3312],[-44.4223,-17.3585],[-44.4166,-17.4406],[-44.4337,-17.4558],[-44.4715,-17.4507],[-44.5048,-17.4243],[-44.514,-17.4039],[-44.5349,-17.4128],[-44.5537,-17.399],[-44.5516,-17.3778],[-44.5763,-17.3612],[-44.5868,-17.3945],[-44.603,-17.3877],[-44.6251,-17.3649],[-44.6141,-17.328],[-44.6309,-17.2936],[-44.6533,-17.2828],[-44.6728,-17.2502],[-44.67,-17.239],[-44.6878,-17.2204],[-44.6722,-17.1967],[-44.6789,-17.1816],[-44.6496,-17.1681],[-44.6176,-17.1287],[-44.6187,-17.1205],[-44.5956,-17.0874],[-44.5738,-17.0764],[-44.562,-17.0685],[-44.5285,-17.0679],[-44.4614,-17.0733],[-44.4068,-17.0396],[-44.4067,-17.0277],[-44.3536,-16.9573],[-44.3323,-16.9458]]]}},{"type":"Feature","properties":{"codarea":"3136801","centroide":[-43.564654326796685,-16.83908794980633],"codigo_ibge":3136801,"nome_ig":"Norte de Minas"},"geometry":{"type":"Polygon","coordinates":[[[-43.4872,-16.8146],[-43.4632,-16.8336],[-43.4551,-16.8727],[-43.4419,-16.8832],[-43.4644,-16.902],[-43.468,-16.9186],[-43.4377,-16.9285],[-43.4336,-16.9523],[-43.4719,-16.9519],[-43.4977,-16.9601],[-43.5107,-16.9564],[-43.5367,-16.9664],[-43.545,-16.9507],[-43.566,-16.9637],[-43.6093,-16.9937],[-43.6204,-16.9893],[-43.601,-16.9813],[-43.5915,-16.9631],[-43.5744,-16.9601],[-43.5675,-16.9447],[-43.5739,-16.9213],[-43.6055,-16.8933],[-43.6275,-16.8856],[-43.6257,-16.8515],[-43.6327,-16.8281],[-43.6524,-16.8256],[-43.6744,-16.8087],[-43.6978,-16.7747],[-43.6925,-16.7426],[-43.6678,-16.7251],[-43.6231,-16.7106],[-43.5927,-16.7274],[-43.5631,-16.7305],[-43.5426,-16.7485],[-43.5053,-16.8092],[-43.4872,-16.8146]]]}},{"type":"Feature","properties":{"codarea":"3136959","centroide":[-44.08392195369373,-14.384881963738987],"codigo_ibge":3136959,"nome_ig":"Norte de Minas"},"geometry":{"type":"Polygon","coordinates":[[[-44.0456,-14.2837],[-44.0325,-14.2881],[-44.0061,-14.2673],[-43.9695,-14.274],[-43.9619,-14.291],[-43.9462,-14.2899],[-43.9115,-14.305],[-43.9022,-14.2981],[-43.8809,-14.3118],[-43.8547,-14.3081],[-43.8478,-14.3212],[-43.8355,-14.3111],[-43.7831,-14.3392],[-43.8184,-14.3876],[-43.866,-14.4042],[-43.8977,-14.4632],[-43.9015,-14.4925],[-43.9321,-14.5236],[-43.9415,-14.519],[-44.0114,-14.5357],[-44.0254,-14.4998],[-44.058,-14.3752],[-44.082,-14.3617],[-44.1254,-14.3713],[-44.1456,-14.4052],[-44.1616,-14.4103],[-44.1894,-14.4057],[-44.1904,-14.4194],[-44.2108,-14.428],[-44.2159,-14.4435],[-44.1956,-14.4612],[-44.2138,-14.5025],[-44.2353,-14.516],[-44.2514,-14.5395],[-44.2579,-14.5648],[-44.2737,-14.5631],[-44.2831,-14.5489],[-44.3017,-14.5429],[-44.3205,-14.5484],[-44.3373,-14.5105],[-44.3168,-14.4839],[-44.3117,-14.4536],[-44.3261,-14.4156],[-44.3244,-14.3847],[-44.2934,-14.3571],[-44.2639,-14.3233],[-44.2491,-14.3244],[-44.2335,-14.3101],[-44.2959,-14.2531],[-44.272,-14.2466],[-44.2462,-14.2515],[-44.2406,-14.2406],[-44.218,-14.2449],[-44.2168,-14.2333],[-44.2012,-14.2544],[-44.165,-14.2688],[-44.16,-14.2576],[-44.1372,-14.2641],[-44.1323,-14.282],[-44.1072,-14.2591],[-44.0968,-14.2739],[-44.0824,-14.2689],[-44.073,-14.2812],[-44.0456,-14.2837]]]}},{"type":"Feature","properties":{"codarea":"3137304","centroide":[-44.64774037968176,-17.007314065195022],"codigo_ibge":3137304,"nome_ig":"Norte de Minas"},"geometry":{"type":"Polygon","coordinates":[[[-44.5666,-16.8582],[-44.5133,-16.9347],[-44.5061,-16.9636],[-44.4802,-16.993],[-44.5366,-17.0331],[-44.5696,-17.0464],[-44.5738,-17.0764],[-44.5956,-17.0874],[-44.6187,-17.1205],[-44.6176,-17.1287],[-44.6496,-17.1681],[-44.6506,-17.1487],[-44.6864,-17.1511],[-44.6875,-17.1188],[-44.6985,-17.1343],[-44.7096,-17.119],[-44.7114,-17.0874],[-44.7384,-17.0772],[-44.7395,-17.0925],[-44.7572,-17.1118],[-44.7581,-17.0675],[-44.7773,-17.0535],[-44.7826,-17.067],[-44.8061,-17.0513],[-44.8037,-17.0253],[-44.8409,-16.9918],[-44.7914,-16.9751],[-44.74,-16.9634],[-44.7334,-16.9537],[-44.6857,-16.9286],[-44.6634,-16.9247],[-44.6252,-16.8995],[-44.6082,-16.8806],[-44.5666,-16.8582]]]}},{"type":"Feature","properties":{"codarea":"3138658","centroide":[-44.26819889749675,-15.857414375843621],"codigo_ibge":3138658,"nome_ig":"Norte de Minas"},"geometry":{"type":"Polygon","coordinates":[[[-44.2779,-15.7438],[-44.2543,-15.7665],[-44.2375,-15.7706],[-44.2153,-15.8208],[-44.2029,-15.8285],[-44.1864,-15.8428],[-44.1709,-15.8795],[-44.1698,-15.9023],[-44.2016,-15.9382],[-44.2343,-15.9011],[-44.2574,-15.9209],[-44.2992,-15.9305],[-44.3172,-15.9249],[-44.333,-15.9365],[-44.3368,-15.9198],[-44.3607,-15.8998],[-44.3567,-15.8511],[-44.3768,-15.8329],[-44.3442,-15.8238],[-44.3284,-15.8209],[-44.3037,-15.8436],[-44.2913,-15.8329],[-44.2948,-15.8047],[-44.3124,-15.7736],[-44.2947,-15.7669],[-44.2779,-15.7438]]]}},{"type":"Feature","properties":{"codarea":"3138682","centroide":[-44.59625817316698,-16.19584947724769],"codigo_ibge":3138682,"nome_ig":"Norte de Minas"},"geometry":{"type":"Polygon","coordinates":[[[-44.4977,-16.058],[-44.4858,-16.1286],[-44.4927,-16.1532],[-44.5127,-16.1629],[-44.5274,-16.1565],[-44.5457,-16.1736],[-44.5329,-16.2206],[-44.5139,-16.261],[-44.5338,-16.2787],[-44.5521,-16.2776],[-44.5722,-16.2969],[-44.5981,-16.3034],[-44.6165,-16.3259],[-44.6665,-16.3364],[-44.6758,-16.3145],[-44.6774,-16.2455],[-44.6704,-16.2087],[-44.6781,-16.1972],[-44.7043,-16.1906],[-44.7197,-16.1789],[-44.695,-16.1646],[-44.6595,-16.1339],[-44.6237,-16.107],[-44.6085,-16.103],[-44.5838,-16.0829],[-44.5602,-16.0752],[-44.5439,-16.0801],[-44.5092,-16.0713],[-44.4977,-16.058]]]}},{"type":"Feature","properties":{"codarea":"3139250","centroide":[-42.95381174625454,-15.013230886097029],"codigo_ibge":3139250,"nome_ig":"Norte de Minas"},"geometry":{"type":"Polygon","coordinates":[[[-42.9036,-15.0399],[-42.9278,-15.0555],[-42.9415,-15.0741],[-42.9433,-15.1044],[-42.9352,-15.1137],[-42.9605,-15.1305],[-42.9882,-15.1353],[-43.0395,-15.118],[-43.0204,-15.0974],[-43.0091,-15.0677],[-43.0298,-15.0528],[-43.0218,-15.0127],[-43.0353,-15.0044],[-43.0132,-14.9871],[-42.9983,-14.9526],[-42.9839,-14.9399],[-42.9544,-14.9335],[-42.9245,-14.897],[-42.8987,-14.8929],[-42.9013,-14.9159],[-42.8782,-14.9218],[-42.8576,-14.9528],[-42.8631,-14.9715],[-42.8814,-14.983],[-42.8901,-15.017],[-42.9036,-15.0399]]]}},{"type":"Feature","properties":{"codarea":"3139300","centroide":[-44.0925077287815,-14.648550678884872],"codigo_ibge":3139300,"nome_ig":"Norte de Minas"},"geometry":{"type":"Polygon","coordinates":[[[-43.8184,-14.3876],[-43.8319,-14.443],[-43.8702,-14.513],[-43.8811,-14.5624],[-43.8924,-14.5792],[-43.9174,-14.6566],[-43.9171,-14.7148],[-43.934,-14.7719],[-43.9196,-14.8234],[-43.9216,-14.8464],[-43.9544,-14.9157],[-43.9665,-14.9287],[-43.9834,-14.9665],[-43.9973,-14.9767],[-44.0065,-14.9787],[-44.0087,-14.9622],[-44.0558,-14.9487],[-44.0499,-14.9224],[-44.0652,-14.9145],[-44.0698,-14.8838],[-44.0864,-14.8787],[-44.1008,-14.8483],[-44.0937,-14.8269],[-44.1123,-14.8104],[-44.1297,-14.8072],[-44.171,-14.7748],[-44.1945,-14.7636],[-44.211,-14.7645],[-44.2352,-14.7875],[-44.2831,-14.8066],[-44.2955,-14.8199],[-44.3236,-14.8027],[-44.2902,-14.776],[-44.2992,-14.7364],[-44.2844,-14.7256],[-44.3006,-14.7239],[-44.3218,-14.7087],[-44.323,-14.6896],[-44.3414,-14.6799],[-44.3506,-14.6604],[-44.3375,-14.6459],[-44.3685,-14.6045],[-44.398,-14.593],[-44.3665,-14.5828],[-44.3412,-14.5653],[-44.3237,-14.5668],[-44.3205,-14.5484],[-44.3017,-14.5429],[-44.2831,-14.5489],[-44.2737,-14.5631],[-44.2579,-14.5648],[-44.2514,-14.5395],[-44.2353,-14.516],[-44.2138,-14.5025],[-44.1956,-14.4612],[-44.2159,-14.4435],[-44.2108,-14.428],[-44.1904,-14.4194],[-44.1894,-14.4057],[-44.1616,-14.4103],[-44.1456,-14.4052],[-44.1254,-14.3713],[-44.082,-14.3617],[-44.058,-14.3752],[-44.0254,-14.4998],[-44.0114,-14.5357],[-43.9415,-14.519],[-43.9321,-14.5236],[-43.9015,-14.4925],[-43.8977,-14.4632],[-43.866,-14.4042],[-43.8184,-14.3876]]]}},{"type":"Feature","properties":{"codarea":"3140852","centroide":[-43.76131091432254,-14.903537255306096],"codigo_ibge":3140852,"nome_ig":"Norte de Minas"},"geometry":{"type":"Polygon","coordinates":[[[-43.7121,-14.7152],[-43.7217,-14.7268],[-43.6959,-14.7239],[-43.6721,-14.7299],[-43.657,-14.7457],[-43.615,-14.7598],[-43.5862,-14.75],[-43.5737,-14.7651],[-43.5416,-14.7791],[-43.531,-14.8154],[-43.5083,-14.8492],[-43.4953,-14.882],[-43.508,-14.8899],[-43.4978,-14.94],[-43.5169,-14.9362],[-43.5395,-14.9614],[-43.5252,-14.9773],[-43.528,-14.9889],[-43.5469,-14.968],[-43.5703,-14.9765],[-43.539,-15.0036],[-43.5367,-15.0231],[-43.5591,-15.0164],[-43.5673,-15.0035],[-43.5845,-15.008],[-43.5762,-15.0233],[-43.5553,-15.0315],[-43.5634,-15.0411],[-43.5861,-15.0242],[-43.5842,-15.0508],[-43.6199,-15.0413],[-43.6408,-15.0708],[-43.6264,-15.0746],[-43.6134,-15.0942],[-43.6397,-15.1005],[-43.6597,-15.1132],[-43.7899,-15.1122],[-43.9994,-15.0705],[-44.0187,-15.0701],[-44.0142,-15.0525],[-44.0181,-15.0141],[-44.0052,-15.003],[-43.9973,-14.9767],[-43.9834,-14.9665],[-43.9665,-14.9287],[-43.9544,-14.9157],[-43.9216,-14.8464],[-43.9196,-14.8234],[-43.934,-14.7719],[-43.9171,-14.7148],[-43.9174,-14.6566],[-43.8924,-14.5792],[-43.8811,-14.5624],[-43.8872,-14.5851],[-43.8748,-14.5963],[-43.8708,-14.6208],[-43.8835,-14.6525],[-43.8592,-14.6742],[-43.8468,-14.6721],[-43.7988,-14.6874],[-43.7632,-14.6926],[-43.7555,-14.7008],[-43.7263,-14.6981],[-43.7121,-14.7152]]]}},{"type":"Feature","properties":{"codarea":"3141009","centroide":[-42.86391579560586,-15.42530665065326],"codigo_ibge":3141009,"nome_ig":"Norte de Minas"},"geometry":{"type":"Polygon","coordinates":[[[-42.755,-15.3984],[-42.7627,-15.4171],[-42.7467,-15.4347],[-42.744,-15.4639],[-42.7824,-15.4847],[-42.7909,-15.5196],[-42.7795,-15.5575],[-42.7831,-15.5784],[-42.804,-15.5897],[-42.8039,-15.6057],[-42.8112,-15.6097],[-42.8158,-15.5535],[-42.8358,-15.5348],[-42.882,-15.5225],[-42.9122,-15.4952],[-42.9172,-15.4757],[-42.9398,-15.4555],[-42.9511,-15.4339],[-42.9742,-15.4355],[-42.9834,-15.4183],[-43.0014,-15.4178],[-43.0198,-15.3997],[-43.0396,-15.4056],[-43.0345,-15.3611],[-43.0158,-15.3583],[-42.9875,-15.3887],[-42.9754,-15.3773],[-42.9396,-15.3915],[-42.9386,-15.368],[-42.9626,-15.327],[-42.934,-15.3265],[-42.9025,-15.3046],[-42.8866,-15.3226],[-42.8785,-15.3189],[-42.8317,-15.3234],[-42.7996,-15.3368],[-42.7922,-15.3571],[-42.7653,-15.368],[-42.755,-15.3984]]]}},{"type":"Feature","properties":{"codarea":"3142007","centroide":[-44.15816878962203,-16.259815239419837],"codigo_ibge":3142007,"nome_ig":"Norte de Minas"},"geometry":{"type":"Polygon","coordinates":[[[-43.9901,-16.1631],[-43.9926,-16.2085],[-43.9806,-16.2346],[-44.0492,-16.2995],[-44.0607,-16.3844],[-44.0499,-16.3933],[-44.0378,-16.4244],[-44.0504,-16.4248],[-44.0927,-16.3913],[-44.1044,-16.3733],[-44.1273,-16.3765],[-44.149,-16.3549],[-44.1618,-16.37],[-44.2109,-16.3905],[-44.2456,-16.3946],[-44.2506,-16.386],[-44.2828,-16.3909],[-44.2996,-16.3798],[-44.3093,-16.3613],[-44.291,-16.3267],[-44.2591,-16.2876],[-44.2544,-16.2528],[-44.2432,-16.2373],[-44.2513,-16.2249],[-44.2786,-16.2142],[-44.2976,-16.1805],[-44.2779,-16.1592],[-44.2717,-16.1325],[-44.2355,-16.0919],[-44.1843,-16.1194],[-44.1606,-16.1388],[-44.1235,-16.1462],[-44.1007,-16.191],[-44.0777,-16.1946],[-44.069,-16.2056],[-44.055,-16.2001],[-44.0448,-16.1718],[-44.0224,-16.1747],[-43.9901,-16.1631]]]}},{"type":"Feature","properties":{"codarea":"3142254","centroide":[-44.42210181004256,-14.752567922295938],"codigo_ibge":3142254,"nome_ig":"Norte de Minas"},"geometry":{"type":"Polygon","coordinates":[[[-44.2955,-14.8199],[-44.334,-14.8312],[-44.3506,-14.85],[-44.3804,-14.849],[-44.4836,-14.907],[-44.5098,-14.888],[-44.5298,-14.861],[-44.5198,-14.8439],[-44.5295,-14.8163],[-44.5455,-14.8097],[-44.5386,-14.7853],[-44.5272,-14.7779],[-44.5105,-14.7494],[-44.5258,-14.7448],[-44.5164,-14.7133],[-44.5282,-14.7033],[-44.5099,-14.677],[-44.5226,-14.6607],[-44.5137,-14.6485],[-44.4778,-14.6537],[-44.4663,-14.6343],[-44.4451,-14.6379],[-44.4113,-14.5972],[-44.398,-14.593],[-44.3685,-14.6045],[-44.3375,-14.6459],[-44.3506,-14.6604],[-44.3414,-14.6799],[-44.323,-14.6896],[-44.3218,-14.7087],[-44.3006,-14.7239],[-44.2844,-14.7256],[-44.2992,-14.7364],[-44.2902,-14.776],[-44.3236,-14.8027],[-44.2955,-14.8199]]]}},{"type":"Feature","properties":{"codarea":"3142700","centroide":[-44.50138193363527,-14.472769199660815],"codigo_ibge":3142700,"nome_ig":"Norte de Minas"},"geometry":{"type":"Polygon","coordinates":[[[-44.2959,-14.2531],[-44.2335,-14.3101],[-44.2491,-14.3244],[-44.2639,-14.3233],[-44.2934,-14.3571],[-44.3244,-14.3847],[-44.3261,-14.4156],[-44.3117,-14.4536],[-44.3168,-14.4839],[-44.3373,-14.5105],[-44.3205,-14.5484],[-44.3237,-14.5668],[-44.3412,-14.5653],[-44.3665,-14.5828],[-44.398,-14.593],[-44.4113,-14.5972],[-44.4451,-14.6379],[-44.4663,-14.6343],[-44.4778,-14.6537],[-44.5137,-14.6485],[-44.5226,-14.6607],[-44.5099,-14.677],[-44.5282,-14.7033],[-44.5446,-14.6955],[-44.5448,-14.6725],[-44.5573,-14.6641],[-44.5866,-14.6659],[-44.625,-14.6385],[-44.6356,-14.6226],[-44.6888,-14.6256],[-44.7408,-14.6251],[-44.7341,-14.5664],[-44.7503,-14.5368],[-44.7305,-14.5001],[-44.7413,-14.467],[-44.7128,-14.4439],[-44.7012,-14.4497],[-44.6865,-14.4167],[-44.6592,-14.4171],[-44.6588,-14.3957],[-44.6334,-14.3895],[-44.6107,-14.3654],[-44.5991,-14.3681],[-44.5661,-14.3413],[-44.5427,-14.3405],[-44.5405,-14.3317],[-44.5108,-14.3226],[-44.4882,-14.3286],[-44.4637,-14.3107],[-44.4388,-14.3028],[-44.4286,-14.2866],[-44.4117,-14.2815],[-44.3895,-14.2804],[-44.3554,-14.2691],[-44.3405,-14.2494],[-44.3164,-14.2403],[-44.2959,-14.2531]]]}},{"type":"Feature","properties":{"codarea":"3142908","centroide":[-42.968788518093056,-15.20634835212486],"codigo_ibge":3142908,"nome_ig":"Norte de Minas"},"geometry":{"type":"Polygon","coordinates":[[[-42.7778,-15.1598],[-42.786,-15.1824],[-42.8017,-15.1925],[-42.8108,-15.2406],[-42.7685,-15.309],[-42.7624,-15.3783],[-42.7555,-15.3971],[-42.755,-15.3984],[-42.7653,-15.368],[-42.7922,-15.3571],[-42.7996,-15.3368],[-42.8317,-15.3234],[-42.8785,-15.3189],[-42.8866,-15.3226],[-42.9025,-15.3046],[-42.934,-15.3265],[-42.9626,-15.327],[-42.9892,-15.3184],[-43.0222,-15.3312],[-43.0476,-15.3212],[-43.0685,-15.3033],[-43.0862,-15.2998],[-43.0784,-15.2862],[-43.0988,-15.2803],[-43.1048,-15.2675],[-43.1488,-15.2651],[-43.2073,-15.233],[-43.2327,-15.2546],[-43.2467,-15.2567],[-43.2493,-15.2372],[-43.2645,-15.2188],[-43.271,-15.1967],[-43.2601,-15.1883],[-43.2695,-15.1502],[-43.2262,-15.1582],[-43.1658,-15.1459],[-43.1288,-15.178],[-43.1159,-15.1745],[-43.0874,-15.1859],[-43.0437,-15.1697],[-43.0362,-15.1559],[-43.0451,-15.1292],[-43.0395,-15.118],[-42.9882,-15.1353],[-42.9605,-15.1305],[-42.9352,-15.1137],[-42.9433,-15.1044],[-42.9415,-15.0741],[-42.9278,-15.0555],[-42.9036,-15.0399],[-42.8262,-15.0373],[-42.8145,-15.0609],[-42.8176,-15.0771],[-42.8026,-15.0861],[-42.7949,-15.1112],[-42.7832,-15.1107],[-42.7859,-15.1331],[-42.7778,-15.1598]]]}},{"type":"Feature","properties":{"codarea":"3143302","centroide":[-43.929553022624376,-16.619075291315458],"codigo_ibge":3143302,"nome_ig":"Norte de Minas"},"geometry":{"type":"Polygon","coordinates":[[[-43.7656,-16.0892],[-43.7851,-16.1261],[-43.7663,-16.1461],[-43.7647,-16.1656],[-43.7755,-16.1768],[-43.7741,-16.195],[-43.7911,-16.207],[-43.783,-16.2326],[-43.7966,-16.2341],[-43.7923,-16.2646],[-43.7788,-16.2821],[-43.7959,-16.2969],[-43.7832,-16.3415],[-43.7929,-16.3534],[-43.7635,-16.3803],[-43.7622,-16.4008],[-43.7467,-16.4052],[-43.7394,-16.4166],[-43.7414,-16.4462],[-43.7354,-16.489],[-43.7585,-16.5012],[-43.7517,-16.5188],[-43.7617,-16.5331],[-43.741,-16.5418],[-43.7515,-16.5687],[-43.7406,-16.5879],[-43.7402,-16.6096],[-43.7202,-16.6331],[-43.7223,-16.6432],[-43.7028,-16.6661],[-43.7071,-16.6865],[-43.6898,-16.7105],[-43.6678,-16.7251],[-43.6925,-16.7426],[-43.6978,-16.7747],[-43.6744,-16.8087],[-43.6998,-16.8276],[-43.69,-16.838],[-43.7014,-16.8509],[-43.7142,-16.8676],[-43.7077,-16.875],[-43.718,-16.9016],[-43.7444,-16.9072],[-43.7734,-16.8886],[-43.8105,-16.8999],[-43.8376,-16.8947],[-43.8638,-16.9038],[-43.8733,-16.9249],[-43.8567,-16.9387],[-43.8632,-16.9475],[-43.8873,-16.9489],[-43.8891,-16.9687],[-43.9201,-16.9652],[-43.9531,-16.9906],[-43.9662,-17.0268],[-44.0164,-17.0519],[-44.0232,-17.0688],[-44.0203,-17.1088],[-44.0268,-17.1218],[-44.0645,-17.1299],[-44.1056,-17.1457],[-44.0995,-17.1285],[-44.1269,-17.1091],[-44.1569,-17.1103],[-44.1813,-17.096],[-44.1951,-17.1036],[-44.195,-17.0671],[-44.1632,-17.0339],[-44.1505,-17.0315],[-44.1603,-16.9996],[-44.1325,-16.9643],[-44.1275,-16.9418],[-44.1414,-16.9324],[-44.1329,-16.8922],[-44.12,-16.8798],[-44.1301,-16.8214],[-44.0903,-16.8155],[-44.0724,-16.7993],[-44.1034,-16.7653],[-44.1095,-16.7451],[-44.1338,-16.7412],[-44.1459,-16.7261],[-44.1266,-16.6711],[-44.1069,-16.6437],[-44.1082,-16.6108],[-44.0825,-16.6048],[-44.0502,-16.6179],[-44.0214,-16.591],[-44.0052,-16.5494],[-43.9814,-16.5336],[-43.9687,-16.5108],[-43.9789,-16.4716],[-43.994,-16.4536],[-44.0167,-16.4464],[-44.0652,-16.4905],[-44.0821,-16.4908],[-44.1011,-16.466],[-44.1332,-16.4606],[-44.145,-16.4382],[-44.1819,-16.4208],[-44.2109,-16.3905],[-44.1618,-16.37],[-44.149,-16.3549],[-44.1273,-16.3765],[-44.1044,-16.3733],[-44.0927,-16.3913],[-44.0504,-16.4248],[-44.0378,-16.4244],[-44.0499,-16.3933],[-44.0607,-16.3844],[-44.0492,-16.2995],[-43.9806,-16.2346],[-43.9926,-16.2085],[-43.9901,-16.1631],[-43.9691,-16.0866],[-43.9426,-16.1043],[-43.9288,-16.098],[-43.8905,-16.1125],[-43.862,-16.1144],[-43.8307,-16.0931],[-43.8034,-16.0944],[-43.7839,-16.0843],[-43.7656,-16.0892]]]}},{"type":"Feature","properties":{"codarea":"3145059","centroide":[-43.2749400779456,-15.734757666672095],"codigo_ibge":3145059,"nome_ig":"Norte de Minas"},"geometry":{"type":"Polygon","coordinates":[[[-43.2623,-15.8284],[-43.2907,-15.8286],[-43.301,-15.7986],[-43.317,-15.7806],[-43.3066,-15.7413],[-43.2926,-15.7278],[-43.3061,-15.701],[-43.2962,-15.6621],[-43.2999,-15.6516],[-43.2752,-15.622],[-43.2772,-15.606],[-43.2677,-15.6212],[-43.2701,-15.6601],[-43.2346,-15.7015],[-43.243,-15.726],[-43.2323,-15.7412],[-43.2433,-15.7776],[-43.2647,-15.819],[-43.2623,-15.8284]]]}},{"type":"Feature","properties":{"codarea":"3146552","centroide":[-43.149523187685894,-15.419436918852247],"codigo_ibge":3146552,"nome_ig":"Norte de Minas"},"geometry":{"type":"Polygon","coordinates":[[[-43.2695,-15.1502],[-43.2601,-15.1883],[-43.271,-15.1967],[-43.2645,-15.2188],[-43.2493,-15.2372],[-43.2467,-15.2567],[-43.2346,-15.2578],[-43.2058,-15.2795],[-43.207,-15.3247],[-43.169,-15.3413],[-43.1627,-15.3586],[-43.1088,-15.4108],[-43.1074,-15.4249],[-43.0783,-15.4496],[-43.0575,-15.4003],[-43.0396,-15.4056],[-43.0198,-15.3997],[-43.0014,-15.4178],[-42.9834,-15.4183],[-42.9742,-15.4355],[-42.9511,-15.4339],[-42.9398,-15.4555],[-42.9172,-15.4757],[-42.9122,-15.4952],[-42.9147,-15.5134],[-42.9737,-15.5217],[-43.0321,-15.5499],[-43.0503,-15.5915],[-43.0661,-15.6073],[-43.1292,-15.6113],[-43.1344,-15.5981],[-43.1695,-15.5783],[-43.1888,-15.5744],[-43.1837,-15.5521],[-43.2153,-15.5318],[-43.2355,-15.5026],[-43.2545,-15.429],[-43.2381,-15.4085],[-43.2522,-15.4039],[-43.2592,-15.3869],[-43.2523,-15.3737],[-43.2647,-15.3648],[-43.2621,-15.3304],[-43.3115,-15.3271],[-43.3105,-15.2931],[-43.3233,-15.2602],[-43.3094,-15.236],[-43.3186,-15.1958],[-43.3117,-15.1652],[-43.332,-15.1407],[-43.3204,-15.1268],[-43.3305,-15.1063],[-43.3118,-15.0836],[-43.2919,-15.0906],[-43.2938,-15.1171],[-43.2726,-15.1256],[-43.2695,-15.1502]]]}},{"type":"Feature","properties":{"codarea":"3147956","centroide":[-44.10143043820635,-16.08047584115544],"codigo_ibge":3147956,"nome_ig":"Norte de Minas"},"geometry":{"type":"Polygon","coordinates":[[[-43.9691,-16.0866],[-43.9901,-16.1631],[-44.0224,-16.1747],[-44.0448,-16.1718],[-44.055,-16.2001],[-44.069,-16.2056],[-44.0777,-16.1946],[-44.1007,-16.191],[-44.1235,-16.1462],[-44.1606,-16.1388],[-44.1843,-16.1194],[-44.2355,-16.0919],[-44.226,-16.0817],[-44.2192,-16.0713],[-44.2091,-16.0183],[-44.2299,-15.9979],[-44.2356,-15.9804],[-44.2073,-15.9712],[-44.1693,-15.9871],[-44.1267,-15.9714],[-44.0921,-16.0173],[-44.0674,-16.0022],[-44.0441,-16.0084],[-44.0139,-16.0299],[-44.0108,-16.044],[-43.9691,-16.0866]]]}},{"type":"Feature","properties":{"codarea":"3149150","centroide":[-44.32373538473878,-15.625850919028544],"codigo_ibge":3149150,"nome_ig":"Norte de Minas"},"geometry":{"type":"Polygon","coordinates":[[[-44.0298,-15.4873],[-44.0546,-15.4734],[-44.0703,-15.4833],[-44.0837,-15.5075],[-44.0709,-15.5113],[-44.0935,-15.548],[-44.0952,-15.5801],[-44.1122,-15.599],[-44.1225,-15.6728],[-44.1412,-15.6558],[-44.1667,-15.6476],[-44.1797,-15.6352],[-44.1955,-15.6684],[-44.1854,-15.6758],[-44.2042,-15.6868],[-44.2334,-15.6756],[-44.2354,-15.7008],[-44.25,-15.7289],[-44.2745,-15.7335],[-44.2779,-15.7438],[-44.2947,-15.7669],[-44.3124,-15.7736],[-44.2948,-15.8047],[-44.2913,-15.8329],[-44.3037,-15.8436],[-44.3284,-15.8209],[-44.3442,-15.8238],[-44.3447,-15.8101],[-44.3689,-15.7851],[-44.4012,-15.7904],[-44.4272,-15.8054],[-44.4394,-15.8255],[-44.4385,-15.851],[-44.4907,-15.8037],[-44.4866,-15.7837],[-44.5006,-15.7751],[-44.542,-15.7847],[-44.5561,-15.7951],[-44.5664,-15.8331],[-44.5628,-15.8558],[-44.5372,-15.8725],[-44.5437,-15.9035],[-44.5766,-15.88],[-44.5822,-15.866],[-44.6139,-15.8354],[-44.6531,-15.8255],[-44.6625,-15.8026],[-44.6833,-15.7758],[-44.6579,-15.7654],[-44.6429,-15.7431],[-44.609,-15.7262],[-44.5834,-15.7035],[-44.5616,-15.7038],[-44.5326,-15.6889],[-44.4717,-15.6263],[-44.4539,-15.6229],[-44.4253,-15.6054],[-44.3892,-15.5931],[-44.3705,-15.5562],[-44.3731,-15.5173],[-44.3453,-15.4834],[-44.2934,-15.4755],[-44.2679,-15.449],[-44.2652,-15.4328],[-44.2341,-15.4006],[-44.1924,-15.3978],[-44.1806,-15.3899],[-44.1674,-15.3463],[-44.1496,-15.3203],[-44.1535,-15.2981],[-44.1357,-15.2597],[-44.118,-15.2629],[-44.1163,-15.2763],[-44.1274,-15.3185],[-44.1649,-15.3779],[-44.1456,-15.3734],[-44.1318,-15.403],[-44.1069,-15.4315],[-44.0739,-15.4379],[-44.0409,-15.454],[-44.0298,-15.4873]]]}},{"type":"Feature","properties":{"codarea":"3150570","centroide":[-45.247099702724626,-16.048976014204655],"codigo_ibge":3150570,"nome_ig":"Norte de Minas"},"geometry":{"type":"Polygon","coordinates":[[[-45.0795,-16.1216],[-45.1021,-16.0963],[-45.1075,-16.157],[-45.1447,-16.1659],[-45.1674,-16.1596],[-45.184,-16.1707],[-45.1809,-16.1984],[-45.1693,-16.2026],[-45.1973,-16.2312],[-45.2291,-16.2455],[-45.2321,-16.2645],[-45.2795,-16.2736],[-45.3039,-16.2678],[-45.3173,-16.2693],[-45.3613,-16.2251],[-45.3582,-16.1812],[-45.3623,-16.1517],[-45.3938,-16.1251],[-45.3685,-16.0906],[-45.386,-16.0466],[-45.4207,-16.0165],[-45.418,-15.9943],[-45.4375,-15.982],[-45.4307,-15.9534],[-45.4129,-15.9245],[-45.3934,-15.9152],[-45.366,-15.8893],[-45.3379,-15.896],[-45.3205,-15.8801],[-45.3086,-15.9003],[-45.2911,-15.8762],[-45.2809,-15.8819],[-45.2659,-15.8639],[-45.2256,-15.8434],[-45.1938,-15.8519],[-45.1551,-15.8826],[-45.1135,-15.9584],[-45.0948,-15.9646],[-45.0913,-15.9832],[-45.0429,-15.9928],[-45.0417,-16.0124],[-45.0666,-16.0608],[-45.0795,-16.1216]]]}},{"type":"Feature","properties":{"codarea":"3152131","centroide":[-44.972982519883466,-16.608832999774055],"codigo_ibge":3152131,"nome_ig":"Norte de Minas"},"geometry":{"type":"Polygon","coordinates":[[[-44.972,-16.5486],[-44.9521,-16.5582],[-44.9345,-16.5841],[-44.9142,-16.6003],[-44.8868,-16.5976],[-44.8602,-16.5818],[-44.8334,-16.5525],[-44.7991,-16.5308],[-44.7982,-16.5895],[-44.8096,-16.6043],[-44.8273,-16.6094],[-44.8087,-16.6407],[-44.8111,-16.6491],[-44.8355,-16.6718],[-44.8522,-16.6778],[-44.8538,-16.6983],[-44.8753,-16.7033],[-44.8889,-16.722],[-44.9161,-16.7311],[-44.9376,-16.7243],[-44.9412,-16.7413],[-44.9579,-16.7331],[-44.9703,-16.7533],[-44.9928,-16.749],[-45.0202,-16.754],[-45.0021,-16.7257],[-45.0054,-16.7054],[-45.021,-16.6946],[-45.0668,-16.6833],[-45.0799,-16.6577],[-45.0747,-16.6178],[-45.0973,-16.5957],[-45.1047,-16.5654],[-45.103,-16.5342],[-45.1173,-16.5128],[-45.1157,-16.4823],[-45.099,-16.473],[-45.067,-16.4722],[-45.0535,-16.4705],[-45.0343,-16.4516],[-45.0186,-16.4795],[-44.9621,-16.4935],[-44.9505,-16.5077],[-44.9679,-16.5264],[-44.972,-16.5486]]]}},{"type":"Feature","properties":{"codarea":"3152204","centroide":[-43.075141562307095,-15.717071437375694],"codigo_ibge":3152204,"nome_ig":"Norte de Minas"},"geometry":{"type":"Polygon","coordinates":[[[-42.9122,-15.4952],[-42.882,-15.5225],[-42.8358,-15.5348],[-42.8158,-15.5535],[-42.8112,-15.6097],[-42.8039,-15.6057],[-42.8006,-15.6454],[-42.7747,-15.6597],[-42.769,-15.6734],[-42.7858,-15.6768],[-42.7767,-15.7295],[-42.7883,-15.7238],[-42.826,-15.7357],[-42.8443,-15.7251],[-42.85,-15.709],[-42.8783,-15.6867],[-42.9089,-15.6984],[-42.9012,-15.7186],[-42.9123,-15.7409],[-42.9195,-15.786],[-42.9272,-15.786],[-42.9426,-15.8164],[-42.9548,-15.8217],[-42.9991,-15.8017],[-43.0182,-15.8059],[-43.0272,-15.7975],[-43.0405,-15.8123],[-43.0563,-15.8569],[-43.0937,-15.8372],[-43.1141,-15.8471],[-43.0901,-15.8923],[-43.1023,-15.9263],[-43.0946,-15.9308],[-43.1137,-15.9656],[-43.1334,-15.9641],[-43.1211,-16.0065],[-43.1452,-16.0369],[-43.1283,-16.0896],[-43.1353,-16.1101],[-43.128,-16.12],[-43.1314,-16.1518],[-43.1401,-16.1666],[-43.1576,-16.1265],[-43.1765,-16.1242],[-43.1905,-16.1112],[-43.1845,-16.0676],[-43.199,-16.0453],[-43.2146,-16.0554],[-43.2309,-16.042],[-43.2309,-16.0419],[-43.2191,-16.01],[-43.215,-15.9773],[-43.2262,-15.9345],[-43.2141,-15.9304],[-43.2044,-15.8744],[-43.2252,-15.8534],[-43.2161,-15.8296],[-43.2303,-15.8319],[-43.2406,-15.8178],[-43.2623,-15.8284],[-43.2647,-15.819],[-43.2433,-15.7776],[-43.2323,-15.7412],[-43.243,-15.726],[-43.2346,-15.7015],[-43.2701,-15.6601],[-43.2677,-15.6212],[-43.2772,-15.606],[-43.2765,-15.5496],[-43.2832,-15.5459],[-43.2717,-15.5105],[-43.2565,-15.5062],[-43.2543,-15.4786],[-43.279,-15.4398],[-43.2786,-15.4189],[-43.2944,-15.4131],[-43.2896,-15.3938],[-43.2972,-15.367],[-43.3131,-15.3429],[-43.3115,-15.3271],[-43.2621,-15.3304],[-43.2647,-15.3648],[-43.2523,-15.3737],[-43.2592,-15.3869],[-43.2522,-15.4039],[-43.2381,-15.4085],[-43.2545,-15.429],[-43.2355,-15.5026],[-43.2153,-15.5318],[-43.1837,-15.5521],[-43.1888,-15.5744],[-43.1695,-15.5783],[-43.1344,-15.5981],[-43.1292,-15.6113],[-43.0661,-15.6073],[-43.0503,-15.5915],[-43.0321,-15.5499],[-42.9737,-15.5217],[-42.9147,-15.5134],[-42.9122,-15.4952]]]}},{"type":"Feature","properties":{"codarea":"3154457","centroide":[-45.92824329101662,-16.27637014259079],"codigo_ibge":3154457,"nome_ig":"Norte de Minas"},"geometry":{"type":"Polygon","coordinates":[[[-45.9061,-16.107],[-45.9068,-16.1292],[-45.8963,-16.1472],[-45.8632,-16.1691],[-45.8325,-16.1523],[-45.8046,-16.1763],[-45.7636,-16.1493],[-45.7477,-16.1302],[-45.7191,-16.1484],[-45.7075,-16.1326],[-45.705,-16.1531],[-45.6921,-16.1512],[-45.6951,-16.1723],[-45.6787,-16.1693],[-45.6686,-16.1844],[-45.658,-16.1602],[-45.6552,-16.1827],[-45.6539,-16.1937],[-45.6735,-16.1967],[-45.6742,-16.2378],[-45.6987,-16.2799],[-45.7113,-16.3281],[-45.6998,-16.3587],[-45.7129,-16.3649],[-45.7209,-16.425],[-45.7443,-16.4315],[-45.7518,-16.4503],[-45.7863,-16.4535],[-45.8022,-16.4884],[-45.8306,-16.5063],[-45.8451,-16.5033],[-45.9101,-16.5305],[-45.9215,-16.4933],[-45.9019,-16.4711],[-45.893,-16.4445],[-45.9107,-16.4117],[-45.9069,-16.4003],[-45.9207,-16.3715],[-45.9444,-16.3768],[-45.9512,-16.3974],[-45.9666,-16.388],[-45.9761,-16.3993],[-46.0059,-16.3793],[-46.061,-16.3951],[-46.0848,-16.37],[-46.104,-16.369],[-46.1153,-16.3794],[-46.1498,-16.3779],[-46.167,-16.3645],[-46.1889,-16.3605],[-46.2013,-16.3382],[-46.2246,-16.3427],[-46.2691,-16.3317],[-46.2763,-16.3201],[-46.2647,-16.2929],[-46.2399,-16.2854],[-46.2188,-16.2677],[-46.2308,-16.2377],[-46.2153,-16.2306],[-46.197,-16.24],[-46.1651,-16.2409],[-46.1525,-16.2345],[-46.1341,-16.2452],[-46.0998,-16.2285],[-46.0834,-16.2112],[-46.079,-16.1694],[-46.0557,-16.1318],[-46.0413,-16.0828],[-46.0369,-16.0466],[-46.0005,-16.0364],[-45.9878,-16.0155],[-45.9458,-16.0403],[-45.9299,-16.061],[-45.9332,-16.0758],[-45.9479,-16.0648],[-45.9361,-16.0904],[-45.9017,-16.0805],[-45.9061,-16.107]]]}},{"type":"Feature","properties":{"codarea":"3154507","centroide":[-42.99330294967365,-16.054149372053384],"codigo_ibge":3154507,"nome_ig":"Norte de Minas"},"geometry":{"type":"Polygon","coordinates":[[[-43.0182,-15.8059],[-43.0106,-15.8435],[-42.9778,-15.8737],[-42.9817,-15.8925],[-42.9663,-15.8901],[-42.9449,-15.9198],[-42.9225,-15.9155],[-42.9048,-15.9332],[-42.9026,-15.9612],[-42.8543,-15.9707],[-42.8516,-15.9811],[-42.865,-16.0106],[-42.8618,-16.0196],[-42.8215,-15.9886],[-42.7901,-15.9964],[-42.7562,-16.0227],[-42.7483,-16.054],[-42.7255,-16.0416],[-42.7188,-16.0451],[-42.7042,-16.1124],[-42.712,-16.1386],[-42.7061,-16.1582],[-42.7234,-16.1413],[-42.7373,-16.1444],[-42.7618,-16.1332],[-42.7819,-16.1439],[-42.797,-16.1373],[-42.8089,-16.15],[-42.8262,-16.1399],[-42.8534,-16.1553],[-42.9171,-16.1527],[-42.923,-16.1623],[-42.9736,-16.168],[-42.9908,-16.1582],[-43.0081,-16.1833],[-43.0373,-16.1932],[-43.0482,-16.2127],[-43.0803,-16.2124],[-43.0881,-16.2239],[-43.1116,-16.2308],[-43.1317,-16.2716],[-43.1573,-16.2891],[-43.1351,-16.2523],[-43.1325,-16.2322],[-43.1524,-16.21],[-43.1918,-16.1878],[-43.2536,-16.1419],[-43.2602,-16.121],[-43.2702,-16.0831],[-43.231,-16.0526],[-43.2309,-16.042],[-43.2309,-16.0419],[-43.2309,-16.042],[-43.2146,-16.0554],[-43.199,-16.0453],[-43.1845,-16.0676],[-43.1905,-16.1112],[-43.1765,-16.1242],[-43.1576,-16.1265],[-43.1401,-16.1666],[-43.1314,-16.1518],[-43.128,-16.12],[-43.1353,-16.1101],[-43.1283,-16.0896],[-43.1452,-16.0369],[-43.1211,-16.0065],[-43.1334,-15.9641],[-43.1137,-15.9656],[-43.0946,-15.9308],[-43.1023,-15.9263],[-43.0901,-15.8923],[-43.1141,-15.8471],[-43.0937,-15.8372],[-43.0563,-15.8569],[-43.0405,-15.8123],[-43.0272,-15.7975],[-43.0182,-15.8059]]]}},{"type":"Feature","properties":{"codarea":"3157609","centroide":[-45.55718802831659,-16.701389048792542],"codigo_ibge":3157609,"nome_ig":"Norte de Minas"},"geometry":{"type":"Polygon","coordinates":[[[-45.1173,-16.5128],[-45.103,-16.5342],[-45.1047,-16.5654],[-45.1393,-16.5937],[-45.1403,-16.6152],[-45.1658,-16.6205],[-45.1861,-16.6537],[-45.1876,-16.6716],[-45.1762,-16.6829],[-45.1962,-16.6841],[-45.2155,-16.6752],[-45.241,-16.6905],[-45.2322,-16.7191],[-45.2519,-16.7382],[-45.2397,-16.7671],[-45.2435,-16.78],[-45.279,-16.7577],[-45.3074,-16.7893],[-45.2975,-16.8175],[-45.3099,-16.8494],[-45.3021,-16.8764],[-45.321,-16.8742],[-45.3323,-16.8848],[-45.3362,-16.92],[-45.3475,-16.908],[-45.3734,-16.9118],[-45.4002,-16.9033],[-45.4105,-16.9163],[-45.4337,-16.921],[-45.438,-16.9449],[-45.4608,-16.9635],[-45.4964,-16.9536],[-45.5048,-16.9608],[-45.5201,-16.9391],[-45.5423,-16.9354],[-45.5642,-16.9414],[-45.5796,-16.9154],[-45.5974,-16.9047],[-45.5928,-16.8908],[-45.6204,-16.8752],[-45.6534,-16.8799],[-45.6713,-16.89],[-45.6971,-16.8831],[-45.7217,-16.898],[-45.7507,-16.8739],[-45.7561,-16.8556],[-45.7742,-16.8561],[-45.778,-16.8313],[-45.7949,-16.8398],[-45.8024,-16.8314],[-45.8316,-16.83],[-45.853,-16.8155],[-45.8581,-16.7641],[-45.8851,-16.7288],[-45.8887,-16.7028],[-45.9211,-16.7088],[-45.9439,-16.7194],[-45.9587,-16.6948],[-45.9915,-16.694],[-46.0046,-16.6668],[-46.0068,-16.6413],[-46.0159,-16.6369],[-45.9998,-16.6195],[-45.9812,-16.6216],[-45.9601,-16.5757],[-45.9463,-16.5707],[-45.9518,-16.554],[-45.91,-16.5399],[-45.9101,-16.5305],[-45.8451,-16.5033],[-45.8306,-16.5063],[-45.8208,-16.5214],[-45.7884,-16.5464],[-45.7736,-16.5472],[-45.7587,-16.5313],[-45.7121,-16.5628],[-45.6913,-16.5665],[-45.6423,-16.6119],[-45.6221,-16.6058],[-45.5848,-16.5625],[-45.5601,-16.5701],[-45.5279,-16.5635],[-45.5052,-16.5183],[-45.4622,-16.5041],[-45.4189,-16.5028],[-45.3991,-16.515],[-45.3931,-16.5289],[-45.3692,-16.53],[-45.3254,-16.5111],[-45.3334,-16.5475],[-45.3047,-16.5631],[-45.2602,-16.5424],[-45.2399,-16.5504],[-45.216,-16.5329],[-45.1905,-16.5282],[-45.1738,-16.5113],[-45.1577,-16.5215],[-45.1173,-16.5128]]]}},{"type":"Feature","properties":{"codarea":"3161106","centroide":[-44.86120965539176,-15.896201690055774],"codigo_ibge":3161106,"nome_ig":"Norte de Minas"},"geometry":{"type":"Polygon","coordinates":[[[-44.6833,-15.7758],[-44.6625,-15.8026],[-44.6531,-15.8255],[-44.6139,-15.8354],[-44.5822,-15.866],[-44.5766,-15.88],[-44.5437,-15.9035],[-44.5372,-15.8725],[-44.5628,-15.8558],[-44.5664,-15.8331],[-44.5561,-15.7951],[-44.542,-15.7847],[-44.5006,-15.7751],[-44.4866,-15.7837],[-44.4907,-15.8037],[-44.4385,-15.851],[-44.415,-15.8668],[-44.4114,-15.893],[-44.4227,-15.9079],[-44.4115,-15.9282],[-44.4354,-15.9561],[-44.4301,-15.9731],[-44.4574,-15.9939],[-44.4759,-15.9935],[-44.4965,-16.0206],[-44.5027,-16.0394],[-44.4977,-16.058],[-44.5092,-16.0713],[-44.5439,-16.0801],[-44.5602,-16.0752],[-44.5838,-16.0829],[-44.6085,-16.103],[-44.6237,-16.107],[-44.6595,-16.1339],[-44.6752,-16.0733],[-44.7035,-16.1119],[-44.7268,-16.1321],[-44.7459,-16.1346],[-44.7742,-16.1601],[-44.7913,-16.1504],[-44.8107,-16.1558],[-44.8284,-16.1422],[-44.8673,-16.1282],[-44.8801,-16.1413],[-44.9086,-16.1411],[-44.9761,-16.1629],[-45.0024,-16.1593],[-45.0142,-16.1494],[-45.0496,-16.1439],[-45.0795,-16.1216],[-45.0666,-16.0608],[-45.0417,-16.0124],[-45.0429,-15.9928],[-45.0913,-15.9832],[-45.0948,-15.9646],[-45.1135,-15.9584],[-45.1551,-15.8826],[-45.1938,-15.8519],[-45.2256,-15.8434],[-45.2454,-15.7913],[-45.2488,-15.7616],[-45.2575,-15.7458],[-45.2433,-15.7254],[-45.2187,-15.7124],[-45.2091,-15.6965],[-45.1718,-15.6591],[-45.1228,-15.6272],[-45.1095,-15.5984],[-45.0941,-15.5867],[-45.0486,-15.554],[-45.0118,-15.5621],[-44.998,-15.5898],[-44.9811,-15.5902],[-44.9831,-15.6093],[-44.9616,-15.6204],[-44.9509,-15.6422],[-44.9264,-15.6642],[-44.9145,-15.6666],[-44.9033,-15.6871],[-44.8804,-15.6975],[-44.8814,-15.7115],[-44.8635,-15.7302],[-44.8361,-15.7418],[-44.7974,-15.7724],[-44.7823,-15.8086],[-44.7198,-15.7769],[-44.6833,-15.7758]]]}},{"type":"Feature","properties":{"codarea":"3162252","centroide":[-44.3353111432117,-16.86029055505508],"codigo_ibge":3162252,"nome_ig":"Norte de Minas"},"geometry":{"type":"Polygon","coordinates":[[[-44.1459,-16.7261],[-44.1338,-16.7412],[-44.1095,-16.7451],[-44.1034,-16.7653],[-44.0724,-16.7993],[-44.0903,-16.8155],[-44.1301,-16.8214],[-44.1566,-16.83],[-44.1549,-16.8591],[-44.1833,-16.9035],[-44.1968,-16.9112],[-44.1887,-16.8519],[-44.2437,-16.8907],[-44.247,-16.9079],[-44.281,-16.9292],[-44.3123,-16.9329],[-44.3323,-16.9458],[-44.3536,-16.9573],[-44.4067,-17.0277],[-44.4068,-17.0396],[-44.4614,-17.0733],[-44.5285,-17.0679],[-44.562,-17.0685],[-44.5738,-17.0764],[-44.5696,-17.0464],[-44.5366,-17.0331],[-44.4802,-16.993],[-44.5061,-16.9636],[-44.5133,-16.9347],[-44.5666,-16.8582],[-44.5407,-16.8435],[-44.5301,-16.8483],[-44.4672,-16.8347],[-44.4279,-16.8298],[-44.4113,-16.7981],[-44.3533,-16.7817],[-44.3316,-16.7892],[-44.325,-16.7793],[-44.2944,-16.766],[-44.3025,-16.7389],[-44.302,-16.7067],[-44.3156,-16.6994],[-44.2945,-16.6592],[-44.2621,-16.6617],[-44.2475,-16.6566],[-44.2125,-16.6258],[-44.2175,-16.6575],[-44.2159,-16.6889],[-44.1709,-16.7238],[-44.1459,-16.7261]]]}},{"type":"Feature","properties":{"codarea":"3162401","centroide":[-43.89430568973355,-15.90868372259444],"codigo_ibge":3162401,"nome_ig":"Norte de Minas"},"geometry":{"type":"Polygon","coordinates":[[[-43.6026,-15.7205],[-43.5855,-15.7348],[-43.5943,-15.754],[-43.6184,-15.765],[-43.6202,-15.7853],[-43.6235,-15.7937],[-43.6566,-15.7859],[-43.6345,-15.8194],[-43.6334,-15.8328],[-43.6625,-15.8396],[-43.6363,-15.8633],[-43.6333,-15.8898],[-43.6532,-15.8919],[-43.6312,-15.9057],[-43.6464,-15.933],[-43.641,-15.939],[-43.6691,-15.9751],[-43.6872,-15.988],[-43.6988,-16.0082],[-43.7015,-16.0408],[-43.7227,-16.0627],[-43.7596,-16.0754],[-43.7656,-16.0892],[-43.7839,-16.0843],[-43.8034,-16.0944],[-43.8307,-16.0931],[-43.862,-16.1144],[-43.8905,-16.1125],[-43.9288,-16.098],[-43.9426,-16.1043],[-43.9691,-16.0866],[-44.0108,-16.044],[-44.0139,-16.0299],[-44.0441,-16.0084],[-44.0674,-16.0022],[-44.0921,-16.0173],[-44.1267,-15.9714],[-44.1693,-15.9871],[-44.2073,-15.9712],[-44.2356,-15.9804],[-44.222,-15.9504],[-44.2016,-15.9382],[-44.1698,-15.9023],[-44.1709,-15.8795],[-44.1864,-15.8428],[-44.2029,-15.8285],[-44.1559,-15.8066],[-44.1237,-15.7807],[-44.137,-15.7623],[-44.0919,-15.7743],[-44.0625,-15.7712],[-44.0357,-15.772],[-43.9953,-15.7642],[-43.9716,-15.7749],[-43.927,-15.7695],[-43.8777,-15.7476],[-43.8397,-15.7722],[-43.8427,-15.7832],[-43.7937,-15.7892],[-43.7614,-15.7798],[-43.7476,-15.7567],[-43.725,-15.7588],[-43.6971,-15.7299],[-43.6727,-15.7328],[-43.6435,-15.7106],[-43.6231,-15.7093],[-43.6026,-15.7205]]]}},{"type":"Feature","properties":{"codarea":"3162450","centroide":[-44.22917511892101,-14.891687561491144],"codigo_ibge":3162450,"nome_ig":"Norte de Minas"},"geometry":{"type":"Polygon","coordinates":[[[-44.0065,-14.9787],[-44.0626,-14.9908],[-44.1054,-14.9627],[-44.1189,-14.9719],[-44.1385,-14.9664],[-44.1878,-14.9729],[-44.2112,-14.9683],[-44.2291,-14.9839],[-44.2582,-14.9773],[-44.2663,-14.9947],[-44.2811,-14.9919],[-44.2986,-14.9739],[-44.3303,-14.9595],[-44.3311,-14.9498],[-44.3542,-14.9353],[-44.3668,-14.9491],[-44.3813,-14.9347],[-44.4533,-14.9261],[-44.4836,-14.907],[-44.3804,-14.849],[-44.3506,-14.85],[-44.334,-14.8312],[-44.2955,-14.8199],[-44.2831,-14.8066],[-44.2352,-14.7875],[-44.211,-14.7645],[-44.1945,-14.7636],[-44.171,-14.7748],[-44.1297,-14.8072],[-44.1123,-14.8104],[-44.0937,-14.8269],[-44.1008,-14.8483],[-44.0864,-14.8787],[-44.0698,-14.8838],[-44.0652,-14.9145],[-44.0499,-14.9224],[-44.0558,-14.9487],[-44.0087,-14.9622],[-44.0065,-14.9787]]]}},{"type":"Feature","properties":{"codarea":"3162658","centroide":[-44.52417365288099,-16.555765744432488],"codigo_ibge":3162658,"nome_ig":"Norte de Minas"},"geometry":{"type":"Polygon","coordinates":[[[-44.6778,-16.5455],[-44.6643,-16.5254],[-44.6444,-16.521],[-44.6294,-16.5296],[-44.6246,-16.5176],[-44.609,-16.5226],[-44.5858,-16.5061],[-44.5868,-16.4953],[-44.5672,-16.4928],[-44.5489,-16.4763],[-44.5184,-16.4658],[-44.4719,-16.4407],[-44.4189,-16.4778],[-44.4304,-16.4865],[-44.4341,-16.524],[-44.4184,-16.5291],[-44.4094,-16.5665],[-44.3928,-16.5833],[-44.4177,-16.5838],[-44.4347,-16.5978],[-44.4388,-16.6256],[-44.4765,-16.6318],[-44.4899,-16.644],[-44.4814,-16.6568],[-44.5162,-16.6631],[-44.5837,-16.6386],[-44.5879,-16.6215],[-44.6508,-16.5829],[-44.6654,-16.5549],[-44.6778,-16.5455]]]}},{"type":"Feature","properties":{"codarea":"3164209","centroide":[-45.406719931071834,-16.38934361278966],"codigo_ibge":3164209,"nome_ig":"Norte de Minas"},"geometry":{"type":"Polygon","coordinates":[[[-45.0795,-16.1216],[-45.0802,-16.1459],[-45.0701,-16.1762],[-45.0547,-16.1997],[-45.0465,-16.2428],[-45.0607,-16.2924],[-45.0565,-16.3645],[-45.0743,-16.389],[-45.0661,-16.4078],[-45.0381,-16.4238],[-45.0423,-16.4446],[-45.067,-16.4722],[-45.099,-16.473],[-45.1157,-16.4823],[-45.1173,-16.5128],[-45.1577,-16.5215],[-45.1738,-16.5113],[-45.1905,-16.5282],[-45.216,-16.5329],[-45.2399,-16.5504],[-45.2602,-16.5424],[-45.3047,-16.5631],[-45.3334,-16.5475],[-45.3254,-16.5111],[-45.3692,-16.53],[-45.3931,-16.5289],[-45.3991,-16.515],[-45.4189,-16.5028],[-45.4622,-16.5041],[-45.5052,-16.5183],[-45.5279,-16.5635],[-45.5601,-16.5701],[-45.5848,-16.5625],[-45.6221,-16.6058],[-45.6423,-16.6119],[-45.6913,-16.5665],[-45.7121,-16.5628],[-45.7587,-16.5313],[-45.7736,-16.5472],[-45.7884,-16.5464],[-45.8208,-16.5214],[-45.8306,-16.5063],[-45.8022,-16.4884],[-45.7863,-16.4535],[-45.7518,-16.4503],[-45.7443,-16.4315],[-45.7209,-16.425],[-45.7129,-16.3649],[-45.6998,-16.3587],[-45.7113,-16.3281],[-45.6987,-16.2799],[-45.6742,-16.2378],[-45.6735,-16.1967],[-45.6539,-16.1937],[-45.6552,-16.1827],[-45.6353,-16.173],[-45.6057,-16.1844],[-45.6059,-16.1964],[-45.5677,-16.223],[-45.5418,-16.2288],[-45.5053,-16.2578],[-45.4833,-16.301],[-45.4451,-16.2963],[-45.4255,-16.2797],[-45.3961,-16.3031],[-45.381,-16.3015],[-45.3658,-16.325],[-45.3464,-16.3035],[-45.3299,-16.2989],[-45.3252,-16.2854],[-45.3039,-16.2678],[-45.2795,-16.2736],[-45.2321,-16.2645],[-45.2291,-16.2455],[-45.1973,-16.2312],[-45.1693,-16.2026],[-45.1809,-16.1984],[-45.184,-16.1707],[-45.1674,-16.1596],[-45.1447,-16.1659],[-45.1075,-16.157],[-45.1021,-16.0963],[-45.0795,-16.1216]]]}},{"type":"Feature","properties":{"codarea":"3166956","centroide":[-42.86062924425474,-15.856618152086629],"codigo_ibge":3166956,"nome_ig":"Norte de Minas"},"geometry":{"type":"Polygon","coordinates":[[[-42.7767,-15.7295],[-42.7615,-15.7839],[-42.7678,-15.8174],[-42.7947,-15.8248],[-42.8075,-15.85],[-42.7994,-15.8663],[-42.8137,-15.8769],[-42.813,-15.9003],[-42.798,-15.9195],[-42.7714,-15.9339],[-42.7586,-15.9322],[-42.756,-15.9668],[-42.7403,-16.0081],[-42.7277,-16.0051],[-42.7255,-16.0416],[-42.7483,-16.054],[-42.7562,-16.0227],[-42.7901,-15.9964],[-42.8215,-15.9886],[-42.8618,-16.0196],[-42.865,-16.0106],[-42.8516,-15.9811],[-42.8543,-15.9707],[-42.9026,-15.9612],[-42.9048,-15.9332],[-42.9225,-15.9155],[-42.9449,-15.9198],[-42.9663,-15.8901],[-42.9817,-15.8925],[-42.9778,-15.8737],[-43.0106,-15.8435],[-43.0182,-15.8059],[-42.9991,-15.8017],[-42.9548,-15.8217],[-42.9426,-15.8164],[-42.9272,-15.786],[-42.9195,-15.786],[-42.9123,-15.7409],[-42.9012,-15.7186],[-42.9089,-15.6984],[-42.8783,-15.6867],[-42.85,-15.709],[-42.8443,-15.7251],[-42.826,-15.7357],[-42.7883,-15.7238],[-42.7767,-15.7295]]]}},{"type":"Feature","properties":{"codarea":"3170008","centroide":[-44.84807891943494,-16.364111589686093],"codigo_ibge":3170008,"nome_ig":"Norte de Minas"},"geometry":{"type":"Polygon","coordinates":[[[-44.7197,-16.1789],[-44.7043,-16.1906],[-44.6781,-16.1972],[-44.6704,-16.2087],[-44.6774,-16.2455],[-44.6758,-16.3145],[-44.6665,-16.3364],[-44.7041,-16.3812],[-44.7042,-16.3812],[-44.7247,-16.3904],[-44.7744,-16.4311],[-44.8075,-16.4436],[-44.8614,-16.488],[-44.8962,-16.5026],[-44.9293,-16.5327],[-44.9605,-16.5518],[-44.972,-16.5486],[-44.9679,-16.5264],[-44.9505,-16.5077],[-44.9621,-16.4935],[-45.0186,-16.4795],[-45.0343,-16.4516],[-45.0535,-16.4705],[-45.067,-16.4722],[-45.0423,-16.4446],[-45.0381,-16.4238],[-45.0661,-16.4078],[-45.0743,-16.389],[-45.0565,-16.3645],[-45.0351,-16.3844],[-45.0292,-16.3738],[-44.9954,-16.3692],[-44.9854,-16.3545],[-44.9607,-16.3538],[-44.9458,-16.3327],[-44.9234,-16.3232],[-44.884,-16.2904],[-44.8722,-16.2885],[-44.7934,-16.2242],[-44.7756,-16.2164],[-44.7531,-16.1949],[-44.7197,-16.1789]]]}},{"type":"Feature","properties":{"codarea":"3170529","centroide":[-45.5732208773236,-16.028144376258954],"codigo_ibge":3170529,"nome_ig":"Norte de Minas"},"geometry":{"type":"Polygon","coordinates":[[[-45.366,-15.8893],[-45.3934,-15.9152],[-45.4129,-15.9245],[-45.4307,-15.9534],[-45.4375,-15.982],[-45.418,-15.9943],[-45.4207,-16.0165],[-45.386,-16.0466],[-45.3685,-16.0906],[-45.3938,-16.1251],[-45.3623,-16.1517],[-45.3582,-16.1812],[-45.3613,-16.2251],[-45.3173,-16.2693],[-45.3039,-16.2678],[-45.3252,-16.2854],[-45.3299,-16.2989],[-45.3464,-16.3035],[-45.3658,-16.325],[-45.381,-16.3015],[-45.3961,-16.3031],[-45.4255,-16.2797],[-45.4451,-16.2963],[-45.4833,-16.301],[-45.5053,-16.2578],[-45.5418,-16.2288],[-45.5677,-16.223],[-45.6059,-16.1964],[-45.6057,-16.1844],[-45.6353,-16.173],[-45.6552,-16.1827],[-45.658,-16.1602],[-45.6686,-16.1844],[-45.6787,-16.1693],[-45.6951,-16.1723],[-45.6921,-16.1512],[-45.705,-16.1531],[-45.7075,-16.1326],[-45.7191,-16.1484],[-45.7477,-16.1302],[-45.7636,-16.1493],[-45.8046,-16.1763],[-45.8325,-16.1523],[-45.8632,-16.1691],[-45.8963,-16.1472],[-45.9068,-16.1292],[-45.9061,-16.107],[-45.8929,-16.109],[-45.8629,-16.0892],[-45.85,-16.0918],[-45.8057,-16.0621],[-45.7969,-16.0094],[-45.7874,-15.9753],[-45.759,-15.9297],[-45.7373,-15.9103],[-45.7234,-15.8673],[-45.6804,-15.8249],[-45.6591,-15.7915],[-45.6271,-15.7651],[-45.6217,-15.7517],[-45.5985,-15.7409],[-45.586,-15.7184],[-45.5542,-15.7318],[-45.5355,-15.7513],[-45.509,-15.7648],[-45.5062,-15.7856],[-45.4661,-15.7803],[-45.445,-15.8229],[-45.422,-15.8353],[-45.4096,-15.8562],[-45.3921,-15.8634],[-45.3866,-15.8886],[-45.366,-15.8893]]]}},{"type":"Feature","properties":{"codarea":"3170909","centroide":[-43.93460143592989,-15.64219516932943],"codigo_ibge":3170909,"nome_ig":"Norte de Minas"},"geometry":{"type":"Polygon","coordinates":[[[-44.0018,-15.5051],[-43.9738,-15.5307],[-43.9488,-15.5285],[-43.9201,-15.5156],[-43.9091,-15.4947],[-43.8784,-15.4906],[-43.8377,-15.5234],[-43.7764,-15.5387],[-43.7629,-15.5693],[-43.7916,-15.5715],[-43.8305,-15.6078],[-43.836,-15.6316],[-43.8531,-15.6392],[-43.8184,-15.6672],[-43.8068,-15.6911],[-43.7887,-15.7024],[-43.7952,-15.7312],[-43.7614,-15.7798],[-43.7937,-15.7892],[-43.8427,-15.7832],[-43.8397,-15.7722],[-43.8777,-15.7476],[-43.927,-15.7695],[-43.9716,-15.7749],[-43.9953,-15.7642],[-44.0357,-15.772],[-44.0625,-15.7712],[-44.0594,-15.7297],[-44.0822,-15.723],[-44.0756,-15.7103],[-44.0899,-15.6849],[-44.0762,-15.6671],[-44.0799,-15.6528],[-44.0546,-15.5969],[-44.0657,-15.5827],[-44.0561,-15.5359],[-44.0581,-15.5182],[-44.0479,-15.4948],[-44.0298,-15.4873],[-44.0136,-15.4865],[-44.0018,-15.5051]]]}},{"type":"Feature","properties":{"codarea":"3171030","centroide":[-43.62837444631972,-15.540194169832603],"codigo_ibge":3171030,"nome_ig":"Norte de Minas"},"geometry":{"type":"Polygon","coordinates":[[[-43.4425,-15.3589],[-43.4317,-15.3795],[-43.401,-15.3896],[-43.3802,-15.4186],[-43.3818,-15.4472],[-43.3631,-15.4669],[-43.3717,-15.4904],[-43.3879,-15.4994],[-43.3931,-15.5306],[-43.5003,-15.6486],[-43.5085,-15.6624],[-43.6026,-15.7205],[-43.6231,-15.7093],[-43.6435,-15.7106],[-43.6727,-15.7328],[-43.6971,-15.7299],[-43.725,-15.7588],[-43.7476,-15.7567],[-43.7614,-15.7798],[-43.7952,-15.7312],[-43.7887,-15.7024],[-43.8068,-15.6911],[-43.8184,-15.6672],[-43.8531,-15.6392],[-43.836,-15.6316],[-43.8305,-15.6078],[-43.7916,-15.5715],[-43.7629,-15.5693],[-43.7764,-15.5387],[-43.8377,-15.5234],[-43.8784,-15.4906],[-43.9091,-15.4947],[-43.899,-15.479],[-43.8753,-15.4648],[-43.8632,-15.4442],[-43.8305,-15.4356],[-43.8037,-15.4146],[-43.7627,-15.4139],[-43.734,-15.3779],[-43.7261,-15.3842],[-43.7008,-15.374],[-43.7031,-15.3633],[-43.6795,-15.355],[-43.6861,-15.3824],[-43.6609,-15.3772],[-43.6495,-15.4081],[-43.6634,-15.4027],[-43.6718,-15.4142],[-43.4425,-15.3589]]]}}]}