{"type":"FeatureCollection","features":[{"type":"Feature","properties":{"codarea":"4101051","centroide":[-53.143595141556204,-24.643523422545915],"codigo_ibge":4101051,"nome_ig":"Oeste do Paraná"},"geometry":{"type":"Polygon","coordinates":[[[-53.0854,-24.6111],[-53.1116,-24.6269],[-53.0837,-24.6325],[-53.1042,-24.6378],[-53.0919,-24.651],[-53.1095,-24.6591],[-53.1142,-24.6807],[-53.1406,-24.6942],[-53.1459,-24.7123],[-53.1688,-24.6958],[-53.2063,-24.6786],[-53.2237,-24.6776],[-53.1798,-24.6363],[-53.1623,-24.6095],[-53.1404,-24.6065],[-53.1476,-24.5897],[-53.1381,-24.5804],[-53.1176,-24.5839],[-53.1071,-24.5696],[-53.0947,-24.575],[-53.0937,-24.6118],[-53.0854,-24.6111]]]}},{"type":"Feature","properties":{"codarea":"4102000","centroide":[-53.586048929066365,-24.42456569524498],"codigo_ibge":4102000,"nome_ig":"Oeste do Paraná"},"geometry":{"type":"Polygon","coordinates":[[[-53.6665,-24.2088],[-53.6498,-24.2203],[-53.6419,-24.2394],[-53.6137,-24.2475],[-53.5917,-24.2414],[-53.5556,-24.2584],[-53.5451,-24.2432],[-53.5338,-24.2473],[-53.4888,-24.2298],[-53.4811,-24.2181],[-53.4681,-24.2211],[-53.4587,-24.2394],[-53.4704,-24.2716],[-53.4612,-24.285],[-53.4732,-24.3071],[-53.461,-24.346],[-53.449,-24.3562],[-53.4598,-24.3647],[-53.4504,-24.3777],[-53.4704,-24.3719],[-53.4702,-24.3939],[-53.4464,-24.4093],[-53.4599,-24.4282],[-53.4451,-24.4563],[-53.4693,-24.4752],[-53.4475,-24.498],[-53.4442,-24.5394],[-53.4402,-24.5673],[-53.5512,-24.5201],[-53.5469,-24.5355],[-53.5592,-24.5381],[-53.5664,-24.5605],[-53.5587,-24.5816],[-53.5746,-24.6005],[-53.5632,-24.6201],[-53.5948,-24.6366],[-53.601,-24.6502],[-53.5959,-24.6894],[-53.7154,-24.5751],[-53.7154,-24.4674],[-53.7037,-24.444],[-53.6916,-24.4402],[-53.6633,-24.3792],[-53.6865,-24.3695],[-53.704,-24.328],[-53.6997,-24.2962],[-53.6873,-24.2816],[-53.6697,-24.2813],[-53.6716,-24.2586],[-53.6976,-24.2387],[-53.6924,-24.2022],[-53.6665,-24.2088]]]}},{"type":"Feature","properties":{"codarea":"4103057","centroide":[-53.42158354231965,-25.434861999506143],"codigo_ibge":4103057,"nome_ig":"Oeste do Paraná"},"geometry":{"type":"Polygon","coordinates":[[[-53.3318,-25.3682],[-53.3341,-25.3923],[-53.3581,-25.3955],[-53.3527,-25.4416],[-53.3647,-25.4521],[-53.3439,-25.4797],[-53.3531,-25.4903],[-53.3382,-25.5158],[-53.3527,-25.5352],[-53.3701,-25.5315],[-53.3882,-25.5045],[-53.4377,-25.5048],[-53.4547,-25.5335],[-53.4788,-25.5315],[-53.4685,-25.4955],[-53.4752,-25.4622],[-53.5078,-25.4615],[-53.5145,-25.4414],[-53.4953,-25.4258],[-53.508,-25.4208],[-53.4959,-25.4082],[-53.511,-25.3951],[-53.5002,-25.3829],[-53.4877,-25.3959],[-53.4832,-25.3722],[-53.5023,-25.3545],[-53.475,-25.3501],[-53.3318,-25.3682]]]}},{"type":"Feature","properties":{"codarea":"4103354","centroide":[-53.09119751031953,-24.80171294292967],"codigo_ibge":4103354,"nome_ig":"Oeste do Paraná"},"geometry":{"type":"Polygon","coordinates":[[[-52.979,-24.6698],[-52.9839,-24.6886],[-52.9511,-24.6843],[-52.9634,-24.7047],[-52.9862,-24.7149],[-52.9798,-24.7308],[-52.9923,-24.7695],[-53.0223,-24.7816],[-53.01,-24.7886],[-53.0367,-24.7961],[-53.0424,-24.8085],[-53.0262,-24.8281],[-53.0484,-24.8237],[-53.0443,-24.8417],[-53.0644,-24.8429],[-53.0507,-24.8589],[-53.0566,-24.8736],[-53.0742,-24.8734],[-53.0624,-24.8944],[-53.0863,-24.9018],[-53.083,-24.9194],[-53.0915,-24.9115],[-53.1596,-24.9178],[-53.1651,-24.9431],[-53.1846,-24.9375],[-53.1904,-24.9057],[-53.1758,-24.8595],[-53.1919,-24.8514],[-53.1832,-24.8139],[-53.1983,-24.8074],[-53.1979,-24.7802],[-53.177,-24.7804],[-53.1778,-24.7682],[-53.1579,-24.7686],[-53.1365,-24.7564],[-53.1547,-24.745],[-53.1352,-24.746],[-53.1169,-24.7539],[-53.1037,-24.7465],[-53.0745,-24.754],[-53.0691,-24.7349],[-53.0528,-24.7288],[-53.065,-24.7209],[-53.0527,-24.7031],[-53.0357,-24.7014],[-53.0358,-24.6746],[-53.0483,-24.6657],[-53.0443,-24.6504],[-53.0358,-24.637],[-53.019,-24.6424],[-53.0311,-24.6575],[-53.0248,-24.6669],[-52.9961,-24.6739],[-52.979,-24.6698]]]}},{"type":"Feature","properties":{"codarea":"4103453","centroide":[-53.363413947481284,-24.69165022749678],"codigo_ibge":4103453,"nome_ig":"Oeste do Paraná"},"geometry":{"type":"Polygon","coordinates":[[[-53.2434,-24.6247],[-53.2362,-24.6368],[-53.2639,-24.6594],[-53.2663,-24.6695],[-53.3016,-24.6748],[-53.2929,-24.6897],[-53.3077,-24.6913],[-53.3365,-24.7135],[-53.3314,-24.73],[-53.3581,-24.7342],[-53.353,-24.7421],[-53.3642,-24.7644],[-53.3486,-24.7732],[-53.3452,-24.7903],[-53.396,-24.7979],[-53.4561,-24.7996],[-53.4526,-24.7773],[-53.4569,-24.7437],[-53.441,-24.7061],[-53.4481,-24.6894],[-53.4281,-24.6733],[-53.4283,-24.6464],[-53.3955,-24.6599],[-53.374,-24.6366],[-53.3739,-24.6251],[-53.3476,-24.5889],[-53.3363,-24.582],[-53.315,-24.5982],[-53.2924,-24.5857],[-53.2718,-24.6049],[-53.2672,-24.6223],[-53.2434,-24.6247]]]}},{"type":"Feature","properties":{"codarea":"4104055","centroide":[-53.01363626957688,-24.930603757604604],"codigo_ibge":4104055,"nome_ig":"Oeste do Paraná"},"geometry":{"type":"Polygon","coordinates":[[[-52.9634,-24.7047],[-52.9615,-24.7205],[-52.9481,-24.7238],[-52.9433,-24.708],[-52.9022,-24.7244],[-52.9225,-24.7338],[-52.9196,-24.762],[-52.9301,-24.7715],[-52.9388,-24.8012],[-52.9509,-24.8046],[-52.9564,-24.8264],[-52.9769,-24.8312],[-52.9654,-24.8573],[-52.9832,-24.8671],[-52.9653,-24.8746],[-52.974,-24.8841],[-52.9552,-24.8907],[-52.9825,-24.8983],[-52.9739,-24.9282],[-52.988,-24.9325],[-52.9869,-24.9508],[-52.9749,-24.9559],[-52.9835,-24.9811],[-52.9701,-24.9868],[-52.9643,-25.0181],[-52.9537,-25.0268],[-52.9596,-25.0572],[-52.9493,-25.0905],[-52.9782,-25.1029],[-53.0784,-25.0971],[-53.1009,-25.0957],[-53.0868,-25.0764],[-53.0875,-25.0406],[-53.0744,-25.0267],[-53.073,-24.9854],[-53.0874,-24.9908],[-53.1025,-24.9712],[-53.1094,-24.9421],[-53.083,-24.9194],[-53.0863,-24.9018],[-53.0624,-24.8944],[-53.0742,-24.8734],[-53.0566,-24.8736],[-53.0507,-24.8589],[-53.0644,-24.8429],[-53.0443,-24.8417],[-53.0484,-24.8237],[-53.0262,-24.8281],[-53.0424,-24.8085],[-53.0367,-24.7961],[-53.01,-24.7886],[-53.0223,-24.7816],[-52.9923,-24.7695],[-52.9798,-24.7308],[-52.9862,-24.7149],[-52.9634,-24.7047]]]}},{"type":"Feature","properties":{"codarea":"4104600","centroide":[-53.59261738569885,-25.470641668696217],"codigo_ibge":4104600,"nome_ig":"Oeste do Paraná"},"geometry":{"type":"Polygon","coordinates":[[[-53.5145,-25.4414],[-53.5078,-25.4615],[-53.4752,-25.4622],[-53.4685,-25.4955],[-53.4788,-25.5315],[-53.5,-25.5499],[-53.5366,-25.5462],[-53.5475,-25.5374],[-53.5502,-25.5095],[-53.5629,-25.5072],[-53.5793,-25.5257],[-53.5763,-25.562],[-53.6042,-25.5617],[-53.624,-25.5331],[-53.6544,-25.5116],[-53.6818,-25.5048],[-53.7073,-25.4747],[-53.6885,-25.4691],[-53.6821,-25.4472],[-53.6907,-25.4365],[-53.6722,-25.4283],[-53.6794,-25.3939],[-53.6783,-25.3709],[-53.6618,-25.3779],[-53.6572,-25.3556],[-53.6241,-25.3511],[-53.6219,-25.3752],[-53.6088,-25.3805],[-53.6026,-25.3985],[-53.6098,-25.4099],[-53.6052,-25.4319],[-53.5849,-25.4405],[-53.5625,-25.4351],[-53.5145,-25.4414]]]}},{"type":"Feature","properties":{"codarea":"4104808","centroide":[-53.37869949661864,-25.029071905603367],"codigo_ibge":4104808,"nome_ig":"Oeste do Paraná"},"geometry":{"type":"Polygon","coordinates":[[[-53.4569,-24.7437],[-53.4526,-24.7773],[-53.4561,-24.7996],[-53.396,-24.7979],[-53.3452,-24.7903],[-53.3456,-24.8108],[-53.3688,-24.8065],[-53.4063,-24.8359],[-53.2835,-24.8321],[-53.2728,-24.8384],[-53.2727,-24.9047],[-53.251,-24.9072],[-53.2239,-24.9238],[-53.2071,-24.9534],[-53.1846,-24.9375],[-53.1651,-24.9431],[-53.1596,-24.9178],[-53.0915,-24.9115],[-53.083,-24.9194],[-53.1094,-24.9421],[-53.1025,-24.9712],[-53.0874,-24.9908],[-53.073,-24.9854],[-53.0744,-25.0267],[-53.0875,-25.0406],[-53.0868,-25.0764],[-53.1009,-25.0957],[-53.1345,-25.0933],[-53.1533,-25.1044],[-53.1691,-25.1012],[-53.1837,-25.1163],[-53.2064,-25.1207],[-53.2312,-25.1365],[-53.2264,-25.1642],[-53.2584,-25.1947],[-53.256,-25.2357],[-53.2791,-25.2404],[-53.27,-25.2535],[-53.2727,-25.2825],[-53.3263,-25.3031],[-53.3169,-25.3374],[-53.323,-25.3415],[-53.3153,-25.3704],[-53.3318,-25.3682],[-53.475,-25.3501],[-53.4753,-25.3497],[-53.4697,-25.3355],[-53.4902,-25.32],[-53.4489,-25.3134],[-53.4215,-25.2447],[-53.4491,-25.2336],[-53.4435,-25.2249],[-53.5321,-25.217],[-53.5277,-25.1691],[-53.5327,-25.1359],[-53.5461,-25.1256],[-53.5335,-25.0863],[-53.5215,-25.0906],[-53.5148,-25.071],[-53.5031,-25.0677],[-53.5184,-25.0525],[-53.5585,-25.0264],[-53.5617,-24.9993],[-53.5714,-24.9857],[-53.5483,-24.9592],[-53.555,-24.945],[-53.5945,-24.9268],[-53.6086,-24.9005],[-53.6217,-24.8935],[-53.625,-24.8709],[-53.6461,-24.8606],[-53.6546,-24.8678],[-53.6891,-24.8157],[-53.7236,-24.7944],[-53.6841,-24.7798],[-53.6688,-24.7934],[-53.657,-24.7857],[-53.6317,-24.7868],[-53.6085,-24.8027],[-53.5743,-24.8031],[-53.5563,-24.8317],[-53.5441,-24.8384],[-53.5572,-24.7782],[-53.5368,-24.7605],[-53.537,-24.7467],[-53.5282,-24.7433],[-53.4569,-24.7437]]]}},{"type":"Feature","properties":{"codarea":"4105003","centroide":[-53.15713248767734,-25.24095104877434],"codigo_ibge":4105003,"nome_ig":"Oeste do Paraná"},"geometry":{"type":"Polygon","coordinates":[[[-53.1009,-25.0957],[-53.0784,-25.0971],[-53.076,-25.1204],[-53.097,-25.1602],[-53.0927,-25.1873],[-53.1012,-25.1942],[-52.9698,-25.2089],[-52.986,-25.2107],[-53.0248,-25.259],[-53.0136,-25.2703],[-53.0238,-25.2921],[-53.0372,-25.2979],[-53.051,-25.3249],[-53.0324,-25.3289],[-53.0563,-25.3388],[-53.0634,-25.3541],[-53.0825,-25.3537],[-53.1079,-25.3486],[-53.1273,-25.3271],[-53.182,-25.3289],[-53.2099,-25.3164],[-53.2178,-25.303],[-53.2533,-25.3465],[-53.2546,-25.3626],[-53.2724,-25.3602],[-53.2744,-25.3753],[-53.3153,-25.3704],[-53.323,-25.3415],[-53.3169,-25.3374],[-53.3263,-25.3031],[-53.2727,-25.2825],[-53.27,-25.2535],[-53.2791,-25.2404],[-53.256,-25.2357],[-53.2584,-25.1947],[-53.2264,-25.1642],[-53.2312,-25.1365],[-53.2064,-25.1207],[-53.1837,-25.1163],[-53.1691,-25.1012],[-53.1533,-25.1044],[-53.1345,-25.0933],[-53.1009,-25.0957]]]}},{"type":"Feature","properties":{"codarea":"4105300","centroide":[-53.761142909663846,-25.245103670476652],"codigo_ibge":4105300,"nome_ig":"Oeste do Paraná"},"geometry":{"type":"Polygon","coordinates":[[[-53.7325,-24.9995],[-53.6976,-25.0019],[-53.6669,-25.0178],[-53.6586,-25.0398],[-53.6323,-25.0541],[-53.6242,-25.0803],[-53.6367,-25.1121],[-53.6599,-25.1307],[-53.6549,-25.1465],[-53.6524,-25.2164],[-53.6378,-25.2399],[-53.6544,-25.2589],[-53.6388,-25.2779],[-53.6425,-25.3066],[-53.6342,-25.3141],[-53.657,-25.3272],[-53.6442,-25.3362],[-53.6572,-25.3556],[-53.6618,-25.3779],[-53.6783,-25.3709],[-53.6794,-25.3939],[-53.6722,-25.4283],[-53.6907,-25.4365],[-53.6821,-25.4472],[-53.6885,-25.4691],[-53.7073,-25.4747],[-53.6818,-25.5048],[-53.6936,-25.5289],[-53.7176,-25.552],[-53.7041,-25.5807],[-53.7254,-25.5861],[-53.7575,-25.5529],[-53.7758,-25.5557],[-53.7789,-25.5904],[-53.791,-25.6055],[-53.8104,-25.6031],[-53.818,-25.5897],[-53.7981,-25.5573],[-53.8072,-25.54],[-53.7858,-25.5093],[-53.8091,-25.4999],[-53.8123,-25.4588],[-53.8024,-25.4481],[-53.8017,-25.4172],[-53.8173,-25.41],[-53.8106,-25.3943],[-53.7943,-25.3928],[-53.8098,-25.3801],[-53.7949,-25.3696],[-53.7776,-25.34],[-53.7792,-25.325],[-53.7965,-25.3238],[-53.8005,-25.3016],[-53.8229,-25.3052],[-53.8652,-25.2918],[-53.9068,-25.2692],[-53.8951,-25.2544],[-53.9044,-25.2209],[-53.9004,-25.2008],[-53.9246,-25.1785],[-53.941,-25.1805],[-53.9495,-25.1623],[-53.945,-25.1214],[-53.954,-25.1031],[-53.8137,-25.0966],[-53.8112,-24.9766],[-53.7671,-24.9698],[-53.7512,-24.9898],[-53.7325,-24.9995]]]}},{"type":"Feature","properties":{"codarea":"4106308","centroide":[-53.23667585151358,-24.740461973685015],"codigo_ibge":4106308,"nome_ig":"Oeste do Paraná"},"geometry":{"type":"Polygon","coordinates":[[[-53.1071,-24.5696],[-53.1176,-24.5839],[-53.1381,-24.5804],[-53.1476,-24.5897],[-53.1404,-24.6065],[-53.1623,-24.6095],[-53.1798,-24.6363],[-53.2237,-24.6776],[-53.2063,-24.6786],[-53.1688,-24.6958],[-53.1459,-24.7123],[-53.1423,-24.7274],[-53.1247,-24.7406],[-53.1352,-24.746],[-53.1547,-24.745],[-53.1365,-24.7564],[-53.1579,-24.7686],[-53.1778,-24.7682],[-53.177,-24.7804],[-53.1979,-24.7802],[-53.1983,-24.8074],[-53.1832,-24.8139],[-53.1919,-24.8514],[-53.1758,-24.8595],[-53.1904,-24.9057],[-53.1846,-24.9375],[-53.2071,-24.9534],[-53.2239,-24.9238],[-53.251,-24.9072],[-53.2727,-24.9047],[-53.2728,-24.8384],[-53.2835,-24.8321],[-53.4063,-24.8359],[-53.3688,-24.8065],[-53.3456,-24.8108],[-53.3452,-24.7903],[-53.3486,-24.7732],[-53.3642,-24.7644],[-53.353,-24.7421],[-53.3581,-24.7342],[-53.3314,-24.73],[-53.3365,-24.7135],[-53.3077,-24.6913],[-53.2929,-24.6897],[-53.3016,-24.6748],[-53.2663,-24.6695],[-53.2639,-24.6594],[-53.2362,-24.6368],[-53.2434,-24.6247],[-53.222,-24.6078],[-53.2371,-24.5845],[-53.2087,-24.5458],[-53.1791,-24.5205],[-53.1363,-24.5373],[-53.1225,-24.5636],[-53.1071,-24.5696]]]}},{"type":"Feature","properties":{"codarea":"4107124","centroide":[-52.70299776933397,-24.99494839014417],"codigo_ibge":4107124,"nome_ig":"Oeste do Paraná"},"geometry":{"type":"Polygon","coordinates":[[[-52.6558,-24.9293],[-52.6379,-24.9458],[-52.6629,-24.9565],[-52.6394,-24.9813],[-52.644,-24.9566],[-52.622,-24.9618],[-52.6161,-24.9255],[-52.5846,-24.9578],[-52.5919,-24.9645],[-52.6221,-24.9759],[-52.6004,-25.0146],[-52.6128,-25.0198],[-52.6139,-25.0426],[-52.6615,-25.0704],[-52.6575,-25.1053],[-52.6652,-25.1197],[-52.7016,-25.1446],[-52.7301,-25.1295],[-52.7213,-25.112],[-52.7545,-25.0742],[-52.7564,-25.0469],[-52.768,-25.0334],[-52.7597,-25.0163],[-52.7811,-25.0085],[-52.8032,-24.9818],[-52.7873,-24.9763],[-52.7937,-24.9589],[-52.7832,-24.946],[-52.7941,-24.9278],[-52.7905,-24.9113],[-52.7596,-24.9007],[-52.747,-24.8752],[-52.7412,-24.855],[-52.7177,-24.8577],[-52.7154,-24.8706],[-52.6864,-24.8781],[-52.6946,-24.8946],[-52.662,-24.8941],[-52.6826,-24.931],[-52.6558,-24.9293]]]}},{"type":"Feature","properties":{"codarea":"4107157","centroide":[-54.0999695251802,-24.954593633841853],"codigo_ibge":4107157,"nome_ig":"Oeste do Paraná"},"geometry":{"type":"Polygon","coordinates":[[[-54.0655,-24.8726],[-54.0634,-24.8888],[-54.0446,-24.8906],[-54.0342,-24.9126],[-54.0252,-24.9524],[-53.9655,-25.0765],[-53.9847,-25.0777],[-54.0082,-25.0521],[-54.0103,-25.0315],[-54.0699,-25.0375],[-54.085,-25.0251],[-54.1046,-25.0375],[-54.1267,-25.0224],[-54.1314,-25.0372],[-54.1683,-25.0304],[-54.1644,-25.0177],[-54.145,-24.9839],[-54.2012,-24.9313],[-54.2049,-24.9086],[-54.2199,-24.8985],[-54.22,-24.8688],[-54.2086,-24.8683],[-54.1871,-24.869],[-54.1754,-24.8596],[-54.1602,-24.8716],[-54.1434,-24.8593],[-54.1273,-24.872],[-54.1061,-24.8642],[-54.0953,-24.8786],[-54.0655,-24.8726]]]}},{"type":"Feature","properties":{"codarea":"4107538","centroide":[-54.22276887991115,-24.713255570353816],"codigo_ibge":4107538,"nome_ig":"Oeste do Paraná"},"geometry":{"type":"Polygon","coordinates":[[[-54.1777,-24.6835],[-54.1649,-24.6882],[-54.1787,-24.7225],[-54.1663,-24.7163],[-54.1386,-24.729],[-54.1339,-24.718],[-54.124,-24.7374],[-54.0948,-24.7444],[-54.0962,-24.7549],[-54.1653,-24.7555],[-54.2365,-24.7562],[-54.2369,-24.7368],[-54.2512,-24.7233],[-54.2997,-24.7106],[-54.338,-24.6922],[-54.3255,-24.6609],[-54.3106,-24.6721],[-54.2904,-24.6607],[-54.2381,-24.6885],[-54.2343,-24.6815],[-54.2084,-24.6888],[-54.1924,-24.6793],[-54.1777,-24.6835]]]}},{"type":"Feature","properties":{"codarea":"4108205","centroide":[-53.331498643478454,-24.292873111704218],"codigo_ibge":4108205,"nome_ig":"Oeste do Paraná"},"geometry":{"type":"Polygon","coordinates":[[[-53.2402,-24.1663],[-53.2644,-24.218],[-53.2574,-24.2325],[-53.2783,-24.2535],[-53.2772,-24.2735],[-53.2896,-24.3063],[-53.2743,-24.3179],[-53.2747,-24.3376],[-53.2523,-24.3956],[-53.2616,-24.3971],[-53.2481,-24.4194],[-53.2896,-24.4208],[-53.3186,-24.4302],[-53.3285,-24.3746],[-53.3451,-24.3652],[-53.3468,-24.3453],[-53.376,-24.2876],[-53.3945,-24.2984],[-53.429,-24.3036],[-53.4612,-24.285],[-53.4704,-24.2716],[-53.4587,-24.2394],[-53.4681,-24.2211],[-53.4368,-24.238],[-53.3621,-24.2516],[-53.3356,-24.2283],[-53.3208,-24.1983],[-53.3046,-24.1983],[-53.2968,-24.182],[-53.2812,-24.1836],[-53.2832,-24.1648],[-53.2615,-24.1729],[-53.2402,-24.1663]]]}},{"type":"Feature","properties":{"codarea":"4108304","centroide":[-54.48311902297759,-25.466244910428827],"codigo_ibge":4108304,"nome_ig":"Oeste do Paraná"},"geometry":{"type":"Polygon","coordinates":[[[-54.4709,-25.2122],[-54.4606,-25.2273],[-54.411,-25.2366],[-54.4102,-25.2471],[-54.3915,-25.2356],[-54.3851,-25.2596],[-54.3931,-25.301],[-54.3876,-25.3133],[-54.3991,-25.377],[-54.4163,-25.3696],[-54.4208,-25.3555],[-54.4408,-25.3489],[-54.4432,-25.3344],[-54.4669,-25.3246],[-54.4857,-25.341],[-54.4863,-25.5524],[-54.4651,-25.5521],[-54.3269,-25.5333],[-54.3075,-25.5376],[-54.2963,-25.5575],[-54.3289,-25.5719],[-54.3454,-25.6049],[-54.3712,-25.5944],[-54.3912,-25.607],[-54.397,-25.6397],[-54.4252,-25.6589],[-54.4238,-25.6928],[-54.4352,-25.6968],[-54.4452,-25.6656],[-54.4702,-25.6357],[-54.5007,-25.6143],[-54.5263,-25.6288],[-54.536,-25.6207],[-54.5355,-25.5977],[-54.5528,-25.5881],[-54.5935,-25.5922],[-54.5944,-25.5366],[-54.6009,-25.4846],[-54.6173,-25.4694],[-54.6193,-25.454],[-54.6031,-25.4413],[-54.5874,-25.3976],[-54.5649,-25.3677],[-54.5418,-25.3493],[-54.5007,-25.2988],[-54.4909,-25.2756],[-54.4818,-25.2331],[-54.4709,-25.2122]]]}},{"type":"Feature","properties":{"codarea":"4108809","centroide":[-54.23036504131874,-24.190777398124343],"codigo_ibge":4108809,"nome_ig":"Oeste do Paraná"},"geometry":{"type":"Polygon","coordinates":[[[-54.0984,-24.025],[-54.1179,-24.0404],[-54.168,-24.061],[-54.1636,-24.167],[-54.1633,-24.2473],[-54.1789,-24.2762],[-54.1414,-24.2946],[-54.148,-24.3174],[-54.1744,-24.3403],[-54.1717,-24.3774],[-54.192,-24.3712],[-54.2039,-24.3811],[-54.2528,-24.3852],[-54.2645,-24.3724],[-54.2585,-24.3506],[-54.2737,-24.2973],[-54.2904,-24.2762],[-54.3228,-24.2508],[-54.3233,-24.2143],[-54.3305,-24.1835],[-54.3428,-24.1631],[-54.3374,-24.1222],[-54.3066,-24.0981],[-54.2767,-24.0622],[-54.2494,-24.0559],[-54.2272,-24.0432],[-54.169,-23.9989],[-54.0984,-24.025]]]}},{"type":"Feature","properties":{"codarea":"4109302","centroide":[-52.86541433211569,-25.05578086036341],"codigo_ibge":4109302,"nome_ig":"Oeste do Paraná"},"geometry":{"type":"Polygon","coordinates":[[[-52.86,-24.7585],[-52.8668,-24.8034],[-52.8504,-24.7926],[-52.8313,-24.8154],[-52.802,-24.807],[-52.7961,-24.7974],[-52.7757,-24.805],[-52.8073,-24.8272],[-52.7963,-24.8444],[-52.775,-24.8465],[-52.7758,-24.8364],[-52.7504,-24.85],[-52.7498,-24.8607],[-52.7738,-24.8566],[-52.747,-24.8752],[-52.7596,-24.9007],[-52.7905,-24.9113],[-52.7941,-24.9278],[-52.7832,-24.946],[-52.7937,-24.9589],[-52.7873,-24.9763],[-52.8032,-24.9818],[-52.7811,-25.0085],[-52.7597,-25.0163],[-52.768,-25.0334],[-52.7564,-25.0469],[-52.7545,-25.0742],[-52.7213,-25.112],[-52.7301,-25.1295],[-52.7016,-25.1446],[-52.6652,-25.1197],[-52.669,-25.1459],[-52.6912,-25.1643],[-52.6723,-25.1731],[-52.6544,-25.2006],[-52.6922,-25.2077],[-52.7009,-25.2173],[-52.7217,-25.2125],[-52.7359,-25.226],[-52.77,-25.2368],[-52.7763,-25.2478],[-52.8044,-25.2489],[-52.8434,-25.2583],[-52.8399,-25.2735],[-52.8695,-25.274],[-52.8871,-25.2906],[-52.9095,-25.2663],[-52.9162,-25.2793],[-52.9314,-25.2982],[-52.9486,-25.287],[-52.9488,-25.2987],[-52.9701,-25.306],[-52.9855,-25.3012],[-53.0068,-25.3402],[-53.0114,-25.3283],[-53.0324,-25.3289],[-53.051,-25.3249],[-53.0372,-25.2979],[-53.0238,-25.2921],[-53.0136,-25.2703],[-53.0248,-25.259],[-52.986,-25.2107],[-52.9698,-25.2089],[-52.963,-25.166],[-52.951,-25.1661],[-52.9574,-25.1174],[-52.9782,-25.1029],[-52.9493,-25.0905],[-52.9596,-25.0572],[-52.9537,-25.0268],[-52.9643,-25.0181],[-52.9701,-24.9868],[-52.9835,-24.9811],[-52.9749,-24.9559],[-52.9869,-24.9508],[-52.988,-24.9325],[-52.9739,-24.9282],[-52.9825,-24.8983],[-52.9552,-24.8907],[-52.974,-24.8841],[-52.9653,-24.8746],[-52.9832,-24.8671],[-52.9654,-24.8573],[-52.9769,-24.8312],[-52.9564,-24.8264],[-52.9509,-24.8046],[-52.9388,-24.8012],[-52.9301,-24.7715],[-52.9196,-24.762],[-52.8775,-24.7512],[-52.86,-24.7585]]]}},{"type":"Feature","properties":{"codarea":"4109757","centroide":[-53.02353973139167,-25.15259490944623],"codigo_ibge":4109757,"nome_ig":"Oeste do Paraná"},"geometry":{"type":"Polygon","coordinates":[[[-52.9782,-25.1029],[-52.9574,-25.1174],[-52.951,-25.1661],[-52.963,-25.166],[-52.9698,-25.2089],[-53.1012,-25.1942],[-53.0927,-25.1873],[-53.097,-25.1602],[-53.076,-25.1204],[-53.0784,-25.0971],[-52.9782,-25.1029]]]}},{"type":"Feature","properties":{"codarea":"4110052","centroide":[-53.08695298526138,-24.687022594604727],"codigo_ibge":4110052,"nome_ig":"Oeste do Paraná"},"geometry":{"type":"Polygon","coordinates":[[[-53.0443,-24.6504],[-53.0483,-24.6657],[-53.0358,-24.6746],[-53.0357,-24.7014],[-53.0527,-24.7031],[-53.065,-24.7209],[-53.0528,-24.7288],[-53.0691,-24.7349],[-53.0745,-24.754],[-53.1037,-24.7465],[-53.1169,-24.7539],[-53.1352,-24.746],[-53.1247,-24.7406],[-53.1423,-24.7274],[-53.1459,-24.7123],[-53.1406,-24.6942],[-53.1142,-24.6807],[-53.1095,-24.6591],[-53.0919,-24.651],[-53.1042,-24.6378],[-53.0837,-24.6325],[-53.1116,-24.6269],[-53.0854,-24.6111],[-53.0438,-24.6102],[-53.0451,-24.6276],[-53.0688,-24.6428],[-53.0443,-24.6504]]]}},{"type":"Feature","properties":{"codarea":"4110656","centroide":[-53.35229478832774,-24.436486883667474],"codigo_ibge":4110656,"nome_ig":"Oeste do Paraná"},"geometry":{"type":"Polygon","coordinates":[[[-53.3186,-24.4302],[-53.3202,-24.4841],[-53.3351,-24.4815],[-53.3514,-24.498],[-53.3801,-24.4939],[-53.3894,-24.4093],[-53.3695,-24.3892],[-53.3513,-24.3813],[-53.3451,-24.3652],[-53.3285,-24.3746],[-53.3186,-24.4302]]]}},{"type":"Feature","properties":{"codarea":"4110953","centroide":[-54.35866326508557,-25.155900767435917],"codigo_ibge":4110953,"nome_ig":"Oeste do Paraná"},"geometry":{"type":"Polygon","coordinates":[[[-54.4014,-25.0339],[-54.4184,-25.0601],[-54.3889,-25.0636],[-54.3657,-25.0767],[-54.3589,-25.0959],[-54.3309,-25.1047],[-54.3275,-25.119],[-54.3063,-25.1281],[-54.2897,-25.118],[-54.2748,-25.1427],[-54.224,-25.1608],[-54.2182,-25.1848],[-54.2012,-25.1941],[-54.1935,-25.218],[-54.2109,-25.2257],[-54.2455,-25.2285],[-54.2713,-25.2176],[-54.2908,-25.1992],[-54.3042,-25.2167],[-54.3302,-25.2181],[-54.3447,-25.207],[-54.3609,-25.2105],[-54.3588,-25.2347],[-54.3915,-25.2356],[-54.4102,-25.2471],[-54.411,-25.2366],[-54.4606,-25.2273],[-54.4709,-25.2122],[-54.4484,-25.1735],[-54.4303,-25.1594],[-54.4334,-25.1316],[-54.4588,-25.104],[-54.4594,-25.039],[-54.4265,-25.0248],[-54.4199,-25.0381],[-54.4014,-25.0339]]]}},{"type":"Feature","properties":{"codarea":"4112751","centroide":[-53.410486293429315,-24.41264901327357],"codigo_ibge":4112751,"nome_ig":"Oeste do Paraná"},"geometry":{"type":"Polygon","coordinates":[[[-53.4612,-24.285],[-53.429,-24.3036],[-53.3945,-24.2984],[-53.376,-24.2876],[-53.3468,-24.3453],[-53.3451,-24.3652],[-53.3513,-24.3813],[-53.3695,-24.3892],[-53.3894,-24.4093],[-53.3801,-24.4939],[-53.3514,-24.498],[-53.3423,-24.5178],[-53.3511,-24.5435],[-53.4442,-24.5394],[-53.4475,-24.498],[-53.4693,-24.4752],[-53.4451,-24.4563],[-53.4599,-24.4282],[-53.4464,-24.4093],[-53.4702,-24.3939],[-53.4704,-24.3719],[-53.4504,-24.3777],[-53.4598,-24.3647],[-53.449,-24.3562],[-53.461,-24.346],[-53.4732,-24.3071],[-53.4612,-24.285]]]}},{"type":"Feature","properties":{"codarea":"4113452","centroide":[-53.55720652320903,-25.261206345710733],"codigo_ibge":4113452,"nome_ig":"Oeste do Paraná"},"geometry":{"type":"Polygon","coordinates":[[[-53.5277,-25.1691],[-53.5321,-25.217],[-53.4435,-25.2249],[-53.4491,-25.2336],[-53.4215,-25.2447],[-53.4489,-25.3134],[-53.4902,-25.32],[-53.4697,-25.3355],[-53.4753,-25.3497],[-53.5477,-25.3422],[-53.6241,-25.3511],[-53.6572,-25.3556],[-53.6442,-25.3362],[-53.657,-25.3272],[-53.6342,-25.3141],[-53.6425,-25.3066],[-53.6388,-25.2779],[-53.6544,-25.2589],[-53.6378,-25.2399],[-53.6524,-25.2164],[-53.6549,-25.1465],[-53.6346,-25.1457],[-53.6239,-25.163],[-53.599,-25.16],[-53.5874,-25.1683],[-53.5277,-25.1691]]]}},{"type":"Feature","properties":{"codarea":"4114609","centroide":[-54.137800605331115,-24.571204740140764],"codigo_ibge":4114609,"nome_ig":"Oeste do Paraná"},"geometry":{"type":"Polygon","coordinates":[[[-53.9876,-24.4849],[-53.995,-24.4961],[-54.0267,-24.5003],[-54.0132,-24.5126],[-54.0098,-24.5837],[-54.0191,-24.5911],[-53.9962,-24.6046],[-54.0052,-24.6584],[-54.032,-24.6556],[-54.0426,-24.6683],[-54.032,-24.6956],[-54.0183,-24.7115],[-54.0353,-24.7265],[-54.0293,-24.7407],[-54.0632,-24.7633],[-54.0962,-24.7549],[-54.0948,-24.7444],[-54.124,-24.7374],[-54.1339,-24.718],[-54.1386,-24.729],[-54.1663,-24.7163],[-54.1787,-24.7225],[-54.1649,-24.6882],[-54.1777,-24.6835],[-54.1846,-24.637],[-54.1695,-24.6175],[-54.2237,-24.5869],[-54.281,-24.5829],[-54.2889,-24.5957],[-54.3175,-24.5906],[-54.3351,-24.5329],[-54.337,-24.5005],[-54.323,-24.4585],[-54.2966,-24.4267],[-54.2625,-24.4491],[-54.2548,-24.4622],[-54.2388,-24.4612],[-54.2251,-24.4838],[-54.2049,-24.4991],[-54.1596,-24.4984],[-54.1526,-24.4848],[-54.1203,-24.4922],[-54.1203,-24.4767],[-54.0978,-24.4766],[-54.099,-24.451],[-54.0901,-24.4404],[-54.0984,-24.4189],[-54.0825,-24.4103],[-54.0834,-24.4248],[-54.0679,-24.4295],[-54.0562,-24.4198],[-54.0312,-24.4164],[-53.9996,-24.4414],[-53.9998,-24.4731],[-53.9876,-24.4849]]]}},{"type":"Feature","properties":{"codarea":"4115358","centroide":[-53.79137894414768,-24.444768285828076],"codigo_ibge":4115358,"nome_ig":"Oeste do Paraná"},"geometry":{"type":"Polygon","coordinates":[[[-53.7154,-24.4674],[-53.7154,-24.5751],[-53.7315,-24.5771],[-53.7412,-24.5603],[-53.7695,-24.5503],[-53.7832,-24.5194],[-53.8073,-24.5105],[-53.8124,-24.4829],[-53.8455,-24.4551],[-53.8716,-24.4554],[-53.8816,-24.4675],[-53.9063,-24.4567],[-53.8912,-24.4316],[-53.9106,-24.4313],[-53.9018,-24.4182],[-53.8991,-24.3853],[-53.9074,-24.3699],[-53.7148,-24.3695],[-53.7154,-24.4674]]]}},{"type":"Feature","properties":{"codarea":"4115606","centroide":[-53.90551897382954,-25.351069282850986],"codigo_ibge":4115606,"nome_ig":"Oeste do Paraná"},"geometry":{"type":"Polygon","coordinates":[[[-53.9655,-25.0765],[-53.954,-25.1031],[-53.945,-25.1214],[-53.9495,-25.1623],[-53.941,-25.1805],[-53.9246,-25.1785],[-53.9004,-25.2008],[-53.9044,-25.2209],[-53.8951,-25.2544],[-53.9068,-25.2692],[-53.8652,-25.2918],[-53.8229,-25.3052],[-53.8005,-25.3016],[-53.7965,-25.3238],[-53.7792,-25.325],[-53.7776,-25.34],[-53.7949,-25.3696],[-53.8098,-25.3801],[-53.7943,-25.3928],[-53.8106,-25.3943],[-53.8173,-25.41],[-53.8017,-25.4172],[-53.8024,-25.4481],[-53.8123,-25.4588],[-53.8091,-25.4999],[-53.7858,-25.5093],[-53.8072,-25.54],[-53.8188,-25.5399],[-53.8958,-25.5949],[-53.9165,-25.5829],[-53.8938,-25.5826],[-53.9111,-25.5657],[-53.8968,-25.5367],[-53.9026,-25.512],[-53.9137,-25.5012],[-53.9053,-25.4847],[-53.9285,-25.4576],[-53.946,-25.4639],[-53.9563,-25.426],[-53.9578,-25.3905],[-53.9929,-25.3631],[-54.0085,-25.3326],[-54.0109,-25.175],[-54.0213,-25.1752],[-54.0211,-25.1454],[-53.9961,-25.1555],[-53.9862,-25.1498],[-54.0006,-25.1275],[-53.9809,-25.1286],[-53.9778,-25.0917],[-53.9847,-25.0777],[-53.9655,-25.0765]]]}},{"type":"Feature","properties":{"codarea":"4115804","centroide":[-54.09232764380879,-25.262625893656562],"codigo_ibge":4115804,"nome_ig":"Oeste do Paraná"},"geometry":{"type":"Polygon","coordinates":[[[-54.0996,-25.1662],[-54.0993,-25.1765],[-54.0213,-25.1752],[-54.0109,-25.175],[-54.0085,-25.3326],[-53.9929,-25.3631],[-54.0149,-25.3616],[-54.0432,-25.3343],[-54.0853,-25.3611],[-54.1138,-25.3615],[-54.1257,-25.3568],[-54.1492,-25.3305],[-54.1707,-25.3342],[-54.1754,-25.2732],[-54.1832,-25.257],[-54.1778,-25.235],[-54.1935,-25.218],[-54.2012,-25.1941],[-54.1792,-25.1948],[-54.1752,-25.1753],[-54.1561,-25.1938],[-54.14,-25.1745],[-54.128,-25.1834],[-54.0996,-25.1662]]]}},{"type":"Feature","properties":{"codarea":"4115853","centroide":[-54.18628918129604,-24.433313413779675],"codigo_ibge":4115853,"nome_ig":"Oeste do Paraná"},"geometry":{"type":"Polygon","coordinates":[[[-54.121,-24.3899],[-54.0986,-24.4009],[-54.0984,-24.4189],[-54.0901,-24.4404],[-54.099,-24.451],[-54.0978,-24.4766],[-54.1203,-24.4767],[-54.1203,-24.4922],[-54.1526,-24.4848],[-54.1596,-24.4984],[-54.2049,-24.4991],[-54.2251,-24.4838],[-54.2388,-24.4612],[-54.2548,-24.4622],[-54.2625,-24.4491],[-54.2966,-24.4267],[-54.2645,-24.3724],[-54.2528,-24.3852],[-54.2039,-24.3811],[-54.192,-24.3712],[-54.1717,-24.3774],[-54.1433,-24.3802],[-54.15,-24.3904],[-54.121,-24.3899]]]}},{"type":"Feature","properties":{"codarea":"4116059","centroide":[-54.24034986814935,-25.096123120898547],"codigo_ibge":4116059,"nome_ig":"Oeste do Paraná"},"geometry":{"type":"Polygon","coordinates":[[[-54.1683,-25.0304],[-54.1943,-25.1127],[-54.1006,-25.1109],[-54.0996,-25.1662],[-54.128,-25.1834],[-54.14,-25.1745],[-54.1561,-25.1938],[-54.1752,-25.1753],[-54.1792,-25.1948],[-54.2012,-25.1941],[-54.2182,-25.1848],[-54.224,-25.1608],[-54.2748,-25.1427],[-54.2897,-25.118],[-54.3063,-25.1281],[-54.3275,-25.119],[-54.3309,-25.1047],[-54.3589,-25.0959],[-54.3657,-25.0767],[-54.3889,-25.0636],[-54.4184,-25.0601],[-54.4014,-25.0339],[-54.3556,-25.0319],[-54.3441,-25.027],[-54.3266,-25.0399],[-54.307,-25.0357],[-54.2993,-25.0208],[-54.1644,-25.0177],[-54.1683,-25.0304]]]}},{"type":"Feature","properties":{"codarea":"4116703","centroide":[-53.27724441208124,-24.50194199808361],"codigo_ibge":4116703,"nome_ig":"Oeste do Paraná"},"geometry":{"type":"Polygon","coordinates":[[[-53.1593,-24.3946],[-53.1519,-24.4172],[-53.1688,-24.4371],[-53.1616,-24.449],[-53.1634,-24.4904],[-53.1791,-24.5205],[-53.2087,-24.5458],[-53.2371,-24.5845],[-53.222,-24.6078],[-53.2434,-24.6247],[-53.2672,-24.6223],[-53.2718,-24.6049],[-53.2924,-24.5857],[-53.315,-24.5982],[-53.3363,-24.582],[-53.3476,-24.5889],[-53.3739,-24.6251],[-53.374,-24.6366],[-53.3955,-24.6599],[-53.4283,-24.6464],[-53.4292,-24.5754],[-53.4402,-24.5673],[-53.4442,-24.5394],[-53.3511,-24.5435],[-53.3423,-24.5178],[-53.3514,-24.498],[-53.3351,-24.4815],[-53.3202,-24.4841],[-53.3186,-24.4302],[-53.2896,-24.4208],[-53.2481,-24.4194],[-53.2616,-24.3971],[-53.2523,-24.3956],[-53.2747,-24.3376],[-53.2432,-24.3316],[-53.2225,-24.3551],[-53.2101,-24.3417],[-53.1928,-24.3588],[-53.1686,-24.3633],[-53.1593,-24.3946]]]}},{"type":"Feature","properties":{"codarea":"4117222","centroide":[-53.957508044139786,-24.440200188114645],"codigo_ibge":4117222,"nome_ig":"Oeste do Paraná"},"geometry":{"type":"Polygon","coordinates":[[[-53.9074,-24.3699],[-53.8991,-24.3853],[-53.9018,-24.4182],[-53.9106,-24.4313],[-53.8912,-24.4316],[-53.9063,-24.4567],[-53.8816,-24.4675],[-53.8661,-24.4737],[-53.8555,-24.5129],[-53.8923,-24.5275],[-53.9159,-24.5129],[-53.9595,-24.5066],[-53.9735,-24.4865],[-53.9876,-24.4849],[-53.9998,-24.4731],[-53.9996,-24.4414],[-54.0312,-24.4164],[-54.0562,-24.4198],[-54.0679,-24.4295],[-54.0834,-24.4248],[-54.0825,-24.4103],[-54.0984,-24.4189],[-54.0986,-24.4009],[-54.121,-24.3899],[-53.9672,-24.3897],[-53.9665,-24.3698],[-53.9074,-24.3699]]]}},{"type":"Feature","properties":{"codarea":"4117453","centroide":[-53.90906549399109,-24.793940769538633],"codigo_ibge":4117453,"nome_ig":"Oeste do Paraná"},"geometry":{"type":"Polygon","coordinates":[[[-53.8491,-24.8763],[-53.9127,-24.8788],[-53.9241,-24.853],[-53.9451,-24.8528],[-53.9446,-24.8427],[-53.9659,-24.8484],[-53.9688,-24.8299],[-53.9874,-24.8279],[-53.9791,-24.8128],[-54.0013,-24.7826],[-54.0155,-24.7905],[-54.0258,-24.7748],[-54.0356,-24.7892],[-54.0391,-24.7709],[-54.0632,-24.7633],[-54.0293,-24.7407],[-53.9888,-24.7229],[-53.976,-24.7339],[-53.9553,-24.7228],[-53.9243,-24.7175],[-53.8905,-24.7329],[-53.8541,-24.743],[-53.8081,-24.7694],[-53.7869,-24.8278],[-53.8223,-24.8548],[-53.8364,-24.8561],[-53.8491,-24.8763]]]}},{"type":"Feature","properties":{"codarea":"4117909","centroide":[-53.82454705319456,-24.274360894866547],"codigo_ibge":4117909,"nome_ig":"Oeste do Paraná"},"geometry":{"type":"Polygon","coordinates":[[[-53.7656,-24.1598],[-53.7449,-24.1495],[-53.7358,-24.1682],[-53.746,-24.1881],[-53.709,-24.179],[-53.6924,-24.2022],[-53.6976,-24.2387],[-53.6716,-24.2586],[-53.6697,-24.2813],[-53.6873,-24.2816],[-53.6997,-24.2962],[-53.704,-24.328],[-53.6865,-24.3695],[-53.6633,-24.3792],[-53.6916,-24.4402],[-53.7037,-24.444],[-53.7154,-24.4674],[-53.7148,-24.3695],[-53.9074,-24.3699],[-53.9665,-24.3698],[-53.9607,-24.217],[-53.9586,-24.1203],[-53.942,-24.1214],[-53.9103,-24.1381],[-53.925,-24.1583],[-53.907,-24.1755],[-53.8794,-24.1795],[-53.8655,-24.191],[-53.8354,-24.1678],[-53.8094,-24.1859],[-53.7983,-24.1686],[-53.7656,-24.1598]]]}},{"type":"Feature","properties":{"codarea":"4118451","centroide":[-54.248924843595496,-24.634343108424478],"codigo_ibge":4118451,"nome_ig":"Oeste do Paraná"},"geometry":{"type":"Polygon","coordinates":[[[-54.1777,-24.6835],[-54.1924,-24.6793],[-54.2084,-24.6888],[-54.2343,-24.6815],[-54.2381,-24.6885],[-54.2904,-24.6607],[-54.3106,-24.6721],[-54.3255,-24.6609],[-54.3175,-24.5906],[-54.2889,-24.5957],[-54.281,-24.5829],[-54.2237,-24.5869],[-54.1695,-24.6175],[-54.1846,-24.637],[-54.1777,-24.6835]]]}},{"type":"Feature","properties":{"codarea":"4120853","centroide":[-53.97573493418617,-24.57123463907241],"codigo_ibge":4120853,"nome_ig":"Oeste do Paraná"},"geometry":{"type":"Polygon","coordinates":[[[-53.9595,-24.5066],[-53.9514,-24.5226],[-53.9584,-24.5367],[-53.9349,-24.5506],[-53.9184,-24.5701],[-53.9265,-24.5924],[-53.9605,-24.6293],[-53.9583,-24.6439],[-53.9876,-24.6644],[-54.0052,-24.6584],[-53.9962,-24.6046],[-54.0191,-24.5911],[-54.0098,-24.5837],[-54.0132,-24.5126],[-54.0267,-24.5003],[-53.995,-24.4961],[-53.9876,-24.4849],[-53.9735,-24.4865],[-53.9595,-24.5066]]]}},{"type":"Feature","properties":{"codarea":"4121257","centroide":[-54.07559817682373,-25.094421258823417],"codigo_ibge":4121257,"nome_ig":"Oeste do Paraná"},"geometry":{"type":"Polygon","coordinates":[[[-53.9847,-25.0777],[-53.9778,-25.0917],[-53.9809,-25.1286],[-54.0006,-25.1275],[-53.9862,-25.1498],[-53.9961,-25.1555],[-54.0211,-25.1454],[-54.0213,-25.1752],[-54.0993,-25.1765],[-54.0996,-25.1662],[-54.1006,-25.1109],[-54.1943,-25.1127],[-54.1683,-25.0304],[-54.1314,-25.0372],[-54.1267,-25.0224],[-54.1046,-25.0375],[-54.085,-25.0251],[-54.0699,-25.0375],[-54.0103,-25.0315],[-54.0082,-25.0521],[-53.9847,-25.0777]]]}},{"type":"Feature","properties":{"codarea":"4123501","centroide":[-54.30597809753669,-24.889251762752785],"codigo_ibge":4123501,"nome_ig":"Oeste do Paraná"},"geometry":{"type":"Polygon","coordinates":[[[-54.1653,-24.7555],[-54.1822,-24.7835],[-54.1825,-24.8084],[-54.2037,-24.8078],[-54.2035,-24.8385],[-54.2143,-24.8575],[-54.2086,-24.8683],[-54.22,-24.8688],[-54.2199,-24.8985],[-54.2049,-24.9086],[-54.2012,-24.9313],[-54.145,-24.9839],[-54.1644,-25.0177],[-54.2993,-25.0208],[-54.307,-25.0357],[-54.3266,-25.0399],[-54.3441,-25.027],[-54.3556,-25.0319],[-54.4014,-25.0339],[-54.4199,-25.0381],[-54.4265,-25.0248],[-54.4594,-25.039],[-54.4426,-24.9901],[-54.4419,-24.9491],[-54.4156,-24.8829],[-54.4094,-24.8425],[-54.3822,-24.7682],[-54.3578,-24.7432],[-54.338,-24.6922],[-54.2997,-24.7106],[-54.2512,-24.7233],[-54.2369,-24.7368],[-54.2365,-24.7562],[-54.1653,-24.7555]]]}},{"type":"Feature","properties":{"codarea":"4123824","centroide":[-53.55340683787664,-25.389129369429178],"codigo_ibge":4123824,"nome_ig":"Oeste do Paraná"},"geometry":{"type":"Polygon","coordinates":[[[-53.4753,-25.3497],[-53.475,-25.3501],[-53.5023,-25.3545],[-53.4832,-25.3722],[-53.4877,-25.3959],[-53.5002,-25.3829],[-53.511,-25.3951],[-53.4959,-25.4082],[-53.508,-25.4208],[-53.4953,-25.4258],[-53.5145,-25.4414],[-53.5625,-25.4351],[-53.5849,-25.4405],[-53.6052,-25.4319],[-53.6098,-25.4099],[-53.6026,-25.3985],[-53.6088,-25.3805],[-53.6219,-25.3752],[-53.6241,-25.3511],[-53.5477,-25.3422],[-53.4753,-25.3497]]]}},{"type":"Feature","properties":{"codarea":"4124020","centroide":[-53.60511460971185,-25.036929878886657],"codigo_ibge":4124020,"nome_ig":"Oeste do Paraná"},"geometry":{"type":"Polygon","coordinates":[[[-53.5277,-25.1691],[-53.5874,-25.1683],[-53.599,-25.16],[-53.6239,-25.163],[-53.6346,-25.1457],[-53.6549,-25.1465],[-53.6599,-25.1307],[-53.6367,-25.1121],[-53.6242,-25.0803],[-53.6323,-25.0541],[-53.6586,-25.0398],[-53.6669,-25.0178],[-53.6976,-25.0019],[-53.7325,-24.9995],[-53.7227,-24.9705],[-53.7089,-24.9784],[-53.6743,-24.9577],[-53.6844,-24.9397],[-53.6657,-24.9418],[-53.6366,-24.9339],[-53.6356,-24.8815],[-53.625,-24.8709],[-53.6217,-24.8935],[-53.6086,-24.9005],[-53.5945,-24.9268],[-53.555,-24.945],[-53.5483,-24.9592],[-53.5714,-24.9857],[-53.5617,-24.9993],[-53.5585,-25.0264],[-53.5184,-25.0525],[-53.5031,-25.0677],[-53.5148,-25.071],[-53.5215,-25.0906],[-53.5335,-25.0863],[-53.5461,-25.1256],[-53.5327,-25.1359],[-53.5277,-25.1691]]]}},{"type":"Feature","properties":{"codarea":"4124053","centroide":[-54.42766051148049,-25.45649321713395],"codigo_ibge":4124053,"nome_ig":"Oeste do Paraná"},"geometry":{"type":"Polygon","coordinates":[[[-54.3991,-25.377],[-54.399,-25.4006],[-54.3868,-25.4214],[-54.3433,-25.4544],[-54.3641,-25.489],[-54.3442,-25.5002],[-54.3362,-25.5271],[-54.3269,-25.5333],[-54.4651,-25.5521],[-54.4863,-25.5524],[-54.4857,-25.341],[-54.4669,-25.3246],[-54.4432,-25.3344],[-54.4408,-25.3489],[-54.4208,-25.3555],[-54.4163,-25.3696],[-54.3991,-25.377]]]}},{"type":"Feature","properties":{"codarea":"4125456","centroide":[-54.11860654847358,-24.815116926418177],"codigo_ibge":4125456,"nome_ig":"Oeste do Paraná"},"geometry":{"type":"Polygon","coordinates":[[[-54.0632,-24.7633],[-54.0391,-24.7709],[-54.0356,-24.7892],[-54.0334,-24.8298],[-54.0532,-24.8429],[-54.0655,-24.8726],[-54.0953,-24.8786],[-54.1061,-24.8642],[-54.1273,-24.872],[-54.1434,-24.8593],[-54.1602,-24.8716],[-54.1754,-24.8596],[-54.1871,-24.869],[-54.2086,-24.8683],[-54.2143,-24.8575],[-54.2035,-24.8385],[-54.2037,-24.8078],[-54.1825,-24.8084],[-54.1822,-24.7835],[-54.1653,-24.7555],[-54.0962,-24.7549],[-54.0632,-24.7633]]]}},{"type":"Feature","properties":{"codarea":"4125704","centroide":[-54.262026349349185,-25.38745555955653],"codigo_ibge":4125704,"nome_ig":"Oeste do Paraná"},"geometry":{"type":"Polygon","coordinates":[[[-54.1935,-25.218],[-54.1778,-25.235],[-54.1832,-25.257],[-54.1754,-25.2732],[-54.1707,-25.3342],[-54.1492,-25.3305],[-54.1257,-25.3568],[-54.1138,-25.3615],[-54.1069,-25.3833],[-54.1204,-25.3836],[-54.1409,-25.4083],[-54.1248,-25.4215],[-54.1421,-25.4367],[-54.1258,-25.4509],[-54.1363,-25.4669],[-54.1314,-25.4805],[-54.1463,-25.4847],[-54.1522,-25.5011],[-54.1436,-25.5205],[-54.1631,-25.5426],[-54.1971,-25.535],[-54.203,-25.5588],[-54.1803,-25.5658],[-54.1764,-25.5844],[-54.2031,-25.5804],[-54.2229,-25.5648],[-54.237,-25.5673],[-54.2341,-25.5875],[-54.2537,-25.5964],[-54.2794,-25.558],[-54.2963,-25.5575],[-54.3075,-25.5376],[-54.3269,-25.5333],[-54.3362,-25.5271],[-54.3442,-25.5002],[-54.3641,-25.489],[-54.3433,-25.4544],[-54.3868,-25.4214],[-54.399,-25.4006],[-54.3991,-25.377],[-54.3876,-25.3133],[-54.3931,-25.301],[-54.3851,-25.2596],[-54.3915,-25.2356],[-54.3588,-25.2347],[-54.3609,-25.2105],[-54.3447,-25.207],[-54.3302,-25.2181],[-54.3042,-25.2167],[-54.2908,-25.1992],[-54.2713,-25.2176],[-54.2455,-25.2285],[-54.2109,-25.2257],[-54.1935,-25.218]]]}},{"type":"Feature","properties":{"codarea":"4125753","centroide":[-53.89166854627209,-24.906174648228326],"codigo_ibge":4125753,"nome_ig":"Oeste do Paraná"},"geometry":{"type":"Polygon","coordinates":[[[-53.8491,-24.8763],[-53.8305,-24.9079],[-53.7926,-24.9095],[-53.793,-24.9027],[-53.7568,-24.9224],[-53.7443,-24.921],[-53.7353,-24.9396],[-53.6844,-24.9397],[-53.6743,-24.9577],[-53.7089,-24.9784],[-53.7227,-24.9705],[-53.7325,-24.9995],[-53.7512,-24.9898],[-53.7671,-24.9698],[-53.8112,-24.9766],[-53.8505,-24.9713],[-53.8551,-24.9855],[-53.8955,-24.9881],[-53.8893,-24.9765],[-53.9122,-24.9707],[-53.9215,-24.9469],[-53.9071,-24.94],[-53.901,-24.9153],[-53.9104,-24.9085],[-53.9592,-24.9149],[-53.9726,-24.9054],[-53.9982,-24.9081],[-54.0112,-24.8984],[-54.0202,-24.9108],[-54.0301,-24.8904],[-54.0446,-24.8906],[-54.0634,-24.8888],[-54.0655,-24.8726],[-54.0532,-24.8429],[-54.0334,-24.8298],[-54.0356,-24.7892],[-54.0258,-24.7748],[-54.0155,-24.7905],[-54.0013,-24.7826],[-53.9791,-24.8128],[-53.9874,-24.8279],[-53.9688,-24.8299],[-53.9659,-24.8484],[-53.9446,-24.8427],[-53.9451,-24.8528],[-53.9241,-24.853],[-53.9127,-24.8788],[-53.8491,-24.8763]]]}},{"type":"Feature","properties":{"codarea":"4126355","centroide":[-54.02771231943559,-25.47660894662141],"codigo_ibge":4126355,"nome_ig":"Oeste do Paraná"},"geometry":{"type":"Polygon","coordinates":[[[-53.9929,-25.3631],[-53.9578,-25.3905],[-53.9563,-25.426],[-53.946,-25.4639],[-53.9285,-25.4576],[-53.9053,-25.4847],[-53.9137,-25.5012],[-53.9026,-25.512],[-53.8968,-25.5367],[-53.9111,-25.5657],[-53.8938,-25.5826],[-53.9165,-25.5829],[-53.9399,-25.5715],[-53.9646,-25.5854],[-53.9912,-25.5859],[-54.0248,-25.5637],[-54.0453,-25.5851],[-54.0798,-25.558],[-54.0897,-25.5856],[-54.0913,-25.6169],[-54.1018,-25.618],[-54.1218,-25.5759],[-54.1198,-25.5532],[-54.0965,-25.5213],[-54.0948,-25.4979],[-54.1157,-25.4985],[-54.1436,-25.5205],[-54.1522,-25.5011],[-54.1463,-25.4847],[-54.1314,-25.4805],[-54.1363,-25.4669],[-54.1258,-25.4509],[-54.1421,-25.4367],[-54.1248,-25.4215],[-54.1409,-25.4083],[-54.1204,-25.3836],[-54.1069,-25.3833],[-54.1138,-25.3615],[-54.0853,-25.3611],[-54.0432,-25.3343],[-54.0149,-25.3616],[-53.9929,-25.3631]]]}},{"type":"Feature","properties":{"codarea":"4127403","centroide":[-54.06295591059294,-24.209052346304],"codigo_ibge":4127403,"nome_ig":"Oeste do Paraná"},"geometry":{"type":"Polygon","coordinates":[[[-53.9662,-24.0024],[-53.968,-24.0235],[-53.9896,-24.0653],[-53.9886,-24.1267],[-53.9758,-24.1308],[-53.9586,-24.1203],[-53.9607,-24.217],[-53.9665,-24.3698],[-53.9672,-24.3897],[-54.121,-24.3899],[-54.15,-24.3904],[-54.1433,-24.3802],[-54.1717,-24.3774],[-54.1744,-24.3403],[-54.148,-24.3174],[-54.1414,-24.2946],[-54.1789,-24.2762],[-54.1633,-24.2473],[-54.1636,-24.167],[-54.168,-24.061],[-54.1179,-24.0404],[-54.0984,-24.025],[-54.0558,-24.0365],[-54.0172,-24.0153],[-53.9984,-23.9857],[-53.9726,-23.9821],[-53.9662,-24.0024]]]}},{"type":"Feature","properties":{"codarea":"4127700","centroide":[-53.777397506043165,-24.705279114193683],"codigo_ibge":4127700,"nome_ig":"Oeste do Paraná"},"geometry":{"type":"Polygon","coordinates":[[[-53.7154,-24.5751],[-53.5959,-24.6894],[-53.537,-24.7467],[-53.5368,-24.7605],[-53.5572,-24.7782],[-53.5441,-24.8384],[-53.5563,-24.8317],[-53.5743,-24.8031],[-53.6085,-24.8027],[-53.6317,-24.7868],[-53.657,-24.7857],[-53.6688,-24.7934],[-53.6841,-24.7798],[-53.7236,-24.7944],[-53.6891,-24.8157],[-53.6546,-24.8678],[-53.6461,-24.8606],[-53.625,-24.8709],[-53.6356,-24.8815],[-53.6366,-24.9339],[-53.6657,-24.9418],[-53.6844,-24.9397],[-53.7353,-24.9396],[-53.7443,-24.921],[-53.7568,-24.9224],[-53.793,-24.9027],[-53.7926,-24.9095],[-53.8305,-24.9079],[-53.8491,-24.8763],[-53.8364,-24.8561],[-53.8223,-24.8548],[-53.7869,-24.8278],[-53.8081,-24.7694],[-53.8541,-24.743],[-53.8905,-24.7329],[-53.9243,-24.7175],[-53.9553,-24.7228],[-53.976,-24.7339],[-53.9888,-24.7229],[-54.0293,-24.7407],[-54.0353,-24.7265],[-54.0183,-24.7115],[-54.032,-24.6956],[-54.0426,-24.6683],[-54.032,-24.6556],[-54.0052,-24.6584],[-53.9876,-24.6644],[-53.9583,-24.6439],[-53.9605,-24.6293],[-53.9265,-24.5924],[-53.9184,-24.5701],[-53.9349,-24.5506],[-53.9584,-24.5367],[-53.9514,-24.5226],[-53.9595,-24.5066],[-53.9159,-24.5129],[-53.8923,-24.5275],[-53.8555,-24.5129],[-53.8661,-24.4737],[-53.8816,-24.4675],[-53.8716,-24.4554],[-53.8455,-24.4551],[-53.8124,-24.4829],[-53.8073,-24.5105],[-53.7832,-24.5194],[-53.7695,-24.5503],[-53.7412,-24.5603],[-53.7315,-24.5771],[-53.7154,-24.5751]]]}},{"type":"Feature","properties":{"codarea":"4127858","centroide":[-53.22489655501332,-25.43909407661803],"codigo_ibge":4127858,"nome_ig":"Oeste do Paraná"},"geometry":{"type":"Polygon","coordinates":[[[-53.0825,-25.3537],[-53.0942,-25.3677],[-53.0807,-25.3715],[-53.0833,-25.3864],[-53.1019,-25.3808],[-53.1153,-25.4041],[-53.1091,-25.4163],[-53.1212,-25.4424],[-53.1113,-25.4496],[-53.1153,-25.4795],[-53.126,-25.4665],[-53.1279,-25.4885],[-53.1522,-25.4978],[-53.1258,-25.5055],[-53.1435,-25.5136],[-53.1588,-25.5089],[-53.1887,-25.5156],[-53.2012,-25.5282],[-53.1949,-25.5634],[-53.2078,-25.5739],[-53.2378,-25.5744],[-53.2619,-25.5918],[-53.2703,-25.5878],[-53.2699,-25.5521],[-53.2798,-25.544],[-53.3251,-25.5503],[-53.3288,-25.539],[-53.3031,-25.4967],[-53.3214,-25.4775],[-53.3439,-25.4797],[-53.3647,-25.4521],[-53.3527,-25.4416],[-53.3581,-25.3955],[-53.3341,-25.3923],[-53.3318,-25.3682],[-53.3153,-25.3704],[-53.2744,-25.3753],[-53.2724,-25.3602],[-53.2546,-25.3626],[-53.2533,-25.3465],[-53.2178,-25.303],[-53.2099,-25.3164],[-53.182,-25.3289],[-53.1273,-25.3271],[-53.1079,-25.3486],[-53.0825,-25.3537]]]}},{"type":"Feature","properties":{"codarea":"4127957","centroide":[-53.508550868176734,-24.642364237323516],"codigo_ibge":4127957,"nome_ig":"Oeste do Paraná"},"geometry":{"type":"Polygon","coordinates":[[[-53.4402,-24.5673],[-53.4292,-24.5754],[-53.4283,-24.6464],[-53.4281,-24.6733],[-53.4481,-24.6894],[-53.441,-24.7061],[-53.4569,-24.7437],[-53.5282,-24.7433],[-53.537,-24.7467],[-53.5959,-24.6894],[-53.601,-24.6502],[-53.5948,-24.6366],[-53.5632,-24.6201],[-53.5746,-24.6005],[-53.5587,-24.5816],[-53.5664,-24.5605],[-53.5592,-24.5381],[-53.5469,-24.5355],[-53.5512,-24.5201],[-53.4402,-24.5673]]]}},{"type":"Feature","properties":{"codarea":"4128559","centroide":[-53.91985919778915,-25.00831252676106],"codigo_ibge":4128559,"nome_ig":"Oeste do Paraná"},"geometry":{"type":"Polygon","coordinates":[[[-53.8112,-24.9766],[-53.8137,-25.0966],[-53.954,-25.1031],[-53.9655,-25.0765],[-54.0252,-24.9524],[-54.0342,-24.9126],[-54.0446,-24.8906],[-54.0301,-24.8904],[-54.0202,-24.9108],[-54.0112,-24.8984],[-53.9982,-24.9081],[-53.9726,-24.9054],[-53.9592,-24.9149],[-53.9104,-24.9085],[-53.901,-24.9153],[-53.9071,-24.94],[-53.9215,-24.9469],[-53.9122,-24.9707],[-53.8893,-24.9765],[-53.8955,-24.9881],[-53.8551,-24.9855],[-53.8505,-24.9713],[-53.8112,-24.9766]]]}}]}