{"type":"FeatureCollection","features":[{"type":"Feature","properties":{"codarea":"2902500","centroide":[-44.4405871556557,-12.65658688188164],"codigo_ibge":2902500,"nome_ig":"Oeste da Bahia"},"geometry":{"type":"MultiPolygon","coordinates":[[[[-44.3126,-12.3065],[-44.3202,-12.3624],[-44.3303,-12.467],[-44.3149,-12.5233],[-44.2333,-12.5706],[-44.2652,-12.6345],[-44.1791,-12.7412],[-44.1705,-12.7658],[-44.1519,-12.7761],[-44.1538,-12.8035],[-44.1738,-12.8206],[-44.1714,-12.8523],[-44.1819,-12.8764],[-44.2075,-12.8767],[-44.2377,-12.8855],[-44.2488,-12.909],[-44.236,-12.9108],[-44.2384,-12.9461],[-44.2634,-12.9596],[-44.2561,-12.9812],[-44.2666,-12.9952],[-44.2844,-12.9965],[-44.3119,-13.0539],[-44.3068,-13.0745],[-44.3317,-13.0945],[-44.3421,-13.1183],[-44.5505,-12.9428],[-44.6105,-12.7217],[-44.625,-12.5721],[-44.6737,-12.5637],[-44.6895,-12.5492],[-44.6944,-12.5294],[-44.7156,-12.5184],[-44.7297,-12.4953],[-44.7215,-12.4706],[-44.7411,-12.4377],[-44.7378,-12.4088],[-44.726,-12.4051],[-44.6736,-12.3298],[-44.6349,-12.3147],[-44.6242,-12.3228],[-44.5963,-12.3077],[-44.5659,-12.3027],[-44.5425,-12.2879],[-44.5342,-12.2448],[-44.5005,-12.2222],[-44.5351,-12.3005],[-44.5315,-12.3082],[-44.4973,-12.3016],[-44.4816,-12.3113],[-44.4418,-12.296],[-44.3866,-12.2888],[-44.3516,-12.2965],[-44.3387,-12.3057],[-44.3126,-12.3065]]]]}},{"type":"Feature","properties":{"codarea":"2903201","centroide":[-45.51976766216218,-12.009742097290351],"codigo_ibge":2903201,"nome_ig":"Oeste da Bahia"},"geometry":{"type":"MultiPolygon","coordinates":[[[[-44.9291,-12.0072],[-44.9345,-12.029],[-44.8989,-12.0404],[-44.8713,-12.062],[-44.8414,-12.1185],[-44.8409,-12.1456],[-44.8165,-12.1359],[-44.7959,-12.1036],[-44.7773,-12.1144],[-44.7355,-12.1107],[-44.7172,-12.1248],[-44.7053,-12.1687],[-44.638,-12.1532],[-44.6178,-12.1407],[-44.5798,-12.155],[-44.6074,-12.1711],[-44.6558,-12.1698],[-44.6764,-12.1791],[-44.7253,-12.2204],[-44.7507,-12.2286],[-44.7862,-12.2206],[-44.8157,-12.2346],[-44.8355,-12.2519],[-44.836,-12.2396],[-44.9134,-12.2613],[-44.9272,-12.2931],[-45.0154,-12.3152],[-45.0367,-12.3091],[-45.0694,-12.3311],[-45.1024,-12.3362],[-45.1254,-12.3228],[-45.1495,-12.3333],[-45.168,-12.3685],[-45.2053,-12.3843],[-45.2269,-12.4257],[-45.2837,-12.422],[-45.3309,-12.402],[-45.3488,-12.3886],[-45.4058,-12.3701],[-45.4429,-12.3672],[-45.4644,-12.3767],[-45.4865,-12.3649],[-45.5403,-12.3908],[-45.5906,-12.402],[-45.6484,-12.3932],[-45.7103,-12.397],[-45.6977,-12.3684],[-45.6736,-12.3579],[-45.6745,-12.2964],[-45.696,-12.2507],[-45.7005,-12.2217],[-45.6869,-12.2089],[-45.6542,-12.1993],[-45.6377,-12.1881],[-45.6217,-12.1485],[-45.6612,-11.9144],[-45.698,-11.9008],[-45.7289,-11.8822],[-45.7664,-11.8687],[-45.7926,-11.8687],[-45.8229,-11.8867],[-45.8701,-11.8758],[-45.8926,-11.8809],[-45.9276,-11.8759],[-45.9454,-11.8644],[-45.9908,-11.9189],[-46.0785,-11.9761],[-46.106,-11.9986],[-46.1376,-12.0082],[-46.15,-12.0307],[-46.386,-12.0488],[-46.3954,-12.0262],[-46.3736,-12.0154],[-46.3561,-11.9814],[-46.3212,-11.9558],[-46.2954,-11.9492],[-46.2479,-11.9475],[-46.2105,-11.9303],[-46.1925,-11.9294],[-46.1712,-11.9009],[-46.1811,-11.8854],[-46.2381,-11.9026],[-46.285,-11.8859],[-46.3267,-11.8967],[-46.3745,-11.8686],[-46.3734,-11.8366],[-46.3553,-11.8422],[-46.3509,-11.8222],[-46.3378,-11.8164],[-46.3338,-11.8112],[-46.336,-11.7895],[-46.3232,-11.7753],[-46.3497,-11.7539],[-46.3643,-11.7615],[-46.3661,-11.7457],[-46.3345,-11.7402],[-46.3089,-11.704],[-46.294,-11.6927],[-46.3015,-11.6615],[-46.315,-11.6446],[-46.3115,-11.6272],[-46.2482,-11.6248],[-46.2217,-11.6447],[-46.1848,-11.6557],[-46.154,-11.6569],[-46.1179,-11.6433],[-46.0869,-11.6426],[-46.0875,-11.6249],[-46.0866,-11.6221],[-46.0474,-11.6199],[-45.9598,-11.6285],[-45.923,-11.6349],[-45.8838,-11.6491],[-45.86,-11.6455],[-45.833,-11.6649],[-45.8232,-11.6871],[-45.7798,-11.7015],[-45.7276,-11.7335],[-45.7007,-11.7365],[-45.6781,-11.7505],[-45.6687,-11.7705],[-45.6438,-11.775],[-45.638,-11.7897],[-45.6181,-11.7839],[-45.5849,-11.7882],[-45.5218,-11.7707],[-45.4756,-11.7664],[-45.4503,-11.7785],[-45.4096,-11.7779],[-45.3815,-11.7626],[-45.353,-11.7387],[-45.3234,-11.7321],[-45.3036,-11.7416],[-45.2808,-11.7413],[-45.2736,-11.7583],[-45.2478,-11.772],[-45.2269,-11.7737],[-45.2241,-11.7947],[-45.1954,-11.8021],[-45.1913,-11.8176],[-45.1791,-11.8149],[-45.1649,-11.8534],[-45.1414,-11.85],[-45.1007,-11.8538],[-45.0558,-11.8791],[-45.0497,-11.8933],[-45.0228,-11.9047],[-45.0147,-11.9293],[-44.9682,-11.9851],[-44.9658,-12.0001],[-44.9291,-12.0072]]]]}},{"type":"Feature","properties":{"codarea":"2907400","centroide":[-44.701594516206775,-12.272778327567938],"codigo_ibge":2907400,"nome_ig":"Oeste da Bahia"},"geometry":{"type":"MultiPolygon","coordinates":[[[[-44.5005,-12.2222],[-44.5342,-12.2448],[-44.5425,-12.2879],[-44.5659,-12.3027],[-44.5963,-12.3077],[-44.6242,-12.3228],[-44.6349,-12.3147],[-44.6736,-12.3298],[-44.726,-12.4051],[-44.7378,-12.4088],[-44.7756,-12.4022],[-44.7812,-12.3951],[-44.8275,-12.3944],[-44.9272,-12.2931],[-44.9134,-12.2613],[-44.836,-12.2396],[-44.8355,-12.2519],[-44.8157,-12.2346],[-44.7862,-12.2206],[-44.7507,-12.2286],[-44.7253,-12.2204],[-44.6764,-12.1791],[-44.6558,-12.1698],[-44.6074,-12.1711],[-44.5798,-12.155],[-44.466,-12.144],[-44.5005,-12.2222]]]]}},{"type":"Feature","properties":{"codarea":"2908101","centroide":[-45.22055708380005,-14.497119841311678],"codigo_ibge":2908101,"nome_ig":"Oeste da Bahia"},"geometry":{"type":"MultiPolygon","coordinates":[[[[-44.3795,-14.0443],[-44.3908,-14.0756],[-44.4264,-14.0816],[-44.4186,-14.1011],[-44.4278,-14.1351],[-44.4446,-14.1413],[-44.4503,-14.1609],[-44.44,-14.1884],[-44.4616,-14.1944],[-44.4687,-14.2159],[-44.4488,-14.2257],[-44.4269,-14.2782],[-44.4117,-14.2815],[-44.4286,-14.2866],[-44.4388,-14.3028],[-44.4637,-14.3107],[-44.4882,-14.3286],[-44.5108,-14.3226],[-44.5405,-14.3317],[-44.5427,-14.3405],[-44.5661,-14.3413],[-44.5991,-14.3681],[-44.6107,-14.3654],[-44.6334,-14.3895],[-44.6588,-14.3957],[-44.6592,-14.4171],[-44.6865,-14.4167],[-44.7012,-14.4497],[-44.7128,-14.4439],[-44.7413,-14.467],[-44.7943,-14.4878],[-44.8107,-14.5031],[-44.8332,-14.4998],[-44.8234,-14.5132],[-44.8351,-14.518],[-44.8243,-14.5393],[-44.8481,-14.5469],[-44.8691,-14.5933],[-44.9095,-14.6032],[-44.9079,-14.6133],[-44.9809,-14.6456],[-44.9957,-14.6678],[-45.0403,-14.6804],[-45.0541,-14.6994],[-45.065,-14.7308],[-45.0958,-14.7529],[-45.1362,-14.7474],[-45.172,-14.7346],[-45.1742,-14.7413],[-45.2055,-14.7447],[-45.2292,-14.7657],[-45.2419,-14.7865],[-45.2587,-14.7895],[-45.2744,-14.8115],[-45.3056,-14.8336],[-45.318,-14.8525],[-45.3622,-14.8707],[-45.3689,-14.8904],[-45.4102,-14.9234],[-45.4352,-14.9226],[-45.4579,-14.9547],[-45.471,-14.9503],[-45.49,-14.9607],[-45.4984,-14.9463],[-45.5206,-14.9535],[-45.5361,-14.9381],[-45.5667,-14.9448],[-45.5666,-14.9555],[-45.5934,-14.9755],[-45.6169,-15.0141],[-45.6578,-15.0284],[-45.6558,-15.0485],[-45.6731,-15.0778],[-45.6971,-15.0929],[-45.7185,-15.0956],[-45.7216,-15.1122],[-45.7398,-15.1203],[-45.8253,-15.1163],[-45.8349,-15.1373],[-45.8721,-15.1588],[-45.9187,-15.1333],[-45.9559,-15.1406],[-45.9717,-15.1538],[-45.9845,-15.1959],[-46.0272,-15.2002],[-46.0385,-15.2309],[-46.0555,-15.2505],[-46.0526,-15.2591],[-46.077,-15.2646],[-46.0923,-15.2479],[-46.0988,-15.2167],[-46.1165,-15.2048],[-46.1147,-15.1909],[-46.0976,-15.1926],[-46.0787,-15.1755],[-46.0477,-15.1637],[-46.0437,-15.1181],[-46.0284,-15.1141],[-46.012,-15.0722],[-45.975,-15.0368],[-45.9748,-15.0046],[-45.966,-14.9656],[-45.9958,-14.9274],[-46.0082,-14.9197],[-46.0038,-14.9022],[-46.0375,-14.8746],[-45.9961,-14.8226],[-45.9642,-14.8109],[-45.9439,-14.781],[-45.9232,-14.7661],[-45.8648,-14.7091],[-45.8159,-14.6579],[-45.8011,-14.6492],[-45.746,-14.6005],[-45.7272,-14.5709],[-45.6895,-14.5524],[-45.6741,-14.5184],[-45.6239,-14.5047],[-45.6086,-14.478],[-45.585,-14.4552],[-45.5608,-14.4439],[-45.5306,-14.4033],[-45.5127,-14.3943],[-45.4938,-14.3724],[-45.4919,-14.3554],[-45.4498,-14.3286],[-45.4324,-14.332],[-45.4099,-14.2973],[-45.4,-14.2959],[-45.3748,-14.2572],[-45.334,-14.246],[-45.3047,-14.2121],[-45.2675,-14.2021],[-45.2409,-14.1748],[-45.2198,-14.1678],[-45.2216,-14.1545],[-45.2048,-14.1491],[-45.1915,-14.1268],[-45.1598,-14.1253],[-45.1359,-14.1132],[-45.1066,-14.1188],[-45.0999,-14.098],[-45.0756,-14.0764],[-45.0491,-14.0736],[-45.012,-14.0472],[-44.9505,-14.0324],[-44.9414,-14.0138],[-44.9235,-14.0146],[-44.9085,-13.9905],[-44.9043,-13.9255],[-44.8903,-13.9235],[-44.8575,-13.8853],[-44.8437,-13.8827],[-44.8329,-13.8529],[-44.807,-13.8289],[-44.7955,-13.8263],[-44.7614,-13.8452],[-44.7481,-13.8666],[-44.726,-13.8711],[-44.7119,-13.8892],[-44.6694,-13.8891],[-44.6567,-13.9003],[-44.5187,-14.0026],[-44.4678,-14.0324],[-44.3795,-14.0443]]]]}},{"type":"Feature","properties":{"codarea":"2909307","centroide":[-45.395371781513816,-13.466992722949648],"codigo_ibge":2909307,"nome_ig":"Oeste da Bahia"},"geometry":{"type":"MultiPolygon","coordinates":[[[[-44.7066,-13.0834],[-44.6873,-13.1272],[-44.6597,-13.1515],[-44.6536,-13.167],[-44.6278,-13.1743],[-44.5965,-13.2091],[-44.5964,-13.2251],[-44.5838,-13.2286],[-44.5725,-13.2633],[-44.5603,-13.2739],[-44.5589,-13.3305],[-44.5454,-13.3498],[-44.5264,-13.354],[-44.5103,-13.3729],[-44.4946,-13.3711],[-44.481,-13.3834],[-44.437,-13.3806],[-44.4276,-13.3694],[-44.4219,-13.3852],[-44.3897,-13.3826],[-44.3689,-13.3975],[-44.3507,-13.3907],[-44.3311,-13.3969],[-44.3377,-13.416],[-44.3664,-13.4088],[-44.3961,-13.4174],[-44.4027,-13.4289],[-44.4309,-13.4318],[-44.4544,-13.417],[-44.4927,-13.4311],[-44.5111,-13.5111],[-44.5065,-13.5186],[-44.5434,-13.5196],[-44.5544,-13.526],[-44.6194,-13.5406],[-44.6424,-13.5297],[-44.6673,-13.5365],[-44.7239,-13.586],[-44.8924,-13.6713],[-45.1159,-13.674],[-45.1221,-13.6656],[-45.1569,-13.6986],[-45.187,-13.7068],[-45.1949,-13.7211],[-45.2385,-13.7446],[-45.2797,-13.7408],[-45.3376,-13.7213],[-45.3491,-13.7315],[-45.3841,-13.7379],[-45.4353,-13.7313],[-45.4801,-13.7384],[-45.4897,-13.7485],[-45.533,-13.7674],[-45.5837,-13.7681],[-45.6129,-13.7532],[-45.6744,-13.7387],[-45.7024,-13.7492],[-45.7141,-13.7622],[-45.7313,-13.7601],[-45.7437,-13.7711],[-45.8036,-13.7961],[-45.8152,-13.8133],[-45.8257,-13.8098],[-45.8613,-13.8272],[-45.904,-13.875],[-45.9345,-13.8787],[-45.9536,-13.901],[-45.9751,-13.8991],[-45.9922,-13.9256],[-46.0094,-13.936],[-46.0345,-13.9369],[-46.0468,-13.9519],[-46.0864,-13.9547],[-46.1206,-13.9769],[-46.1686,-13.9796],[-46.2122,-14.0101],[-46.2187,-13.974],[-46.2667,-13.9462],[-46.2621,-13.9026],[-46.237,-13.8595],[-46.2336,-13.8456],[-46.2454,-13.833],[-46.2695,-13.8288],[-46.2625,-13.8085],[-46.2824,-13.7952],[-46.2666,-13.784],[-46.2235,-13.7694],[-46.2371,-13.7448],[-46.2573,-13.7479],[-46.2646,-13.7333],[-46.2355,-13.7081],[-46.2615,-13.689],[-46.242,-13.6576],[-46.2132,-13.6299],[-46.1876,-13.6177],[-46.1638,-13.5945],[-46.1843,-13.5675],[-46.2284,-13.5689],[-46.2386,-13.5545],[-46.2391,-13.5217],[-46.2185,-13.5005],[-46.2302,-13.4814],[-46.2065,-13.4649],[-45.9418,-13.3025],[-45.8667,-13.2728],[-45.8271,-13.2533],[-45.7823,-13.2467],[-45.7584,-13.2357],[-45.73,-13.234],[-45.6883,-13.2103],[-45.6687,-13.2085],[-45.609,-13.1849],[-45.5862,-13.1836],[-45.5523,-13.1915],[-45.5019,-13.1675],[-45.4458,-13.1539],[-45.411,-13.1683],[-45.3684,-13.1518],[-45.3238,-13.1496],[-45.3167,-13.1413],[-45.2749,-13.1311],[-45.2388,-13.1324],[-45.1944,-13.1243],[-45.1764,-13.1123],[-45.1173,-13.0939],[-45.0806,-13.0764],[-45.0456,-13.0706],[-45.0343,-13.0605],[-44.9918,-13.0507],[-44.9563,-13.032],[-44.9134,-13.0178],[-44.8856,-13.0159],[-44.788,-12.9896],[-44.7785,-13.0124],[-44.7562,-13.0181],[-44.7443,-13.0368],[-44.7205,-13.0503],[-44.7184,-13.0697],[-44.7066,-13.0834]]]]}},{"type":"Feature","properties":{"codarea":"2911105","centroide":[-45.75584118848886,-11.016834788835533],"codigo_ibge":2911105,"nome_ig":"Oeste da Bahia"},"geometry":{"type":"MultiPolygon","coordinates":[[[[-45.5565,-10.2169],[-45.5261,-10.2369],[-45.5223,-10.2766],[-45.5143,-10.2898],[-45.4906,-10.301],[-45.4257,-10.3702],[-45.4288,-10.4138],[-45.4184,-10.4323],[-45.3959,-10.445],[-45.4002,-10.463],[-45.4311,-10.4883],[-45.4474,-10.5093],[-45.4381,-10.5255],[-45.4464,-10.5519],[-45.4367,-10.5767],[-45.4373,-10.6155],[-45.4144,-10.6451],[-45.3852,-10.6516],[-45.3713,-10.6732],[-45.3582,-10.7322],[-45.3297,-10.7555],[-45.2853,-10.7671],[-45.2684,-10.7762],[-45.2574,-10.8118],[-45.2459,-10.8224],[-45.2192,-10.8173],[-45.2179,-10.8289],[-45.1597,-10.8391],[-45.1165,-10.8407],[-45.1052,-10.8468],[-45.0732,-10.8404],[-45.0515,-10.8513],[-45.0182,-10.8832],[-44.9729,-10.8922],[-44.9445,-10.9191],[-44.9781,-10.9555],[-44.9702,-11.0033],[-44.9775,-11.0346],[-44.9595,-11.0664],[-44.9752,-11.0925],[-45.0087,-11.1236],[-44.9857,-11.1524],[-44.9772,-11.1887],[-44.9418,-11.2011],[-44.9595,-11.2145],[-44.9586,-11.2687],[-44.9506,-11.2925],[-44.9603,-11.3138],[-44.9903,-11.3457],[-44.9926,-11.3621],[-45.0292,-11.3622],[-45.0398,-11.3865],[-45.0586,-11.4009],[-45.0782,-11.3942],[-45.1268,-11.4017],[-45.1407,-11.4116],[-45.1528,-11.3994],[-45.1922,-11.4052],[-45.1982,-11.4147],[-45.2294,-11.4225],[-45.2571,-11.4206],[-45.2755,-11.3978],[-45.3286,-11.3958],[-45.3334,-11.3897],[-45.3809,-11.384],[-45.4473,-11.4176],[-45.557,-11.4772],[-45.6319,-11.4935],[-45.6482,-11.4426],[-45.6587,-11.4369],[-45.7019,-11.4495],[-45.7191,-11.4594],[-45.7719,-11.462],[-45.8536,-11.4909],[-45.8784,-11.5269],[-45.9134,-11.5343],[-45.9631,-11.5305],[-45.9977,-11.5451],[-46.0045,-11.5639],[-46.0243,-11.5523],[-46.1091,-11.5596],[-46.113,-11.6082],[-46.1584,-11.6072],[-46.1663,-11.5993],[-46.187,-11.6061],[-46.2134,-11.5957],[-46.2261,-11.5712],[-46.3134,-11.5394],[-46.3462,-11.5448],[-46.36,-11.5356],[-46.3926,-11.5348],[-46.408,-11.5422],[-46.4393,-11.5172],[-46.4779,-11.5171],[-46.52,-11.4835],[-46.5268,-11.466],[-46.5281,-11.4225],[-46.5488,-11.4083],[-46.5493,-11.3807],[-46.5617,-11.3744],[-46.5673,-11.3725],[-46.5943,-11.3589],[-46.6038,-11.341],[-46.617,-11.2894],[-46.5996,-11.2654],[-46.609,-11.2557],[-46.582,-11.2467],[-46.5451,-11.2267],[-46.4881,-11.205],[-46.4665,-11.1831],[-46.4533,-11.1561],[-46.4475,-11.0923],[-46.4217,-11.0359],[-46.4039,-11.0141],[-46.4023,-11.0002],[-46.3557,-10.9603],[-46.3244,-10.9398],[-46.3185,-10.9289],[-46.2858,-10.9097],[-46.299,-10.864],[-46.282,-10.8233],[-46.2512,-10.8143],[-46.2309,-10.7966],[-46.2297,-10.7675],[-46.2561,-10.7594],[-46.1939,-10.7182],[-46.1928,-10.6866],[-46.2068,-10.6592],[-46.182,-10.6387],[-46.1417,-10.6236],[-46.1157,-10.6198],[-46.0984,-10.6054],[-46.0736,-10.6041],[-46.0069,-10.5753],[-45.9611,-10.5369],[-45.9268,-10.5175],[-45.8454,-10.4877],[-45.8319,-10.4564],[-45.8288,-10.3713],[-45.7954,-10.3529],[-45.745,-10.3484],[-45.7239,-10.3141],[-45.7205,-10.2974],[-45.6967,-10.257],[-45.6999,-10.186],[-45.7239,-10.1556],[-45.6901,-10.1554],[-45.6474,-10.1268],[-45.6031,-10.1079],[-45.5793,-10.1219],[-45.5651,-10.1545],[-45.5716,-10.1809],[-45.5565,-10.2169]]]]}},{"type":"Feature","properties":{"codarea":"2917359","centroide":[-45.44181458534635,-14.032742543497362],"codigo_ibge":2917359,"nome_ig":"Oeste da Bahia"},"geometry":{"type":"MultiPolygon","coordinates":[[[[-44.2248,-13.4276],[-44.2448,-13.4381],[-44.2425,-13.4525],[-44.2611,-13.4583],[-44.2691,-13.486],[-44.2641,-13.5071],[-44.2869,-13.5583],[-44.3113,-13.5602],[-44.3292,-13.5844],[-44.3516,-13.6017],[-44.3808,-13.5979],[-44.4531,-13.6275],[-44.4687,-13.6438],[-44.5002,-13.658],[-44.502,-13.6668],[-44.5421,-13.6776],[-44.5721,-13.6743],[-44.589,-13.6845],[-44.5947,-13.7023],[-44.6221,-13.7098],[-44.6521,-13.7317],[-44.6562,-13.7236],[-44.7008,-13.7535],[-44.7148,-13.7508],[-44.7211,-13.7641],[-44.7988,-13.8005],[-44.7955,-13.8263],[-44.807,-13.8289],[-44.8329,-13.8529],[-44.8437,-13.8827],[-44.8575,-13.8853],[-44.8903,-13.9235],[-44.9043,-13.9255],[-44.9085,-13.9905],[-44.9235,-14.0146],[-44.9414,-14.0138],[-44.9505,-14.0324],[-45.012,-14.0472],[-45.0491,-14.0736],[-45.0756,-14.0764],[-45.0999,-14.098],[-45.1066,-14.1188],[-45.1359,-14.1132],[-45.1598,-14.1253],[-45.1915,-14.1268],[-45.2048,-14.1491],[-45.2216,-14.1545],[-45.2198,-14.1678],[-45.2409,-14.1748],[-45.2675,-14.2021],[-45.3047,-14.2121],[-45.334,-14.246],[-45.3748,-14.2572],[-45.4,-14.2959],[-45.4099,-14.2973],[-45.4324,-14.332],[-45.4498,-14.3286],[-45.4919,-14.3554],[-45.4938,-14.3724],[-45.5127,-14.3943],[-45.5306,-14.4033],[-45.5608,-14.4439],[-45.585,-14.4552],[-45.6086,-14.478],[-45.6239,-14.5047],[-45.6741,-14.5184],[-45.6895,-14.5524],[-45.7272,-14.5709],[-45.746,-14.6005],[-45.8011,-14.6492],[-45.8159,-14.6579],[-45.8648,-14.7091],[-45.9232,-14.7661],[-45.9439,-14.781],[-45.9642,-14.8109],[-45.9961,-14.8226],[-46.0375,-14.8746],[-46.0326,-14.8566],[-46.0528,-14.8313],[-46.0217,-14.8164],[-46.007,-14.7883],[-46.0075,-14.7416],[-46.0017,-14.7202],[-46.0064,-14.7016],[-46.0227,-14.6922],[-46.0258,-14.678],[-46.0209,-14.6633],[-45.9914,-14.6608],[-45.9948,-14.6371],[-45.987,-14.616],[-46.001,-14.6023],[-45.9853,-14.5735],[-45.9891,-14.5503],[-45.9807,-14.5304],[-46.001,-14.5211],[-45.9972,-14.4874],[-46.0163,-14.4694],[-46.0008,-14.4345],[-46.0173,-14.4207],[-46.0062,-14.4097],[-45.9988,-14.4293],[-45.9808,-14.4332],[-45.9578,-14.4258],[-45.9257,-14.4065],[-45.9261,-14.3861],[-45.9121,-14.3749],[-45.9135,-14.3471],[-45.93,-14.3506],[-45.954,-14.3253],[-45.9602,-14.2919],[-45.976,-14.2775],[-45.9931,-14.2802],[-45.9918,-14.2627],[-46.0254,-14.2582],[-46.0293,-14.246],[-46.061,-14.2325],[-46.0525,-14.2048],[-46.0634,-14.1935],[-46.0913,-14.2056],[-46.1167,-14.1846],[-46.1181,-14.1603],[-46.1304,-14.1537],[-46.1513,-14.1604],[-46.1856,-14.1518],[-46.1978,-14.1265],[-46.2363,-14.1072],[-46.2657,-14.0979],[-46.2477,-14.0938],[-46.2252,-14.0696],[-46.2327,-14.0565],[-46.2484,-14.0565],[-46.2138,-14.026],[-46.2122,-14.0101],[-46.1686,-13.9796],[-46.1206,-13.9769],[-46.0864,-13.9547],[-46.0468,-13.9519],[-46.0345,-13.9369],[-46.0094,-13.936],[-45.9922,-13.9256],[-45.9751,-13.8991],[-45.9536,-13.901],[-45.9345,-13.8787],[-45.904,-13.875],[-45.8613,-13.8272],[-45.8257,-13.8098],[-45.8152,-13.8133],[-45.8036,-13.7961],[-45.7437,-13.7711],[-45.7313,-13.7601],[-45.7141,-13.7622],[-45.7024,-13.7492],[-45.6744,-13.7387],[-45.6129,-13.7532],[-45.5837,-13.7681],[-45.533,-13.7674],[-45.4897,-13.7485],[-45.4801,-13.7384],[-45.4353,-13.7313],[-45.3841,-13.7379],[-45.3491,-13.7315],[-45.3376,-13.7213],[-45.2797,-13.7408],[-45.2385,-13.7446],[-45.1949,-13.7211],[-45.187,-13.7068],[-45.1569,-13.6986],[-45.1221,-13.6656],[-45.1159,-13.674],[-44.8924,-13.6713],[-44.7239,-13.586],[-44.6673,-13.5365],[-44.6424,-13.5297],[-44.6194,-13.5406],[-44.5544,-13.526],[-44.5434,-13.5196],[-44.5065,-13.5186],[-44.5111,-13.5111],[-44.4927,-13.4311],[-44.4544,-13.417],[-44.4309,-13.4318],[-44.4027,-13.4289],[-44.3961,-13.4174],[-44.3664,-13.4088],[-44.3377,-13.416],[-44.3311,-13.3969],[-44.3048,-13.4039],[-44.3008,-13.3958],[-44.254,-13.4197],[-44.2446,-13.4132],[-44.2248,-13.4276]]]]}},{"type":"Feature","properties":{"codarea":"2919553","centroide":[-45.98974568257597,-12.193585478945064],"codigo_ibge":2919553,"nome_ig":"Oeste da Bahia"},"geometry":{"type":"MultiPolygon","coordinates":[[[[-45.7103,-12.397],[-45.7519,-12.4121],[-45.8032,-12.418],[-45.8407,-12.4184],[-45.8729,-12.4296],[-45.9102,-12.4599],[-45.9161,-12.4569],[-45.9551,-12.475],[-46.0081,-12.4913],[-46.0252,-12.5016],[-46.1001,-12.5275],[-46.142,-12.5311],[-46.1545,-12.5055],[-46.1538,-12.4833],[-46.1575,-12.4752],[-46.1868,-12.4775],[-46.2204,-12.4962],[-46.2566,-12.4922],[-46.2476,-12.4485],[-46.2649,-12.4126],[-46.2928,-12.4176],[-46.305,-12.4078],[-46.2856,-12.379],[-46.3128,-12.3563],[-46.3289,-12.3526],[-46.3373,-12.3382],[-46.3523,-12.3374],[-46.3496,-12.3169],[-46.3251,-12.3084],[-46.3293,-12.2981],[-46.3743,-12.2898],[-46.3668,-12.2635],[-46.3808,-12.251],[-46.3602,-12.2277],[-46.3695,-12.1988],[-46.3909,-12.1938],[-46.37,-12.1346],[-46.3681,-12.0982],[-46.384,-12.0938],[-46.386,-12.0488],[-46.15,-12.0307],[-46.1376,-12.0082],[-46.106,-11.9986],[-46.0785,-11.9761],[-45.9908,-11.9189],[-45.9454,-11.8644],[-45.9276,-11.8759],[-45.8926,-11.8809],[-45.8701,-11.8758],[-45.8229,-11.8867],[-45.7926,-11.8687],[-45.7664,-11.8687],[-45.7289,-11.8822],[-45.698,-11.9008],[-45.6612,-11.9144],[-45.6217,-12.1485],[-45.6377,-12.1881],[-45.6542,-12.1993],[-45.6869,-12.2089],[-45.7005,-12.2217],[-45.696,-12.2507],[-45.6745,-12.2964],[-45.6736,-12.3579],[-45.6977,-12.3684],[-45.7103,-12.397]]]]}},{"type":"Feature","properties":{"codarea":"2926202","centroide":[-45.217491362322,-11.622710851646048],"codigo_ibge":2926202,"nome_ig":"Oeste da Bahia"},"geometry":{"type":"MultiPolygon","coordinates":[[[[-44.6853,-11.4078],[-44.6853,-11.6596],[-44.6749,-11.6608],[-44.6617,-11.6868],[-44.6418,-11.7087],[-44.6415,-11.7282],[-44.6582,-11.7313],[-44.6623,-11.7482],[-44.6862,-11.7867],[-44.6851,-11.808],[-44.7155,-11.8086],[-44.7119,-11.8222],[-44.7262,-11.8277],[-44.7287,-11.8463],[-44.7834,-11.8757],[-44.8061,-11.8762],[-44.8301,-11.8933],[-44.8311,-11.9232],[-44.8496,-11.926],[-44.8516,-11.9385],[-44.8711,-11.9422],[-44.8829,-11.9873],[-44.9056,-12.0126],[-44.9291,-12.0072],[-44.9658,-12.0001],[-44.9682,-11.9851],[-45.0147,-11.9293],[-45.0228,-11.9047],[-45.0497,-11.8933],[-45.0558,-11.8791],[-45.1007,-11.8538],[-45.1414,-11.85],[-45.1649,-11.8534],[-45.1791,-11.8149],[-45.1913,-11.8176],[-45.1954,-11.8021],[-45.2241,-11.7947],[-45.2269,-11.7737],[-45.2478,-11.772],[-45.2736,-11.7583],[-45.2808,-11.7413],[-45.3036,-11.7416],[-45.3234,-11.7321],[-45.353,-11.7387],[-45.3815,-11.7626],[-45.4096,-11.7779],[-45.4503,-11.7785],[-45.4756,-11.7664],[-45.5218,-11.7707],[-45.5849,-11.7882],[-45.6181,-11.7839],[-45.638,-11.7897],[-45.6438,-11.775],[-45.6687,-11.7705],[-45.6781,-11.7505],[-45.7007,-11.7365],[-45.7276,-11.7335],[-45.7798,-11.7015],[-45.8232,-11.6871],[-45.833,-11.6649],[-45.86,-11.6455],[-45.8838,-11.6491],[-45.923,-11.6349],[-45.9598,-11.6285],[-46.0474,-11.6199],[-46.0866,-11.6221],[-46.113,-11.6082],[-46.1091,-11.5596],[-46.0243,-11.5523],[-46.0045,-11.5639],[-45.9977,-11.5451],[-45.9631,-11.5305],[-45.9134,-11.5343],[-45.8784,-11.5269],[-45.8536,-11.4909],[-45.7719,-11.462],[-45.7191,-11.4594],[-45.7019,-11.4495],[-45.6587,-11.4369],[-45.6482,-11.4426],[-45.6319,-11.4935],[-45.557,-11.4772],[-45.4473,-11.4176],[-45.3809,-11.384],[-45.3334,-11.3897],[-45.3286,-11.3958],[-45.2755,-11.3978],[-45.2571,-11.4206],[-45.2294,-11.4225],[-45.1982,-11.4147],[-45.1922,-11.4052],[-45.1528,-11.3994],[-45.1407,-11.4116],[-45.1268,-11.4017],[-45.0782,-11.3942],[-45.0586,-11.4009],[-45.0398,-11.3865],[-45.0292,-11.3622],[-44.9926,-11.3621],[-44.9824,-11.3829],[-44.9647,-11.3754],[-44.9596,-11.3513],[-44.9409,-11.3398],[-44.909,-11.3536],[-44.8729,-11.3464],[-44.8566,-11.3585],[-44.8392,-11.3851],[-44.8174,-11.3846],[-44.7924,-11.4172],[-44.768,-11.4217],[-44.7351,-11.403],[-44.7131,-11.3967],[-44.6853,-11.4078]]]]}},{"type":"Feature","properties":{"codarea":"2928406","centroide":[-44.55558215559449,-11.00801414042337],"codigo_ibge":2928406,"nome_ig":"Oeste da Bahia"},"geometry":{"type":"MultiPolygon","coordinates":[[[[-44.1655,-10.6429],[-44.1248,-10.7536],[-44.1082,-10.8083],[-44.1349,-10.829],[-44.1436,-10.8594],[-44.1401,-10.8839],[-44.1482,-10.8936],[-44.1467,-10.9226],[-44.219,-11.0303],[-44.2252,-11.0657],[-44.2205,-11.0879],[-44.2481,-11.1351],[-44.2717,-11.1634],[-44.3467,-11.224],[-44.4958,-11.4026],[-44.5162,-11.416],[-44.5407,-11.4179],[-44.5531,-11.4035],[-44.6086,-11.4086],[-44.6448,-11.4051],[-44.672,-11.4125],[-44.6853,-11.4078],[-44.7131,-11.3967],[-44.7351,-11.403],[-44.768,-11.4217],[-44.7924,-11.4172],[-44.8174,-11.3846],[-44.8392,-11.3851],[-44.8566,-11.3585],[-44.8729,-11.3464],[-44.909,-11.3536],[-44.9409,-11.3398],[-44.9596,-11.3513],[-44.9647,-11.3754],[-44.9824,-11.3829],[-44.9926,-11.3621],[-44.9903,-11.3457],[-44.9603,-11.3138],[-44.9506,-11.2925],[-44.9586,-11.2687],[-44.9595,-11.2145],[-44.9418,-11.2011],[-44.9772,-11.1887],[-44.9857,-11.1524],[-45.0087,-11.1236],[-44.9752,-11.0925],[-44.9595,-11.0664],[-44.9775,-11.0346],[-44.9702,-11.0033],[-44.9781,-10.9555],[-44.9445,-10.9191],[-44.9312,-10.9287],[-44.8844,-10.9023],[-44.8638,-10.8852],[-44.8471,-10.901],[-44.8083,-10.8661],[-44.8103,-10.8465],[-44.788,-10.8085],[-44.7584,-10.8034],[-44.7574,-10.7876],[-44.7145,-10.7617],[-44.6806,-10.7679],[-44.6667,-10.7588],[-44.6614,-10.7305],[-44.6687,-10.687],[-44.6552,-10.6766],[-44.63,-10.6766],[-44.6127,-10.6667],[-44.5895,-10.6324],[-44.5777,-10.6267],[-44.5468,-10.6301],[-44.5274,-10.6469],[-44.5005,-10.6497],[-44.4729,-10.6351],[-44.4517,-10.6066],[-44.4282,-10.6124],[-44.3922,-10.6007],[-44.3443,-10.5496],[-44.333,-10.5487],[-44.306,-10.5655],[-44.2901,-10.5967],[-44.2666,-10.6231],[-44.2451,-10.6277],[-44.2183,-10.6151],[-44.176,-10.6328],[-44.1655,-10.6429]]]]}},{"type":"Feature","properties":{"codarea":"2928901","centroide":[-45.49050716812336,-12.804359990422013],"codigo_ibge":2928901,"nome_ig":"Oeste da Bahia"},"geometry":{"type":"MultiPolygon","coordinates":[[[[-44.7378,-12.4088],[-44.7411,-12.4377],[-44.7215,-12.4706],[-44.7297,-12.4953],[-44.7156,-12.5184],[-44.6944,-12.5294],[-44.6895,-12.5492],[-44.6737,-12.5637],[-44.625,-12.5721],[-44.6105,-12.7217],[-44.5505,-12.9428],[-44.5557,-12.9603],[-44.5789,-12.9813],[-44.6007,-12.9603],[-44.619,-12.9611],[-44.6159,-12.992],[-44.6202,-13.0138],[-44.6432,-13.0275],[-44.6498,-13.0438],[-44.6639,-13.0469],[-44.7033,-13.0734],[-44.7066,-13.0834],[-44.7184,-13.0697],[-44.7205,-13.0503],[-44.7443,-13.0368],[-44.7562,-13.0181],[-44.7785,-13.0124],[-44.788,-12.9896],[-44.8856,-13.0159],[-44.9134,-13.0178],[-44.9563,-13.032],[-44.9918,-13.0507],[-45.0343,-13.0605],[-45.0456,-13.0706],[-45.0806,-13.0764],[-45.1173,-13.0939],[-45.1764,-13.1123],[-45.1944,-13.1243],[-45.2388,-13.1324],[-45.2749,-13.1311],[-45.3167,-13.1413],[-45.3238,-13.1496],[-45.3684,-13.1518],[-45.411,-13.1683],[-45.4458,-13.1539],[-45.5019,-13.1675],[-45.5523,-13.1915],[-45.5862,-13.1836],[-45.609,-13.1849],[-45.6687,-13.2085],[-45.6883,-13.2103],[-45.73,-13.234],[-45.7584,-13.2357],[-45.7823,-13.2467],[-45.8271,-13.2533],[-45.8667,-13.2728],[-45.9418,-13.3025],[-46.2065,-13.4649],[-46.2257,-13.4344],[-46.2422,-13.4282],[-46.2143,-13.4007],[-46.1704,-13.3839],[-46.134,-13.3752],[-46.1124,-13.3586],[-46.095,-13.3324],[-46.0484,-13.3091],[-46.0421,-13.2726],[-46.0638,-13.2612],[-46.1126,-13.2842],[-46.1229,-13.2824],[-46.1677,-13.3103],[-46.205,-13.3203],[-46.2182,-13.3172],[-46.2376,-13.3362],[-46.2793,-13.3478],[-46.2886,-13.3146],[-46.3158,-13.3009],[-46.2989,-13.2818],[-46.2985,-13.2536],[-46.3301,-13.2528],[-46.3044,-13.2055],[-46.3018,-13.1843],[-46.3141,-13.1762],[-46.3082,-13.1551],[-46.2936,-13.1513],[-46.2952,-13.1298],[-46.3082,-13.1244],[-46.3227,-13.0997],[-46.2959,-13.0639],[-46.2806,-13.0434],[-46.2733,-13.0149],[-46.2348,-12.9953],[-46.2204,-13.0041],[-46.1258,-12.9614],[-46.1116,-12.9255],[-46.1142,-12.9179],[-46.1389,-12.9093],[-46.2003,-12.9266],[-46.2261,-12.9414],[-46.2667,-12.9323],[-46.3047,-12.9468],[-46.2927,-12.9206],[-46.2975,-12.9072],[-46.2845,-12.8795],[-46.2927,-12.8594],[-46.2633,-12.8347],[-46.2808,-12.8059],[-46.2832,-12.7835],[-46.2763,-12.7592],[-46.2649,-12.7169],[-46.2866,-12.7052],[-46.2924,-12.6898],[-46.2561,-12.6551],[-46.2907,-12.6329],[-46.2732,-12.5939],[-46.2799,-12.5859],[-46.2655,-12.57],[-46.2588,-12.5476],[-46.2017,-12.5302],[-46.1606,-12.5285],[-46.1545,-12.5055],[-46.142,-12.5311],[-46.1001,-12.5275],[-46.0252,-12.5016],[-46.0081,-12.4913],[-45.9551,-12.475],[-45.9161,-12.4569],[-45.9102,-12.4599],[-45.8729,-12.4296],[-45.8407,-12.4184],[-45.8032,-12.418],[-45.7519,-12.4121],[-45.7103,-12.397],[-45.6484,-12.3932],[-45.5906,-12.402],[-45.5403,-12.3908],[-45.4865,-12.3649],[-45.4644,-12.3767],[-45.4429,-12.3672],[-45.4058,-12.3701],[-45.3488,-12.3886],[-45.3309,-12.402],[-45.2837,-12.422],[-45.2269,-12.4257],[-45.2053,-12.3843],[-45.168,-12.3685],[-45.1495,-12.3333],[-45.1254,-12.3228],[-45.1024,-12.3362],[-45.0694,-12.3311],[-45.0367,-12.3091],[-45.0154,-12.3152],[-44.9272,-12.2931],[-44.8275,-12.3944],[-44.7812,-12.3951],[-44.7756,-12.4022],[-44.7378,-12.4088]]]]}}]}