{"type":"FeatureCollection","features":[{"type":"Feature","properties":{"codarea":"5215306","centroide":[-48.19530220384555,-17.00817850004462],"codigo_ibge":5215306,"nome_ig":"Orizona"},"geometry":{"type":"MultiPolygon","coordinates":[[[[-47.9194,-17.0042],[-47.9369,-17.0347],[-47.9744,-17.0661],[-47.9893,-17.0844],[-48.0022,-17.1451],[-48.0213,-17.1628],[-48.0315,-17.1933],[-48.0549,-17.1947],[-48.0565,-17.214],[-48.0714,-17.21],[-48.085,-17.2474],[-48.1191,-17.2743],[-48.1482,-17.2909],[-48.1987,-17.31],[-48.2091,-17.2874],[-48.1899,-17.2777],[-48.1997,-17.2553],[-48.2219,-17.2351],[-48.2245,-17.2015],[-48.2376,-17.1867],[-48.2694,-17.1839],[-48.2954,-17.1641],[-48.3301,-17.1515],[-48.355,-17.1189],[-48.4892,-17.0035],[-48.4718,-16.9689],[-48.4713,-16.9488],[-48.455,-16.9332],[-48.4097,-16.9334],[-48.3991,-16.9197],[-48.3666,-16.9105],[-48.3659,-16.8965],[-48.3413,-16.864],[-48.3064,-16.8368],[-48.3022,-16.8092],[-48.2643,-16.7963],[-48.2555,-16.7734],[-48.2652,-16.7549],[-48.2598,-16.7387],[-48.239,-16.7348],[-48.2257,-16.7423],[-48.1947,-16.735],[-48.1726,-16.7317],[-48.1462,-16.7426],[-48.1247,-16.741],[-48.1045,-16.7489],[-48.0766,-16.7992],[-48.0858,-16.859],[-48.0783,-16.8796],[-48.0896,-16.8911],[-48.081,-16.9028],[-48.0793,-16.9287],[-48.0666,-16.9324],[-48.0352,-16.9215],[-48.0065,-16.9344],[-48,-16.9524],[-47.9194,-17.0042]]]]}}]}