{"type":"FeatureCollection","features":[{"type":"Feature","properties":{"codarea":"4117305","centroide":[-50.947467158309315,-24.135519675193308],"codigo_ibge":4117305,"nome_ig":"Ortigueira"},"geometry":{"type":"Polygon","coordinates":[[[-50.8049,-23.8764],[-50.7903,-23.8886],[-50.7871,-23.9055],[-50.7569,-23.922],[-50.732,-23.9476],[-50.7416,-23.9661],[-50.7612,-23.9672],[-50.7346,-23.9878],[-50.7418,-24.0089],[-50.7218,-24.0278],[-50.7028,-24.0248],[-50.6929,-24.0366],[-50.7106,-24.0423],[-50.7055,-24.0901],[-50.7359,-24.0904],[-50.7198,-24.1102],[-50.6951,-24.1158],[-50.7029,-24.128],[-50.7404,-24.1407],[-50.7339,-24.1555],[-50.7123,-24.1724],[-50.6958,-24.1673],[-50.6938,-24.1529],[-50.6787,-24.1718],[-50.6972,-24.1735],[-50.7104,-24.1856],[-50.6853,-24.207],[-50.6917,-24.216],[-50.6805,-24.2366],[-50.699,-24.2322],[-50.6975,-24.2563],[-50.7202,-24.2638],[-50.6965,-24.2665],[-50.6966,-24.2854],[-50.7106,-24.2893],[-50.7233,-24.3138],[-50.7292,-24.3271],[-50.7545,-24.3322],[-50.7586,-24.3546],[-50.7803,-24.3787],[-50.8013,-24.3896],[-50.8187,-24.3875],[-50.8346,-24.404],[-50.8515,-24.3925],[-50.8632,-24.4123],[-50.8848,-24.4115],[-50.9057,-24.4111],[-50.9142,-24.3973],[-50.9497,-24.3902],[-50.9613,-24.3551],[-50.9838,-24.3437],[-51.0136,-24.3428],[-51.021,-24.352],[-51.0552,-24.3437],[-51.0923,-24.3233],[-51.098,-24.3258],[-51.1162,-24.3007],[-51.1017,-24.302],[-51.111,-24.2816],[-51.1525,-24.2612],[-51.1652,-24.2495],[-51.1816,-24.2527],[-51.2126,-24.2393],[-51.2072,-24.223],[-51.2301,-24.2104],[-51.2406,-24.2204],[-51.256,-24.2081],[-51.3196,-24.1799],[-51.3338,-24.1588],[-51.3419,-24.1488],[-51.3577,-24.1582],[-51.3725,-24.1425],[-51.3481,-24.1156],[-51.3487,-24.1311],[-51.3136,-24.1269],[-51.3041,-24.1137],[-51.2681,-24.1097],[-51.226,-24.0866],[-51.2177,-24.1057],[-51.178,-24.1004],[-51.172,-24.0805],[-51.1331,-24.0695],[-51.1142,-24.0852],[-51.1019,-24.0736],[-51.0854,-24.0744],[-51.0818,-24.044],[-51.096,-24.0328],[-51.0955,-23.988],[-51.1092,-23.9674],[-51.1125,-23.9426],[-51.0892,-23.9296],[-51.0819,-23.9059],[-51.0697,-23.9165],[-51.0452,-23.9062],[-51.0063,-23.9163],[-50.9816,-23.8951],[-50.958,-23.8993],[-50.9563,-23.8717],[-50.9686,-23.8637],[-50.9631,-23.8507],[-50.9443,-23.8526],[-50.9402,-23.8268],[-50.9037,-23.8161],[-50.899,-23.7955],[-50.886,-23.8058],[-50.8948,-23.8421],[-50.8477,-23.8796],[-50.8436,-23.8944],[-50.8049,-23.8764]]]}}]}