{"type":"FeatureCollection","features":[{"type":"Feature","properties":{"codarea":"3303807","centroide":[-44.70729787725451,-23.148856614699625],"codigo_ibge":3303807,"nome_ig":"Paraty"},"geometry":{"type":"MultiPolygon","coordinates":[[[[-44.7189,-23.359],[-44.7189,-23.359],[-44.7189,-23.359],[-44.7189,-23.359]]],[[[-44.6723,-23.3574],[-44.6723,-23.3574],[-44.6723,-23.3574],[-44.6723,-23.3574]]],[[[-44.5671,-23.3487],[-44.5671,-23.3487],[-44.5671,-23.3487],[-44.5671,-23.3487]]],[[[-44.571,-23.2682],[-44.571,-23.2682],[-44.571,-23.2682],[-44.571,-23.2682]]],[[[-44.6689,-23.2404],[-44.6689,-23.2404],[-44.6689,-23.2404],[-44.6689,-23.2404]]],[[[-44.6367,-23.2269],[-44.6367,-23.2269],[-44.6367,-23.2269],[-44.6367,-23.2269]]],[[[-44.5566,-23.2244],[-44.5566,-23.2244],[-44.5566,-23.2244],[-44.5566,-23.2244]]],[[[-44.6907,-23.2182],[-44.6907,-23.2182],[-44.6907,-23.2182],[-44.6907,-23.2182]]],[[[-44.5824,-23.211],[-44.5824,-23.211],[-44.5824,-23.211],[-44.5824,-23.211]]],[[[-44.709,-23.2054],[-44.709,-23.2054],[-44.709,-23.2054],[-44.709,-23.2054]]],[[[-44.5916,-23.2044],[-44.6027,-23.223],[-44.6204,-23.2222],[-44.5916,-23.2044]]],[[[-44.5793,-23.2012],[-44.5793,-23.2012],[-44.5793,-23.2012],[-44.5793,-23.2012]]],[[[-44.5742,-23.1902],[-44.5742,-23.1902],[-44.5742,-23.1902],[-44.5742,-23.1902]]],[[[-44.658,-23.1818],[-44.658,-23.1818],[-44.658,-23.1818],[-44.658,-23.1818]]],[[[-44.6827,-23.179],[-44.6827,-23.179],[-44.6827,-23.179],[-44.6827,-23.179]]],[[[-44.6643,-23.1637],[-44.6643,-23.1637],[-44.6643,-23.1637],[-44.6643,-23.1637]]],[[[-44.6827,-23.1563],[-44.6827,-23.1563],[-44.6827,-23.1563],[-44.6827,-23.1563]]],[[[-44.6756,-23.1334],[-44.6756,-23.1334],[-44.6756,-23.1334],[-44.6756,-23.1334]]],[[[-44.686,-23.1312],[-44.686,-23.1312],[-44.686,-23.1312],[-44.686,-23.1312]]],[[[-44.6788,-23.1274],[-44.6788,-23.1274],[-44.6788,-23.1274],[-44.6788,-23.1274]]],[[[-44.6763,-23.1112],[-44.6763,-23.1112],[-44.6763,-23.1112],[-44.6763,-23.1112]]],[[[-44.6801,-23.1085],[-44.6801,-23.1085],[-44.6801,-23.1085],[-44.6801,-23.1085]]],[[[-44.6887,-23.1097],[-44.6887,-23.1097],[-44.6887,-23.1097],[-44.6887,-23.1097]]],[[[-44.6728,-23.0993],[-44.6728,-23.0993],[-44.6728,-23.0993],[-44.6728,-23.0993]]],[[[-44.6843,-23.0886],[-44.6843,-23.0886],[-44.6843,-23.0886],[-44.6843,-23.0886]]],[[[-44.5961,-23.0897],[-44.5961,-23.0897],[-44.5961,-23.0897],[-44.5961,-23.0897]]],[[[-44.6308,-23.0699],[-44.6308,-23.0699],[-44.6308,-23.0699],[-44.6308,-23.0699]]],[[[-44.6368,-23.0696],[-44.6368,-23.0696],[-44.6368,-23.0696],[-44.6368,-23.0696]]],[[[-44.6022,-23.0683],[-44.6022,-23.0683],[-44.6022,-23.0683],[-44.6022,-23.0683]]],[[[-44.5958,-23.067],[-44.5958,-23.067],[-44.5958,-23.067],[-44.5958,-23.067]]],[[[-44.6276,-23.0611],[-44.6276,-23.0611],[-44.6276,-23.0611],[-44.6276,-23.0611]]],[[[-44.6215,-23.0593],[-44.6215,-23.0593],[-44.6215,-23.0593],[-44.6215,-23.0593]]],[[[-44.6083,-23.0646],[-44.6083,-23.0646],[-44.6083,-23.0646],[-44.6083,-23.0646]]],[[[-44.5528,-23.058],[-44.5528,-23.058],[-44.5528,-23.058],[-44.5528,-23.058]]],[[[-44.5601,-23.0536],[-44.5601,-23.0536],[-44.5601,-23.0536],[-44.5601,-23.0536]]],[[[-44.545,-23.049],[-44.545,-23.049],[-44.545,-23.049],[-44.545,-23.049]]],[[[-44.521,-23.0276],[-44.5308,-23.0273],[-44.576,-23.048],[-44.6163,-23.0442],[-44.6511,-23.0566],[-44.6686,-23.0544],[-44.6848,-23.0721],[-44.6942,-23.0962],[-44.6992,-23.1358],[-44.6934,-23.1472],[-44.7064,-23.1579],[-44.7075,-23.1743],[-44.7216,-23.2021],[-44.7082,-23.2202],[-44.7127,-23.2318],[-44.6951,-23.2324],[-44.6541,-23.1908],[-44.6266,-23.1968],[-44.6256,-23.2233],[-44.6369,-23.2122],[-44.6905,-23.2536],[-44.664,-23.2479],[-44.6513,-23.2357],[-44.6136,-23.2354],[-44.6574,-23.2926],[-44.63,-23.281],[-44.6212,-23.2586],[-44.597,-23.2444],[-44.5967,-23.2351],[-44.5596,-23.2307],[-44.5762,-23.2452],[-44.5798,-23.2715],[-44.5493,-23.275],[-44.5396,-23.2673],[-44.5188,-23.281],[-44.5659,-23.3241],[-44.5618,-23.3309],[-44.5855,-23.3599],[-44.6075,-23.3668],[-44.607,-23.3496],[-44.6394,-23.3313],[-44.6827,-23.3498],[-44.7026,-23.3403],[-44.7173,-23.3459],[-44.7241,-23.3675],[-44.7357,-23.3656],[-44.7599,-23.3412],[-44.7777,-23.3377],[-44.7787,-23.3144],[-44.8078,-23.2835],[-44.8274,-23.2906],[-44.836,-23.2561],[-44.8694,-23.2498],[-44.8893,-23.2265],[-44.8826,-23.2027],[-44.8747,-23.1846],[-44.8244,-23.1626],[-44.8254,-23.1437],[-44.8105,-23.1155],[-44.8188,-23.0914],[-44.8012,-23.0445],[-44.7928,-23.0098],[-44.8025,-22.9987],[-44.7905,-22.9812],[-44.7648,-22.9833],[-44.751,-22.972],[-44.7438,-22.9472],[-44.7136,-22.9299],[-44.6869,-22.9359],[-44.6731,-22.9179],[-44.6591,-22.9279],[-44.6386,-22.9141],[-44.6205,-22.9394],[-44.5768,-22.9464],[-44.5578,-22.9613],[-44.5405,-22.9959],[-44.5461,-23.0204],[-44.521,-23.0276]]]]}}]}