{
  "type": "FeatureCollection",
  "nome_ig": "Paranacity",
  "municipios_lista": "cruzeiro do sul;paranacity",
  "features": [
    {
      "type": "Feature",
      "geometry": {
        "type": "Polygon",
        "coordinates": [
          [
            [
              -52.2565,
              -22.8978
            ],
            [
              -52.2566,
              -22.9008
            ],
            [
              -52.2558,
              -22.9016
            ],
            [
              -52.2561,
              -22.9031
            ],
            [
              -52.2549,
              -22.9043
            ],
            [
              -52.2507,
              -22.905
            ],
            [
              -52.2493,
              -22.9062
            ],
            [
              -52.248,
              -22.9082
            ],
            [
              -52.2468,
              -22.9086
            ],
            [
              -52.2441,
              -22.9102
            ],
            [
              -52.2432,
              -22.9116
            ],
            [
              -52.2399,
              -22.9139
            ],
            [
              -52.2389,
              -22.9155
            ],
            [
              -52.2376,
              -22.9163
            ],
            [
              -52.2355,
              -22.9186
            ],
            [
              -52.2305,
              -22.9207
            ],
            [
              -52.2272,
              -22.9233
            ],
            [
              -52.2234,
              -22.9279
            ],
            [
              -52.2216,
              -22.9309
            ],
            [
              -52.22,
              -22.9329
            ],
            [
              -52.2168,
              -22.9355
            ],
            [
              -52.2119,
              -22.9389
            ],
            [
              -52.2109,
              -22.9399
            ],
            [
              -52.1815,
              -22.9413
            ],
            [
              -52.1781,
              -22.943
            ],
            [
              -52.1768,
              -22.9431
            ],
            [
              -52.1742,
              -22.9442
            ],
            [
              -52.1662,
              -22.9458
            ],
            [
              -52.16,
              -22.9473
            ],
            [
              -52.1601,
              -22.9485
            ],
            [
              -52.1615,
              -22.9532
            ],
            [
              -52.1621,
              -22.9541
            ],
            [
              -52.1404,
              -22.9542
            ],
            [
              -52.0996,
              -22.9536
            ],
            [
              -52.0585,
              -22.9538
            ],
            [
              -52.0591,
              -22.9526
            ],
            [
              -52.0579,
              -22.9499
            ],
            [
              -52.0578,
              -22.9484
            ],
            [
              -52.0604,
              -22.9454
            ],
            [
              -52.0604,
              -22.9442
            ],
            [
              -52.0595,
              -22.9405
            ],
            [
              -52.0597,
              -22.9393
            ],
            [
              -52.061,
              -22.9391
            ],
            [
              -52.0639,
              -22.9431
            ],
            [
              -52.0656,
              -22.9438
            ],
            [
              -52.0672,
              -22.9413
            ],
            [
              -52.0677,
              -22.9399
            ],
            [
              -52.0656,
              -22.936
            ],
            [
              -52.0688,
              -22.9343
            ],
            [
              -52.0697,
              -22.9332
            ],
            [
              -52.0696,
              -22.9308
            ],
            [
              -52.07,
              -22.9289
            ],
            [
              -52.0695,
              -22.9268
            ],
            [
              -52.0682,
              -22.925
            ],
            [
              -52.0679,
              -22.9232
            ],
            [
              -52.0717,
              -22.9236
            ],
            [
              -52.0747,
              -22.9247
            ],
            [
              -52.0762,
              -22.9242
            ],
            [
              -52.0767,
              -22.9212
            ],
            [
              -52.0752,
              -22.9176
            ],
            [
              -52.076,
              -22.9166
            ],
            [
              -52.0778,
              -22.9158
            ],
            [
              -52.0809,
              -22.9165
            ],
            [
              -52.0823,
              -22.9164
            ],
            [
              -52.0877,
              -22.913
            ],
            [
              -52.0911,
              -22.913
            ],
            [
              -52.0929,
              -22.9122
            ],
            [
              -52.0944,
              -22.9091
            ],
            [
              -52.096,
              -22.9089
            ],
            [
              -52.0991,
              -22.9103
            ],
            [
              -52.101,
              -22.9105
            ],
            [
              -52.1026,
              -22.9087
            ],
            [
              -52.1032,
              -22.9059
            ],
            [
              -52.1023,
              -22.9045
            ],
            [
              -52.0995,
              -22.9045
            ],
            [
              -52.096,
              -22.9026
            ],
            [
              -52.095,
              -22.9013
            ],
            [
              -52.0947,
              -22.8983
            ],
            [
              -52.0933,
              -22.8951
            ],
            [
              -52.0912,
              -22.8947
            ],
            [
              -52.089,
              -22.8949
            ],
            [
              -52.0849,
              -22.8899
            ],
            [
              -52.0823,
              -22.8886
            ],
            [
              -52.0812,
              -22.8872
            ],
            [
              -52.079,
              -22.8875
            ],
            [
              -52.0775,
              -22.889
            ],
            [
              -52.0748,
              -22.8892
            ],
            [
              -52.074,
              -22.8885
            ],
            [
              -52.0735,
              -22.8866
            ],
            [
              -52.0736,
              -22.8804
            ],
            [
              -52.0727,
              -22.8791
            ],
            [
              -52.0716,
              -22.8785
            ],
            [
              -52.0662,
              -22.8769
            ],
            [
              -52.0663,
              -22.8721
            ],
            [
              -52.071,
              -22.8707
            ],
            [
              -52.0728,
              -22.87
            ],
            [
              -52.0748,
              -22.8684
            ],
            [
              -52.0777,
              -22.8667
            ],
            [
              -52.078,
              -22.863
            ],
            [
              -52.0774,
              -22.859
            ],
            [
              -52.0776,
              -22.8574
            ],
            [
              -52.0804,
              -22.8546
            ],
            [
              -52.0809,
              -22.8534
            ],
            [
              -52.0799,
              -22.8482
            ],
            [
              -52.0799,
              -22.846
            ],
            [
              -52.0807,
              -22.8452
            ],
            [
              -52.0805,
              -22.8436
            ],
            [
              -52.079,
              -22.8419
            ],
            [
              -52.0791,
              -22.8407
            ],
            [
              -52.0811,
              -22.8383
            ],
            [
              -52.0802,
              -22.8351
            ],
            [
              -52.0787,
              -22.8316
            ],
            [
              -52.0787,
              -22.8303
            ],
            [
              -52.0809,
              -22.8279
            ],
            [
              -52.0832,
              -22.8242
            ],
            [
              -52.0835,
              -22.8224
            ],
            [
              -52.085,
              -22.8196
            ],
            [
              -52.0841,
              -22.8188
            ],
            [
              -52.0798,
              -22.8201
            ],
            [
              -52.079,
              -22.8218
            ],
            [
              -52.0773,
              -22.8226
            ],
            [
              -52.0763,
              -22.8213
            ],
            [
              -52.0754,
              -22.8172
            ],
            [
              -52.0761,
              -22.8127
            ],
            [
              -52.0752,
              -22.8094
            ],
            [
              -52.0737,
              -22.8088
            ],
            [
              -52.072,
              -22.8089
            ],
            [
              -52.0709,
              -22.8102
            ],
            [
              -52.0692,
              -22.8097
            ],
            [
              -52.069,
              -22.8079
            ],
            [
              -52.0695,
              -22.8043
            ],
            [
              -52.0713,
              -22.8019
            ],
            [
              -52.0705,
              -22.7982
            ],
            [
              -52.0704,
              -22.7964
            ],
            [
              -52.0722,
              -22.7955
            ],
            [
              -52.0738,
              -22.7924
            ],
            [
              -52.0753,
              -22.7911
            ],
            [
              -52.0786,
              -22.7913
            ],
            [
              -52.0805,
              -22.7908
            ],
            [
              -52.0829,
              -22.7909
            ],
            [
              -52.086,
              -22.79
            ],
            [
              -52.0879,
              -22.79
            ],
            [
              -52.0885,
              -22.7891
            ],
            [
              -52.0882,
              -22.787
            ],
            [
              -52.0886,
              -22.7851
            ],
            [
              -52.0895,
              -22.784
            ],
            [
              -52.0899,
              -22.7807
            ],
            [
              -52.0897,
              -22.779
            ],
            [
              -52.0888,
              -22.777
            ],
            [
              -52.0888,
              -22.7712
            ],
            [
              -52.0886,
              -22.7697
            ],
            [
              -52.086,
              -22.7672
            ],
            [
              -52.0852,
              -22.7659
            ],
            [
              -52.0837,
              -22.765
            ],
            [
              -52.083,
              -22.7663
            ],
            [
              -52.0768,
              -22.7679
            ],
            [
              -52.076,
              -22.7659
            ],
            [
              -52.0769,
              -22.765
            ],
            [
              -52.0759,
              -22.7623
            ],
            [
              -52.0738,
              -22.7607
            ],
            [
              -52.071,
              -22.7601
            ],
            [
              -52.0666,
              -22.7615
            ],
            [
              -52.0639,
              -22.7621
            ],
            [
              -52.0622,
              -22.762
            ],
            [
              -52.0608,
              -22.76
            ],
            [
              -52.0609,
              -22.7583
            ],
            [
              -52.0624,
              -22.7559
            ],
            [
              -52.0611,
              -22.7534
            ],
            [
              -52.0586,
              -22.7519
            ],
            [
              -52.0574,
              -22.7519
            ],
            [
              -52.0538,
              -22.7535
            ],
            [
              -52.0528,
              -22.7528
            ],
            [
              -52.0527,
              -22.7514
            ],
            [
              -52.054,
              -22.7501
            ],
            [
              -52.0535,
              -22.7471
            ],
            [
              -52.0551,
              -22.7439
            ],
            [
              -52.055,
              -22.7423
            ],
            [
              -52.054,
              -22.7384
            ],
            [
              -52.0555,
              -22.7353
            ],
            [
              -52.0557,
              -22.7335
            ],
            [
              -52.0545,
              -22.7312
            ],
            [
              -52.056,
              -22.7293
            ],
            [
              -52.0565,
              -22.7281
            ],
            [
              -52.0586,
              -22.7281
            ],
            [
              -52.0598,
              -22.7272
            ],
            [
              -52.0615,
              -22.7269
            ],
            [
              -52.0703,
              -22.7219
            ],
            [
              -52.0746,
              -22.7177
            ],
            [
              -52.08,
              -22.7168
            ],
            [
              -52.08,
              -22.7183
            ],
            [
              -52.0929,
              -22.7186
            ],
            [
              -52.1211,
              -22.7203
            ],
            [
              -52.1279,
              -22.7303
            ],
            [
              -52.1501,
              -22.7188
            ],
            [
              -52.1591,
              -22.7137
            ],
            [
              -52.1606,
              -22.7121
            ],
            [
              -52.1619,
              -22.7118
            ],
            [
              -52.1641,
              -22.712
            ],
            [
              -52.1653,
              -22.7135
            ],
            [
              -52.1659,
              -22.716
            ],
            [
              -52.1661,
              -22.7221
            ],
            [
              -52.1647,
              -22.7248
            ],
            [
              -52.1639,
              -22.7297
            ],
            [
              -52.1627,
              -22.7335
            ],
            [
              -52.1634,
              -22.7404
            ],
            [
              -52.1619,
              -22.7451
            ],
            [
              -52.1632,
              -22.7504
            ],
            [
              -52.162,
              -22.7544
            ],
            [
              -52.1631,
              -22.7594
            ],
            [
              -52.1633,
              -22.7641
            ],
            [
              -52.1766,
              -22.805
            ],
            [
              -52.1989,
              -22.8112
            ],
            [
              -52.2047,
              -22.8118
            ],
            [
              -52.2095,
              -22.8148
            ],
            [
              -52.213,
              -22.8159
            ],
            [
              -52.2159,
              -22.816
            ],
            [
              -52.2196,
              -22.8173
            ],
            [
              -52.2218,
              -22.8175
            ],
            [
              -52.2231,
              -22.8189
            ],
            [
              -52.2264,
              -22.8192
            ],
            [
              -52.229,
              -22.8188
            ],
            [
              -52.2328,
              -22.8201
            ],
            [
              -52.2351,
              -22.8195
            ],
            [
              -52.2384,
              -22.8162
            ],
            [
              -52.2388,
              -22.818
            ],
            [
              -52.2384,
              -22.8227
            ],
            [
              -52.237,
              -22.8243
            ],
            [
              -52.2341,
              -22.8262
            ],
            [
              -52.2344,
              -22.8312
            ],
            [
              -52.235,
              -22.8321
            ],
            [
              -52.234,
              -22.8352
            ],
            [
              -52.2312,
              -22.836
            ],
            [
              -52.2298,
              -22.8374
            ],
            [
              -52.2287,
              -22.8401
            ],
            [
              -52.229,
              -22.8416
            ],
            [
              -52.2304,
              -22.8438
            ],
            [
              -52.2304,
              -22.8452
            ],
            [
              -52.2321,
              -22.8472
            ],
            [
              -52.2332,
              -22.8477
            ],
            [
              -52.2315,
              -22.8504
            ],
            [
              -52.2311,
              -22.852
            ],
            [
              -52.2325,
              -22.8547
            ],
            [
              -52.2349,
              -22.857
            ],
            [
              -52.236,
              -22.8573
            ],
            [
              -52.2354,
              -22.8594
            ],
            [
              -52.2363,
              -22.8608
            ],
            [
              -52.2386,
              -22.8624
            ],
            [
              -52.2399,
              -22.8649
            ],
            [
              -52.2408,
              -22.8658
            ],
            [
              -52.2416,
              -22.8677
            ],
            [
              -52.2429,
              -22.869
            ],
            [
              -52.2425,
              -22.8725
            ],
            [
              -52.2438,
              -22.8737
            ],
            [
              -52.2446,
              -22.8766
            ],
            [
              -52.244,
              -22.878
            ],
            [
              -52.2445,
              -22.8801
            ],
            [
              -52.2458,
              -22.8801
            ],
            [
              -52.2472,
              -22.8827
            ],
            [
              -52.2484,
              -22.8825
            ],
            [
              -52.2493,
              -22.8834
            ],
            [
              -52.2517,
              -22.8827
            ],
            [
              -52.2533,
              -22.8848
            ],
            [
              -52.2552,
              -22.8865
            ],
            [
              -52.2558,
              -22.888
            ],
            [
              -52.2559,
              -22.8912
            ],
            [
              -52.2556,
              -22.8936
            ],
            [
              -52.2566,
              -22.8943
            ],
            [
              -52.2555,
              -22.8968
            ],
            [
              -52.2565,
              -22.8978
            ]
          ]
        ]
      },
      "properties": {
        "codarea": "4118105",
        "nome_municipio": "Paranacity",
        "codigo_ibge": 4118105
      }
    },
    {
      "type": "Feature",
      "geometry": {
        "type": "Polygon",
        "coordinates": [
          [
            [
              -52.0585,
              -22.9538
            ],
            [
              -52.0996,
              -22.9536
            ],
            [
              -52.1404,
              -22.9542
            ],
            [
              -52.1621,
              -22.9541
            ],
            [
              -52.1615,
              -22.9532
            ],
            [
              -52.1601,
              -22.9485
            ],
            [
              -52.16,
              -22.9473
            ],
            [
              -52.1662,
              -22.9458
            ],
            [
              -52.1742,
              -22.9442
            ],
            [
              -52.1768,
              -22.9431
            ],
            [
              -52.1781,
              -22.943
            ],
            [
              -52.1815,
              -22.9413
            ],
            [
              -52.2109,
              -22.9399
            ],
            [
              -52.2119,
              -22.9389
            ],
            [
              -52.2168,
              -22.9355
            ],
            [
              -52.22,
              -22.9329
            ],
            [
              -52.2216,
              -22.9309
            ],
            [
              -52.2234,
              -22.9279
            ],
            [
              -52.2272,
              -22.9233
            ],
            [
              -52.2305,
              -22.9207
            ],
            [
              -52.2355,
              -22.9186
            ],
            [
              -52.2376,
              -22.9163
            ],
            [
              -52.2389,
              -22.9155
            ],
            [
              -52.2399,
              -22.9139
            ],
            [
              -52.2432,
              -22.9116
            ],
            [
              -52.2441,
              -22.9102
            ],
            [
              -52.2468,
              -22.9086
            ],
            [
              -52.248,
              -22.9082
            ],
            [
              -52.2493,
              -22.9062
            ],
            [
              -52.2507,
              -22.905
            ],
            [
              -52.2549,
              -22.9043
            ],
            [
              -52.2561,
              -22.9031
            ],
            [
              -52.2558,
              -22.9016
            ],
            [
              -52.2566,
              -22.9008
            ],
            [
              -52.2565,
              -22.8978
            ],
            [
              -52.258,
              -22.897
            ],
            [
              -52.2591,
              -22.8974
            ],
            [
              -52.26,
              -22.9012
            ],
            [
              -52.2619,
              -22.9028
            ],
            [
              -52.2627,
              -22.9042
            ],
            [
              -52.2645,
              -22.9055
            ],
            [
              -52.266,
              -22.9058
            ],
            [
              -52.2664,
              -22.9089
            ],
            [
              -52.2671,
              -22.9097
            ],
            [
              -52.2671,
              -22.9121
            ],
            [
              -52.2677,
              -22.913
            ],
            [
              -52.2702,
              -22.914
            ],
            [
              -52.2701,
              -22.9164
            ],
            [
              -52.2713,
              -22.9167
            ],
            [
              -52.273,
              -22.9185
            ],
            [
              -52.2754,
              -22.9197
            ],
            [
              -52.2768,
              -22.9221
            ],
            [
              -52.2766,
              -22.9245
            ],
            [
              -52.2771,
              -22.9257
            ],
            [
              -52.2766,
              -22.9278
            ],
            [
              -52.2777,
              -22.9299
            ],
            [
              -52.2798,
              -22.9313
            ],
            [
              -52.2792,
              -22.9341
            ],
            [
              -52.2804,
              -22.9346
            ],
            [
              -52.2797,
              -22.9375
            ],
            [
              -52.2797,
              -22.9402
            ],
            [
              -52.2809,
              -22.9449
            ],
            [
              -52.2807,
              -22.9464
            ],
            [
              -52.2812,
              -22.9488
            ],
            [
              -52.2822,
              -22.9493
            ],
            [
              -52.2819,
              -22.9508
            ],
            [
              -52.2836,
              -22.9538
            ],
            [
              -52.284,
              -22.9564
            ],
            [
              -52.2832,
              -22.9579
            ],
            [
              -52.2833,
              -22.9604
            ],
            [
              -52.2841,
              -22.9615
            ],
            [
              -52.2839,
              -22.9653
            ],
            [
              -52.2842,
              -22.9679
            ],
            [
              -52.2828,
              -22.9705
            ],
            [
              -52.2809,
              -22.972
            ],
            [
              -52.2784,
              -22.9723
            ],
            [
              -52.2772,
              -22.9732
            ],
            [
              -52.2756,
              -22.9733
            ],
            [
              -52.2737,
              -22.9752
            ],
            [
              -52.2729,
              -22.9775
            ],
            [
              -52.2734,
              -22.9795
            ],
            [
              -52.2726,
              -22.9812
            ],
            [
              -52.2695,
              -22.9829
            ],
            [
              -52.2677,
              -22.9828
            ],
            [
              -52.2661,
              -22.9833
            ],
            [
              -52.264,
              -22.9857
            ],
            [
              -52.2636,
              -22.9888
            ],
            [
              -52.261,
              -22.992
            ],
            [
              -52.2583,
              -22.9932
            ],
            [
              -52.2579,
              -22.9943
            ],
            [
              -52.258,
              -22.9969
            ],
            [
              -52.2545,
              -23.0024
            ],
            [
              -52.2549,
              -23.0046
            ],
            [
              -52.2545,
              -23.0073
            ],
            [
              -52.2544,
              -23.011
            ],
            [
              -52.2532,
              -23.0136
            ],
            [
              -52.2517,
              -23.0156
            ],
            [
              -52.2519,
              -23.017
            ],
            [
              -52.2509,
              -23.0206
            ],
            [
              -52.2494,
              -23.0234
            ],
            [
              -52.2474,
              -23.0257
            ],
            [
              -52.2478,
              -23.0263
            ],
            [
              -52.2464,
              -23.0277
            ],
            [
              -52.2432,
              -23.029
            ],
            [
              -52.2384,
              -23.0314
            ],
            [
              -52.2358,
              -23.0325
            ],
            [
              -52.2331,
              -23.0325
            ],
            [
              -52.2308,
              -23.0342
            ],
            [
              -52.2258,
              -23.0356
            ],
            [
              -52.2206,
              -23.0362
            ],
            [
              -52.2139,
              -23.0357
            ],
            [
              -52.2096,
              -23.0348
            ],
            [
              -52.1824,
              -23.0425
            ],
            [
              -52.1776,
              -23.046
            ],
            [
              -52.1746,
              -23.0502
            ],
            [
              -52.172,
              -23.0549
            ],
            [
              -52.1686,
              -23.0585
            ],
            [
              -52.1678,
              -23.0598
            ],
            [
              -52.1643,
              -23.0643
            ],
            [
              -52.1629,
              -23.0664
            ],
            [
              -52.1585,
              -23.065
            ],
            [
              -52.1538,
              -23.0629
            ],
            [
              -52.1509,
              -23.0601
            ],
            [
              -52.1483,
              -23.0566
            ],
            [
              -52.1442,
              -23.0532
            ],
            [
              -52.1414,
              -23.0531
            ],
            [
              -52.139,
              -23.0521
            ],
            [
              -52.1374,
              -23.052
            ],
            [
              -52.1345,
              -23.0496
            ],
            [
              -52.1313,
              -23.0482
            ],
            [
              -52.1298,
              -23.0479
            ],
            [
              -52.1269,
              -23.0481
            ],
            [
              -52.1197,
              -23.0452
            ],
            [
              -52.1129,
              -23.0442
            ],
            [
              -52.1109,
              -23.0444
            ],
            [
              -52.1068,
              -23.0434
            ],
            [
              -52.1036,
              -23.0415
            ],
            [
              -52.1017,
              -23.0418
            ],
            [
              -52.0984,
              -23.0412
            ],
            [
              -52.0961,
              -23.0393
            ],
            [
              -52.0924,
              -23.0376
            ],
            [
              -52.0903,
              -23.0358
            ],
            [
              -52.087,
              -23.0345
            ],
            [
              -52.0858,
              -23.0348
            ],
            [
              -52.0844,
              -23.0335
            ],
            [
              -52.0833,
              -23.0318
            ],
            [
              -52.0815,
              -23.0314
            ],
            [
              -52.0778,
              -23.0287
            ],
            [
              -52.072,
              -23.0281
            ],
            [
              -52.0702,
              -23.0274
            ],
            [
              -52.0666,
              -23.0269
            ],
            [
              -52.0633,
              -23.025
            ],
            [
              -52.0616,
              -23.0249
            ],
            [
              -52.0574,
              -23.0223
            ],
            [
              -52.0568,
              -23.0217
            ],
            [
              -52.0535,
              -23.0211
            ],
            [
              -52.0525,
              -23.0196
            ],
            [
              -52.0516,
              -23.0194
            ],
            [
              -52.0506,
              -23.0207
            ],
            [
              -52.048,
              -23.0212
            ],
            [
              -52.0467,
              -23.0222
            ],
            [
              -52.04,
              -23.0196
            ],
            [
              -52.0381,
              -23.0215
            ],
            [
              -52.0369,
              -23.0221
            ],
            [
              -52.0314,
              -23.0188
            ],
            [
              -52.0306,
              -23.0171
            ],
            [
              -52.028,
              -23.0165
            ],
            [
              -52.0275,
              -23.0153
            ],
            [
              -52.0272,
              -23.0126
            ],
            [
              -52.0258,
              -23.0086
            ],
            [
              -52.026,
              -23.0047
            ],
            [
              -52.0237,
              -23.0022
            ],
            [
              -52.0237,
              -22.9978
            ],
            [
              -52.0262,
              -22.997
            ],
            [
              -52.0272,
              -22.9954
            ],
            [
              -52.0289,
              -22.9896
            ],
            [
              -52.0298,
              -22.9881
            ],
            [
              -52.0289,
              -22.9838
            ],
            [
              -52.0292,
              -22.9817
            ],
            [
              -52.0305,
              -22.9812
            ],
            [
              -52.0323,
              -22.9816
            ],
            [
              -52.0348,
              -22.9829
            ],
            [
              -52.0362,
              -22.9828
            ],
            [
              -52.0394,
              -22.9773
            ],
            [
              -52.037,
              -22.978
            ],
            [
              -52.0344,
              -22.9761
            ],
            [
              -52.0311,
              -22.9753
            ],
            [
              -52.0308,
              -22.9737
            ],
            [
              -52.0328,
              -22.9678
            ],
            [
              -52.0378,
              -22.97
            ],
            [
              -52.0415,
              -22.9706
            ],
            [
              -52.0438,
              -22.9706
            ],
            [
              -52.0445,
              -22.9693
            ],
            [
              -52.0435,
              -22.9661
            ],
            [
              -52.0445,
              -22.9609
            ],
            [
              -52.0434,
              -22.9585
            ],
            [
              -52.0401,
              -22.9588
            ],
            [
              -52.0396,
              -22.957
            ],
            [
              -52.0415,
              -22.954
            ],
            [
              -52.0421,
              -22.9521
            ],
            [
              -52.0425,
              -22.9493
            ],
            [
              -52.0435,
              -22.949
            ],
            [
              -52.0459,
              -22.9492
            ],
            [
              -52.0489,
              -22.9508
            ],
            [
              -52.0502,
              -22.9523
            ],
            [
              -52.0518,
              -22.9523
            ],
            [
              -52.057,
              -22.9543
            ],
            [
              -52.0585,
              -22.9538
            ]
          ]
        ]
      },
      "properties": {
        "codarea": "4106704",
        "nome_municipio": "Cruzeiro do Sul",
        "codigo_ibge": 4106704
      }
    }
  ]
}