{"type":"FeatureCollection","features":[{"type":"Feature","properties":{"codarea":"2207900","centroide":[-41.39978751429119,-4.490287373884848],"codigo_ibge":2207900,"nome_ig":"Pedro II"},"geometry":{"type":"Polygon","coordinates":[[[-41.1194,-4.3242],[-41.149,-4.3671],[-41.1618,-4.3872],[-41.1596,-4.4105],[-41.1771,-4.4412],[-41.1775,-4.4676],[-41.1894,-4.4908],[-41.1907,-4.5155],[-41.2037,-4.5284],[-41.2215,-4.5674],[-41.2398,-4.5735],[-41.222,-4.5778],[-41.2334,-4.6101],[-41.1855,-4.6619],[-41.1738,-4.6669],[-41.2024,-4.7018],[-41.2238,-4.7209],[-41.248,-4.7615],[-41.2951,-4.8148],[-41.2935,-4.5561],[-41.5122,-4.5806],[-41.7452,-4.5904],[-41.7394,-4.5703],[-41.7302,-4.5472],[-41.6391,-4.4636],[-41.6051,-4.4091],[-41.5876,-4.4163],[-41.5496,-4.4045],[-41.5287,-4.4108],[-41.5012,-4.3824],[-41.5015,-4.3572],[-41.5138,-4.3316],[-41.5423,-4.3288],[-41.561,-4.3107],[-41.525,-4.2566],[-41.4949,-4.2745],[-41.4876,-4.3036],[-41.4532,-4.3013],[-41.4153,-4.3109],[-41.4275,-4.3211],[-41.3989,-4.3884],[-41.3876,-4.4325],[-41.3806,-4.4334],[-41.3629,-4.3384],[-41.3567,-4.3429],[-41.2404,-4.3756],[-41.229,-4.3404],[-41.1194,-4.3242]]]}}]}