{"type":"FeatureCollection","features":[{"type":"Feature","properties":{"codarea":"2313401","centroide":[-41.05619239860288,-3.7381401814588946],"codigo_ibge":2313401,"nome_ig":"Pindoguaba"},"geometry":{"type":"MultiPolygon","coordinates":[[[[-40.8494,-3.4197],[-40.8216,-3.4713],[-40.8318,-3.5],[-40.8571,-3.5362],[-40.8932,-3.5595],[-40.9038,-3.5749],[-40.8907,-3.6679],[-40.8753,-3.7232],[-40.894,-3.7817],[-40.9234,-3.7887],[-40.9598,-3.8131],[-40.9695,-3.8403],[-41.0074,-3.841],[-41.0362,-3.8502],[-41.0555,-3.8405],[-41.0863,-3.8387],[-41.1329,-3.8434],[-41.1818,-3.8927],[-41.2104,-3.9011],[-41.2456,-3.8964],[-41.2476,-3.8822],[-41.2669,-3.8626],[-41.2768,-3.8256],[-41.3008,-3.8262],[-41.2626,-3.7888],[-41.2541,-3.775],[-41.2612,-3.7462],[-41.253,-3.7242],[-41.2392,-3.7127],[-41.2204,-3.7188],[-41.1963,-3.696],[-41.1933,-3.7038],[-41.1468,-3.6962],[-41.132,-3.712],[-41.0805,-3.691],[-41.0514,-3.6651],[-41.0387,-3.6648],[-41.0165,-3.64],[-40.986,-3.624],[-40.9073,-3.5621],[-40.8768,-3.5325],[-40.8888,-3.5224],[-40.8699,-3.5074],[-40.8834,-3.4875],[-40.8684,-3.4797],[-40.8687,-3.4607],[-40.8491,-3.4323],[-40.8522,-3.4194],[-40.8494,-3.4197]]]]}}]}