{"type":"FeatureCollection","features":[{"type":"Feature","properties":{"codarea":"4302105","centroide":[-51.55196752981711,-29.12595476068055],"codigo_ibge":4302105,"nome_ig":"Pinto Bandeira"},"geometry":{"type":"Polygon","coordinates":[[[-51.5055,-29.0813],[-51.4966,-29.0872],[-51.5017,-29.1143],[-51.474,-29.1322],[-51.4791,-29.1468],[-51.4583,-29.1687],[-51.4229,-29.165],[-51.4231,-29.1561],[-51.3884,-29.156],[-51.3907,-29.197],[-51.4921,-29.1983],[-51.5265,-29.1972],[-51.654,-29.1992],[-51.6655,-29.1881],[-51.6166,-29.1872],[-51.6167,-29.1672],[-51.5884,-29.1675],[-51.6147,-29.1447],[-51.615,-29.1253],[-51.6493,-29.0937],[-51.6817,-29.0889],[-51.6779,-29.0707],[-51.6377,-29.0886],[-51.6342,-29.0732],[-51.6493,-29.0603],[-51.6788,-29.0638],[-51.6575,-29.019],[-51.6369,-29.0136],[-51.6304,-29.0218],[-51.636,-29.039],[-51.6203,-29.0408],[-51.6095,-29.0613],[-51.5948,-29.0447],[-51.5663,-29.0442],[-51.5531,-29.015],[-51.5353,-29.0226],[-51.5577,-29.0444],[-51.5396,-29.0558],[-51.5199,-29.0793],[-51.5055,-29.0813]]]}},{"type":"Feature","properties":{"codarea":"4307906","centroide":[-51.365943780427024,-29.209868363946693],"codigo_ibge":4307906,"nome_ig":"Pinto Bandeira"},"geometry":{"type":"Polygon","coordinates":[[[-51.2928,-29.1134],[-51.2938,-29.1939],[-51.2885,-29.1937],[-51.2886,-29.2454],[-51.2657,-29.2458],[-51.2667,-29.295],[-51.2697,-29.3128],[-51.2987,-29.3175],[-51.3364,-29.3329],[-51.3544,-29.3331],[-51.354,-29.2913],[-51.4406,-29.2913],[-51.4405,-29.2707],[-51.459,-29.271],[-51.4589,-29.254],[-51.4901,-29.2604],[-51.4921,-29.1983],[-51.3907,-29.197],[-51.3884,-29.156],[-51.4231,-29.1561],[-51.4232,-29.1271],[-51.4115,-29.1272],[-51.4128,-29.0874],[-51.4256,-29.0876],[-51.422,-29.0601],[-51.4033,-29.0561],[-51.3705,-29.0691],[-51.3575,-29.1037],[-51.3431,-29.1145],[-51.2928,-29.1134]]]}}]}