{"type":"FeatureCollection","features":[{"type":"Feature","properties":{"codarea":"5217302","centroide":[-49.011304950721986,-15.810195670040585],"codigo_ibge":5217302,"nome_ig":"Pirenópolis"},"geometry":{"type":"MultiPolygon","coordinates":[[[[-48.8113,-15.5124],[-48.8281,-15.5463],[-48.8106,-15.5449],[-48.7926,-15.5578],[-48.8052,-15.5718],[-48.7956,-15.59],[-48.8243,-15.6155],[-48.8112,-15.6325],[-48.8103,-15.6689],[-48.8307,-15.6915],[-48.8258,-15.7164],[-48.8346,-15.7244],[-48.8164,-15.7483],[-48.8341,-15.7991],[-48.8564,-15.8033],[-48.8621,-15.8059],[-48.8474,-15.8389],[-48.871,-15.849],[-48.8731,-15.8765],[-48.8995,-15.8836],[-48.9038,-15.9122],[-48.8974,-15.9446],[-48.8886,-15.9575],[-48.9074,-15.9894],[-48.9141,-16.0166],[-48.9015,-16.0301],[-48.9026,-16.0544],[-48.9162,-16.0905],[-48.9398,-16.1344],[-48.981,-16.1253],[-49.0123,-16.1407],[-49.0584,-16.1286],[-49.1062,-16.1461],[-49.123,-16.1328],[-49.1502,-16.1255],[-49.165,-16.1375],[-49.1822,-16.1265],[-49.1721,-16.0975],[-49.1533,-16.0879],[-49.1456,-16.0574],[-49.1316,-16.0525],[-49.1551,-16.0266],[-49.1323,-15.9984],[-49.1528,-15.9891],[-49.1831,-15.953],[-49.1746,-15.94],[-49.1988,-15.9278],[-49.198,-15.8955],[-49.2173,-15.856],[-49.1286,-15.6242],[-49.1508,-15.6161],[-49.1691,-15.6276],[-49.1867,-15.6024],[-49.1477,-15.5868],[-49.1301,-15.5739],[-49.1077,-15.5445],[-49.089,-15.5386],[-49.1198,-15.5251],[-49.0942,-15.5239],[-49.0826,-15.5128],[-49.0672,-15.5101],[-49.0453,-15.5228],[-49.0277,-15.5446],[-49.0189,-15.5704],[-48.9982,-15.5564],[-48.9961,-15.5389],[-48.9768,-15.5309],[-48.9595,-15.5119],[-48.9387,-15.5115],[-48.915,-15.5347],[-48.8955,-15.5221],[-48.8491,-15.516],[-48.823,-15.5057],[-48.8113,-15.5124]]]]}}]}