{"type":"FeatureCollection","features":[{"type":"Feature","properties":{"codarea":"4202131","centroide":[-50.487753671935884,-26.418645213801526],"codigo_ibge":4202131,"nome_ig":"Planalto Norte Catarinense"},"geometry":{"type":"MultiPolygon","coordinates":[[[[-50.4011,-26.3442],[-50.4246,-26.376],[-50.4192,-26.4126],[-50.4312,-26.4235],[-50.4341,-26.4456],[-50.4482,-26.4587],[-50.4472,-26.484],[-50.4544,-26.5023],[-50.401,-26.5614],[-50.4158,-26.5772],[-50.4341,-26.575],[-50.4439,-26.5877],[-50.4278,-26.6013],[-50.4394,-26.6166],[-50.4918,-26.6425],[-50.5159,-26.6403],[-50.5278,-26.6068],[-50.517,-26.5723],[-50.5399,-26.5214],[-50.5538,-26.5076],[-50.5471,-26.484],[-50.5331,-26.4776],[-50.5546,-26.4482],[-50.5702,-26.4398],[-50.5739,-26.4172],[-50.563,-26.4099],[-50.5841,-26.367],[-50.5712,-26.3558],[-50.5694,-26.3353],[-50.5541,-26.3153],[-50.5716,-26.2954],[-50.5585,-26.2873],[-50.5374,-26.2537],[-50.5021,-26.2473],[-50.4628,-26.2287],[-50.4358,-26.2363],[-50.4181,-26.2791],[-50.4026,-26.2849],[-50.4082,-26.3083],[-50.3989,-26.3168],[-50.4011,-26.3442]]]]}},{"type":"Feature","properties":{"codarea":"4203006","centroide":[-51.08654991899436,-26.762106471213748],"codigo_ibge":4203006,"nome_ig":"Planalto Norte Catarinense"},"geometry":{"type":"MultiPolygon","coordinates":[[[[-51.2388,-26.6278],[-51.2253,-26.6754],[-51.1918,-26.669],[-51.1712,-26.6771],[-51.1497,-26.6953],[-51.1225,-26.7088],[-51.0986,-26.6962],[-51.0531,-26.7011],[-51.0258,-26.6725],[-50.9855,-26.6483],[-50.9538,-26.6593],[-50.9218,-26.6785],[-50.9264,-26.6901],[-50.8531,-26.7321],[-50.8542,-26.7451],[-50.8303,-26.7494],[-50.8037,-26.7651],[-50.8001,-26.7792],[-50.8204,-26.7992],[-50.8322,-26.8299],[-50.8532,-26.8518],[-50.8461,-26.8714],[-50.9043,-26.8846],[-50.9256,-26.9021],[-50.9424,-26.884],[-50.9701,-26.8969],[-50.9945,-26.8631],[-51.0424,-26.8632],[-51.0539,-26.8585],[-51.0502,-26.8416],[-51.0986,-26.837],[-51.1251,-26.842],[-51.1732,-26.8318],[-51.1896,-26.8521],[-51.2198,-26.8595],[-51.245,-26.8847],[-51.2851,-26.873],[-51.2767,-26.8492],[-51.2374,-26.8228],[-51.2393,-26.8017],[-51.2554,-26.7739],[-51.2883,-26.7668],[-51.3123,-26.7467],[-51.3389,-26.7343],[-51.3787,-26.7371],[-51.4131,-26.7204],[-51.4114,-26.7171],[-51.3999,-26.7121],[-51.3927,-26.6848],[-51.4049,-26.6755],[-51.3911,-26.6632],[-51.347,-26.6485],[-51.2814,-26.6522],[-51.2835,-26.6423],[-51.2578,-26.6252],[-51.2388,-26.6278]]]]}},{"type":"Feature","properties":{"codarea":"4203154","centroide":[-51.00835445291643,-26.620547407627196],"codigo_ibge":4203154,"nome_ig":"Planalto Norte Catarinense"},"geometry":{"type":"MultiPolygon","coordinates":[[[[-50.8585,-26.5587],[-50.8089,-26.6522],[-50.8068,-26.6652],[-50.8298,-26.6944],[-50.8247,-26.7268],[-50.8108,-26.7423],[-50.7839,-26.7571],[-50.8037,-26.7651],[-50.8303,-26.7494],[-50.8542,-26.7451],[-50.8531,-26.7321],[-50.9264,-26.6901],[-50.9218,-26.6785],[-50.9538,-26.6593],[-50.9855,-26.6483],[-51.0258,-26.6725],[-51.0531,-26.7011],[-51.0986,-26.6962],[-51.1225,-26.7088],[-51.1497,-26.6953],[-51.1712,-26.6771],[-51.1918,-26.669],[-51.2253,-26.6754],[-51.2388,-26.6278],[-51.2379,-26.6055],[-51.2235,-26.5923],[-51.1844,-26.5919],[-51.1749,-26.6003],[-51.1435,-26.6019],[-51.1344,-26.5876],[-51.1369,-26.5673],[-51.1265,-26.5574],[-51.1111,-26.5634],[-51.1114,-26.5475],[-51.0761,-26.5138],[-51.0498,-26.5122],[-51.0112,-26.4944],[-50.9656,-26.5261],[-50.94,-26.5502],[-50.9159,-26.5444],[-50.8987,-26.5552],[-50.8585,-26.5587]]]]}},{"type":"Feature","properties":{"codarea":"4203303","centroide":[-49.21752865887416,-26.120256915673803],"codigo_ibge":4203303,"nome_ig":"Planalto Norte Catarinense"},"geometry":{"type":"MultiPolygon","coordinates":[[[[-48.9503,-25.9899],[-48.9621,-26.0029],[-48.9569,-26.0204],[-49.0018,-26.0265],[-49.0363,-26.0089],[-49.0511,-26.0282],[-49.0571,-26.0764],[-49.0736,-26.0745],[-49.099,-26.0883],[-49.1371,-26.1169],[-49.1612,-26.1131],[-49.1634,-26.1347],[-49.1909,-26.1453],[-49.1835,-26.1651],[-49.1557,-26.1992],[-49.1744,-26.2077],[-49.1916,-26.2009],[-49.2001,-26.2207],[-49.2269,-26.2355],[-49.2369,-26.2655],[-49.2514,-26.2674],[-49.3177,-26.2295],[-49.3263,-26.2001],[-49.3676,-26.1915],[-49.374,-26.2019],[-49.4072,-26.1841],[-49.4191,-26.1891],[-49.4291,-26.17],[-49.4001,-26.1504],[-49.3708,-26.1557],[-49.3608,-26.1373],[-49.3354,-26.1257],[-49.3217,-26.1099],[-49.3002,-26.1112],[-49.2934,-26.084],[-49.2676,-26.0782],[-49.2511,-26.048],[-49.2344,-26.0306],[-49.211,-26.0254],[-49.1676,-26.0005],[-49.1402,-26.0158],[-49.1239,-25.9962],[-49.1023,-26.0081],[-49.073,-26.0004],[-49.055,-26.0207],[-49.043,-26.0045],[-49.0201,-26.0157],[-48.9942,-26.0093],[-48.9682,-25.9867],[-48.9503,-25.9899]]]]}},{"type":"Feature","properties":{"codarea":"4203808","centroide":[-50.53326392594414,-26.24771571373226],"codigo_ibge":4203808,"nome_ig":"Planalto Norte Catarinense"},"geometry":{"type":"MultiPolygon","coordinates":[[[[-50.3657,-26.1121],[-50.3562,-26.1203],[-50.3801,-26.1231],[-50.3889,-26.1512],[-50.3585,-26.158],[-50.3558,-26.2034],[-50.3251,-26.207],[-50.3256,-26.2521],[-50.3178,-26.266],[-50.3032,-26.2579],[-50.297,-26.2861],[-50.2985,-26.2939],[-50.3253,-26.2966],[-50.3692,-26.331],[-50.4011,-26.3442],[-50.3989,-26.3168],[-50.4082,-26.3083],[-50.4026,-26.2849],[-50.4181,-26.2791],[-50.4358,-26.2363],[-50.4628,-26.2287],[-50.5021,-26.2473],[-50.5374,-26.2537],[-50.5585,-26.2873],[-50.5716,-26.2954],[-50.5541,-26.3153],[-50.5694,-26.3353],[-50.5712,-26.3558],[-50.5841,-26.367],[-50.563,-26.4099],[-50.5739,-26.4172],[-50.5702,-26.4398],[-50.5546,-26.4482],[-50.5331,-26.4776],[-50.5471,-26.484],[-50.5538,-26.5076],[-50.5399,-26.5214],[-50.517,-26.5723],[-50.5278,-26.6068],[-50.563,-26.6077],[-50.5629,-26.5903],[-50.5825,-26.5826],[-50.58,-26.5725],[-50.6002,-26.558],[-50.6058,-26.5409],[-50.6316,-26.5324],[-50.6418,-26.5125],[-50.6621,-26.5008],[-50.6986,-26.4989],[-50.6512,-26.4122],[-50.6363,-26.3788],[-50.6582,-26.3698],[-50.6464,-26.3342],[-50.6604,-26.304],[-50.6803,-26.2839],[-50.67,-26.2602],[-50.6781,-26.2514],[-50.6827,-26.2111],[-50.6969,-26.2084],[-50.7035,-26.1881],[-50.6975,-26.1817],[-50.6827,-26.1536],[-50.6501,-26.1324],[-50.657,-26.104],[-50.6285,-26.0628],[-50.5948,-26.0703],[-50.5524,-26.0584],[-50.5497,-26.0452],[-50.5862,-26.0476],[-50.5931,-26.0271],[-50.5702,-26.0019],[-50.5557,-26.0181],[-50.5508,-26.0382],[-50.5104,-26.0265],[-50.4764,-26.0237],[-50.4419,-26.0367],[-50.4484,-26.0461],[-50.4328,-26.0621],[-50.4011,-26.0615],[-50.3716,-26.0791],[-50.3622,-26.0925],[-50.3657,-26.1121]]]]}},{"type":"Feature","properties":{"codarea":"4207908","centroide":[-50.76039647552588,-26.357220734914176],"codigo_ibge":4207908,"nome_ig":"Planalto Norte Catarinense"},"geometry":{"type":"MultiPolygon","coordinates":[[[[-50.6986,-26.4989],[-50.7394,-26.5245],[-50.7979,-26.5079],[-50.7849,-26.5018],[-50.8167,-26.4777],[-50.8095,-26.4584],[-50.815,-26.4406],[-50.8487,-26.4282],[-50.841,-26.4074],[-50.8428,-26.3832],[-50.8547,-26.3755],[-50.8717,-26.3854],[-50.8844,-26.3791],[-50.887,-26.3399],[-50.9002,-26.3197],[-50.8886,-26.3036],[-50.8997,-26.2892],[-50.8865,-26.2838],[-50.8702,-26.242],[-50.8355,-26.271],[-50.8277,-26.2481],[-50.7937,-26.2285],[-50.7613,-26.2218],[-50.7477,-26.2265],[-50.7459,-26.2467],[-50.7153,-26.2441],[-50.7311,-26.2091],[-50.7035,-26.1881],[-50.6969,-26.2084],[-50.6827,-26.2111],[-50.6781,-26.2514],[-50.67,-26.2602],[-50.6803,-26.2839],[-50.6604,-26.304],[-50.6464,-26.3342],[-50.6582,-26.3698],[-50.6363,-26.3788],[-50.6512,-26.4122],[-50.6986,-26.4989]]]]}},{"type":"Feature","properties":{"codarea":"4208104","centroide":[-49.89102252012719,-26.472057699603155],"codigo_ibge":4208104,"nome_ig":"Planalto Norte Catarinense"},"geometry":{"type":"MultiPolygon","coordinates":[[[[-49.7604,-26.4717],[-49.7561,-26.4975],[-49.7362,-26.5253],[-49.7349,-26.5481],[-49.7052,-26.5728],[-49.6946,-26.5727],[-49.6859,-26.5936],[-49.6822,-26.6309],[-49.6991,-26.6349],[-49.7085,-26.6508],[-49.6908,-26.6898],[-49.6537,-26.6927],[-49.6819,-26.7023],[-49.6931,-26.6988],[-49.7199,-26.7221],[-49.7265,-26.7606],[-49.7499,-26.7856],[-49.7718,-26.7742],[-49.7832,-26.7501],[-49.7928,-26.749],[-49.8089,-26.7139],[-49.829,-26.7059],[-49.8382,-26.6775],[-49.8552,-26.6547],[-49.8833,-26.6405],[-49.8826,-26.6181],[-49.9132,-26.5848],[-49.9315,-26.5719],[-49.9553,-26.5678],[-49.9619,-26.5443],[-49.9947,-26.5056],[-50.0181,-26.5023],[-50.0313,-26.519],[-50.0911,-26.524],[-50.0836,-26.4731],[-50.0648,-26.442],[-50.076,-26.4225],[-50.0741,-26.4056],[-50.0885,-26.3784],[-50.0882,-26.3511],[-50.1112,-26.3536],[-50.1167,-26.3094],[-50.1274,-26.2945],[-50.1012,-26.2778],[-50.0912,-26.2719],[-50.0685,-26.2822],[-50.0367,-26.2627],[-50.0179,-26.2656],[-50.0006,-26.2792],[-49.9806,-26.2781],[-49.9622,-26.2569],[-49.9101,-26.2478],[-49.8986,-26.2314],[-49.8757,-26.2532],[-49.8542,-26.24],[-49.8424,-26.2501],[-49.8082,-26.3021],[-49.8143,-26.3251],[-49.8047,-26.3357],[-49.8203,-26.3671],[-49.7931,-26.3991],[-49.7814,-26.4279],[-49.8149,-26.4679],[-49.8103,-26.4875],[-49.7604,-26.4717]]]]}},{"type":"Feature","properties":{"codarea":"4209706","centroide":[-50.702975110700095,-26.85793160896453],"codigo_ibge":4209706,"nome_ig":"Planalto Norte Catarinense"},"geometry":{"type":"MultiPolygon","coordinates":[[[[-50.5273,-26.7801],[-50.4879,-26.8192],[-50.5194,-26.8221],[-50.5428,-26.8343],[-50.5528,-26.8286],[-50.5874,-26.8618],[-50.5865,-26.8909],[-50.5996,-26.9092],[-50.5917,-26.9289],[-50.6187,-26.9549],[-50.6052,-26.9921],[-50.6254,-26.9902],[-50.6366,-27.0289],[-50.6561,-27.0273],[-50.6501,-27.0414],[-50.671,-27.0749],[-50.6574,-27.0869],[-50.6911,-27.084],[-50.6881,-27.0937],[-50.7073,-27.1009],[-50.715,-27.0829],[-50.7341,-27.0682],[-50.7323,-27.0342],[-50.7488,-27.0303],[-50.7331,-27.0176],[-50.7505,-27.0095],[-50.7466,-26.9978],[-50.7771,-27.0001],[-50.8021,-27.0136],[-50.7975,-26.9983],[-50.8245,-26.9896],[-50.8341,-26.9646],[-50.8357,-26.9377],[-50.8476,-26.9209],[-50.8393,-26.9061],[-50.8461,-26.8714],[-50.8532,-26.8518],[-50.8322,-26.8299],[-50.8204,-26.7992],[-50.8001,-26.7792],[-50.8037,-26.7651],[-50.7839,-26.7571],[-50.8108,-26.7423],[-50.8247,-26.7268],[-50.8298,-26.6944],[-50.8068,-26.6652],[-50.8089,-26.6522],[-50.7832,-26.6827],[-50.757,-26.6913],[-50.7338,-26.6887],[-50.7047,-26.6744],[-50.7028,-26.6605],[-50.6741,-26.6631],[-50.6584,-26.6765],[-50.6493,-26.7019],[-50.5907,-26.7391],[-50.5594,-26.7712],[-50.5273,-26.7801]]]]}},{"type":"Feature","properties":{"codarea":"4210100","centroide":[-49.88975687812973,-26.200704882652154],"codigo_ibge":4210100,"nome_ig":"Planalto Norte Catarinense"},"geometry":{"type":"MultiPolygon","coordinates":[[[[-49.934,-26.0188],[-49.935,-26.0331],[-49.9156,-26.0254],[-49.8645,-26.0357],[-49.8638,-26.0547],[-49.8347,-26.0694],[-49.8249,-26.0934],[-49.8068,-26.089],[-49.8027,-26.11],[-49.7796,-26.1189],[-49.7679,-26.1107],[-49.7485,-26.1246],[-49.7483,-26.1403],[-49.7287,-26.1417],[-49.7371,-26.1571],[-49.7275,-26.1714],[-49.7127,-26.1546],[-49.6908,-26.1768],[-49.6904,-26.1895],[-49.6539,-26.1868],[-49.6509,-26.2083],[-49.6341,-26.2022],[-49.6232,-26.2151],[-49.6032,-26.2146],[-49.6031,-26.2267],[-49.6224,-26.2428],[-49.6167,-26.2523],[-49.633,-26.2876],[-49.6155,-26.3387],[-49.6518,-26.3479],[-49.6321,-26.3717],[-49.6836,-26.3867],[-49.7022,-26.4098],[-49.7471,-26.4341],[-49.7604,-26.4717],[-49.8103,-26.4875],[-49.8149,-26.4679],[-49.7814,-26.4279],[-49.7931,-26.3991],[-49.8203,-26.3671],[-49.8047,-26.3357],[-49.8143,-26.3251],[-49.8082,-26.3021],[-49.8424,-26.2501],[-49.8542,-26.24],[-49.8757,-26.2532],[-49.8986,-26.2314],[-49.9101,-26.2478],[-49.9622,-26.2569],[-49.9806,-26.2781],[-50.0006,-26.2792],[-50.0179,-26.2656],[-50.0367,-26.2627],[-50.0685,-26.2822],[-50.0912,-26.2719],[-50.1012,-26.2778],[-50.1238,-26.2727],[-50.1122,-26.2586],[-50.1484,-26.2484],[-50.1362,-26.2399],[-50.1527,-26.2107],[-50.1257,-26.2042],[-50.135,-26.1699],[-50.1679,-26.1221],[-50.1844,-26.1142],[-50.1861,-26.0966],[-50.2079,-26.0808],[-50.1897,-26.0699],[-50.1782,-26.0787],[-50.1532,-26.0403],[-50.1717,-26.0397],[-50.1778,-26.0281],[-50.1401,-26.0265],[-50.1503,-26.0521],[-50.1319,-26.0422],[-50.1204,-26.0616],[-50.0916,-26.0445],[-50.0843,-26.0251],[-50.0779,-26.0453],[-50.0662,-26.0327],[-50.0374,-26.027],[-50.0074,-26.0455],[-50.011,-26.0135],[-49.9934,-26.0113],[-49.9631,-26.0275],[-49.9778,-26.0533],[-49.9711,-26.0582],[-49.948,-26.0307],[-49.9607,-26.0217],[-49.9411,-26.0088],[-49.934,-26.0188]]]]}},{"type":"Feature","properties":{"codarea":"4210308","centroide":[-50.36149895725881,-26.480266142952946],"codigo_ibge":4210308,"nome_ig":"Planalto Norte Catarinense"},"geometry":{"type":"MultiPolygon","coordinates":[[[[-50.2835,-26.3085],[-50.2758,-26.3248],[-50.2905,-26.3726],[-50.2796,-26.394],[-50.2934,-26.4076],[-50.2732,-26.4144],[-50.2668,-26.4481],[-50.2698,-26.4684],[-50.2609,-26.4928],[-50.2432,-26.496],[-50.2321,-26.5138],[-50.239,-26.5352],[-50.2718,-26.5301],[-50.3059,-26.5631],[-50.3173,-26.5563],[-50.3358,-26.5683],[-50.3651,-26.5747],[-50.361,-26.5921],[-50.3755,-26.6059],[-50.3751,-26.6263],[-50.3882,-26.6416],[-50.4146,-26.6501],[-50.4199,-26.6425],[-50.4396,-26.6548],[-50.4262,-26.6684],[-50.4374,-26.6826],[-50.4339,-26.7],[-50.4091,-26.7256],[-50.4187,-26.7278],[-50.4733,-26.6962],[-50.469,-26.6621],[-50.4929,-26.6484],[-50.4918,-26.6425],[-50.4394,-26.6166],[-50.4278,-26.6013],[-50.4439,-26.5877],[-50.4341,-26.575],[-50.4158,-26.5772],[-50.401,-26.5614],[-50.4544,-26.5023],[-50.4472,-26.484],[-50.4482,-26.4587],[-50.4341,-26.4456],[-50.4312,-26.4235],[-50.4192,-26.4126],[-50.4246,-26.376],[-50.4011,-26.3442],[-50.3692,-26.331],[-50.3253,-26.2966],[-50.2985,-26.2939],[-50.297,-26.2861],[-50.2835,-26.3085]]]]}},{"type":"Feature","properties":{"codarea":"4210704","centroide":[-51.14202967714427,-26.4801891727973],"codigo_ibge":4210704,"nome_ig":"Planalto Norte Catarinense"},"geometry":{"type":"MultiPolygon","coordinates":[[[[-51.0112,-26.4944],[-51.0498,-26.5122],[-51.0761,-26.5138],[-51.1114,-26.5475],[-51.1111,-26.5634],[-51.1265,-26.5574],[-51.1369,-26.5673],[-51.1344,-26.5876],[-51.1435,-26.6019],[-51.1749,-26.6003],[-51.1844,-26.5919],[-51.2235,-26.5923],[-51.2312,-26.5487],[-51.2731,-26.4983],[-51.2531,-26.462],[-51.2772,-26.4584],[-51.2736,-26.4468],[-51.2922,-26.4353],[-51.3003,-26.4176],[-51.2751,-26.4012],[-51.2703,-26.3869],[-51.2534,-26.4029],[-51.2306,-26.4078],[-51.2016,-26.4271],[-51.2047,-26.4389],[-51.1905,-26.451],[-51.1405,-26.4156],[-51.1183,-26.3908],[-51.0631,-26.4006],[-51.0436,-26.3944],[-51.033,-26.4036],[-50.9859,-26.4029],[-50.9642,-26.428],[-50.981,-26.4285],[-50.9767,-26.4421],[-51.0077,-26.4592],[-50.9956,-26.485],[-51.0112,-26.4944]]]]}},{"type":"Feature","properties":{"codarea":"4211108","centroide":[-50.290463082940754,-26.660936620280765],"codigo_ibge":4211108,"nome_ig":"Planalto Norte Catarinense"},"geometry":{"type":"MultiPolygon","coordinates":[[[[-50.2193,-26.8138],[-50.2416,-26.8333],[-50.2557,-26.8631],[-50.2814,-26.8424],[-50.283,-26.832],[-50.3037,-26.8375],[-50.3484,-26.8273],[-50.3312,-26.7792],[-50.3128,-26.7736],[-50.3536,-26.753],[-50.342,-26.7421],[-50.3894,-26.7396],[-50.4091,-26.7256],[-50.4339,-26.7],[-50.4374,-26.6826],[-50.4262,-26.6684],[-50.4396,-26.6548],[-50.4199,-26.6425],[-50.4146,-26.6501],[-50.3882,-26.6416],[-50.3751,-26.6263],[-50.3755,-26.6059],[-50.361,-26.5921],[-50.3651,-26.5747],[-50.3358,-26.5683],[-50.3173,-26.5563],[-50.3059,-26.5631],[-50.2718,-26.5301],[-50.239,-26.5352],[-50.2321,-26.5138],[-50.2432,-26.496],[-50.2609,-26.4928],[-50.2698,-26.4684],[-50.2668,-26.4481],[-50.2193,-26.4482],[-50.1865,-26.4411],[-50.187,-26.455],[-50.1697,-26.4695],[-50.1871,-26.477],[-50.2036,-26.5183],[-50.1983,-26.5382],[-50.2004,-26.5816],[-50.1946,-26.5921],[-50.2051,-26.6109],[-50.2046,-26.6409],[-50.2146,-26.6685],[-50.2422,-26.6974],[-50.2506,-26.7246],[-50.2295,-26.7365],[-50.2341,-26.7541],[-50.2089,-26.7709],[-50.2193,-26.8138]]]]}},{"type":"Feature","properties":{"codarea":"4212205","centroide":[-50.171262922837194,-26.498389688273463],"codigo_ibge":4212205,"nome_ig":"Planalto Norte Catarinense"},"geometry":{"type":"MultiPolygon","coordinates":[[[[-50.1012,-26.2778],[-50.1274,-26.2945],[-50.1167,-26.3094],[-50.1112,-26.3536],[-50.0882,-26.3511],[-50.0885,-26.3784],[-50.0741,-26.4056],[-50.076,-26.4225],[-50.0648,-26.442],[-50.0836,-26.4731],[-50.0911,-26.524],[-50.1039,-26.5168],[-50.1259,-26.5243],[-50.1314,-26.552],[-50.1186,-26.5636],[-50.1319,-26.596],[-50.126,-26.6143],[-50.1114,-26.6248],[-50.1291,-26.6437],[-50.135,-26.6645],[-50.1142,-26.7106],[-50.1212,-26.7364],[-50.1052,-26.7648],[-50.1061,-26.7932],[-50.0858,-26.8099],[-50.1055,-26.8155],[-50.1251,-26.8011],[-50.1685,-26.7898],[-50.199,-26.8144],[-50.2193,-26.8138],[-50.2089,-26.7709],[-50.2341,-26.7541],[-50.2295,-26.7365],[-50.2506,-26.7246],[-50.2422,-26.6974],[-50.2146,-26.6685],[-50.2046,-26.6409],[-50.2051,-26.6109],[-50.1946,-26.5921],[-50.2004,-26.5816],[-50.1983,-26.5382],[-50.2036,-26.5183],[-50.1871,-26.477],[-50.1697,-26.4695],[-50.187,-26.455],[-50.1865,-26.4411],[-50.2193,-26.4482],[-50.2668,-26.4481],[-50.2732,-26.4144],[-50.2934,-26.4076],[-50.2796,-26.394],[-50.2905,-26.3726],[-50.2758,-26.3248],[-50.2835,-26.3085],[-50.2078,-26.2851],[-50.188,-26.273],[-50.183,-26.2394],[-50.1887,-26.2164],[-50.1527,-26.2107],[-50.1362,-26.2399],[-50.1484,-26.2484],[-50.1122,-26.2586],[-50.1238,-26.2727],[-50.1012,-26.2778]]]]}},{"type":"Feature","properties":{"codarea":"4213609","centroide":[-51.00708755881564,-26.383444135209015],"codigo_ibge":4213609,"nome_ig":"Planalto Norte Catarinense"},"geometry":{"type":"MultiPolygon","coordinates":[[[[-50.9915,-26.235],[-50.9748,-26.2441],[-50.9713,-26.2613],[-50.9426,-26.2822],[-50.9315,-26.2684],[-50.9435,-26.2438],[-50.9325,-26.2344],[-50.9094,-26.2494],[-50.9092,-26.2836],[-50.8997,-26.2892],[-50.8886,-26.3036],[-50.9002,-26.3197],[-50.887,-26.3399],[-50.8844,-26.3791],[-50.8717,-26.3854],[-50.8547,-26.3755],[-50.8428,-26.3832],[-50.841,-26.4074],[-50.8487,-26.4282],[-50.815,-26.4406],[-50.8095,-26.4584],[-50.8167,-26.4777],[-50.7849,-26.5018],[-50.7979,-26.5079],[-50.8257,-26.5477],[-50.8585,-26.5587],[-50.8987,-26.5552],[-50.9159,-26.5444],[-50.94,-26.5502],[-50.9656,-26.5261],[-51.0112,-26.4944],[-50.9956,-26.485],[-51.0077,-26.4592],[-50.9767,-26.4421],[-50.981,-26.4285],[-50.9642,-26.428],[-50.9859,-26.4029],[-51.033,-26.4036],[-51.0436,-26.3944],[-51.0631,-26.4006],[-51.1183,-26.3908],[-51.1405,-26.4156],[-51.1905,-26.451],[-51.2047,-26.4389],[-51.2016,-26.4271],[-51.2306,-26.4078],[-51.2534,-26.4029],[-51.2703,-26.3869],[-51.2511,-26.3737],[-51.2521,-26.3515],[-51.2536,-26.3357],[-51.2161,-26.316],[-51.2029,-26.2981],[-51.1919,-26.3018],[-51.1619,-26.291],[-51.1487,-26.2786],[-51.1207,-26.2797],[-51.1019,-26.2728],[-51.0976,-26.2551],[-51.0788,-26.2274],[-51.0561,-26.2439],[-51.001,-26.2303],[-50.9915,-26.235]]]]}},{"type":"Feature","properties":{"codarea":"4215000","centroide":[-49.59638811640357,-26.442107819567205],"codigo_ibge":4215000,"nome_ig":"Planalto Norte Catarinense"},"geometry":{"type":"MultiPolygon","coordinates":[[[[-49.4843,-26.4188],[-49.4938,-26.4382],[-49.4723,-26.4518],[-49.4686,-26.4716],[-49.4399,-26.4885],[-49.4514,-26.5001],[-49.4922,-26.5083],[-49.5284,-26.5263],[-49.5507,-26.5239],[-49.5485,-26.5368],[-49.5629,-26.5482],[-49.5648,-26.5652],[-49.5803,-26.5796],[-49.5852,-26.6232],[-49.5992,-26.6401],[-49.6194,-26.6425],[-49.6228,-26.6653],[-49.6139,-26.6839],[-49.6174,-26.7039],[-49.6537,-26.6927],[-49.6908,-26.6898],[-49.7085,-26.6508],[-49.6991,-26.6349],[-49.6822,-26.6309],[-49.6859,-26.5936],[-49.6946,-26.5727],[-49.7052,-26.5728],[-49.7349,-26.5481],[-49.7362,-26.5253],[-49.7561,-26.4975],[-49.7604,-26.4717],[-49.7471,-26.4341],[-49.7022,-26.4098],[-49.6836,-26.3867],[-49.6321,-26.3717],[-49.6518,-26.3479],[-49.6155,-26.3387],[-49.633,-26.2876],[-49.6167,-26.2523],[-49.6224,-26.2428],[-49.6031,-26.2267],[-49.5789,-26.2136],[-49.5553,-26.2373],[-49.5415,-26.2139],[-49.5199,-26.227],[-49.4905,-26.2133],[-49.4872,-26.1942],[-49.4717,-26.2378],[-49.4704,-26.2804],[-49.4799,-26.2892],[-49.4655,-26.3061],[-49.4656,-26.3628],[-49.4531,-26.39],[-49.4678,-26.4121],[-49.4843,-26.4188]]]]}},{"type":"Feature","properties":{"codarea":"4215505","centroide":[-50.44717868887775,-26.926263868169414],"codigo_ibge":4215505,"nome_ig":"Planalto Norte Catarinense"},"geometry":{"type":"MultiPolygon","coordinates":[[[[-50.4091,-26.7256],[-50.3894,-26.7396],[-50.342,-26.7421],[-50.3536,-26.753],[-50.3128,-26.7736],[-50.3312,-26.7792],[-50.3484,-26.8273],[-50.3037,-26.8375],[-50.283,-26.832],[-50.2814,-26.8424],[-50.2557,-26.8631],[-50.2796,-26.8729],[-50.2618,-26.8903],[-50.2845,-26.9308],[-50.2794,-26.9439],[-50.2909,-26.9686],[-50.2934,-26.9918],[-50.3144,-27.0034],[-50.3185,-27.0559],[-50.3155,-27.0757],[-50.3284,-27.0739],[-50.3469,-27.0924],[-50.3738,-27.1033],[-50.3785,-27.1181],[-50.4014,-27.1109],[-50.439,-27.1082],[-50.5145,-27.1214],[-50.5261,-27.1189],[-50.5303,-27.088],[-50.5443,-27.0719],[-50.5542,-27.0861],[-50.564,-27.057],[-50.5985,-27.0518],[-50.609,-27.0642],[-50.6369,-27.0567],[-50.64,-27.0719],[-50.6574,-27.0869],[-50.671,-27.0749],[-50.6501,-27.0414],[-50.6561,-27.0273],[-50.6366,-27.0289],[-50.6254,-26.9902],[-50.6052,-26.9921],[-50.6187,-26.9549],[-50.5917,-26.9289],[-50.5996,-26.9092],[-50.5865,-26.8909],[-50.5874,-26.8618],[-50.5528,-26.8286],[-50.5428,-26.8343],[-50.5194,-26.8221],[-50.4879,-26.8192],[-50.5273,-26.7801],[-50.496,-26.7624],[-50.5161,-26.7156],[-50.5149,-26.6865],[-50.4929,-26.6484],[-50.469,-26.6621],[-50.4733,-26.6962],[-50.4187,-26.7278],[-50.4091,-26.7256]]]]}},{"type":"Feature","properties":{"codarea":"4215679","centroide":[-50.005145470119196,-26.667045275821774],"codigo_ibge":4215679,"nome_ig":"Planalto Norte Catarinense"},"geometry":{"type":"MultiPolygon","coordinates":[[[[-49.829,-26.7059],[-49.8364,-26.7051],[-49.8904,-26.7416],[-49.8912,-26.755],[-49.9169,-26.7909],[-49.929,-26.7893],[-49.9492,-26.808],[-49.9788,-26.7947],[-50.0223,-26.8133],[-50.0452,-26.8135],[-50.0728,-26.8332],[-50.0672,-26.8071],[-50.0858,-26.8099],[-50.1061,-26.7932],[-50.1052,-26.7648],[-50.1212,-26.7364],[-50.1142,-26.7106],[-50.135,-26.6645],[-50.1291,-26.6437],[-50.1114,-26.6248],[-50.126,-26.6143],[-50.1319,-26.596],[-50.1186,-26.5636],[-50.1314,-26.552],[-50.1259,-26.5243],[-50.1039,-26.5168],[-50.0911,-26.524],[-50.0313,-26.519],[-50.0181,-26.5023],[-49.9947,-26.5056],[-49.9619,-26.5443],[-49.9553,-26.5678],[-49.9315,-26.5719],[-49.9132,-26.5848],[-49.8826,-26.6181],[-49.8833,-26.6405],[-49.8552,-26.6547],[-49.8382,-26.6775],[-49.829,-26.7059]]]]}},{"type":"Feature","properties":{"codarea":"4215802","centroide":[-49.34965551185211,-26.295168605545953],"codigo_ibge":4215802,"nome_ig":"Planalto Norte Catarinense"},"geometry":{"type":"MultiPolygon","coordinates":[[[[-49.4291,-26.17],[-49.4191,-26.1891],[-49.4072,-26.1841],[-49.374,-26.2019],[-49.3676,-26.1915],[-49.3263,-26.2001],[-49.3177,-26.2295],[-49.2514,-26.2674],[-49.1688,-26.3083],[-49.1794,-26.3116],[-49.1851,-26.3498],[-49.1755,-26.3662],[-49.1949,-26.3707],[-49.2022,-26.3834],[-49.2304,-26.3966],[-49.2753,-26.3885],[-49.2898,-26.3707],[-49.3228,-26.3723],[-49.3229,-26.3867],[-49.3592,-26.3737],[-49.3631,-26.3604],[-49.386,-26.3522],[-49.4213,-26.3681],[-49.4474,-26.4041],[-49.446,-26.4283],[-49.4843,-26.4188],[-49.4678,-26.4121],[-49.4531,-26.39],[-49.4656,-26.3628],[-49.4655,-26.3061],[-49.4799,-26.2892],[-49.4704,-26.2804],[-49.4717,-26.2378],[-49.4872,-26.1942],[-49.4859,-26.1851],[-49.4603,-26.1622],[-49.4291,-26.17]]]]}},{"type":"Feature","properties":{"codarea":"4218251","centroide":[-50.66643334125532,-26.62313201838137],"codigo_ibge":4218251,"nome_ig":"Planalto Norte Catarinense"},"geometry":{"type":"MultiPolygon","coordinates":[[[[-50.5278,-26.6068],[-50.5159,-26.6403],[-50.4918,-26.6425],[-50.4929,-26.6484],[-50.5149,-26.6865],[-50.5161,-26.7156],[-50.496,-26.7624],[-50.5273,-26.7801],[-50.5594,-26.7712],[-50.5907,-26.7391],[-50.6493,-26.7019],[-50.6584,-26.6765],[-50.6741,-26.6631],[-50.7028,-26.6605],[-50.7047,-26.6744],[-50.7338,-26.6887],[-50.757,-26.6913],[-50.7832,-26.6827],[-50.8089,-26.6522],[-50.8585,-26.5587],[-50.8257,-26.5477],[-50.7979,-26.5079],[-50.7394,-26.5245],[-50.6986,-26.4989],[-50.6621,-26.5008],[-50.6418,-26.5125],[-50.6316,-26.5324],[-50.6058,-26.5409],[-50.6002,-26.558],[-50.58,-26.5725],[-50.5825,-26.5826],[-50.5629,-26.5903],[-50.563,-26.6077],[-50.5278,-26.6068]]]]}},{"type":"Feature","properties":{"codarea":"4218301","centroide":[-50.25436558543075,-26.170223813724032],"codigo_ibge":4218301,"nome_ig":"Planalto Norte Catarinense"},"geometry":{"type":"MultiPolygon","coordinates":[[[[-50.1897,-26.0699],[-50.2079,-26.0808],[-50.1861,-26.0966],[-50.1844,-26.1142],[-50.1679,-26.1221],[-50.135,-26.1699],[-50.1257,-26.2042],[-50.1527,-26.2107],[-50.1887,-26.2164],[-50.183,-26.2394],[-50.188,-26.273],[-50.2078,-26.2851],[-50.2835,-26.3085],[-50.297,-26.2861],[-50.3032,-26.2579],[-50.3178,-26.266],[-50.3256,-26.2521],[-50.3251,-26.207],[-50.3558,-26.2034],[-50.3585,-26.158],[-50.3889,-26.1512],[-50.3801,-26.1231],[-50.3562,-26.1203],[-50.3657,-26.1121],[-50.3332,-26.1349],[-50.3207,-26.1313],[-50.3329,-26.0998],[-50.332,-26.0853],[-50.2984,-26.0544],[-50.2684,-26.0427],[-50.2545,-26.0517],[-50.2512,-26.0304],[-50.2363,-26.0354],[-50.2226,-26.0604],[-50.2083,-26.0572],[-50.1897,-26.0699]]]]}}]}