{"type":"FeatureCollection","features":[{"type":"Feature","properties":{"codarea":"2611606","centroide":[-34.933071501337245,-8.03961232167323],"codigo_ibge":2611606,"nome_ig":"Porto Digital"},"geometry":{"type":"Polygon","coordinates":[[[-34.9138,-7.9793],[-34.9169,-7.9881],[-34.8729,-8.0172],[-34.8755,-8.0317],[-34.8605,-8.0444],[-34.9088,-8.1551],[-34.9136,-8.1451],[-34.9535,-8.1386],[-34.9661,-8.0941],[-34.9661,-8.0941],[-34.9693,-8.0889],[-34.9693,-8.0889],[-34.9954,-8.0608],[-35.0166,-8.0558],[-34.9947,-8.046],[-34.9961,-8.0368],[-34.9655,-8.0198],[-34.962,-7.974],[-35.0037,-7.9595],[-35.0001,-7.9291],[-34.9874,-7.9407],[-34.9677,-7.9417],[-34.9454,-7.9301],[-34.9454,-7.9301],[-34.9161,-7.9348],[-34.9092,-7.944],[-34.9138,-7.9793]]]}}]}