{"type":"FeatureCollection","features":[{"type":"Feature","properties":{"codarea":"3540705","centroide":[-47.44687501764371,-21.842212845162777],"codigo_ibge":3540705,"nome_ig":"Porto Ferreira"},"geometry":{"type":"MultiPolygon","coordinates":[[[[-47.3468,-21.8065],[-47.3351,-21.8142],[-47.343,-21.8398],[-47.3874,-21.8503],[-47.3976,-21.8582],[-47.4058,-21.915],[-47.4974,-21.9175],[-47.5119,-21.9358],[-47.5272,-21.9255],[-47.5145,-21.9122],[-47.5106,-21.8793],[-47.5516,-21.8545],[-47.5547,-21.8363],[-47.5237,-21.8104],[-47.5242,-21.8023],[-47.5112,-21.8082],[-47.4646,-21.7854],[-47.4385,-21.7808],[-47.4437,-21.7651],[-47.4277,-21.7559],[-47.4011,-21.773],[-47.3916,-21.7679],[-47.3591,-21.7859],[-47.3468,-21.8065]]]]}}]}