{"type":"FeatureCollection","features":[{"type":"Feature","properties":{"codarea":"1600535","centroide":[-51.66986220398356,0.5856897800041264],"codigo_ibge":1600535,"nome_ig":"Porto Grande"},"geometry":{"type":"MultiPolygon","coordinates":[[[[-51.0482,0.4233],[-51.061,0.4423],[-51.0936,0.4278],[-51.1167,0.3929],[-51.1169,0.375],[-51.1366,0.3345],[-51.1288,0.3157],[-51.1393,0.3089],[-51.1615,0.3174],[-51.1713,0.3078],[-51.2063,0.317],[-51.2123,0.343],[-51.2057,0.3617],[-51.2173,0.3982],[-51.2386,0.4073],[-51.2473,0.4323],[-51.2628,0.4536],[-51.2768,0.4538],[-51.3101,0.4745],[-51.3337,0.4668],[-51.3685,0.4869],[-51.4114,0.4842],[-51.4255,0.5035],[-51.4464,0.5098],[-51.4708,0.4946],[-51.4742,0.476],[-51.4931,0.4679],[-51.5109,0.4571],[-51.5151,0.4295],[-51.5362,0.42],[-51.5256,0.3994],[-51.5359,0.3565],[-51.5308,0.3314],[-51.5393,0.3232],[-51.5279,0.2975],[-51.5338,0.2717],[-51.5477,0.26],[-51.5435,0.2482],[-51.5693,0.2171],[-51.5737,0.2279],[-51.6088,0.2452],[-51.615,0.2618],[-51.6459,0.2844],[-51.6737,0.2959],[-51.6938,0.3196],[-51.6807,0.3484],[-51.689,0.383],[-51.7166,0.4095],[-51.7382,0.4007],[-51.7636,0.4151],[-51.8037,0.4505],[-51.834,0.4453],[-51.8549,0.4328],[-51.8754,0.4441],[-51.909,0.4485],[-51.952,0.4466],[-51.9635,0.459],[-52.02,0.4784],[-52.0316,0.4695],[-52.0548,0.4886],[-52.09,0.5061],[-52.1069,0.5081],[-52.1167,0.4957],[-52.1454,0.4863],[-52.1644,0.4687],[-52.2003,0.4577],[-52.2019,0.4421],[-52.2254,0.4157],[-52.2383,0.3912],[-52.2355,0.3655],[-52.2807,0.368],[-52.2957,0.3924],[-52.318,0.3775],[-52.3369,0.384],[-52.3467,0.4066],[-52.3371,0.4394],[-52.348,0.4325],[-52.3496,0.4417],[-52.329,0.4519],[-52.314,0.4768],[-52.3093,0.4999],[-52.2918,0.5037],[-52.2707,0.522],[-52.258,0.5606],[-52.2366,0.5859],[-52.205,0.5848],[-52.1922,0.5972],[-52.1841,0.6217],[-52.1652,0.6391],[-52.1397,0.6282],[-52.1181,0.6279],[-52.1031,0.6478],[-52.1087,0.6603],[-52.0945,0.6758],[-52.0902,0.6618],[-52.06,0.6642],[-52.0194,0.6929],[-51.9829,0.6968],[-51.931,0.6912],[-51.9034,0.6946],[-51.8819,0.7058],[-51.8718,0.6991],[-51.86,0.6695],[-51.8031,0.6844],[-51.804,0.6514],[-51.79,0.6386],[-51.7709,0.658],[-51.7533,0.6529],[-51.7576,0.614],[-51.7397,0.6194],[-51.7211,0.6535],[-51.7195,0.6882],[-51.7056,0.6959],[-51.7071,0.7179],[-51.7249,0.7529],[-51.7437,0.7638],[-51.7491,0.8013],[-51.7588,0.8157],[-51.7625,0.8452],[-51.7834,0.8652],[-51.7886,0.885],[-51.8105,0.8918],[-51.8358,0.9104],[-51.8292,0.9337],[-51.7958,0.9619],[-51.7764,0.971],[-51.7832,0.994],[-51.7546,0.9886],[-51.7588,0.9748],[-51.7404,0.9785],[-51.7161,0.9944],[-51.7046,0.9779],[-51.6926,0.9813],[-51.685,1.013],[-51.6735,1.0088],[-51.6639,0.961],[-51.6398,0.9546],[-51.5942,0.9176],[-51.6032,0.8901],[-51.6242,0.8779],[-51.6271,0.8651],[-51.6165,0.835],[-51.5825,0.8508],[-51.5387,0.878],[-51.5113,0.8785],[-51.4853,0.8549],[-51.4897,0.8433],[-51.4802,0.8074],[-51.4505,0.7672],[-51.4358,0.7647],[-51.4242,0.7484],[-51.3945,0.7359],[-51.3687,0.7473],[-51.3712,0.7694],[-51.3536,0.7801],[-51.3386,0.736],[-51.3587,0.7219],[-51.37,0.6963],[-51.3575,0.6575],[-51.3129,0.6391],[-51.2806,0.6334],[-51.2524,0.6125],[-51.2013,0.5958],[-51.1725,0.5731],[-51.15,0.5646],[-51.1432,0.5425],[-51.1268,0.534],[-51.1321,0.5169],[-51.102,0.4761],[-51.0831,0.471],[-51.0765,0.4561],[-51.0441,0.4364],[-51.0482,0.4233]]]]}}]}