{"type":"FeatureCollection","features":[{"type":"Feature","properties":{"codarea":"4120606","centroide":[-51.09820930996207,-25.128965988741058],"codigo_ibge":4120606,"nome_ig":"Prudentópolis"},"geometry":{"type":"Polygon","coordinates":[[[-51.0175,-24.9691],[-51.0135,-24.9836],[-50.9949,-24.9808],[-51.0004,-25.0038],[-50.9705,-25.0055],[-50.9731,-25.0186],[-50.9516,-25.0386],[-50.9528,-25.0714],[-50.9381,-25.0728],[-50.9274,-25.1033],[-50.9404,-25.1207],[-50.9489,-25.157],[-50.9345,-25.1733],[-50.9232,-25.1599],[-50.9165,-25.175],[-50.9028,-25.1728],[-50.8901,-25.2019],[-50.878,-25.1998],[-50.8547,-25.2197],[-50.8117,-25.2342],[-50.8191,-25.2634],[-50.8045,-25.2737],[-50.8041,-25.3072],[-50.8167,-25.328],[-50.8129,-25.3525],[-50.7867,-25.3816],[-50.7898,-25.4085],[-50.8,-25.3945],[-50.8225,-25.3872],[-50.8358,-25.372],[-50.8679,-25.3739],[-50.9221,-25.3904],[-50.9842,-25.4341],[-51.0209,-25.4437],[-51.0139,-25.4549],[-51.0266,-25.4684],[-51.0626,-25.4773],[-51.0809,-25.5005],[-51.1188,-25.5118],[-51.1055,-25.4908],[-51.1148,-25.4819],[-51.101,-25.4525],[-51.0896,-25.4477],[-51.1087,-25.426],[-51.1121,-25.4463],[-51.124,-25.4537],[-51.1255,-25.4328],[-51.1435,-25.4335],[-51.1268,-25.4107],[-51.1501,-25.4054],[-51.1707,-25.4116],[-51.1434,-25.3845],[-51.16,-25.3804],[-51.1553,-25.3678],[-51.1349,-25.3682],[-51.1426,-25.3254],[-51.1695,-25.3509],[-51.1695,-25.3308],[-51.2171,-25.3013],[-51.2008,-25.2997],[-51.1989,-25.2635],[-51.1773,-25.2498],[-51.2052,-25.2323],[-51.1783,-25.2273],[-51.1575,-25.2318],[-51.2016,-25.2051],[-51.1768,-25.1756],[-51.2051,-25.1717],[-51.2037,-25.1598],[-51.2291,-25.156],[-51.2233,-25.136],[-51.2539,-25.1279],[-51.2376,-25.1232],[-51.2463,-25.1071],[-51.2255,-25.0823],[-51.2446,-25.0709],[-51.2552,-25.041],[-51.2415,-25.0253],[-51.2467,-25.0063],[-51.2374,-24.9983],[-51.244,-24.9697],[-51.258,-24.9933],[-51.2531,-25.019],[-51.2815,-25.0202],[-51.2656,-25.0282],[-51.2685,-25.0404],[-51.2865,-25.0397],[-51.2704,-25.0741],[-51.2904,-25.0578],[-51.2977,-25.0654],[-51.3135,-25.0465],[-51.3156,-25.029],[-51.3294,-25.0166],[-51.3356,-24.9955],[-51.3247,-24.9833],[-51.3359,-24.976],[-51.3274,-24.9486],[-51.3326,-24.9309],[-51.3695,-24.9285],[-51.4106,-24.918],[-51.3933,-24.8773],[-51.3715,-24.8741],[-51.3645,-24.8636],[-51.3818,-24.8443],[-51.3525,-24.789],[-51.3263,-24.7931],[-51.3161,-24.7819],[-51.3328,-24.7596],[-51.2946,-24.776],[-51.29,-24.7571],[-51.2741,-24.7539],[-51.2824,-24.7745],[-51.2543,-24.7698],[-51.2602,-24.7845],[-51.2347,-24.7919],[-51.2368,-24.7802],[-51.1996,-24.7683],[-51.2114,-24.7954],[-51.1837,-24.8004],[-51.1694,-24.8123],[-51.1499,-24.8086],[-51.147,-24.8468],[-51.13,-24.8518],[-51.1299,-24.8742],[-51.1044,-24.8687],[-51.0995,-24.8817],[-51.1211,-24.9041],[-51.0945,-24.902],[-51.1001,-24.9207],[-51.0866,-24.9368],[-51.0716,-24.9242],[-51.0535,-24.9327],[-51.0604,-24.9496],[-51.0337,-24.954],[-51.0175,-24.9691]]]}}]}