{"type":"FeatureCollection","features":[{"type":"Feature","properties":{"codarea":"1400407","centroide":[-60.064480654591435,3.8788913843823813],"codigo_ibge":1400407,"nome_ig":"Raposa"},"geometry":{"type":"Polygon","coordinates":[[[-59.7002,4.1605],[-59.6807,4.1465],[-59.6354,4.1443],[-59.6166,4.1323],[-59.6499,4.0723],[-59.5905,4.0193],[-59.5938,3.9996],[-59.5791,4.0037],[-59.5733,3.9873],[-59.5849,3.9674],[-59.5491,3.9793],[-59.5263,3.9671],[-59.5163,3.944],[-59.5285,3.9237],[-59.5649,3.9196],[-59.5707,3.8907],[-59.5924,3.8879],[-59.5935,3.8598],[-59.5868,3.834],[-59.5988,3.8143],[-59.596,3.7957],[-59.6138,3.8026],[-59.6288,3.7851],[-59.6666,3.7807],[-59.6802,3.7593],[-59.6643,3.7335],[-59.6685,3.7029],[-59.7046,3.689],[-59.7241,3.6629],[-59.753,3.6518],[-59.7646,3.6254],[-59.791,3.6165],[-59.8155,3.6201],[-59.8505,3.6046],[-59.8588,3.5704],[-59.8718,3.5632],[-59.8857,3.5637],[-59.9055,3.5862],[-59.923,3.5785],[-59.9371,3.5587],[-59.956,3.5732],[-59.9721,3.5582],[-59.9998,3.5527],[-60.0524,3.5271],[-60.0832,3.4935],[-60.1199,3.4765],[-60.1393,3.461],[-60.156,3.4626],[-60.1774,3.4435],[-60.1857,3.4171],[-60.1971,3.4068],[-60.2424,3.3937],[-60.2952,3.3871],[-60.3213,3.369],[-60.3257,3.396],[-60.3188,3.4179],[-60.3024,3.424],[-60.2857,3.4496],[-60.3018,3.4765],[-60.3107,3.5082],[-60.3299,3.5148],[-60.3224,3.5296],[-60.3518,3.5515],[-60.3588,3.5418],[-60.3816,3.5574],[-60.3768,3.564],[-60.4102,3.5801],[-60.4255,3.621],[-60.4385,3.6299],[-60.4324,3.6487],[-60.4588,3.6749],[-60.4616,3.6962],[-60.4755,3.701],[-60.4707,3.7212],[-60.4924,3.746],[-60.4813,3.7826],[-60.486,3.8273],[-60.4818,3.8537],[-60.4996,3.8746],[-60.4885,3.9026],[-60.5013,3.9107],[-60.4882,3.9249],[-60.4932,3.9382],[-60.4835,3.9551],[-60.461,3.9521],[-60.4605,3.9912],[-60.4532,3.9951],[-60.4393,4.036],[-60.4502,4.0535],[-60.4474,4.084],[-60.4743,4.1146],[-60.4721,4.1282],[-60.5202,4.1693],[-60.5343,4.1668],[-60.5397,4.2104],[-60.5166,4.2006],[-60.4867,4.2142],[-60.4695,4.2055],[-60.4066,4.1949],[-60.3838,4.1949],[-60.3301,4.1604],[-60.2998,4.1741],[-60.2714,4.1675],[-60.2596,4.1829],[-60.2226,4.1964],[-60.2248,4.1827],[-60.2015,4.1813],[-60.1758,4.1935],[-60.1687,4.2057],[-60.14,4.2218],[-60.1437,4.2325],[-60.1302,4.2595],[-60.08,4.2601],[-60.045,4.3035],[-60.0001,4.2805],[-59.9825,4.2807],[-59.9347,4.2426],[-59.8903,4.225],[-59.8291,4.2153],[-59.7661,4.2117],[-59.7953,4.1796],[-59.759,4.1695],[-59.7002,4.1605]]]}}]}