{"type":"FeatureCollection","features":[{"type":"Feature","properties":{"codarea":"2302404","centroide":[-39.808234114336926,-5.087492313298968],"codigo_ibge":2302404,"nome_ig":"Região dos Inhamuns"},"geometry":{"type":"MultiPolygon","coordinates":[[[[-39.7291,-4.6968],[-39.7257,-4.7204],[-39.7376,-4.7352],[-39.7262,-4.7635],[-39.7384,-4.7705],[-39.7284,-4.7824],[-39.6739,-4.7918],[-39.6622,-4.806],[-39.6583,-4.8314],[-39.6422,-4.8462],[-39.6522,-4.8628],[-39.6208,-4.9057],[-39.6064,-4.9412],[-39.6051,-4.9694],[-39.6167,-4.9861],[-39.6019,-5.0025],[-39.607,-5.0236],[-39.6297,-5.0432],[-39.6341,-5.0548],[-39.6181,-5.0817],[-39.5978,-5.0975],[-39.5802,-5.0958],[-39.5341,-5.119],[-39.6237,-5.2553],[-39.6316,-5.3364],[-39.6566,-5.3369],[-39.6681,-5.3627],[-39.6905,-5.3573],[-39.7269,-5.3796],[-39.7336,-5.3687],[-39.7555,-5.3672],[-39.7825,-5.3794],[-39.7997,-5.4],[-39.8454,-5.3677],[-39.8824,-5.3799],[-39.8975,-5.3974],[-39.9344,-5.3762],[-39.9436,-5.3528],[-39.9293,-5.3398],[-39.9397,-5.3347],[-39.9894,-5.3492],[-40.0208,-5.3279],[-40.0295,-5.2966],[-40.0546,-5.2921],[-40.043,-5.2613],[-40.0466,-5.239],[-40.0212,-5.2058],[-40.0363,-5.1825],[-40.0676,-5.1783],[-40.0751,-5.1654],[-40.1656,-5.1654],[-40.1653,-5.1651],[-40.0364,-5.1033],[-40.0021,-5.085],[-39.9971,-5.0726],[-39.9603,-5.0289],[-39.9596,-5.0052],[-39.9686,-4.9467],[-39.9625,-4.9322],[-39.9471,-4.9294],[-39.8926,-4.8876],[-39.9244,-4.8646],[-39.9493,-4.8265],[-39.9289,-4.7971],[-39.9386,-4.7848],[-39.9285,-4.7745],[-39.9152,-4.7884],[-39.8847,-4.7899],[-39.8742,-4.7622],[-39.8563,-4.7368],[-39.8188,-4.7312],[-39.7908,-4.7535],[-39.806,-4.7081],[-39.7409,-4.7206],[-39.7293,-4.6968],[-39.7291,-4.6968]]]]}},{"type":"Feature","properties":{"codarea":"2305605","centroide":[-40.34187839548319,-5.474874794406651],"codigo_ibge":2305605,"nome_ig":"Região dos Inhamuns"},"geometry":{"type":"MultiPolygon","coordinates":[[[[-40.1656,-5.1654],[-40.0751,-5.1654],[-40.0676,-5.1783],[-40.0363,-5.1825],[-40.0212,-5.2058],[-40.0466,-5.239],[-40.043,-5.2613],[-40.0546,-5.2921],[-40.0295,-5.2966],[-40.0208,-5.3279],[-40.0263,-5.3452],[-40.0553,-5.3582],[-40.0586,-5.3968],[-40.107,-5.4524],[-40.1122,-5.4913],[-40.1103,-5.5351],[-40.1241,-5.5547],[-40.1434,-5.5412],[-40.1671,-5.5452],[-40.1731,-5.5603],[-40.227,-5.5933],[-40.22,-5.6048],[-40.2331,-5.6147],[-40.2278,-5.6537],[-40.2112,-5.6907],[-40.2273,-5.7104],[-40.2879,-5.7576],[-40.318,-5.743],[-40.3413,-5.7485],[-40.3684,-5.7457],[-40.3799,-5.7578],[-40.4113,-5.8097],[-40.4533,-5.8285],[-40.4857,-5.8351],[-40.5302,-5.8168],[-40.5365,-5.827],[-40.5654,-5.842],[-40.5691,-5.8262],[-40.5643,-5.7868],[-40.5709,-5.7544],[-40.545,-5.7275],[-40.5708,-5.7397],[-40.5985,-5.7377],[-40.6133,-5.7274],[-40.6339,-5.701],[-40.6191,-5.6833],[-40.6411,-5.6846],[-40.6534,-5.6706],[-40.6285,-5.6315],[-40.6387,-5.6157],[-40.6207,-5.5999],[-40.6274,-5.579],[-40.6094,-5.5601],[-40.6214,-5.5345],[-40.5664,-5.4363],[-40.5547,-5.4266],[-40.5507,-5.4016],[-40.5238,-5.3897],[-40.4794,-5.2742],[-40.4145,-5.2293],[-40.3146,-5.1572],[-40.2983,-5.1703],[-40.2799,-5.1636],[-40.2439,-5.1683],[-40.2191,-5.1523],[-40.1705,-5.1748],[-40.1656,-5.1654]]]]}},{"type":"Feature","properties":{"codarea":"2309409","centroide":[-40.77185215231492,-5.593203874624585],"codigo_ibge":2309409,"nome_ig":"Região dos Inhamuns"},"geometry":{"type":"MultiPolygon","coordinates":[[[[-40.5547,-5.4266],[-40.5664,-5.4363],[-40.6214,-5.5345],[-40.6094,-5.5601],[-40.6274,-5.579],[-40.6207,-5.5999],[-40.6387,-5.6157],[-40.6285,-5.6315],[-40.6534,-5.6706],[-40.6411,-5.6846],[-40.6191,-5.6833],[-40.6339,-5.701],[-40.6133,-5.7274],[-40.6242,-5.7331],[-40.6548,-5.7012],[-40.6699,-5.6683],[-40.691,-5.6565],[-40.6954,-5.6433],[-40.7507,-5.7197],[-40.7804,-5.736],[-40.7925,-5.7342],[-40.8147,-5.7549],[-40.8455,-5.7709],[-40.9097,-5.7657],[-40.9177,-5.7426],[-40.9139,-5.7249],[-40.9282,-5.7041],[-40.9387,-5.6733],[-40.9147,-5.6599],[-40.9077,-5.6423],[-40.9022,-5.6079],[-40.9119,-5.5948],[-40.9156,-5.5643],[-40.9294,-5.5528],[-40.9364,-5.5263],[-40.9288,-5.5178],[-40.9291,-5.4833],[-40.9184,-5.4738],[-40.8999,-5.4738],[-40.874,-5.4936],[-40.8525,-5.4814],[-40.8253,-5.4843],[-40.7939,-5.4971],[-40.7719,-5.4942],[-40.7626,-5.4804],[-40.7313,-5.485],[-40.7312,-5.4675],[-40.6819,-5.4666],[-40.6845,-5.45],[-40.661,-5.4483],[-40.646,-5.4266],[-40.5547,-5.4266]]]]}},{"type":"Feature","properties":{"codarea":"2310308","centroide":[-40.628031452188345,-6.305087148510645],"codigo_ibge":2310308,"nome_ig":"Região dos Inhamuns"},"geometry":{"type":"MultiPolygon","coordinates":[[[[-40.4053,-6.313],[-40.3281,-6.4014],[-40.3351,-6.4153],[-40.3725,-6.4357],[-40.3695,-6.4508],[-40.3915,-6.4747],[-40.4399,-6.4885],[-40.4598,-6.5283],[-40.4829,-6.5282],[-40.5283,-6.5386],[-40.5554,-6.5514],[-40.5768,-6.5477],[-40.6111,-6.6085],[-40.6449,-6.6066],[-40.6694,-6.6151],[-40.6889,-6.5997],[-40.7363,-6.6003],[-40.7402,-6.5774],[-40.7542,-6.5546],[-40.7877,-6.5236],[-40.7899,-6.5006],[-40.7965,-6.4707],[-40.796,-6.4281],[-40.8051,-6.3931],[-40.7791,-6.3413],[-40.7865,-6.3053],[-40.8105,-6.287],[-40.8197,-6.2644],[-40.8522,-6.2242],[-40.8472,-6.203],[-40.8532,-6.1604],[-40.8459,-6.1383],[-40.8576,-6.1053],[-40.8077,-6.1051],[-40.7863,-6.0907],[-40.7467,-6.0898],[-40.738,-6.0633],[-40.7157,-6.0405],[-40.6871,-6.0126],[-40.6354,-6.0023],[-40.6114,-5.9898],[-40.5977,-6.0034],[-40.5901,-5.9942],[-40.5423,-6.005],[-40.5208,-5.9892],[-40.4864,-5.9826],[-40.465,-6.0158],[-40.4809,-6.0326],[-40.4781,-6.0526],[-40.5263,-6.1413],[-40.5335,-6.1613],[-40.489,-6.2027],[-40.4954,-6.2437],[-40.5191,-6.2702],[-40.5723,-6.2938],[-40.5885,-6.2957],[-40.5895,-6.3128],[-40.609,-6.3381],[-40.6036,-6.3499],[-40.5821,-6.3408],[-40.5744,-6.361],[-40.5532,-6.3419],[-40.5328,-6.3483],[-40.4991,-6.3438],[-40.4715,-6.3305],[-40.4561,-6.3368],[-40.4319,-6.333],[-40.4053,-6.313]]]]}},{"type":"Feature","properties":{"codarea":"2313302","centroide":[-40.25964275534966,-5.937559251271695],"codigo_ibge":2313302,"nome_ig":"Região dos Inhamuns"},"geometry":{"type":"MultiPolygon","coordinates":[[[[-40.0586,-5.3968],[-40.068,-5.4248],[-40.056,-5.4348],[-40.0539,-5.4879],[-40.026,-5.4903],[-40.031,-5.5078],[-40.0136,-5.5198],[-40.0348,-5.5651],[-40.0766,-5.5816],[-40.0554,-5.5975],[-40.0502,-5.6201],[-40.0637,-5.6368],[-40.054,-5.6415],[-40.0725,-5.6655],[-40.0653,-5.6887],[-40.0551,-5.6884],[-40.0428,-5.7118],[-40.0218,-5.7108],[-40.0062,-5.7178],[-40.0031,-5.7593],[-40.0092,-5.7746],[-39.9925,-5.78],[-39.986,-5.8137],[-39.958,-5.8179],[-39.9208,-5.8321],[-39.9405,-5.8626],[-39.9597,-5.8716],[-39.9145,-5.9013],[-39.891,-5.8965],[-39.8714,-5.8823],[-39.8626,-5.8977],[-39.8769,-5.9058],[-39.838,-5.9284],[-39.8324,-5.965],[-39.8476,-5.99],[-39.8563,-5.9883],[-39.8896,-6.0344],[-39.9062,-6.0366],[-39.9104,-6.0584],[-39.9351,-6.0797],[-39.9634,-6.0888],[-39.957,-6.0996],[-39.9999,-6.1047],[-40.0176,-6.0959],[-40.0457,-6.0975],[-40.0696,-6.1114],[-40.1092,-6.1167],[-40.1257,-6.11],[-40.159,-6.1193],[-40.1636,-6.1316],[-40.1985,-6.1451],[-40.2052,-6.1337],[-40.2215,-6.1417],[-40.2347,-6.1337],[-40.2603,-6.1571],[-40.2606,-6.1671],[-40.3013,-6.2063],[-40.4053,-6.313],[-40.4319,-6.333],[-40.4561,-6.3368],[-40.4715,-6.3305],[-40.4991,-6.3438],[-40.5328,-6.3483],[-40.5532,-6.3419],[-40.5744,-6.361],[-40.5821,-6.3408],[-40.6036,-6.3499],[-40.609,-6.3381],[-40.5895,-6.3128],[-40.5885,-6.2957],[-40.5723,-6.2938],[-40.5191,-6.2702],[-40.4954,-6.2437],[-40.489,-6.2027],[-40.5335,-6.1613],[-40.5263,-6.1413],[-40.4781,-6.0526],[-40.4809,-6.0326],[-40.465,-6.0158],[-40.4864,-5.9826],[-40.5208,-5.9892],[-40.5423,-6.005],[-40.5901,-5.9942],[-40.5977,-6.0034],[-40.6114,-5.9898],[-40.6354,-6.0023],[-40.6871,-6.0126],[-40.7157,-6.0405],[-40.7333,-6.032],[-40.7409,-6.0123],[-40.7378,-5.9926],[-40.7465,-5.9833],[-40.7191,-5.9648],[-40.716,-5.9415],[-40.6876,-5.9148],[-40.6656,-5.9148],[-40.6831,-5.8792],[-40.6692,-5.856],[-40.6458,-5.8402],[-40.6285,-5.8529],[-40.6024,-5.8381],[-40.5654,-5.842],[-40.5365,-5.827],[-40.5302,-5.8168],[-40.4857,-5.8351],[-40.4533,-5.8285],[-40.4113,-5.8097],[-40.3799,-5.7578],[-40.3684,-5.7457],[-40.3413,-5.7485],[-40.318,-5.743],[-40.2879,-5.7576],[-40.2273,-5.7104],[-40.2112,-5.6907],[-40.2278,-5.6537],[-40.2331,-5.6147],[-40.22,-5.6048],[-40.227,-5.5933],[-40.1731,-5.5603],[-40.1671,-5.5452],[-40.1434,-5.5412],[-40.1241,-5.5547],[-40.1103,-5.5351],[-40.1122,-5.4913],[-40.107,-5.4524],[-40.0586,-5.3968]]]]}}]}