{"type":"FeatureCollection","features":[{"type":"Feature","properties":{"codarea":"3138708","centroide":[-44.92257124787132,-21.537352701799232],"codigo_ibge":3138708,"nome_ig":"Região Pedra São Thomé"},"geometry":{"type":"Polygon","coordinates":[[[-44.8133,-21.469],[-44.7843,-21.4645],[-44.7632,-21.4778],[-44.752,-21.4821],[-44.7413,-21.5105],[-44.7452,-21.5361],[-44.7673,-21.5516],[-44.7893,-21.5476],[-44.8005,-21.5627],[-44.7853,-21.5679],[-44.7793,-21.5922],[-44.7916,-21.5964],[-44.804,-21.5865],[-44.8251,-21.5902],[-44.8568,-21.607],[-44.8715,-21.6068],[-44.8781,-21.6277],[-44.9098,-21.6419],[-44.9651,-21.6293],[-45.0368,-21.6319],[-45.0271,-21.6167],[-45.0283,-21.5974],[-45.0545,-21.5548],[-45.0636,-21.5002],[-45.0505,-21.5011],[-45.0541,-21.4793],[-45.0421,-21.4525],[-45.0461,-21.4185],[-45.0609,-21.4086],[-45.0471,-21.4082],[-45.0106,-21.4347],[-45.0015,-21.4553],[-44.9844,-21.4572],[-44.9503,-21.4342],[-44.9462,-21.4704],[-44.9252,-21.4635],[-44.8924,-21.4719],[-44.8781,-21.4547],[-44.8628,-21.4799],[-44.8704,-21.4981],[-44.8421,-21.5058],[-44.8206,-21.5216],[-44.8133,-21.469]]]}}]}