{
  "type": "FeatureCollection",
  "nome_ig": "Região das Lagoas Mundaú-Manguaba",
  "features": [
    {
      "type": "Feature",
      "geometry": {
        "type": "Polygon",
        "coordinates": [
          [
            [
              -35.8553,
              -9.7883
            ],
            [
              -35.8531,
              -9.7853
            ],
            [
              -35.8471,
              -9.7781
            ],
            [
              -35.8441,
              -9.7738
            ],
            [
              -35.842,
              -9.772
            ],
            [
              -35.84,
              -9.7711
            ],
            [
              -35.8381,
              -9.7691
            ],
            [
              -35.8367,
              -9.7662
            ],
            [
              -35.8344,
              -9.7627
            ],
            [
              -35.8313,
              -9.7575
            ],
            [
              -35.8295,
              -9.7555
            ],
            [
              -35.8268,
              -9.753
            ],
            [
              -35.8223,
              -9.7478
            ],
            [
              -35.8188,
              -9.742
            ],
            [
              -35.8186,
              -9.7401
            ],
            [
              -35.8178,
              -9.7372
            ],
            [
              -35.8185,
              -9.7359
            ],
            [
              -35.8193,
              -9.7332
            ],
            [
              -35.8185,
              -9.7329
            ],
            [
              -35.8176,
              -9.7344
            ],
            [
              -35.8163,
              -9.7346
            ],
            [
              -35.8146,
              -9.7327
            ],
            [
              -35.8137,
              -9.7308
            ],
            [
              -35.8097,
              -9.7267
            ],
            [
              -35.8061,
              -9.724
            ],
            [
              -35.8044,
              -9.7224
            ],
            [
              -35.8039,
              -9.7202
            ],
            [
              -35.8058,
              -9.72
            ],
            [
              -35.8068,
              -9.7182
            ],
            [
              -35.8059,
              -9.7159
            ],
            [
              -35.8044,
              -9.7156
            ],
            [
              -35.8035,
              -9.7161
            ],
            [
              -35.8004,
              -9.7157
            ],
            [
              -35.7988,
              -9.7163
            ],
            [
              -35.7973,
              -9.7159
            ],
            [
              -35.7956,
              -9.7173
            ],
            [
              -35.7937,
              -9.7155
            ],
            [
              -35.7898,
              -9.7112
            ],
            [
              -35.7915,
              -9.7118
            ],
            [
              -35.793,
              -9.7117
            ],
            [
              -35.7945,
              -9.7131
            ],
            [
              -35.7964,
              -9.7114
            ],
            [
              -35.7967,
              -9.7103
            ],
            [
              -35.7962,
              -9.7082
            ],
            [
              -35.7934,
              -9.7058
            ],
            [
              -35.7882,
              -9.7028
            ],
            [
              -35.7855,
              -9.7015
            ],
            [
              -35.7829,
              -9.6988
            ],
            [
              -35.7826,
              -9.6962
            ],
            [
              -35.7844,
              -9.691
            ],
            [
              -35.7857,
              -9.6888
            ],
            [
              -35.7876,
              -9.6863
            ],
            [
              -35.7895,
              -9.6851
            ],
            [
              -35.7913,
              -9.682
            ],
            [
              -35.7912,
              -9.6806
            ],
            [
              -35.7955,
              -9.6803
            ],
            [
              -35.8024,
              -9.6778
            ],
            [
              -35.805,
              -9.6745
            ],
            [
              -35.8051,
              -9.6725
            ],
            [
              -35.8058,
              -9.6714
            ],
            [
              -35.8068,
              -9.6671
            ],
            [
              -35.8096,
              -9.6636
            ],
            [
              -35.8101,
              -9.6615
            ],
            [
              -35.81,
              -9.6595
            ],
            [
              -35.8116,
              -9.6568
            ],
            [
              -35.8131,
              -9.6551
            ],
            [
              -35.8165,
              -9.6543
            ],
            [
              -35.8186,
              -9.6559
            ],
            [
              -35.8218,
              -9.656
            ],
            [
              -35.8238,
              -9.657
            ],
            [
              -35.8263,
              -9.657
            ],
            [
              -35.828,
              -9.6553
            ],
            [
              -35.8354,
              -9.6546
            ],
            [
              -35.8645,
              -9.6548
            ],
            [
              -35.8677,
              -9.6409
            ],
            [
              -35.8676,
              -9.6263
            ],
            [
              -35.8681,
              -9.6254
            ],
            [
              -35.8882,
              -9.6479
            ],
            [
              -35.9426,
              -9.6401
            ],
            [
              -35.9442,
              -9.6392
            ],
            [
              -35.9466,
              -9.6393
            ],
            [
              -35.9483,
              -9.6401
            ],
            [
              -35.9501,
              -9.6401
            ],
            [
              -35.9524,
              -9.6412
            ],
            [
              -35.9547,
              -9.6454
            ],
            [
              -35.9569,
              -9.6477
            ],
            [
              -35.9585,
              -9.6469
            ],
            [
              -35.9589,
              -9.6452
            ],
            [
              -35.9615,
              -9.643
            ],
            [
              -35.9659,
              -9.6426
            ],
            [
              -35.9685,
              -9.6414
            ],
            [
              -35.9699,
              -9.641
            ],
            [
              -35.9696,
              -9.6427
            ],
            [
              -35.9713,
              -9.6443
            ],
            [
              -35.9724,
              -9.6432
            ],
            [
              -35.9734,
              -9.644
            ],
            [
              -35.9751,
              -9.6436
            ],
            [
              -35.9785,
              -9.6438
            ],
            [
              -35.9869,
              -9.6625
            ],
            [
              -35.9802,
              -9.6729
            ],
            [
              -35.9841,
              -9.6696
            ],
            [
              -35.9968,
              -9.6616
            ],
            [
              -36.0005,
              -9.6605
            ],
            [
              -36.0243,
              -9.6464
            ],
            [
              -36.024,
              -9.6491
            ],
            [
              -36.0233,
              -9.652
            ],
            [
              -36.0211,
              -9.6561
            ],
            [
              -36.0199,
              -9.6587
            ],
            [
              -36.0202,
              -9.6605
            ],
            [
              -36.0278,
              -9.6695
            ],
            [
              -36.0298,
              -9.6714
            ],
            [
              -36.0355,
              -9.6774
            ],
            [
              -36.0371,
              -9.68
            ],
            [
              -36.0375,
              -9.6837
            ],
            [
              -36.0368,
              -9.6857
            ],
            [
              -36.0358,
              -9.6876
            ],
            [
              -36.0339,
              -9.6897
            ],
            [
              -36.0321,
              -9.6993
            ],
            [
              -36.0337,
              -9.7014
            ],
            [
              -36.0335,
              -9.7016
            ],
            [
              -36.0275,
              -9.7012
            ],
            [
              -36.0238,
              -9.7012
            ],
            [
              -36.0146,
              -9.7035
            ],
            [
              -36.0035,
              -9.7061
            ],
            [
              -36.0024,
              -9.706
            ],
            [
              -35.9922,
              -9.7025
            ],
            [
              -35.99,
              -9.7022
            ],
            [
              -35.9875,
              -9.7034
            ],
            [
              -35.9893,
              -9.7386
            ],
            [
              -36.0046,
              -9.7671
            ],
            [
              -36.0034,
              -9.7705
            ],
            [
              -36.0007,
              -9.7745
            ],
            [
              -35.9982,
              -9.7767
            ],
            [
              -35.9959,
              -9.7782
            ],
            [
              -35.9951,
              -9.7796
            ],
            [
              -35.9912,
              -9.7818
            ],
            [
              -35.9888,
              -9.7815
            ],
            [
              -35.9869,
              -9.7824
            ],
            [
              -35.984,
              -9.7846
            ],
            [
              -35.9812,
              -9.786
            ],
            [
              -35.9798,
              -9.7863
            ],
            [
              -35.9782,
              -9.7847
            ],
            [
              -35.9772,
              -9.7843
            ],
            [
              -35.9744,
              -9.7842
            ],
            [
              -35.9725,
              -9.7855
            ],
            [
              -35.9671,
              -9.7884
            ],
            [
              -35.9639,
              -9.7885
            ],
            [
              -35.9624,
              -9.7897
            ],
            [
              -35.9605,
              -9.7899
            ],
            [
              -35.9591,
              -9.7893
            ],
            [
              -35.9575,
              -9.7872
            ],
            [
              -35.9566,
              -9.7867
            ],
            [
              -35.9521,
              -9.7868
            ],
            [
              -35.9494,
              -9.7872
            ],
            [
              -35.9448,
              -9.7872
            ],
            [
              -35.944,
              -9.7879
            ],
            [
              -35.9425,
              -9.7876
            ],
            [
              -35.94,
              -9.7885
            ],
            [
              -35.9383,
              -9.7896
            ],
            [
              -35.938,
              -9.7926
            ],
            [
              -35.9374,
              -9.7947
            ],
            [
              -35.9355,
              -9.7944
            ],
            [
              -35.9339,
              -9.7965
            ],
            [
              -35.9329,
              -9.7967
            ],
            [
              -35.9295,
              -9.7955
            ],
            [
              -35.9265,
              -9.7957
            ],
            [
              -35.9253,
              -9.7966
            ],
            [
              -35.9242,
              -9.7984
            ],
            [
              -35.9224,
              -9.7995
            ],
            [
              -35.9219,
              -9.8038
            ],
            [
              -35.9188,
              -9.8051
            ],
            [
              -35.916,
              -9.8053
            ],
            [
              -35.9155,
              -9.8062
            ],
            [
              -35.9147,
              -9.8096
            ],
            [
              -35.9133,
              -9.8099
            ],
            [
              -35.9101,
              -9.8095
            ],
            [
              -35.9093,
              -9.8104
            ],
            [
              -35.9056,
              -9.8119
            ],
            [
              -35.8553,
              -9.7883
            ]
          ]
        ]
      },
      "properties": {
        "codarea": "2704708",
        "nome_municipio": "Marechal Deodoro",
        "codigo_ibge": 2704708
      }
    },
    {
      "type": "Feature",
      "geometry": {
        "type": "Polygon",
        "coordinates": [
          [
            [
              -35.9597,
              -9.528
            ],
            [
              -36.0007,
              -9.5745
            ],
            [
              -36.0002,
              -9.5752
            ],
            [
              -36.0004,
              -9.5774
            ],
            [
              -36.0016,
              -9.5795
            ],
            [
              -36.0057,
              -9.5857
            ],
            [
              -36.0088,
              -9.5843
            ],
            [
              -36.0089,
              -9.5828
            ],
            [
              -36.0115,
              -9.5811
            ],
            [
              -36.0123,
              -9.5798
            ],
            [
              -36.0144,
              -9.5801
            ],
            [
              -36.0149,
              -9.5785
            ],
            [
              -36.0172,
              -9.5764
            ],
            [
              -36.041,
              -9.5839
            ],
            [
              -36.0724,
              -9.5987
            ],
            [
              -36.0755,
              -9.5971
            ],
            [
              -36.077,
              -9.5969
            ],
            [
              -36.0798,
              -9.5979
            ],
            [
              -36.0829,
              -9.5985
            ],
            [
              -36.0858,
              -9.6004
            ],
            [
              -36.0891,
              -9.6002
            ],
            [
              -36.0918,
              -9.6011
            ],
            [
              -36.0935,
              -9.6011
            ],
            [
              -36.0969,
              -9.5998
            ],
            [
              -36.0997,
              -9.5982
            ],
            [
              -36.1021,
              -9.5974
            ],
            [
              -36.1076,
              -9.5969
            ],
            [
              -36.1109,
              -9.5974
            ],
            [
              -36.113,
              -9.5973
            ],
            [
              -36.1165,
              -9.5962
            ],
            [
              -36.1201,
              -9.5962
            ],
            [
              -36.1221,
              -9.5967
            ],
            [
              -36.1245,
              -9.5982
            ],
            [
              -36.1276,
              -9.599
            ],
            [
              -36.1286,
              -9.5997
            ],
            [
              -36.1291,
              -9.6014
            ],
            [
              -36.1307,
              -9.6047
            ],
            [
              -36.1335,
              -9.6079
            ],
            [
              -36.1363,
              -9.6106
            ],
            [
              -36.1384,
              -9.6131
            ],
            [
              -36.1398,
              -9.6134
            ],
            [
              -36.144,
              -9.613
            ],
            [
              -36.1477,
              -9.6121
            ],
            [
              -36.1498,
              -9.612
            ],
            [
              -36.1548,
              -9.6145
            ],
            [
              -36.1555,
              -9.6152
            ],
            [
              -36.1571,
              -9.6185
            ],
            [
              -36.1583,
              -9.6186
            ],
            [
              -36.1625,
              -9.6172
            ],
            [
              -36.1654,
              -9.6169
            ],
            [
              -36.168,
              -9.6157
            ],
            [
              -36.1707,
              -9.6149
            ],
            [
              -36.1744,
              -9.6116
            ],
            [
              -36.1759,
              -9.6119
            ],
            [
              -36.1776,
              -9.6128
            ],
            [
              -36.1798,
              -9.612
            ],
            [
              -36.1809,
              -9.6122
            ],
            [
              -36.1805,
              -9.6151
            ],
            [
              -36.179,
              -9.6161
            ],
            [
              -36.1779,
              -9.6183
            ],
            [
              -36.1769,
              -9.6213
            ],
            [
              -36.1757,
              -9.6211
            ],
            [
              -36.1752,
              -9.6221
            ],
            [
              -36.1737,
              -9.6228
            ],
            [
              -36.1707,
              -9.6221
            ],
            [
              -36.1691,
              -9.6232
            ],
            [
              -36.1662,
              -9.624
            ],
            [
              -36.1645,
              -9.6236
            ],
            [
              -36.1638,
              -9.6244
            ],
            [
              -36.1616,
              -9.6249
            ],
            [
              -36.1595,
              -9.6239
            ],
            [
              -36.1577,
              -9.6238
            ],
            [
              -36.1554,
              -9.6253
            ],
            [
              -36.1546,
              -9.6273
            ],
            [
              -36.1526,
              -9.6285
            ],
            [
              -36.1513,
              -9.6285
            ],
            [
              -36.1511,
              -9.6303
            ],
            [
              -36.1499,
              -9.6302
            ],
            [
              -36.15,
              -9.6317
            ],
            [
              -36.1488,
              -9.6329
            ],
            [
              -36.1462,
              -9.6336
            ],
            [
              -36.146,
              -9.635
            ],
            [
              -36.1447,
              -9.6376
            ],
            [
              -36.1426,
              -9.6391
            ],
            [
              -36.1415,
              -9.6389
            ],
            [
              -36.1414,
              -9.6404
            ],
            [
              -36.1408,
              -9.6414
            ],
            [
              -36.1418,
              -9.6431
            ],
            [
              -36.1409,
              -9.6454
            ],
            [
              -36.1365,
              -9.6461
            ],
            [
              -36.1344,
              -9.6455
            ],
            [
              -36.1338,
              -9.6462
            ],
            [
              -36.1341,
              -9.6487
            ],
            [
              -36.1322,
              -9.6511
            ],
            [
              -36.1304,
              -9.6493
            ],
            [
              -36.1279,
              -9.6487
            ],
            [
              -36.1228,
              -9.6492
            ],
            [
              -36.1219,
              -9.6497
            ],
            [
              -36.1185,
              -9.6501
            ],
            [
              -36.1172,
              -9.6494
            ],
            [
              -36.1153,
              -9.6494
            ],
            [
              -36.1141,
              -9.6479
            ],
            [
              -36.1122,
              -9.6472
            ],
            [
              -36.11,
              -9.6448
            ],
            [
              -36.1076,
              -9.6435
            ],
            [
              -36.105,
              -9.6389
            ],
            [
              -36.1022,
              -9.6439
            ],
            [
              -36.1022,
              -9.6448
            ],
            [
              -36.0988,
              -9.6473
            ],
            [
              -36.0987,
              -9.6499
            ],
            [
              -36.0991,
              -9.6519
            ],
            [
              -36.0961,
              -9.6523
            ],
            [
              -36.0944,
              -9.6559
            ],
            [
              -36.092,
              -9.6565
            ],
            [
              -36.0897,
              -9.6559
            ],
            [
              -36.0889,
              -9.6593
            ],
            [
              -36.0861,
              -9.6618
            ],
            [
              -36.0849,
              -9.6639
            ],
            [
              -36.0834,
              -9.6644
            ],
            [
              -36.0815,
              -9.6664
            ],
            [
              -36.08,
              -9.6667
            ],
            [
              -36.0789,
              -9.6676
            ],
            [
              -36.0775,
              -9.6717
            ],
            [
              -36.075,
              -9.6735
            ],
            [
              -36.0701,
              -9.6762
            ],
            [
              -36.0701,
              -9.6794
            ],
            [
              -36.0673,
              -9.6831
            ],
            [
              -36.0645,
              -9.6844
            ],
            [
              -36.0636,
              -9.6853
            ],
            [
              -36.0626,
              -9.6889
            ],
            [
              -36.0583,
              -9.6897
            ],
            [
              -36.0555,
              -9.6922
            ],
            [
              -36.0538,
              -9.6913
            ],
            [
              -36.0524,
              -9.692
            ],
            [
              -36.0518,
              -9.6913
            ],
            [
              -36.0497,
              -9.6915
            ],
            [
              -36.0485,
              -9.6909
            ],
            [
              -36.0447,
              -9.6914
            ],
            [
              -36.0416,
              -9.693
            ],
            [
              -36.0386,
              -9.6929
            ],
            [
              -36.0377,
              -9.6942
            ],
            [
              -36.0376,
              -9.6959
            ],
            [
              -36.0367,
              -9.6969
            ],
            [
              -36.0354,
              -9.697
            ],
            [
              -36.0346,
              -9.6996
            ],
            [
              -36.0337,
              -9.7014
            ],
            [
              -36.0321,
              -9.6993
            ],
            [
              -36.0339,
              -9.6897
            ],
            [
              -36.0358,
              -9.6876
            ],
            [
              -36.0368,
              -9.6857
            ],
            [
              -36.0375,
              -9.6837
            ],
            [
              -36.0371,
              -9.68
            ],
            [
              -36.0355,
              -9.6774
            ],
            [
              -36.0298,
              -9.6714
            ],
            [
              -36.0278,
              -9.6695
            ],
            [
              -36.0202,
              -9.6605
            ],
            [
              -36.0199,
              -9.6587
            ],
            [
              -36.0211,
              -9.6561
            ],
            [
              -36.0233,
              -9.652
            ],
            [
              -36.024,
              -9.6491
            ],
            [
              -36.0243,
              -9.6464
            ],
            [
              -36.0005,
              -9.6605
            ],
            [
              -35.9968,
              -9.6616
            ],
            [
              -35.9841,
              -9.6696
            ],
            [
              -35.9802,
              -9.6729
            ],
            [
              -35.9869,
              -9.6625
            ],
            [
              -35.9785,
              -9.6438
            ],
            [
              -35.9751,
              -9.6436
            ],
            [
              -35.9734,
              -9.644
            ],
            [
              -35.9724,
              -9.6432
            ],
            [
              -35.9713,
              -9.6443
            ],
            [
              -35.9696,
              -9.6427
            ],
            [
              -35.9699,
              -9.641
            ],
            [
              -35.9685,
              -9.6414
            ],
            [
              -35.9659,
              -9.6426
            ],
            [
              -35.9615,
              -9.643
            ],
            [
              -35.9589,
              -9.6452
            ],
            [
              -35.9585,
              -9.6469
            ],
            [
              -35.9569,
              -9.6477
            ],
            [
              -35.9547,
              -9.6454
            ],
            [
              -35.9524,
              -9.6412
            ],
            [
              -35.9501,
              -9.6401
            ],
            [
              -35.9483,
              -9.6401
            ],
            [
              -35.9466,
              -9.6393
            ],
            [
              -35.9442,
              -9.6392
            ],
            [
              -35.9426,
              -9.6401
            ],
            [
              -35.8882,
              -9.6479
            ],
            [
              -35.8681,
              -9.6254
            ],
            [
              -35.8706,
              -9.6206
            ],
            [
              -35.8763,
              -9.6104
            ],
            [
              -35.8768,
              -9.6097
            ],
            [
              -35.8781,
              -9.6007
            ],
            [
              -35.8822,
              -9.6011
            ],
            [
              -35.8872,
              -9.5888
            ],
            [
              -35.9354,
              -9.5501
            ],
            [
              -35.9363,
              -9.5503
            ],
            [
              -35.9384,
              -9.5493
            ],
            [
              -35.9399,
              -9.5459
            ],
            [
              -35.9435,
              -9.5428
            ],
            [
              -35.9464,
              -9.5423
            ],
            [
              -35.9448,
              -9.541
            ],
            [
              -35.9455,
              -9.5379
            ],
            [
              -35.9479,
              -9.5363
            ],
            [
              -35.9494,
              -9.5362
            ],
            [
              -35.9499,
              -9.5333
            ],
            [
              -35.9512,
              -9.5324
            ],
            [
              -35.9541,
              -9.5325
            ],
            [
              -35.9564,
              -9.5309
            ],
            [
              -35.9592,
              -9.5301
            ],
            [
              -35.9597,
              -9.528
            ]
          ]
        ]
      },
      "properties": {
        "codarea": "2706901",
        "nome_municipio": "Pilar",
        "codigo_ibge": 2706901
      }
    },
    {
      "type": "Feature",
      "geometry": {
        "type": "Polygon",
        "coordinates": [
          [
            [
              -35.8144,
              -9.58
            ],
            [
              -35.8157,
              -9.5799
            ],
            [
              -35.8163,
              -9.5807
            ],
            [
              -35.8183,
              -9.5801
            ],
            [
              -35.8187,
              -9.5786
            ],
            [
              -35.8236,
              -9.5783
            ],
            [
              -35.8255,
              -9.5784
            ],
            [
              -35.8257,
              -9.5824
            ],
            [
              -35.8288,
              -9.5831
            ],
            [
              -35.8433,
              -9.6045
            ],
            [
              -35.8454,
              -9.6067
            ],
            [
              -35.8499,
              -9.6072
            ],
            [
              -35.8516,
              -9.6082
            ],
            [
              -35.8497,
              -9.6124
            ],
            [
              -35.8505,
              -9.6126
            ],
            [
              -35.8517,
              -9.6102
            ],
            [
              -35.8532,
              -9.6094
            ],
            [
              -35.8546,
              -9.6098
            ],
            [
              -35.8555,
              -9.6112
            ],
            [
              -35.8561,
              -9.6156
            ],
            [
              -35.8633,
              -9.6222
            ],
            [
              -35.8676,
              -9.6263
            ],
            [
              -35.8655,
              -9.6316
            ],
            [
              -35.8565,
              -9.6346
            ],
            [
              -35.8546,
              -9.6359
            ],
            [
              -35.8519,
              -9.6367
            ],
            [
              -35.8497,
              -9.6386
            ],
            [
              -35.8472,
              -9.6381
            ],
            [
              -35.8455,
              -9.6395
            ],
            [
              -35.8447,
              -9.6411
            ],
            [
              -35.8429,
              -9.641
            ],
            [
              -35.8413,
              -9.6418
            ],
            [
              -35.8388,
              -9.6421
            ],
            [
              -35.837,
              -9.642
            ],
            [
              -35.8329,
              -9.6404
            ],
            [
              -35.8313,
              -9.6393
            ],
            [
              -35.8292,
              -9.6402
            ],
            [
              -35.8255,
              -9.6398
            ],
            [
              -35.8232,
              -9.6383
            ],
            [
              -35.8198,
              -9.6291
            ],
            [
              -35.8161,
              -9.625
            ],
            [
              -35.8157,
              -9.6228
            ],
            [
              -35.8148,
              -9.6212
            ],
            [
              -35.8146,
              -9.6194
            ],
            [
              -35.8126,
              -9.6169
            ],
            [
              -35.8104,
              -9.615
            ],
            [
              -35.8082,
              -9.6145
            ],
            [
              -35.8056,
              -9.6134
            ],
            [
              -35.806,
              -9.6123
            ],
            [
              -35.8047,
              -9.6083
            ],
            [
              -35.8037,
              -9.6064
            ],
            [
              -35.7935,
              -9.6001
            ],
            [
              -35.7956,
              -9.5964
            ],
            [
              -35.7964,
              -9.5956
            ],
            [
              -35.8026,
              -9.5926
            ],
            [
              -35.8032,
              -9.5911
            ],
            [
              -35.8024,
              -9.5898
            ],
            [
              -35.8034,
              -9.5876
            ],
            [
              -35.8055,
              -9.5873
            ],
            [
              -35.8069,
              -9.586
            ],
            [
              -35.8095,
              -9.5846
            ],
            [
              -35.8084,
              -9.5832
            ],
            [
              -35.8089,
              -9.582
            ],
            [
              -35.8121,
              -9.5816
            ],
            [
              -35.8144,
              -9.58
            ]
          ]
        ]
      },
      "properties": {
        "codarea": "2707909",
        "nome_municipio": "Santa Luzia do Norte",
        "codigo_ibge": 2707909
      }
    },
    {
      "type": "Feature",
      "geometry": {
        "type": "Polygon",
        "coordinates": [
          [
            [
              -35.8676,
              -9.6263
            ],
            [
              -35.8677,
              -9.6409
            ],
            [
              -35.8645,
              -9.6548
            ],
            [
              -35.8354,
              -9.6546
            ],
            [
              -35.828,
              -9.6553
            ],
            [
              -35.8263,
              -9.657
            ],
            [
              -35.8238,
              -9.657
            ],
            [
              -35.8218,
              -9.656
            ],
            [
              -35.8186,
              -9.6559
            ],
            [
              -35.8165,
              -9.6543
            ],
            [
              -35.8131,
              -9.6551
            ],
            [
              -35.8116,
              -9.6568
            ],
            [
              -35.81,
              -9.6595
            ],
            [
              -35.8101,
              -9.6615
            ],
            [
              -35.8096,
              -9.6636
            ],
            [
              -35.8068,
              -9.6671
            ],
            [
              -35.8058,
              -9.6714
            ],
            [
              -35.8051,
              -9.6725
            ],
            [
              -35.805,
              -9.6745
            ],
            [
              -35.8024,
              -9.6778
            ],
            [
              -35.7955,
              -9.6803
            ],
            [
              -35.7912,
              -9.6806
            ],
            [
              -35.791,
              -9.6793
            ],
            [
              -35.7897,
              -9.6773
            ],
            [
              -35.7879,
              -9.6752
            ],
            [
              -35.7858,
              -9.67
            ],
            [
              -35.7834,
              -9.6679
            ],
            [
              -35.7802,
              -9.6669
            ],
            [
              -35.7798,
              -9.6632
            ],
            [
              -35.7802,
              -9.6597
            ],
            [
              -35.7807,
              -9.6576
            ],
            [
              -35.7795,
              -9.654
            ],
            [
              -35.7768,
              -9.6488
            ],
            [
              -35.774,
              -9.6448
            ],
            [
              -35.7725,
              -9.6431
            ],
            [
              -35.7694,
              -9.639
            ],
            [
              -35.7693,
              -9.6364
            ],
            [
              -35.7699,
              -9.6346
            ],
            [
              -35.7716,
              -9.6321
            ],
            [
              -35.7734,
              -9.6303
            ],
            [
              -35.7759,
              -9.6287
            ],
            [
              -35.7824,
              -9.6223
            ],
            [
              -35.7855,
              -9.6174
            ],
            [
              -35.788,
              -9.6133
            ],
            [
              -35.7886,
              -9.6114
            ],
            [
              -35.7905,
              -9.6042
            ],
            [
              -35.7915,
              -9.6018
            ],
            [
              -35.7935,
              -9.6001
            ],
            [
              -35.8037,
              -9.6064
            ],
            [
              -35.8047,
              -9.6083
            ],
            [
              -35.806,
              -9.6123
            ],
            [
              -35.8056,
              -9.6134
            ],
            [
              -35.8082,
              -9.6145
            ],
            [
              -35.8104,
              -9.615
            ],
            [
              -35.8126,
              -9.6169
            ],
            [
              -35.8146,
              -9.6194
            ],
            [
              -35.8148,
              -9.6212
            ],
            [
              -35.8157,
              -9.6228
            ],
            [
              -35.8161,
              -9.625
            ],
            [
              -35.8198,
              -9.6291
            ],
            [
              -35.8232,
              -9.6383
            ],
            [
              -35.8255,
              -9.6398
            ],
            [
              -35.8292,
              -9.6402
            ],
            [
              -35.8313,
              -9.6393
            ],
            [
              -35.8329,
              -9.6404
            ],
            [
              -35.837,
              -9.642
            ],
            [
              -35.8388,
              -9.6421
            ],
            [
              -35.8413,
              -9.6418
            ],
            [
              -35.8429,
              -9.641
            ],
            [
              -35.8447,
              -9.6411
            ],
            [
              -35.8455,
              -9.6395
            ],
            [
              -35.8472,
              -9.6381
            ],
            [
              -35.8497,
              -9.6386
            ],
            [
              -35.8519,
              -9.6367
            ],
            [
              -35.8546,
              -9.6359
            ],
            [
              -35.8565,
              -9.6346
            ],
            [
              -35.8655,
              -9.6316
            ],
            [
              -35.8676,
              -9.6263
            ]
          ]
        ]
      },
      "properties": {
        "codarea": "2702207",
        "nome_municipio": "Coqueiro Seco",
        "codigo_ibge": 2702207
      }
    },
    {
      "type": "Feature",
      "geometry": {
        "type": "Polygon",
        "coordinates": [
          [
            [
              -35.8144,
              -9.58
            ],
            [
              -35.8137,
              -9.5795
            ],
            [
              -35.7967,
              -9.5315
            ],
            [
              -35.8273,
              -9.5504
            ],
            [
              -35.8463,
              -9.5484
            ],
            [
              -35.8696,
              -9.5714
            ],
            [
              -35.8872,
              -9.5888
            ],
            [
              -35.8822,
              -9.6011
            ],
            [
              -35.8781,
              -9.6007
            ],
            [
              -35.8768,
              -9.6097
            ],
            [
              -35.8763,
              -9.6104
            ],
            [
              -35.8706,
              -9.6206
            ],
            [
              -35.8681,
              -9.6254
            ],
            [
              -35.8676,
              -9.6263
            ],
            [
              -35.8633,
              -9.6222
            ],
            [
              -35.8561,
              -9.6156
            ],
            [
              -35.8555,
              -9.6112
            ],
            [
              -35.8546,
              -9.6098
            ],
            [
              -35.8532,
              -9.6094
            ],
            [
              -35.8517,
              -9.6102
            ],
            [
              -35.8505,
              -9.6126
            ],
            [
              -35.8497,
              -9.6124
            ],
            [
              -35.8516,
              -9.6082
            ],
            [
              -35.8499,
              -9.6072
            ],
            [
              -35.8454,
              -9.6067
            ],
            [
              -35.8433,
              -9.6045
            ],
            [
              -35.8288,
              -9.5831
            ],
            [
              -35.8257,
              -9.5824
            ],
            [
              -35.8255,
              -9.5784
            ],
            [
              -35.8236,
              -9.5783
            ],
            [
              -35.8187,
              -9.5786
            ],
            [
              -35.8183,
              -9.5801
            ],
            [
              -35.8163,
              -9.5807
            ],
            [
              -35.8157,
              -9.5799
            ],
            [
              -35.8144,
              -9.58
            ]
          ]
        ]
      },
      "properties": {
        "codarea": "2708907",
        "nome_municipio": "Satuba",
        "codigo_ibge": 2708907
      }
    },
    {
      "type": "Feature",
      "geometry": {
        "type": "Polygon",
        "coordinates": [
          [
            [
              -35.7696,
              -9.3896
            ],
            [
              -35.7696,
              -9.3898
            ],
            [
              -35.7846,
              -9.4681
            ],
            [
              -35.7967,
              -9.5315
            ],
            [
              -35.8137,
              -9.5795
            ],
            [
              -35.8144,
              -9.58
            ],
            [
              -35.8121,
              -9.5816
            ],
            [
              -35.8089,
              -9.582
            ],
            [
              -35.8084,
              -9.5832
            ],
            [
              -35.8095,
              -9.5846
            ],
            [
              -35.8069,
              -9.586
            ],
            [
              -35.8055,
              -9.5873
            ],
            [
              -35.8034,
              -9.5876
            ],
            [
              -35.8024,
              -9.5898
            ],
            [
              -35.8032,
              -9.5911
            ],
            [
              -35.8026,
              -9.5926
            ],
            [
              -35.7964,
              -9.5956
            ],
            [
              -35.7956,
              -9.5964
            ],
            [
              -35.7935,
              -9.6001
            ],
            [
              -35.7915,
              -9.6018
            ],
            [
              -35.7905,
              -9.6042
            ],
            [
              -35.7886,
              -9.6114
            ],
            [
              -35.788,
              -9.6133
            ],
            [
              -35.7855,
              -9.6174
            ],
            [
              -35.7824,
              -9.6223
            ],
            [
              -35.7759,
              -9.6287
            ],
            [
              -35.7734,
              -9.6303
            ],
            [
              -35.7716,
              -9.6321
            ],
            [
              -35.7699,
              -9.6346
            ],
            [
              -35.7693,
              -9.6364
            ],
            [
              -35.7694,
              -9.639
            ],
            [
              -35.7725,
              -9.6431
            ],
            [
              -35.774,
              -9.6448
            ],
            [
              -35.7768,
              -9.6488
            ],
            [
              -35.7795,
              -9.654
            ],
            [
              -35.7807,
              -9.6576
            ],
            [
              -35.7802,
              -9.6597
            ],
            [
              -35.7798,
              -9.6632
            ],
            [
              -35.7802,
              -9.6669
            ],
            [
              -35.7834,
              -9.6679
            ],
            [
              -35.7858,
              -9.67
            ],
            [
              -35.7879,
              -9.6752
            ],
            [
              -35.7897,
              -9.6773
            ],
            [
              -35.791,
              -9.6793
            ],
            [
              -35.7912,
              -9.6806
            ],
            [
              -35.7913,
              -9.682
            ],
            [
              -35.7895,
              -9.6851
            ],
            [
              -35.7876,
              -9.6863
            ],
            [
              -35.7857,
              -9.6888
            ],
            [
              -35.7844,
              -9.691
            ],
            [
              -35.7826,
              -9.6962
            ],
            [
              -35.7829,
              -9.6988
            ],
            [
              -35.7855,
              -9.7015
            ],
            [
              -35.7882,
              -9.7028
            ],
            [
              -35.7934,
              -9.7058
            ],
            [
              -35.7962,
              -9.7082
            ],
            [
              -35.7967,
              -9.7103
            ],
            [
              -35.7964,
              -9.7114
            ],
            [
              -35.7945,
              -9.7131
            ],
            [
              -35.793,
              -9.7117
            ],
            [
              -35.7915,
              -9.7118
            ],
            [
              -35.7898,
              -9.7112
            ],
            [
              -35.7852,
              -9.706
            ],
            [
              -35.7807,
              -9.7016
            ],
            [
              -35.7782,
              -9.7
            ],
            [
              -35.7761,
              -9.6972
            ],
            [
              -35.7742,
              -9.6951
            ],
            [
              -35.7712,
              -9.6924
            ],
            [
              -35.7679,
              -9.69
            ],
            [
              -35.765,
              -9.6884
            ],
            [
              -35.7635,
              -9.687
            ],
            [
              -35.7611,
              -9.6832
            ],
            [
              -35.759,
              -9.6814
            ],
            [
              -35.7555,
              -9.6789
            ],
            [
              -35.7487,
              -9.6748
            ],
            [
              -35.7459,
              -9.6735
            ],
            [
              -35.7413,
              -9.6721
            ],
            [
              -35.7385,
              -9.6715
            ],
            [
              -35.733,
              -9.6712
            ],
            [
              -35.7273,
              -9.6727
            ],
            [
              -35.7237,
              -9.6748
            ],
            [
              -35.723,
              -9.6756
            ],
            [
              -35.7251,
              -9.6797
            ],
            [
              -35.7232,
              -9.6807
            ],
            [
              -35.7245,
              -9.6832
            ],
            [
              -35.7286,
              -9.6815
            ],
            [
              -35.7297,
              -9.6826
            ],
            [
              -35.7252,
              -9.6844
            ],
            [
              -35.7237,
              -9.6847
            ],
            [
              -35.7221,
              -9.6834
            ],
            [
              -35.7191,
              -9.6777
            ],
            [
              -35.7168,
              -9.6755
            ],
            [
              -35.7135,
              -9.6702
            ],
            [
              -35.71,
              -9.6662
            ],
            [
              -35.7083,
              -9.6651
            ],
            [
              -35.7046,
              -9.6641
            ],
            [
              -35.7024,
              -9.6641
            ],
            [
              -35.6972,
              -9.6651
            ],
            [
              -35.6967,
              -9.6662
            ],
            [
              -35.6953,
              -9.6648
            ],
            [
              -35.695,
              -9.6638
            ],
            [
              -35.6976,
              -9.6592
            ],
            [
              -35.6979,
              -9.6556
            ],
            [
              -35.6985,
              -9.6522
            ],
            [
              -35.6996,
              -9.6488
            ],
            [
              -35.6995,
              -9.647
            ],
            [
              -35.698,
              -9.6432
            ],
            [
              -35.6975,
              -9.6369
            ],
            [
              -35.697,
              -9.6347
            ],
            [
              -35.6931,
              -9.6242
            ],
            [
              -35.6909,
              -9.6199
            ],
            [
              -35.6845,
              -9.6111
            ],
            [
              -35.6833,
              -9.6097
            ],
            [
              -35.6801,
              -9.6069
            ],
            [
              -35.6769,
              -9.6004
            ],
            [
              -35.6741,
              -9.5973
            ],
            [
              -35.6709,
              -9.5948
            ],
            [
              -35.6685,
              -9.5927
            ],
            [
              -35.6657,
              -9.5913
            ],
            [
              -35.6647,
              -9.5885
            ],
            [
              -35.6624,
              -9.5867
            ],
            [
              -35.6588,
              -9.5825
            ],
            [
              -35.6576,
              -9.5813
            ],
            [
              -35.6554,
              -9.5773
            ],
            [
              -35.6546,
              -9.5739
            ],
            [
              -35.6527,
              -9.5712
            ],
            [
              -35.6513,
              -9.5704
            ],
            [
              -35.6508,
              -9.5685
            ],
            [
              -35.6489,
              -9.568
            ],
            [
              -35.6462,
              -9.5668
            ],
            [
              -35.6449,
              -9.5651
            ],
            [
              -35.6439,
              -9.5628
            ],
            [
              -35.6424,
              -9.5611
            ],
            [
              -35.6396,
              -9.5587
            ],
            [
              -35.6343,
              -9.5548
            ],
            [
              -35.6326,
              -9.5539
            ],
            [
              -35.6272,
              -9.5517
            ],
            [
              -35.6242,
              -9.5499
            ],
            [
              -35.6221,
              -9.5492
            ],
            [
              -35.6192,
              -9.5487
            ],
            [
              -35.6168,
              -9.5471
            ],
            [
              -35.6174,
              -9.5457
            ],
            [
              -35.6158,
              -9.5448
            ],
            [
              -35.6148,
              -9.5427
            ],
            [
              -35.6142,
              -9.54
            ],
            [
              -35.6132,
              -9.5386
            ],
            [
              -35.6105,
              -9.5357
            ],
            [
              -35.6071,
              -9.5328
            ],
            [
              -35.6024,
              -9.5302
            ],
            [
              -35.5988,
              -9.5295
            ],
            [
              -35.5949,
              -9.5299
            ],
            [
              -35.5928,
              -9.5308
            ],
            [
              -35.5914,
              -9.5291
            ],
            [
              -35.5908,
              -9.5226
            ],
            [
              -35.5908,
              -9.5203
            ],
            [
              -35.59,
              -9.5171
            ],
            [
              -35.5878,
              -9.5132
            ],
            [
              -35.5872,
              -9.5116
            ],
            [
              -35.5824,
              -9.5078
            ],
            [
              -35.5809,
              -9.505
            ],
            [
              -35.5793,
              -9.5029
            ],
            [
              -35.5776,
              -9.5017
            ],
            [
              -35.5743,
              -9.5001
            ],
            [
              -35.5718,
              -9.497
            ],
            [
              -35.5702,
              -9.4957
            ],
            [
              -35.5666,
              -9.4939
            ],
            [
              -35.5651,
              -9.4925
            ],
            [
              -35.5603,
              -9.4892
            ],
            [
              -35.5585,
              -9.4875
            ],
            [
              -35.559,
              -9.4852
            ],
            [
              -35.5604,
              -9.4852
            ],
            [
              -35.5617,
              -9.481
            ],
            [
              -35.5628,
              -9.4796
            ],
            [
              -35.567,
              -9.4792
            ],
            [
              -35.5687,
              -9.4784
            ],
            [
              -35.57,
              -9.4772
            ],
            [
              -35.5769,
              -9.4729
            ],
            [
              -35.5793,
              -9.4717
            ],
            [
              -35.5846,
              -9.4698
            ],
            [
              -35.5862,
              -9.4702
            ],
            [
              -35.5884,
              -9.4699
            ],
            [
              -35.5901,
              -9.4691
            ],
            [
              -35.5931,
              -9.4703
            ],
            [
              -35.595,
              -9.4699
            ],
            [
              -35.5959,
              -9.4721
            ],
            [
              -35.598,
              -9.473
            ],
            [
              -35.5999,
              -9.4732
            ],
            [
              -35.6019,
              -9.4741
            ],
            [
              -35.6031,
              -9.4737
            ],
            [
              -35.6044,
              -9.4726
            ],
            [
              -35.6078,
              -9.473
            ],
            [
              -35.6088,
              -9.4708
            ],
            [
              -35.6102,
              -9.4704
            ],
            [
              -35.6128,
              -9.4712
            ],
            [
              -35.6154,
              -9.47
            ],
            [
              -35.6172,
              -9.4699
            ],
            [
              -35.618,
              -9.4691
            ],
            [
              -35.6193,
              -9.4656
            ],
            [
              -35.6212,
              -9.4634
            ],
            [
              -35.6241,
              -9.4626
            ],
            [
              -35.6251,
              -9.4613
            ],
            [
              -35.626,
              -9.4578
            ],
            [
              -35.6243,
              -9.4513
            ],
            [
              -35.6262,
              -9.4478
            ],
            [
              -35.6276,
              -9.4474
            ],
            [
              -35.635,
              -9.4469
            ],
            [
              -35.6365,
              -9.4454
            ],
            [
              -35.6382,
              -9.4452
            ],
            [
              -35.6392,
              -9.4438
            ],
            [
              -35.6404,
              -9.4444
            ],
            [
              -35.6419,
              -9.4444
            ],
            [
              -35.644,
              -9.4417
            ],
            [
              -35.6467,
              -9.4412
            ],
            [
              -35.6482,
              -9.4392
            ],
            [
              -35.652,
              -9.436
            ],
            [
              -35.6573,
              -9.434
            ],
            [
              -35.6593,
              -9.433
            ],
            [
              -35.6609,
              -9.4313
            ],
            [
              -35.6625,
              -9.4306
            ],
            [
              -35.6639,
              -9.4307
            ],
            [
              -35.6656,
              -9.4297
            ],
            [
              -35.6661,
              -9.4285
            ],
            [
              -35.6659,
              -9.426
            ],
            [
              -35.6766,
              -9.3986
            ],
            [
              -35.6906,
              -9.371
            ],
            [
              -35.7458,
              -9.3841
            ],
            [
              -35.7696,
              -9.3896
            ]
          ]
        ]
      },
      "properties": {
        "codarea": "2704302",
        "nome_municipio": "Maceió",
        "codigo_ibge": 2704302
      }
    }
  ]
}