{"type":"FeatureCollection","features":[{"type":"Feature","properties":{"codarea":"3127073","centroide":[-42.51963575403825,-16.12607343114517],"codigo_ibge":3127073,"nome_ig":"Região de Salinas"},"geometry":{"type":"Polygon","coordinates":[[[-42.5163,-15.9597],[-42.5271,-15.9931],[-42.4738,-15.9774],[-42.4633,-15.9987],[-42.4703,-16.0313],[-42.4825,-16.0368],[-42.4801,-16.0622],[-42.4461,-16.0821],[-42.4244,-16.0797],[-42.4206,-16.1057],[-42.3875,-16.1285],[-42.3824,-16.1593],[-42.3528,-16.1955],[-42.364,-16.2193],[-42.3522,-16.2418],[-42.3599,-16.2811],[-42.342,-16.2955],[-42.3535,-16.2995],[-42.4084,-16.2665],[-42.4124,-16.2552],[-42.436,-16.2492],[-42.4651,-16.2549],[-42.466,-16.2845],[-42.4927,-16.308],[-42.5035,-16.299],[-42.5111,-16.2651],[-42.5434,-16.2391],[-42.5443,-16.21],[-42.5634,-16.2026],[-42.5808,-16.2082],[-42.5827,-16.1925],[-42.6162,-16.1634],[-42.6507,-16.171],[-42.666,-16.1682],[-42.6718,-16.1803],[-42.6997,-16.1724],[-42.7061,-16.1582],[-42.6836,-16.1537],[-42.6645,-16.1223],[-42.6685,-16.1068],[-42.664,-16.0733],[-42.6516,-16.0584],[-42.646,-16.0304],[-42.6342,-16.02],[-42.6357,-15.9739],[-42.6161,-15.9515],[-42.5931,-15.9571],[-42.5853,-15.9705],[-42.5429,-15.955],[-42.5163,-15.9597]]]}},{"type":"Feature","properties":{"codarea":"3145372","centroide":[-42.396543276836994,-16.01198417172795],"codigo_ibge":3145372,"nome_ig":"Região de Salinas"},"geometry":{"type":"Polygon","coordinates":[[[-42.3981,-15.9019],[-42.3854,-15.9188],[-42.3683,-15.9243],[-42.3671,-15.9547],[-42.3789,-15.9721],[-42.37,-15.9904],[-42.3471,-15.9996],[-42.3252,-15.9919],[-42.3016,-16.0051],[-42.3224,-16.026],[-42.2893,-16.0375],[-42.2854,-16.053],[-42.2926,-16.1017],[-42.3197,-16.1069],[-42.3426,-16.085],[-42.3536,-16.0595],[-42.3802,-16.0686],[-42.3991,-16.064],[-42.4244,-16.0797],[-42.4461,-16.0821],[-42.4801,-16.0622],[-42.4825,-16.0368],[-42.4703,-16.0313],[-42.4633,-15.9987],[-42.4738,-15.9774],[-42.5271,-15.9931],[-42.5163,-15.9597],[-42.5005,-15.9514],[-42.4615,-15.9713],[-42.4341,-15.9326],[-42.4203,-15.9018],[-42.3981,-15.9019]]]}},{"type":"Feature","properties":{"codarea":"3156502","centroide":[-42.2348354956021,-16.368083445691028],"codigo_ibge":3156502,"nome_ig":"Região de Salinas"},"geometry":{"type":"Polygon","coordinates":[[[-41.9104,-16.3216],[-41.8976,-16.337],[-41.8979,-16.3676],[-41.9377,-16.3854],[-41.9497,-16.4017],[-41.9896,-16.3961],[-41.9872,-16.3827],[-42.0129,-16.3843],[-42.0268,-16.3772],[-42.0771,-16.3809],[-42.0927,-16.3868],[-42.1054,-16.4371],[-42.1154,-16.4529],[-42.1376,-16.4532],[-42.1489,-16.4679],[-42.1798,-16.4789],[-42.1972,-16.4614],[-42.2254,-16.475],[-42.249,-16.4769],[-42.2663,-16.4682],[-42.3017,-16.495],[-42.3271,-16.492],[-42.3778,-16.4738],[-42.3861,-16.4671],[-42.4446,-16.4961],[-42.4678,-16.4885],[-42.4793,-16.4701],[-42.4773,-16.4393],[-42.47,-16.4219],[-42.4853,-16.3615],[-42.4927,-16.308],[-42.466,-16.2845],[-42.4651,-16.2549],[-42.436,-16.2492],[-42.4124,-16.2552],[-42.4084,-16.2665],[-42.3535,-16.2995],[-42.342,-16.2955],[-42.3207,-16.3106],[-42.2817,-16.3069],[-42.2651,-16.2969],[-42.2558,-16.3055],[-42.2037,-16.3009],[-42.1702,-16.2735],[-42.1376,-16.2723],[-42.1251,-16.2549],[-42.0902,-16.2321],[-42.0732,-16.265],[-42.0566,-16.2688],[-42.0423,-16.255],[-42.0295,-16.2584],[-42.002,-16.2854],[-41.9815,-16.2891],[-41.9687,-16.304],[-41.9329,-16.3075],[-41.9104,-16.3216]]]}},{"type":"Feature","properties":{"codarea":"3157005","centroide":[-42.15161734620168,-16.111087906809157],"codigo_ibge":3157005,"nome_ig":"Região de Salinas"},"geometry":{"type":"Polygon","coordinates":[[[-41.9083,-16.0163],[-41.9283,-16.0422],[-41.9203,-16.0631],[-41.9294,-16.0698],[-41.93,-16.1299],[-41.905,-16.1273],[-41.8791,-16.112],[-41.8548,-16.1185],[-41.8445,-16.1295],[-41.8581,-16.148],[-41.8683,-16.1825],[-41.8901,-16.2013],[-41.9127,-16.2577],[-41.9325,-16.2814],[-41.911,-16.3085],[-41.9104,-16.3216],[-41.9329,-16.3075],[-41.9687,-16.304],[-41.9815,-16.2891],[-42.002,-16.2854],[-42.0295,-16.2584],[-42.0423,-16.255],[-42.0566,-16.2688],[-42.0732,-16.265],[-42.0902,-16.2321],[-42.1251,-16.2549],[-42.1376,-16.2723],[-42.1702,-16.2735],[-42.2037,-16.3009],[-42.2558,-16.3055],[-42.2651,-16.2969],[-42.2817,-16.3069],[-42.3207,-16.3106],[-42.342,-16.2955],[-42.3599,-16.2811],[-42.3522,-16.2418],[-42.364,-16.2193],[-42.3528,-16.1955],[-42.3824,-16.1593],[-42.3875,-16.1285],[-42.4206,-16.1057],[-42.4244,-16.0797],[-42.3991,-16.064],[-42.3802,-16.0686],[-42.3536,-16.0595],[-42.3426,-16.085],[-42.3197,-16.1069],[-42.2926,-16.1017],[-42.2854,-16.053],[-42.2893,-16.0375],[-42.3224,-16.026],[-42.3016,-16.0051],[-42.3252,-15.9919],[-42.3471,-15.9996],[-42.37,-15.9904],[-42.3789,-15.9721],[-42.3671,-15.9547],[-42.3683,-15.9243],[-42.3854,-15.9188],[-42.3981,-15.9019],[-42.3545,-15.8598],[-42.3281,-15.859],[-42.3275,-15.8492],[-42.2904,-15.8583],[-42.2712,-15.8885],[-42.2769,-15.9052],[-42.2681,-15.9154],[-42.2477,-15.9118],[-42.2251,-15.9501],[-42.2091,-15.9613],[-42.1955,-15.9508],[-42.1814,-15.9655],[-42.1559,-15.9663],[-42.1413,-15.942],[-42.1397,-15.9212],[-42.125,-15.9088],[-42.1023,-15.9068],[-42.0886,-15.9182],[-42.0706,-15.9506],[-42.0687,-15.9669],[-42.0331,-15.9816],[-42.0135,-15.9976],[-41.9936,-15.9936],[-41.9361,-15.9957],[-41.9083,-16.0163]]]}},{"type":"Feature","properties":{"codarea":"3157377","centroide":[-41.78971316579929,-16.050705256414275],"codigo_ibge":3157377,"nome_ig":"Região de Salinas"},"geometry":{"type":"Polygon","coordinates":[[[-41.6194,-15.9368],[-41.6175,-15.9534],[-41.6335,-15.9653],[-41.6324,-15.9823],[-41.661,-16.0082],[-41.6618,-16.0196],[-41.7001,-16.0369],[-41.71,-16.0564],[-41.7063,-16.0851],[-41.7162,-16.1041],[-41.6817,-16.1109],[-41.6953,-16.138],[-41.6866,-16.1517],[-41.6959,-16.1649],[-41.7169,-16.1795],[-41.767,-16.1847],[-41.7763,-16.1704],[-41.8029,-16.1674],[-41.7883,-16.1538],[-41.8125,-16.1514],[-41.8335,-16.1726],[-41.8683,-16.1825],[-41.8581,-16.148],[-41.8445,-16.1295],[-41.8548,-16.1185],[-41.8791,-16.112],[-41.905,-16.1273],[-41.93,-16.1299],[-41.9294,-16.0698],[-41.9203,-16.0631],[-41.9283,-16.0422],[-41.9083,-16.0163],[-41.9061,-15.9736],[-41.9121,-15.9516],[-41.9052,-15.9338],[-41.9169,-15.9064],[-41.8899,-15.9326],[-41.8759,-15.9298],[-41.8673,-15.9545],[-41.8504,-15.9592],[-41.8305,-15.9785],[-41.8206,-15.9698],[-41.7631,-15.9619],[-41.7497,-15.9663],[-41.7159,-15.9501],[-41.6618,-15.9303],[-41.6194,-15.9368]]]}},{"type":"Feature","properties":{"codarea":"3168002","centroide":[-42.05657252833825,-15.824410196204209],"codigo_ibge":3168002,"nome_ig":"Região de Salinas"},"geometry":{"type":"Polygon","coordinates":[[[-41.9048,-15.6311],[-41.9164,-15.662],[-41.9022,-15.6916],[-41.9057,-15.7076],[-41.8804,-15.7483],[-41.8792,-15.7698],[-41.8586,-15.8026],[-41.8651,-15.8365],[-41.8848,-15.8489],[-41.9056,-15.8747],[-41.9169,-15.9064],[-41.9052,-15.9338],[-41.9121,-15.9516],[-41.9061,-15.9736],[-41.9083,-16.0163],[-41.9361,-15.9957],[-41.9936,-15.9936],[-42.0135,-15.9976],[-42.0331,-15.9816],[-42.0687,-15.9669],[-42.0706,-15.9506],[-42.0886,-15.9182],[-42.1023,-15.9068],[-42.125,-15.9088],[-42.1397,-15.9212],[-42.1413,-15.942],[-42.1559,-15.9663],[-42.1814,-15.9655],[-42.1955,-15.9508],[-42.2091,-15.9613],[-42.2251,-15.9501],[-42.2477,-15.9118],[-42.2681,-15.9154],[-42.2769,-15.9052],[-42.2712,-15.8885],[-42.2904,-15.8583],[-42.3275,-15.8492],[-42.3026,-15.8257],[-42.2898,-15.8264],[-42.264,-15.806],[-42.2576,-15.7852],[-42.2374,-15.7814],[-42.2317,-15.7663],[-42.1931,-15.7463],[-42.1782,-15.7246],[-42.1391,-15.7192],[-42.1237,-15.7297],[-42.1083,-15.6808],[-42.0979,-15.6708],[-42.0577,-15.6754],[-42.0115,-15.6591],[-41.9891,-15.6556],[-41.9603,-15.6341],[-41.9477,-15.6385],[-41.9351,-15.6247],[-41.9048,-15.6311]]]}}]}