{"type":"FeatureCollection","features":[{"type":"Feature","properties":{"codarea":"4202503","centroide":[-49.653145824983724,-28.361066022140058],"codigo_ibge":4202503,"nome_ig":"Região de São Joaquim"},"geometry":{"type":"MultiPolygon","coordinates":[[[[-49.4745,-28.1255],[-49.4884,-28.1273],[-49.4956,-28.1474],[-49.5107,-28.1551],[-49.5147,-28.1759],[-49.5305,-28.1877],[-49.5303,-28.2261],[-49.5507,-28.2395],[-49.5339,-28.2419],[-49.5323,-28.2541],[-49.5482,-28.2723],[-49.5278,-28.2681],[-49.524,-28.308],[-49.536,-28.3141],[-49.5352,-28.3321],[-49.5605,-28.3729],[-49.5437,-28.383],[-49.5673,-28.4133],[-49.5607,-28.4344],[-49.5348,-28.4355],[-49.5628,-28.4669],[-49.5524,-28.4841],[-49.5688,-28.5041],[-49.5909,-28.5011],[-49.603,-28.5197],[-49.6454,-28.5421],[-49.6556,-28.5611],[-49.6459,-28.589],[-49.6529,-28.6022],[-49.685,-28.621],[-49.7031,-28.6289],[-49.6918,-28.619],[-49.7101,-28.6043],[-49.7123,-28.5722],[-49.725,-28.5708],[-49.7305,-28.5515],[-49.7465,-28.5496],[-49.7467,-28.5353],[-49.7268,-28.5189],[-49.7465,-28.5068],[-49.7482,-28.4939],[-49.7654,-28.5012],[-49.7674,-28.4595],[-49.7805,-28.4712],[-49.7909,-28.4964],[-49.8162,-28.469],[-49.8031,-28.4568],[-49.8124,-28.4387],[-49.8311,-28.4252],[-49.8112,-28.4216],[-49.7831,-28.429],[-49.7543,-28.418],[-49.7696,-28.4135],[-49.7708,-28.3955],[-49.8068,-28.3852],[-49.8052,-28.3666],[-49.7831,-28.3656],[-49.7644,-28.3488],[-49.774,-28.3312],[-49.7738,-28.285],[-49.7556,-28.2491],[-49.7319,-28.2393],[-49.7113,-28.2212],[-49.6722,-28.2304],[-49.6664,-28.2144],[-49.6695,-28.1848],[-49.6598,-28.1851],[-49.6444,-28.1644],[-49.612,-28.1626],[-49.5775,-28.149],[-49.5639,-28.1154],[-49.5453,-28.1251],[-49.5116,-28.1271],[-49.4796,-28.1187],[-49.4745,-28.1255]]]]}},{"type":"Feature","properties":{"codarea":"4211892","centroide":[-50.07316287876868,-27.96407899117921],"codigo_ibge":4211892,"nome_ig":"Região de São Joaquim"},"geometry":{"type":"MultiPolygon","coordinates":[[[[-49.8696,-27.901],[-49.8676,-27.9106],[-49.9334,-27.936],[-49.9442,-27.9501],[-49.9639,-27.954],[-49.9664,-27.9957],[-50.0009,-28.004],[-49.9985,-28.0322],[-50.0186,-28.0462],[-50.0156,-28.0699],[-50.0421,-28.0679],[-50.0552,-28.094],[-50.0728,-28.1013],[-50.0594,-28.113],[-50.0974,-28.1237],[-50.1146,-28.1358],[-50.1046,-28.1583],[-50.1436,-28.1525],[-50.1525,-28.1429],[-50.1728,-28.1618],[-50.1895,-28.1397],[-50.2004,-28.1105],[-50.1918,-28.0886],[-50.2015,-27.9937],[-50.1965,-27.9668],[-50.1826,-27.9424],[-50.1932,-27.9152],[-50.215,-27.8947],[-50.2141,-27.8745],[-50.2018,-27.8633],[-50.1703,-27.8693],[-50.1609,-27.8602],[-50.097,-27.8549],[-50.0728,-27.8395],[-50.0691,-27.8106],[-50.0347,-27.8111],[-49.9948,-27.7933],[-49.9898,-27.8268],[-49.9555,-27.8487],[-49.9221,-27.8419],[-49.9044,-27.8451],[-49.911,-27.8554],[-49.8783,-27.8969],[-49.8696,-27.901]]]]}},{"type":"Feature","properties":{"codarea":"4216503","centroide":[-50.01411040460193,-28.298047181917987],"codigo_ibge":4216503,"nome_ig":"Região de São Joaquim"},"geometry":{"type":"MultiPolygon","coordinates":[[[[-49.8489,-28.1027],[-49.8153,-28.1189],[-49.7914,-28.1111],[-49.7763,-28.1446],[-49.7591,-28.1524],[-49.7354,-28.1808],[-49.6849,-28.2125],[-49.6722,-28.2304],[-49.7113,-28.2212],[-49.7319,-28.2393],[-49.7556,-28.2491],[-49.7738,-28.285],[-49.774,-28.3312],[-49.7644,-28.3488],[-49.7831,-28.3656],[-49.8052,-28.3666],[-49.8068,-28.3852],[-49.7708,-28.3955],[-49.7696,-28.4135],[-49.7543,-28.418],[-49.7831,-28.429],[-49.8112,-28.4216],[-49.8311,-28.4252],[-49.8124,-28.4387],[-49.8031,-28.4568],[-49.8162,-28.469],[-49.8124,-28.4849],[-49.8666,-28.4886],[-49.8635,-28.4628],[-49.8777,-28.4551],[-49.8542,-28.4446],[-49.8984,-28.445],[-49.8888,-28.4594],[-49.9044,-28.4646],[-49.9285,-28.4512],[-49.9384,-28.4581],[-49.9284,-28.4714],[-49.9459,-28.4817],[-49.9522,-28.4507],[-49.9672,-28.4559],[-49.9707,-28.4402],[-49.9886,-28.4452],[-49.9885,-28.4569],[-50.0202,-28.4525],[-50.0271,-28.4742],[-50.0686,-28.4792],[-50.0863,-28.4726],[-50.1004,-28.4863],[-50.1069,-28.4733],[-50.1222,-28.4762],[-50.1265,-28.4627],[-50.1113,-28.4454],[-50.1275,-28.4403],[-50.1601,-28.4632],[-50.1393,-28.4932],[-50.1626,-28.4953],[-50.162,-28.4798],[-50.1784,-28.4518],[-50.2032,-28.4435],[-50.2158,-28.4603],[-50.2357,-28.457],[-50.2468,-28.4282],[-50.2642,-28.4429],[-50.2502,-28.447],[-50.2736,-28.457],[-50.3013,-28.4392],[-50.3389,-28.4387],[-50.3368,-28.4544],[-50.352,-28.4572],[-50.3509,-28.4248],[-50.3674,-28.4208],[-50.3811,-28.447],[-50.3968,-28.4327],[-50.4247,-28.4333],[-50.405,-28.4234],[-50.4067,-28.3951],[-50.3861,-28.3868],[-50.3777,-28.3723],[-50.3354,-28.3817],[-50.3352,-28.3662],[-50.2872,-28.3453],[-50.2787,-28.3488],[-50.2652,-28.3296],[-50.2785,-28.3228],[-50.2714,-28.3098],[-50.2309,-28.3016],[-50.2448,-28.2898],[-50.2456,-28.2572],[-50.2176,-28.2511],[-50.2293,-28.2431],[-50.2174,-28.233],[-50.2321,-28.2191],[-50.2167,-28.2069],[-50.1876,-28.2138],[-50.1673,-28.1988],[-50.1878,-28.1665],[-50.1728,-28.1618],[-50.1525,-28.1429],[-50.1436,-28.1525],[-50.1046,-28.1583],[-50.1146,-28.1358],[-50.0974,-28.1237],[-50.0594,-28.113],[-50.0728,-28.1013],[-50.0552,-28.094],[-50.0212,-28.1006],[-50.0128,-28.0878],[-49.9912,-28.1038],[-49.9257,-28.0955],[-49.9055,-28.1115],[-49.8982,-28.092],[-49.8821,-28.1096],[-49.8655,-28.0957],[-49.8489,-28.1027]]]]}},{"type":"Feature","properties":{"codarea":"4218905","centroide":[-49.576767430337796,-28.038123544343172],"codigo_ibge":4218905,"nome_ig":"Região de São Joaquim"},"geometry":{"type":"MultiPolygon","coordinates":[[[[-49.3,-27.9011],[-49.3086,-27.9403],[-49.3108,-27.9709],[-49.324,-27.9837],[-49.3499,-27.9958],[-49.3555,-28.0287],[-49.3719,-28.044],[-49.3732,-28.0659],[-49.3994,-28.0806],[-49.395,-28.1116],[-49.4366,-28.1173],[-49.4411,-28.1322],[-49.4742,-28.1344],[-49.4745,-28.1255],[-49.4796,-28.1187],[-49.5116,-28.1271],[-49.5453,-28.1251],[-49.5639,-28.1154],[-49.5775,-28.149],[-49.612,-28.1626],[-49.6444,-28.1644],[-49.6598,-28.1851],[-49.6695,-28.1848],[-49.6664,-28.2144],[-49.6722,-28.2304],[-49.6849,-28.2125],[-49.7354,-28.1808],[-49.7591,-28.1524],[-49.7763,-28.1446],[-49.7914,-28.1111],[-49.8153,-28.1189],[-49.8489,-28.1027],[-49.8223,-28.079],[-49.8138,-28.0586],[-49.7907,-28.0473],[-49.7708,-28.0245],[-49.7451,-28.0309],[-49.7163,-28.0284],[-49.7111,-28.0077],[-49.7151,-27.942],[-49.701,-27.9167],[-49.6525,-27.9065],[-49.6072,-27.9011],[-49.5791,-27.8985],[-49.5552,-27.9113],[-49.5188,-27.9146],[-49.493,-27.9314],[-49.4529,-27.9316],[-49.4411,-27.9431],[-49.428,-27.9352],[-49.4123,-27.9523],[-49.3808,-27.942],[-49.3607,-27.9237],[-49.33,-27.9236],[-49.3169,-27.9026],[-49.3,-27.9011]]]]}},{"type":"Feature","properties":{"codarea":"4218954","centroide":[-49.900447541624494,-28.023561372446387],"codigo_ibge":4218954,"nome_ig":"Região de São Joaquim"},"geometry":{"type":"MultiPolygon","coordinates":[[[[-49.7451,-28.0309],[-49.7708,-28.0245],[-49.7907,-28.0473],[-49.8138,-28.0586],[-49.8223,-28.079],[-49.8489,-28.1027],[-49.8655,-28.0957],[-49.8821,-28.1096],[-49.8982,-28.092],[-49.9055,-28.1115],[-49.9257,-28.0955],[-49.9912,-28.1038],[-50.0128,-28.0878],[-50.0212,-28.1006],[-50.0552,-28.094],[-50.0421,-28.0679],[-50.0156,-28.0699],[-50.0186,-28.0462],[-49.9985,-28.0322],[-50.0009,-28.004],[-49.9664,-27.9957],[-49.9639,-27.954],[-49.9442,-27.9501],[-49.9334,-27.936],[-49.8676,-27.9106],[-49.8431,-27.9387],[-49.8555,-27.9504],[-49.8207,-27.9712],[-49.8094,-27.9639],[-49.7931,-27.9929],[-49.7762,-27.9964],[-49.7451,-28.0309]]]]}}]}