{
  "type": "FeatureCollection",
  "nome_ig": "Região Pedra São Thomé",
  "features": [
    {
      "type": "Feature",
      "geometry": {
        "type": "Polygon",
        "coordinates": [
          [
            [
              -44.8848,
              -21.8368
            ],
            [
              -44.8851,
              -21.8359
            ],
            [
              -44.8846,
              -21.8339
            ],
            [
              -44.8889,
              -21.8329
            ],
            [
              -44.8943,
              -21.8305
            ],
            [
              -44.8963,
              -21.8293
            ],
            [
              -44.8962,
              -21.8279
            ],
            [
              -44.8948,
              -21.8242
            ],
            [
              -44.8939,
              -21.8225
            ],
            [
              -44.8935,
              -21.8198
            ],
            [
              -44.8939,
              -21.8159
            ],
            [
              -44.8938,
              -21.8139
            ],
            [
              -44.8918,
              -21.8103
            ],
            [
              -44.8899,
              -21.8087
            ],
            [
              -44.888,
              -21.8089
            ],
            [
              -44.8858,
              -21.8105
            ],
            [
              -44.8839,
              -21.811
            ],
            [
              -44.8827,
              -21.8107
            ],
            [
              -44.8782,
              -21.8064
            ],
            [
              -44.8751,
              -21.8062
            ],
            [
              -44.8726,
              -21.8046
            ],
            [
              -44.8711,
              -21.8045
            ],
            [
              -44.8701,
              -21.8037
            ],
            [
              -44.8691,
              -21.8019
            ],
            [
              -44.8679,
              -21.7985
            ],
            [
              -44.8662,
              -21.797
            ],
            [
              -44.8644,
              -21.797
            ],
            [
              -44.861,
              -21.7975
            ],
            [
              -44.8574,
              -21.7976
            ],
            [
              -44.8554,
              -21.7989
            ],
            [
              -44.8545,
              -21.7974
            ],
            [
              -44.8547,
              -21.795
            ],
            [
              -44.856,
              -21.7938
            ],
            [
              -44.8601,
              -21.7929
            ],
            [
              -44.8631,
              -21.7937
            ],
            [
              -44.8668,
              -21.7937
            ],
            [
              -44.8689,
              -21.7927
            ],
            [
              -44.8696,
              -21.7911
            ],
            [
              -44.8715,
              -21.7891
            ],
            [
              -44.8728,
              -21.7863
            ],
            [
              -44.8736,
              -21.7833
            ],
            [
              -44.8754,
              -21.7806
            ],
            [
              -44.8768,
              -21.7763
            ],
            [
              -44.877,
              -21.7731
            ],
            [
              -44.8756,
              -21.766
            ],
            [
              -44.8742,
              -21.763
            ],
            [
              -44.8743,
              -21.76
            ],
            [
              -44.8751,
              -21.7588
            ],
            [
              -44.8761,
              -21.759
            ],
            [
              -44.8759,
              -21.7613
            ],
            [
              -44.8793,
              -21.7619
            ],
            [
              -44.8789,
              -21.7604
            ],
            [
              -44.8816,
              -21.7593
            ],
            [
              -44.8822,
              -21.7574
            ],
            [
              -44.8834,
              -21.7567
            ],
            [
              -44.885,
              -21.7567
            ],
            [
              -44.8875,
              -21.7573
            ],
            [
              -44.8884,
              -21.7551
            ],
            [
              -44.8866,
              -21.7546
            ],
            [
              -44.8875,
              -21.7526
            ],
            [
              -44.8861,
              -21.7504
            ],
            [
              -44.8874,
              -21.7494
            ],
            [
              -44.8858,
              -21.7474
            ],
            [
              -44.8857,
              -21.7454
            ],
            [
              -44.8839,
              -21.7433
            ],
            [
              -44.8843,
              -21.7408
            ],
            [
              -44.886,
              -21.7386
            ],
            [
              -44.8854,
              -21.7372
            ],
            [
              -44.8853,
              -21.7335
            ],
            [
              -44.8867,
              -21.7318
            ],
            [
              -44.8868,
              -21.7301
            ],
            [
              -44.8864,
              -21.7274
            ],
            [
              -44.8865,
              -21.7254
            ],
            [
              -44.884,
              -21.7216
            ],
            [
              -44.8835,
              -21.7184
            ],
            [
              -44.8855,
              -21.7158
            ],
            [
              -44.8862,
              -21.714
            ],
            [
              -44.888,
              -21.7122
            ],
            [
              -44.888,
              -21.7113
            ],
            [
              -44.8847,
              -21.7098
            ],
            [
              -44.8824,
              -21.7082
            ],
            [
              -44.8827,
              -21.7052
            ],
            [
              -44.8837,
              -21.7035
            ],
            [
              -44.8857,
              -21.7016
            ],
            [
              -44.8855,
              -21.6993
            ],
            [
              -44.8861,
              -21.6952
            ],
            [
              -44.8878,
              -21.6923
            ],
            [
              -44.8893,
              -21.6905
            ],
            [
              -44.8911,
              -21.6892
            ],
            [
              -44.8918,
              -21.6871
            ],
            [
              -44.8931,
              -21.686
            ],
            [
              -44.893,
              -21.6818
            ],
            [
              -44.8937,
              -21.679
            ],
            [
              -44.8935,
              -21.6765
            ],
            [
              -44.8929,
              -21.6751
            ],
            [
              -44.8921,
              -21.67
            ],
            [
              -44.892,
              -21.6674
            ],
            [
              -44.8912,
              -21.665
            ],
            [
              -44.8882,
              -21.6622
            ],
            [
              -44.8858,
              -21.6614
            ],
            [
              -44.8853,
              -21.6603
            ],
            [
              -44.8852,
              -21.6582
            ],
            [
              -44.8839,
              -21.6554
            ],
            [
              -44.8836,
              -21.6503
            ],
            [
              -44.882,
              -21.649
            ],
            [
              -44.8822,
              -21.6469
            ],
            [
              -44.8812,
              -21.6447
            ],
            [
              -44.8809,
              -21.6409
            ],
            [
              -44.8814,
              -21.6378
            ],
            [
              -44.8812,
              -21.6357
            ],
            [
              -44.8802,
              -21.6331
            ],
            [
              -44.878,
              -21.6296
            ],
            [
              -44.8781,
              -21.6277
            ],
            [
              -44.8807,
              -21.6289
            ],
            [
              -44.8829,
              -21.6312
            ],
            [
              -44.885,
              -21.6317
            ],
            [
              -44.8875,
              -21.6314
            ],
            [
              -44.8906,
              -21.6315
            ],
            [
              -44.891,
              -21.6345
            ],
            [
              -44.8932,
              -21.6377
            ],
            [
              -44.8954,
              -21.638
            ],
            [
              -44.8968,
              -21.6374
            ],
            [
              -44.8976,
              -21.636
            ],
            [
              -44.8988,
              -21.6357
            ],
            [
              -44.9047,
              -21.6395
            ],
            [
              -44.9081,
              -21.6409
            ],
            [
              -44.9096,
              -21.6419
            ],
            [
              -44.9115,
              -21.642
            ],
            [
              -44.9145,
              -21.6386
            ],
            [
              -44.9164,
              -21.6374
            ],
            [
              -44.9206,
              -21.6372
            ],
            [
              -44.9219,
              -21.6366
            ],
            [
              -44.9235,
              -21.6347
            ],
            [
              -44.925,
              -21.6348
            ],
            [
              -44.9274,
              -21.6359
            ],
            [
              -44.9299,
              -21.6381
            ],
            [
              -44.9316,
              -21.6386
            ],
            [
              -44.9345,
              -21.6388
            ],
            [
              -44.9365,
              -21.6385
            ],
            [
              -44.9394,
              -21.6365
            ],
            [
              -44.9422,
              -21.6338
            ],
            [
              -44.9464,
              -21.6343
            ],
            [
              -44.9482,
              -21.6329
            ],
            [
              -44.9511,
              -21.6315
            ],
            [
              -44.9548,
              -21.6302
            ],
            [
              -44.9601,
              -21.63
            ],
            [
              -44.9651,
              -21.6294
            ],
            [
              -44.9673,
              -21.6298
            ],
            [
              -44.9687,
              -21.6308
            ],
            [
              -44.9727,
              -21.631
            ],
            [
              -44.9763,
              -21.6323
            ],
            [
              -44.9783,
              -21.6324
            ],
            [
              -44.9809,
              -21.6302
            ],
            [
              -44.9827,
              -21.6291
            ],
            [
              -44.9847,
              -21.6299
            ],
            [
              -44.9859,
              -21.6323
            ],
            [
              -44.9874,
              -21.6329
            ],
            [
              -44.9907,
              -21.6327
            ],
            [
              -44.9941,
              -21.6337
            ],
            [
              -44.9958,
              -21.6338
            ],
            [
              -44.9976,
              -21.6324
            ],
            [
              -45.0005,
              -21.6321
            ],
            [
              -45.0033,
              -21.6324
            ],
            [
              -45.0063,
              -21.6333
            ],
            [
              -45.009,
              -21.6335
            ],
            [
              -45.013,
              -21.6324
            ],
            [
              -45.0154,
              -21.6323
            ],
            [
              -45.0209,
              -21.6336
            ],
            [
              -45.0237,
              -21.6338
            ],
            [
              -45.0265,
              -21.6325
            ],
            [
              -45.028,
              -21.6314
            ],
            [
              -45.0293,
              -21.6311
            ],
            [
              -45.033,
              -21.6321
            ],
            [
              -45.0369,
              -21.6319
            ],
            [
              -45.0381,
              -21.6328
            ],
            [
              -45.0424,
              -21.637
            ],
            [
              -45.0425,
              -21.6388
            ],
            [
              -45.0385,
              -21.6408
            ],
            [
              -45.0373,
              -21.643
            ],
            [
              -45.0408,
              -21.6461
            ],
            [
              -45.0432,
              -21.6499
            ],
            [
              -45.0439,
              -21.6539
            ],
            [
              -45.0463,
              -21.6575
            ],
            [
              -45.0463,
              -21.6582
            ],
            [
              -45.0444,
              -21.6595
            ],
            [
              -45.044,
              -21.6617
            ],
            [
              -45.0444,
              -21.6631
            ],
            [
              -45.0425,
              -21.6632
            ],
            [
              -45.0397,
              -21.6625
            ],
            [
              -45.0383,
              -21.6634
            ],
            [
              -45.0383,
              -21.6656
            ],
            [
              -45.0406,
              -21.6669
            ],
            [
              -45.0418,
              -21.6681
            ],
            [
              -45.0419,
              -21.6693
            ],
            [
              -45.0396,
              -21.6695
            ],
            [
              -45.0367,
              -21.6703
            ],
            [
              -45.0364,
              -21.6719
            ],
            [
              -45.0376,
              -21.6719
            ],
            [
              -45.04,
              -21.6737
            ],
            [
              -45.0423,
              -21.6741
            ],
            [
              -45.0418,
              -21.6752
            ],
            [
              -45.0429,
              -21.678
            ],
            [
              -45.0441,
              -21.6765
            ],
            [
              -45.0464,
              -21.6771
            ],
            [
              -45.0471,
              -21.6793
            ],
            [
              -45.0488,
              -21.6798
            ],
            [
              -45.052,
              -21.6789
            ],
            [
              -45.052,
              -21.6817
            ],
            [
              -45.0508,
              -21.6837
            ],
            [
              -45.0507,
              -21.6867
            ],
            [
              -45.0534,
              -21.6872
            ],
            [
              -45.055,
              -21.6879
            ],
            [
              -45.055,
              -21.6891
            ],
            [
              -45.0534,
              -21.689
            ],
            [
              -45.052,
              -21.69
            ],
            [
              -45.0523,
              -21.6922
            ],
            [
              -45.0532,
              -21.6925
            ],
            [
              -45.0561,
              -21.6917
            ],
            [
              -45.057,
              -21.6937
            ],
            [
              -45.0569,
              -21.6949
            ],
            [
              -45.058,
              -21.6968
            ],
            [
              -45.0576,
              -21.6977
            ],
            [
              -45.0558,
              -21.6962
            ],
            [
              -45.0547,
              -21.6972
            ],
            [
              -45.0534,
              -21.6974
            ],
            [
              -45.0527,
              -21.6998
            ],
            [
              -45.054,
              -21.7008
            ],
            [
              -45.0546,
              -21.7023
            ],
            [
              -45.0601,
              -21.7011
            ],
            [
              -45.0616,
              -21.7019
            ],
            [
              -45.0599,
              -21.7051
            ],
            [
              -45.0623,
              -21.705
            ],
            [
              -45.0631,
              -21.7056
            ],
            [
              -45.0624,
              -21.7077
            ],
            [
              -45.0596,
              -21.7089
            ],
            [
              -45.0585,
              -21.7115
            ],
            [
              -45.0593,
              -21.7124
            ],
            [
              -45.0614,
              -21.7128
            ],
            [
              -45.0632,
              -21.7143
            ],
            [
              -45.0626,
              -21.7165
            ],
            [
              -45.0578,
              -21.7165
            ],
            [
              -45.057,
              -21.7178
            ],
            [
              -45.0592,
              -21.7191
            ],
            [
              -45.06,
              -21.7212
            ],
            [
              -45.0596,
              -21.7221
            ],
            [
              -45.0573,
              -21.722
            ],
            [
              -45.0568,
              -21.7233
            ],
            [
              -45.0553,
              -21.7229
            ],
            [
              -45.0532,
              -21.7235
            ],
            [
              -45.0534,
              -21.7249
            ],
            [
              -45.0525,
              -21.7272
            ],
            [
              -45.0525,
              -21.7299
            ],
            [
              -45.0534,
              -21.7311
            ],
            [
              -45.0574,
              -21.7325
            ],
            [
              -45.0588,
              -21.7341
            ],
            [
              -45.0608,
              -21.7347
            ],
            [
              -45.0672,
              -21.7398
            ],
            [
              -45.0675,
              -21.7415
            ],
            [
              -45.0649,
              -21.7434
            ],
            [
              -45.0605,
              -21.7439
            ],
            [
              -45.0597,
              -21.7445
            ],
            [
              -45.0588,
              -21.7464
            ],
            [
              -45.0552,
              -21.7487
            ],
            [
              -45.051,
              -21.7486
            ],
            [
              -45.0475,
              -21.7491
            ],
            [
              -45.0453,
              -21.7508
            ],
            [
              -45.0375,
              -21.7539
            ],
            [
              -45.0348,
              -21.7552
            ],
            [
              -45.0313,
              -21.7566
            ],
            [
              -45.0305,
              -21.7576
            ],
            [
              -45.0303,
              -21.7591
            ],
            [
              -45.0309,
              -21.7612
            ],
            [
              -45.032,
              -21.7631
            ],
            [
              -45.0355,
              -21.7673
            ],
            [
              -45.0371,
              -21.7698
            ],
            [
              -45.0381,
              -21.7724
            ],
            [
              -45.0387,
              -21.7757
            ],
            [
              -45.0395,
              -21.7768
            ],
            [
              -45.0432,
              -21.7778
            ],
            [
              -45.0401,
              -21.7791
            ],
            [
              -45.0384,
              -21.7803
            ],
            [
              -45.0374,
              -21.7821
            ],
            [
              -45.0372,
              -21.7837
            ],
            [
              -45.0377,
              -21.7851
            ],
            [
              -45.0396,
              -21.7874
            ],
            [
              -45.0388,
              -21.7896
            ],
            [
              -45.0364,
              -21.7907
            ],
            [
              -45.0345,
              -21.7926
            ],
            [
              -45.0343,
              -21.7968
            ],
            [
              -45.0332,
              -21.7986
            ],
            [
              -45.0331,
              -21.7999
            ],
            [
              -45.0341,
              -21.8027
            ],
            [
              -45.0358,
              -21.8052
            ],
            [
              -45.0357,
              -21.8059
            ],
            [
              -45.0329,
              -21.8079
            ],
            [
              -45.032,
              -21.8096
            ],
            [
              -45.0318,
              -21.8122
            ],
            [
              -45.029,
              -21.8167
            ],
            [
              -45.0278,
              -21.8175
            ],
            [
              -45.0257,
              -21.8205
            ],
            [
              -45.0224,
              -21.8222
            ],
            [
              -45.02,
              -21.8249
            ],
            [
              -45.0177,
              -21.8262
            ],
            [
              -45.0167,
              -21.8279
            ],
            [
              -45.0151,
              -21.8294
            ],
            [
              -45.0133,
              -21.8299
            ],
            [
              -45.0106,
              -21.8286
            ],
            [
              -45.0082,
              -21.827
            ],
            [
              -45.0068,
              -21.8269
            ],
            [
              -45.0057,
              -21.8282
            ],
            [
              -45.0029,
              -21.8284
            ],
            [
              -44.9995,
              -21.8256
            ],
            [
              -44.9957,
              -21.8254
            ],
            [
              -44.9939,
              -21.8266
            ],
            [
              -44.9932,
              -21.8282
            ],
            [
              -44.9903,
              -21.8297
            ],
            [
              -44.9852,
              -21.8297
            ],
            [
              -44.9839,
              -21.8303
            ],
            [
              -44.9823,
              -21.8322
            ],
            [
              -44.9814,
              -21.8353
            ],
            [
              -44.9798,
              -21.8375
            ],
            [
              -44.9797,
              -21.8408
            ],
            [
              -44.9758,
              -21.8434
            ],
            [
              -44.9752,
              -21.8456
            ],
            [
              -44.9751,
              -21.8495
            ],
            [
              -44.9763,
              -21.8516
            ],
            [
              -44.9744,
              -21.8529
            ],
            [
              -44.9717,
              -21.8526
            ],
            [
              -44.9694,
              -21.8509
            ],
            [
              -44.968,
              -21.8484
            ],
            [
              -44.9671,
              -21.8478
            ],
            [
              -44.9646,
              -21.8476
            ],
            [
              -44.9625,
              -21.8481
            ],
            [
              -44.9604,
              -21.8475
            ],
            [
              -44.9588,
              -21.8456
            ],
            [
              -44.9549,
              -21.8474
            ],
            [
              -44.953,
              -21.8477
            ],
            [
              -44.9493,
              -21.8463
            ],
            [
              -44.9477,
              -21.845
            ],
            [
              -44.9462,
              -21.8444
            ],
            [
              -44.9454,
              -21.8426
            ],
            [
              -44.9452,
              -21.8391
            ],
            [
              -44.9447,
              -21.8371
            ],
            [
              -44.9438,
              -21.8357
            ],
            [
              -44.943,
              -21.8317
            ],
            [
              -44.9419,
              -21.8306
            ],
            [
              -44.9396,
              -21.8295
            ],
            [
              -44.9377,
              -21.8297
            ],
            [
              -44.9349,
              -21.8308
            ],
            [
              -44.9331,
              -21.8322
            ],
            [
              -44.9327,
              -21.8347
            ],
            [
              -44.931,
              -21.8345
            ],
            [
              -44.9291,
              -21.8334
            ],
            [
              -44.9281,
              -21.8342
            ],
            [
              -44.9277,
              -21.8374
            ],
            [
              -44.9293,
              -21.8375
            ],
            [
              -44.9297,
              -21.8385
            ],
            [
              -44.9266,
              -21.8407
            ],
            [
              -44.9241,
              -21.8415
            ],
            [
              -44.9236,
              -21.839
            ],
            [
              -44.922,
              -21.838
            ],
            [
              -44.9211,
              -21.836
            ],
            [
              -44.9172,
              -21.8346
            ],
            [
              -44.9162,
              -21.8355
            ],
            [
              -44.9146,
              -21.8349
            ],
            [
              -44.9143,
              -21.8324
            ],
            [
              -44.9146,
              -21.8299
            ],
            [
              -44.9134,
              -21.8298
            ],
            [
              -44.9097,
              -21.8318
            ],
            [
              -44.9095,
              -21.8303
            ],
            [
              -44.9086,
              -21.8289
            ],
            [
              -44.9072,
              -21.8288
            ],
            [
              -44.9071,
              -21.8306
            ],
            [
              -44.9054,
              -21.8308
            ],
            [
              -44.9041,
              -21.8336
            ],
            [
              -44.9044,
              -21.8352
            ],
            [
              -44.9028,
              -21.8372
            ],
            [
              -44.9005,
              -21.838
            ],
            [
              -44.8989,
              -21.8373
            ],
            [
              -44.8978,
              -21.839
            ],
            [
              -44.8965,
              -21.8392
            ],
            [
              -44.8953,
              -21.8406
            ],
            [
              -44.8929,
              -21.8383
            ],
            [
              -44.8922,
              -21.8369
            ],
            [
              -44.8912,
              -21.8373
            ],
            [
              -44.8871,
              -21.8371
            ],
            [
              -44.8848,
              -21.8368
            ]
          ]
        ]
      },
      "properties": {
        "codarea": "3165206",
        "nome_municipio": "São Tomé das Letras",
        "codigo_ibge": 3165206
      }
    },
    {
      "type": "Feature",
      "geometry": {
        "type": "Polygon",
        "coordinates": [
          [
            [
              -44.7916,
              -21.5965
            ],
            [
              -44.7894,
              -21.5942
            ],
            [
              -44.789,
              -21.5934
            ],
            [
              -44.7873,
              -21.593
            ],
            [
              -44.7853,
              -21.5933
            ],
            [
              -44.783,
              -21.5915
            ],
            [
              -44.7811,
              -21.5923
            ],
            [
              -44.7793,
              -21.5922
            ],
            [
              -44.7783,
              -21.5892
            ],
            [
              -44.78,
              -21.5839
            ],
            [
              -44.781,
              -21.5818
            ],
            [
              -44.7817,
              -21.577
            ],
            [
              -44.7816,
              -21.576
            ],
            [
              -44.7834,
              -21.5724
            ],
            [
              -44.7839,
              -21.5706
            ],
            [
              -44.7856,
              -21.5675
            ],
            [
              -44.7867,
              -21.5665
            ],
            [
              -44.7886,
              -21.5662
            ],
            [
              -44.7916,
              -21.5664
            ],
            [
              -44.7933,
              -21.5661
            ],
            [
              -44.7969,
              -21.5648
            ],
            [
              -44.8002,
              -21.5631
            ],
            [
              -44.8006,
              -21.5615
            ],
            [
              -44.7997,
              -21.5592
            ],
            [
              -44.7993,
              -21.5563
            ],
            [
              -44.8,
              -21.5541
            ],
            [
              -44.8013,
              -21.5534
            ],
            [
              -44.8001,
              -21.5524
            ],
            [
              -44.7961,
              -21.5521
            ],
            [
              -44.7936,
              -21.5497
            ],
            [
              -44.7888,
              -21.5476
            ],
            [
              -44.7837,
              -21.549
            ],
            [
              -44.779,
              -21.5495
            ],
            [
              -44.7762,
              -21.5507
            ],
            [
              -44.7739,
              -21.5523
            ],
            [
              -44.7725,
              -21.5524
            ],
            [
              -44.7674,
              -21.5516
            ],
            [
              -44.7654,
              -21.5505
            ],
            [
              -44.764,
              -21.5485
            ],
            [
              -44.7613,
              -21.5465
            ],
            [
              -44.7594,
              -21.5457
            ],
            [
              -44.7563,
              -21.5426
            ],
            [
              -44.7541,
              -21.5425
            ],
            [
              -44.7523,
              -21.5407
            ],
            [
              -44.7507,
              -21.54
            ],
            [
              -44.7497,
              -21.5386
            ],
            [
              -44.7472,
              -21.5379
            ],
            [
              -44.7453,
              -21.5364
            ],
            [
              -44.7422,
              -21.5316
            ],
            [
              -44.7419,
              -21.5291
            ],
            [
              -44.7429,
              -21.5254
            ],
            [
              -44.7431,
              -21.5225
            ],
            [
              -44.742,
              -21.5158
            ],
            [
              -44.7404,
              -21.5144
            ],
            [
              -44.7399,
              -21.5128
            ],
            [
              -44.7414,
              -21.5106
            ],
            [
              -44.7437,
              -21.5104
            ],
            [
              -44.7443,
              -21.5096
            ],
            [
              -44.7474,
              -21.5086
            ],
            [
              -44.748,
              -21.5046
            ],
            [
              -44.7476,
              -21.5024
            ],
            [
              -44.7478,
              -21.5006
            ],
            [
              -44.7472,
              -21.4967
            ],
            [
              -44.746,
              -21.4943
            ],
            [
              -44.7474,
              -21.4927
            ],
            [
              -44.7482,
              -21.4909
            ],
            [
              -44.7496,
              -21.4902
            ],
            [
              -44.7503,
              -21.488
            ],
            [
              -44.7525,
              -21.4871
            ],
            [
              -44.7512,
              -21.4858
            ],
            [
              -44.7512,
              -21.4842
            ],
            [
              -44.7521,
              -21.4821
            ],
            [
              -44.7554,
              -21.4814
            ],
            [
              -44.7575,
              -21.482
            ],
            [
              -44.7594,
              -21.4812
            ],
            [
              -44.7623,
              -21.4811
            ],
            [
              -44.763,
              -21.4803
            ],
            [
              -44.7622,
              -21.479
            ],
            [
              -44.7633,
              -21.4778
            ],
            [
              -44.7649,
              -21.4774
            ],
            [
              -44.7651,
              -21.4761
            ],
            [
              -44.7684,
              -21.4754
            ],
            [
              -44.7697,
              -21.4746
            ],
            [
              -44.7728,
              -21.4741
            ],
            [
              -44.7741,
              -21.4724
            ],
            [
              -44.7767,
              -21.472
            ],
            [
              -44.7785,
              -21.4726
            ],
            [
              -44.78,
              -21.4725
            ],
            [
              -44.782,
              -21.4741
            ],
            [
              -44.7844,
              -21.4728
            ],
            [
              -44.7831,
              -21.4706
            ],
            [
              -44.785,
              -21.4682
            ],
            [
              -44.7843,
              -21.4665
            ],
            [
              -44.7843,
              -21.4646
            ],
            [
              -44.7858,
              -21.4642
            ],
            [
              -44.7895,
              -21.4643
            ],
            [
              -44.7934,
              -21.4659
            ],
            [
              -44.7941,
              -21.4669
            ],
            [
              -44.7958,
              -21.4663
            ],
            [
              -44.7989,
              -21.4671
            ],
            [
              -44.8012,
              -21.4663
            ],
            [
              -44.8039,
              -21.4664
            ],
            [
              -44.8066,
              -21.4678
            ],
            [
              -44.8081,
              -21.4681
            ],
            [
              -44.8109,
              -21.4679
            ],
            [
              -44.8133,
              -21.4691
            ],
            [
              -44.8116,
              -21.4711
            ],
            [
              -44.8093,
              -21.4716
            ],
            [
              -44.8075,
              -21.4735
            ],
            [
              -44.8069,
              -21.4755
            ],
            [
              -44.8067,
              -21.479
            ],
            [
              -44.8088,
              -21.4835
            ],
            [
              -44.8116,
              -21.485
            ],
            [
              -44.8133,
              -21.4854
            ],
            [
              -44.8148,
              -21.4871
            ],
            [
              -44.8173,
              -21.4877
            ],
            [
              -44.8182,
              -21.4886
            ],
            [
              -44.8181,
              -21.4919
            ],
            [
              -44.8188,
              -21.4925
            ],
            [
              -44.8199,
              -21.4966
            ],
            [
              -44.8201,
              -21.4983
            ],
            [
              -44.8196,
              -21.5032
            ],
            [
              -44.8199,
              -21.5074
            ],
            [
              -44.8183,
              -21.5091
            ],
            [
              -44.8171,
              -21.514
            ],
            [
              -44.8181,
              -21.5172
            ],
            [
              -44.8181,
              -21.5192
            ],
            [
              -44.8194,
              -21.5212
            ],
            [
              -44.8206,
              -21.5217
            ],
            [
              -44.8253,
              -21.5197
            ],
            [
              -44.8281,
              -21.5179
            ],
            [
              -44.8328,
              -21.5117
            ],
            [
              -44.8336,
              -21.5111
            ],
            [
              -44.8364,
              -21.5106
            ],
            [
              -44.8384,
              -21.5083
            ],
            [
              -44.8411,
              -21.5063
            ],
            [
              -44.845,
              -21.5056
            ],
            [
              -44.8479,
              -21.5043
            ],
            [
              -44.8499,
              -21.5044
            ],
            [
              -44.8537,
              -21.5037
            ],
            [
              -44.8553,
              -21.5031
            ],
            [
              -44.8574,
              -21.503
            ],
            [
              -44.8595,
              -21.5023
            ],
            [
              -44.8611,
              -21.4999
            ],
            [
              -44.8627,
              -21.4981
            ],
            [
              -44.8657,
              -21.4973
            ],
            [
              -44.8705,
              -21.4981
            ],
            [
              -44.8699,
              -21.4956
            ],
            [
              -44.8679,
              -21.4903
            ],
            [
              -44.8677,
              -21.4894
            ],
            [
              -44.866,
              -21.4865
            ],
            [
              -44.865,
              -21.4856
            ],
            [
              -44.8642,
              -21.4822
            ],
            [
              -44.8629,
              -21.4799
            ],
            [
              -44.863,
              -21.4785
            ],
            [
              -44.8655,
              -21.4758
            ],
            [
              -44.8663,
              -21.4731
            ],
            [
              -44.8688,
              -21.4726
            ],
            [
              -44.8692,
              -21.4717
            ],
            [
              -44.8679,
              -21.4701
            ],
            [
              -44.8695,
              -21.4678
            ],
            [
              -44.8702,
              -21.466
            ],
            [
              -44.871,
              -21.4654
            ],
            [
              -44.8715,
              -21.4631
            ],
            [
              -44.873,
              -21.4619
            ],
            [
              -44.8735,
              -21.4591
            ],
            [
              -44.8742,
              -21.4577
            ],
            [
              -44.8762,
              -21.4568
            ],
            [
              -44.8771,
              -21.455
            ],
            [
              -44.8781,
              -21.4548
            ],
            [
              -44.882,
              -21.4616
            ],
            [
              -44.8839,
              -21.4635
            ],
            [
              -44.8849,
              -21.4652
            ],
            [
              -44.8887,
              -21.469
            ],
            [
              -44.8906,
              -21.4699
            ],
            [
              -44.8924,
              -21.4719
            ],
            [
              -44.8951,
              -21.4721
            ],
            [
              -44.896,
              -21.4715
            ],
            [
              -44.8962,
              -21.4697
            ],
            [
              -44.8972,
              -21.4685
            ],
            [
              -44.9015,
              -21.4663
            ],
            [
              -44.903,
              -21.4666
            ],
            [
              -44.9047,
              -21.4654
            ],
            [
              -44.9093,
              -21.4662
            ],
            [
              -44.9131,
              -21.4684
            ],
            [
              -44.9139,
              -21.4684
            ],
            [
              -44.9156,
              -21.4664
            ],
            [
              -44.9172,
              -21.4666
            ],
            [
              -44.9184,
              -21.466
            ],
            [
              -44.9204,
              -21.4637
            ],
            [
              -44.9242,
              -21.4647
            ],
            [
              -44.9255,
              -21.4635
            ],
            [
              -44.9271,
              -21.465
            ],
            [
              -44.9288,
              -21.4657
            ],
            [
              -44.9287,
              -21.4671
            ],
            [
              -44.9313,
              -21.4688
            ],
            [
              -44.9323,
              -21.4699
            ],
            [
              -44.9333,
              -21.4693
            ],
            [
              -44.9338,
              -21.4659
            ],
            [
              -44.9362,
              -21.4651
            ],
            [
              -44.9387,
              -21.4654
            ],
            [
              -44.9401,
              -21.4661
            ],
            [
              -44.943,
              -21.4682
            ],
            [
              -44.9448,
              -21.4703
            ],
            [
              -44.9457,
              -21.4706
            ],
            [
              -44.9474,
              -21.4696
            ],
            [
              -44.9487,
              -21.4682
            ],
            [
              -44.9503,
              -21.468
            ],
            [
              -44.9528,
              -21.4653
            ],
            [
              -44.9537,
              -21.4621
            ],
            [
              -44.9518,
              -21.4574
            ],
            [
              -44.949,
              -21.4543
            ],
            [
              -44.9468,
              -21.451
            ],
            [
              -44.9467,
              -21.4474
            ],
            [
              -44.9473,
              -21.4451
            ],
            [
              -44.9488,
              -21.4414
            ],
            [
              -44.9486,
              -21.4388
            ],
            [
              -44.9495,
              -21.4349
            ],
            [
              -44.9501,
              -21.4343
            ],
            [
              -44.9537,
              -21.4354
            ],
            [
              -44.9556,
              -21.4355
            ],
            [
              -44.9584,
              -21.435
            ],
            [
              -44.9595,
              -21.4352
            ],
            [
              -44.9606,
              -21.4364
            ],
            [
              -44.9605,
              -21.4396
            ],
            [
              -44.9616,
              -21.4409
            ],
            [
              -44.963,
              -21.4441
            ],
            [
              -44.9652,
              -21.4456
            ],
            [
              -44.9689,
              -21.4464
            ],
            [
              -44.9705,
              -21.4478
            ],
            [
              -44.9707,
              -21.4509
            ],
            [
              -44.9726,
              -21.4525
            ],
            [
              -44.9752,
              -21.4534
            ],
            [
              -44.9779,
              -21.4552
            ],
            [
              -44.9845,
              -21.4573
            ],
            [
              -44.9852,
              -21.4582
            ],
            [
              -44.9855,
              -21.4599
            ],
            [
              -44.9846,
              -21.462
            ],
            [
              -44.9851,
              -21.463
            ],
            [
              -44.9869,
              -21.4627
            ],
            [
              -44.9884,
              -21.4615
            ],
            [
              -44.9902,
              -21.4611
            ],
            [
              -44.9911,
              -21.462
            ],
            [
              -44.994,
              -21.46
            ],
            [
              -44.9935,
              -21.458
            ],
            [
              -44.9958,
              -21.4577
            ],
            [
              -44.9985,
              -21.4555
            ],
            [
              -45.0,
              -21.4556
            ],
            [
              -45.0004,
              -21.4548
            ],
            [
              -45.0027,
              -21.4536
            ],
            [
              -45.0032,
              -21.45
            ],
            [
              -45.0039,
              -21.4484
            ],
            [
              -45.0063,
              -21.4461
            ],
            [
              -45.0086,
              -21.4462
            ],
            [
              -45.0087,
              -21.4444
            ],
            [
              -45.0117,
              -21.441
            ],
            [
              -45.0107,
              -21.4402
            ],
            [
              -45.0097,
              -21.4374
            ],
            [
              -45.0108,
              -21.4346
            ],
            [
              -45.0143,
              -21.4329
            ],
            [
              -45.0148,
              -21.4311
            ],
            [
              -45.0159,
              -21.4306
            ],
            [
              -45.0173,
              -21.4289
            ],
            [
              -45.0216,
              -21.4264
            ],
            [
              -45.0241,
              -21.423
            ],
            [
              -45.0263,
              -21.4217
            ],
            [
              -45.0264,
              -21.4209
            ],
            [
              -45.0307,
              -21.4204
            ],
            [
              -45.0343,
              -21.4175
            ],
            [
              -45.036,
              -21.4156
            ],
            [
              -45.038,
              -21.4144
            ],
            [
              -45.0418,
              -21.4127
            ],
            [
              -45.0417,
              -21.4115
            ],
            [
              -45.0436,
              -21.4115
            ],
            [
              -45.0448,
              -21.4106
            ],
            [
              -45.0459,
              -21.4118
            ],
            [
              -45.0477,
              -21.4102
            ],
            [
              -45.0471,
              -21.4084
            ],
            [
              -45.0486,
              -21.4074
            ],
            [
              -45.0535,
              -21.407
            ],
            [
              -45.058,
              -21.4045
            ],
            [
              -45.0597,
              -21.4081
            ],
            [
              -45.0609,
              -21.4087
            ],
            [
              -45.0587,
              -21.4133
            ],
            [
              -45.0569,
              -21.4138
            ],
            [
              -45.0556,
              -21.4148
            ],
            [
              -45.0565,
              -21.4157
            ],
            [
              -45.0541,
              -21.4175
            ],
            [
              -45.0528,
              -21.4166
            ],
            [
              -45.052,
              -21.4181
            ],
            [
              -45.0497,
              -21.4182
            ],
            [
              -45.0482,
              -21.419
            ],
            [
              -45.0462,
              -21.4186
            ],
            [
              -45.0452,
              -21.4209
            ],
            [
              -45.0463,
              -21.4242
            ],
            [
              -45.0458,
              -21.4259
            ],
            [
              -45.0465,
              -21.4277
            ],
            [
              -45.0464,
              -21.4293
            ],
            [
              -45.0452,
              -21.4316
            ],
            [
              -45.0437,
              -21.4316
            ],
            [
              -45.0422,
              -21.4323
            ],
            [
              -45.0415,
              -21.4335
            ],
            [
              -45.0433,
              -21.4337
            ],
            [
              -45.0434,
              -21.4346
            ],
            [
              -45.0419,
              -21.4362
            ],
            [
              -45.0422,
              -21.4381
            ],
            [
              -45.0412,
              -21.4399
            ],
            [
              -45.0391,
              -21.4402
            ],
            [
              -45.0385,
              -21.4417
            ],
            [
              -45.0433,
              -21.4441
            ],
            [
              -45.043,
              -21.4476
            ],
            [
              -45.0443,
              -21.4497
            ],
            [
              -45.0422,
              -21.4526
            ],
            [
              -45.0422,
              -21.4549
            ],
            [
              -45.0437,
              -21.4561
            ],
            [
              -45.0451,
              -21.459
            ],
            [
              -45.0464,
              -21.46
            ],
            [
              -45.0468,
              -21.4625
            ],
            [
              -45.0486,
              -21.464
            ],
            [
              -45.0486,
              -21.465
            ],
            [
              -45.05,
              -21.4666
            ],
            [
              -45.05,
              -21.4676
            ],
            [
              -45.0486,
              -21.4695
            ],
            [
              -45.0472,
              -21.4703
            ],
            [
              -45.0468,
              -21.4714
            ],
            [
              -45.0445,
              -21.4749
            ],
            [
              -45.0446,
              -21.4775
            ],
            [
              -45.0466,
              -21.4772
            ],
            [
              -45.0472,
              -21.4779
            ],
            [
              -45.0506,
              -21.4791
            ],
            [
              -45.0541,
              -21.4789
            ],
            [
              -45.0534,
              -21.4802
            ],
            [
              -45.0533,
              -21.4821
            ],
            [
              -45.0514,
              -21.4851
            ],
            [
              -45.053,
              -21.4854
            ],
            [
              -45.0532,
              -21.4864
            ],
            [
              -45.0513,
              -21.488
            ],
            [
              -45.0512,
              -21.4927
            ],
            [
              -45.0506,
              -21.4946
            ],
            [
              -45.0509,
              -21.4973
            ],
            [
              -45.0506,
              -21.5012
            ],
            [
              -45.0519,
              -21.5015
            ],
            [
              -45.0558,
              -21.5013
            ],
            [
              -45.0571,
              -21.5009
            ],
            [
              -45.0579,
              -21.4996
            ],
            [
              -45.0617,
              -21.4987
            ],
            [
              -45.0636,
              -21.5002
            ],
            [
              -45.0635,
              -21.502
            ],
            [
              -45.0654,
              -21.504
            ],
            [
              -45.0659,
              -21.5065
            ],
            [
              -45.0652,
              -21.5072
            ],
            [
              -45.0643,
              -21.5097
            ],
            [
              -45.0612,
              -21.5109
            ],
            [
              -45.0627,
              -21.5123
            ],
            [
              -45.0628,
              -21.5173
            ],
            [
              -45.0636,
              -21.5192
            ],
            [
              -45.0638,
              -21.5212
            ],
            [
              -45.0633,
              -21.527
            ],
            [
              -45.0623,
              -21.5273
            ],
            [
              -45.0617,
              -21.5293
            ],
            [
              -45.0622,
              -21.5306
            ],
            [
              -45.0613,
              -21.5317
            ],
            [
              -45.059,
              -21.5327
            ],
            [
              -45.0571,
              -21.5326
            ],
            [
              -45.0558,
              -21.5341
            ],
            [
              -45.0558,
              -21.5359
            ],
            [
              -45.0552,
              -21.5367
            ],
            [
              -45.0549,
              -21.5398
            ],
            [
              -45.0534,
              -21.5447
            ],
            [
              -45.0521,
              -21.5453
            ],
            [
              -45.051,
              -21.5469
            ],
            [
              -45.0516,
              -21.5484
            ],
            [
              -45.0529,
              -21.5494
            ],
            [
              -45.0538,
              -21.5532
            ],
            [
              -45.0545,
              -21.5543
            ],
            [
              -45.0539,
              -21.5555
            ],
            [
              -45.0544,
              -21.5574
            ],
            [
              -45.0526,
              -21.5584
            ],
            [
              -45.052,
              -21.5601
            ],
            [
              -45.0503,
              -21.5614
            ],
            [
              -45.0498,
              -21.5625
            ],
            [
              -45.0501,
              -21.5639
            ],
            [
              -45.048,
              -21.5656
            ],
            [
              -45.0447,
              -21.5667
            ],
            [
              -45.0443,
              -21.5687
            ],
            [
              -45.0428,
              -21.5692
            ],
            [
              -45.0429,
              -21.5703
            ],
            [
              -45.0445,
              -21.5715
            ],
            [
              -45.0432,
              -21.5752
            ],
            [
              -45.0441,
              -21.5763
            ],
            [
              -45.0436,
              -21.5772
            ],
            [
              -45.0415,
              -21.5771
            ],
            [
              -45.0393,
              -21.5788
            ],
            [
              -45.0371,
              -21.5798
            ],
            [
              -45.0367,
              -21.5817
            ],
            [
              -45.036,
              -21.583
            ],
            [
              -45.0361,
              -21.5854
            ],
            [
              -45.0346,
              -21.5874
            ],
            [
              -45.0345,
              -21.5901
            ],
            [
              -45.034,
              -21.5907
            ],
            [
              -45.0341,
              -21.5931
            ],
            [
              -45.0327,
              -21.5963
            ],
            [
              -45.0316,
              -21.5974
            ],
            [
              -45.0283,
              -21.5975
            ],
            [
              -45.0275,
              -21.6005
            ],
            [
              -45.0274,
              -21.6031
            ],
            [
              -45.0284,
              -21.6065
            ],
            [
              -45.0282,
              -21.6094
            ],
            [
              -45.0277,
              -21.6111
            ],
            [
              -45.0277,
              -21.6138
            ],
            [
              -45.0272,
              -21.6168
            ],
            [
              -45.0302,
              -21.6195
            ],
            [
              -45.0314,
              -21.622
            ],
            [
              -45.032,
              -21.6269
            ],
            [
              -45.0369,
              -21.6319
            ],
            [
              -45.033,
              -21.6321
            ],
            [
              -45.0293,
              -21.6311
            ],
            [
              -45.028,
              -21.6314
            ],
            [
              -45.0265,
              -21.6325
            ],
            [
              -45.0237,
              -21.6338
            ],
            [
              -45.0209,
              -21.6336
            ],
            [
              -45.0154,
              -21.6323
            ],
            [
              -45.013,
              -21.6324
            ],
            [
              -45.009,
              -21.6335
            ],
            [
              -45.0063,
              -21.6333
            ],
            [
              -45.0033,
              -21.6324
            ],
            [
              -45.0005,
              -21.6321
            ],
            [
              -44.9976,
              -21.6324
            ],
            [
              -44.9958,
              -21.6338
            ],
            [
              -44.9941,
              -21.6337
            ],
            [
              -44.9907,
              -21.6327
            ],
            [
              -44.9874,
              -21.6329
            ],
            [
              -44.9859,
              -21.6323
            ],
            [
              -44.9847,
              -21.6299
            ],
            [
              -44.9827,
              -21.6291
            ],
            [
              -44.9809,
              -21.6302
            ],
            [
              -44.9783,
              -21.6324
            ],
            [
              -44.9763,
              -21.6323
            ],
            [
              -44.9727,
              -21.631
            ],
            [
              -44.9687,
              -21.6308
            ],
            [
              -44.9673,
              -21.6298
            ],
            [
              -44.9651,
              -21.6294
            ],
            [
              -44.9601,
              -21.63
            ],
            [
              -44.9548,
              -21.6302
            ],
            [
              -44.9511,
              -21.6315
            ],
            [
              -44.9482,
              -21.6329
            ],
            [
              -44.9464,
              -21.6343
            ],
            [
              -44.9422,
              -21.6338
            ],
            [
              -44.9394,
              -21.6365
            ],
            [
              -44.9365,
              -21.6385
            ],
            [
              -44.9345,
              -21.6388
            ],
            [
              -44.9316,
              -21.6386
            ],
            [
              -44.9299,
              -21.6381
            ],
            [
              -44.9274,
              -21.6359
            ],
            [
              -44.925,
              -21.6348
            ],
            [
              -44.9235,
              -21.6347
            ],
            [
              -44.9219,
              -21.6366
            ],
            [
              -44.9206,
              -21.6372
            ],
            [
              -44.9164,
              -21.6374
            ],
            [
              -44.9145,
              -21.6386
            ],
            [
              -44.9115,
              -21.642
            ],
            [
              -44.9096,
              -21.6419
            ],
            [
              -44.9081,
              -21.6409
            ],
            [
              -44.9047,
              -21.6395
            ],
            [
              -44.8988,
              -21.6357
            ],
            [
              -44.8976,
              -21.636
            ],
            [
              -44.8968,
              -21.6374
            ],
            [
              -44.8954,
              -21.638
            ],
            [
              -44.8932,
              -21.6377
            ],
            [
              -44.891,
              -21.6345
            ],
            [
              -44.8906,
              -21.6315
            ],
            [
              -44.8875,
              -21.6314
            ],
            [
              -44.885,
              -21.6317
            ],
            [
              -44.8829,
              -21.6312
            ],
            [
              -44.8807,
              -21.6289
            ],
            [
              -44.8781,
              -21.6277
            ],
            [
              -44.879,
              -21.6254
            ],
            [
              -44.88,
              -21.6219
            ],
            [
              -44.8791,
              -21.62
            ],
            [
              -44.8756,
              -21.6187
            ],
            [
              -44.8739,
              -21.6173
            ],
            [
              -44.8728,
              -21.6157
            ],
            [
              -44.8718,
              -21.6117
            ],
            [
              -44.8711,
              -21.6103
            ],
            [
              -44.8715,
              -21.6071
            ],
            [
              -44.871,
              -21.6055
            ],
            [
              -44.868,
              -21.6078
            ],
            [
              -44.8651,
              -21.6082
            ],
            [
              -44.8622,
              -21.6071
            ],
            [
              -44.8605,
              -21.6069
            ],
            [
              -44.8566,
              -21.607
            ],
            [
              -44.854,
              -21.6053
            ],
            [
              -44.8502,
              -21.6037
            ],
            [
              -44.8477,
              -21.6034
            ],
            [
              -44.8444,
              -21.6003
            ],
            [
              -44.8423,
              -21.599
            ],
            [
              -44.8406,
              -21.5995
            ],
            [
              -44.8388,
              -21.5991
            ],
            [
              -44.8381,
              -21.5977
            ],
            [
              -44.8367,
              -21.5974
            ],
            [
              -44.8337,
              -21.5978
            ],
            [
              -44.8319,
              -21.5988
            ],
            [
              -44.8315,
              -21.5978
            ],
            [
              -44.8324,
              -21.5965
            ],
            [
              -44.8326,
              -21.5945
            ],
            [
              -44.8307,
              -21.5928
            ],
            [
              -44.8283,
              -21.5921
            ],
            [
              -44.8265,
              -21.5906
            ],
            [
              -44.8252,
              -21.5902
            ],
            [
              -44.8175,
              -21.5957
            ],
            [
              -44.8158,
              -21.5949
            ],
            [
              -44.8151,
              -21.593
            ],
            [
              -44.8118,
              -21.5934
            ],
            [
              -44.8102,
              -21.5918
            ],
            [
              -44.8113,
              -21.5899
            ],
            [
              -44.8119,
              -21.5881
            ],
            [
              -44.8116,
              -21.5866
            ],
            [
              -44.8087,
              -21.5866
            ],
            [
              -44.8077,
              -21.5862
            ],
            [
              -44.8064,
              -21.5867
            ],
            [
              -44.8041,
              -21.5865
            ],
            [
              -44.803,
              -21.5876
            ],
            [
              -44.8028,
              -21.5887
            ],
            [
              -44.8014,
              -21.59
            ],
            [
              -44.8002,
              -21.5919
            ],
            [
              -44.799,
              -21.5915
            ],
            [
              -44.7967,
              -21.5921
            ],
            [
              -44.7964,
              -21.593
            ],
            [
              -44.7971,
              -21.5956
            ],
            [
              -44.7962,
              -21.5974
            ],
            [
              -44.7946,
              -21.5976
            ],
            [
              -44.7932,
              -21.5966
            ],
            [
              -44.7916,
              -21.5965
            ]
          ]
        ]
      },
      "properties": {
        "codarea": "3138708",
        "nome_municipio": "Luminárias",
        "codigo_ibge": 3138708
      }
    }
  ]
}