{"type":"FeatureCollection","features":[{"type":"Feature","properties":{"codarea":"4204509","centroide":[-49.325518994701376,-26.44173831218723],"codigo_ibge":4204509,"nome_ig":"Região de Corupá"},"geometry":{"type":"MultiPolygon","coordinates":[[[[-49.2904,-26.5487],[-49.3227,-26.5415],[-49.3567,-26.5133],[-49.3661,-26.4905],[-49.3919,-26.4947],[-49.4168,-26.5099],[-49.4399,-26.4885],[-49.4686,-26.4716],[-49.4723,-26.4518],[-49.4938,-26.4382],[-49.4843,-26.4188],[-49.446,-26.4283],[-49.4474,-26.4041],[-49.4213,-26.3681],[-49.386,-26.3522],[-49.3631,-26.3604],[-49.3592,-26.3737],[-49.3229,-26.3867],[-49.3228,-26.3723],[-49.2898,-26.3707],[-49.2753,-26.3885],[-49.2304,-26.3966],[-49.2022,-26.3834],[-49.1949,-26.3707],[-49.1755,-26.3662],[-49.1851,-26.3498],[-49.1794,-26.3116],[-49.1688,-26.3083],[-49.1694,-26.3398],[-49.1584,-26.3589],[-49.1705,-26.3801],[-49.1879,-26.3901],[-49.1854,-26.4345],[-49.2039,-26.438],[-49.211,-26.4879],[-49.2455,-26.5],[-49.2705,-26.5346],[-49.2904,-26.5487]]]]}},{"type":"Feature","properties":{"codarea":"4208906","centroide":[-49.160005164823446,-26.481692220855876],"codigo_ibge":4208906,"nome_ig":"Região de Corupá"},"geometry":{"type":"MultiPolygon","coordinates":[[[[-49.1446,-26.316],[-49.1463,-26.3267],[-49.1084,-26.3738],[-49.1133,-26.3937],[-49.044,-26.4538],[-49.0281,-26.4569],[-49.0361,-26.4712],[-49.0146,-26.4814],[-49.0283,-26.488],[-49.0171,-26.507],[-49.0227,-26.5159],[-49.0513,-26.5152],[-49.0624,-26.5426],[-49.09,-26.5477],[-49.0906,-26.5691],[-49.1084,-26.5822],[-49.1144,-26.6133],[-49.1304,-26.6222],[-49.1303,-26.6353],[-49.1636,-26.6477],[-49.1762,-26.6137],[-49.1962,-26.6218],[-49.2221,-26.6203],[-49.2848,-26.6073],[-49.2972,-26.5708],[-49.2904,-26.5487],[-49.2705,-26.5346],[-49.2455,-26.5],[-49.211,-26.4879],[-49.2039,-26.438],[-49.1854,-26.4345],[-49.1879,-26.3901],[-49.1705,-26.3801],[-49.1584,-26.3589],[-49.1694,-26.3398],[-49.1688,-26.3083],[-49.2514,-26.2674],[-49.2369,-26.2655],[-49.2269,-26.2355],[-49.2001,-26.2207],[-49.1695,-26.218],[-49.1679,-26.244],[-49.1757,-26.2572],[-49.1446,-26.316]]]]}},{"type":"Feature","properties":{"codarea":"4215802","centroide":[-49.34965551185211,-26.295168605545953],"codigo_ibge":4215802,"nome_ig":"Região de Corupá"},"geometry":{"type":"MultiPolygon","coordinates":[[[[-49.4291,-26.17],[-49.4191,-26.1891],[-49.4072,-26.1841],[-49.374,-26.2019],[-49.3676,-26.1915],[-49.3263,-26.2001],[-49.3177,-26.2295],[-49.2514,-26.2674],[-49.1688,-26.3083],[-49.1794,-26.3116],[-49.1851,-26.3498],[-49.1755,-26.3662],[-49.1949,-26.3707],[-49.2022,-26.3834],[-49.2304,-26.3966],[-49.2753,-26.3885],[-49.2898,-26.3707],[-49.3228,-26.3723],[-49.3229,-26.3867],[-49.3592,-26.3737],[-49.3631,-26.3604],[-49.386,-26.3522],[-49.4213,-26.3681],[-49.4474,-26.4041],[-49.446,-26.4283],[-49.4843,-26.4188],[-49.4678,-26.4121],[-49.4531,-26.39],[-49.4656,-26.3628],[-49.4655,-26.3061],[-49.4799,-26.2892],[-49.4704,-26.2804],[-49.4717,-26.2378],[-49.4872,-26.1942],[-49.4859,-26.1851],[-49.4603,-26.1622],[-49.4291,-26.17]]]]}},{"type":"Feature","properties":{"codarea":"4217402","centroide":[-49.06047075053368,-26.368109871205363],"codigo_ibge":4217402,"nome_ig":"Região de Corupá"},"geometry":{"type":"MultiPolygon","coordinates":[[[[-49.0036,-26.3873],[-49.0197,-26.4166],[-49.0064,-26.4383],[-48.9834,-26.4371],[-48.9834,-26.4561],[-49.0281,-26.4569],[-49.044,-26.4538],[-49.1133,-26.3937],[-49.1084,-26.3738],[-49.1463,-26.3267],[-49.1446,-26.316],[-49.1012,-26.2944],[-49.106,-26.3174],[-49.0949,-26.3281],[-49.0815,-26.2947],[-49.0608,-26.2941],[-49.0576,-26.2793],[-49.0348,-26.2613],[-49.0359,-26.2767],[-49.05,-26.2835],[-49.0615,-26.3162],[-49.0494,-26.3065],[-48.9973,-26.3109],[-49.019,-26.3376],[-49.0209,-26.3506],[-49.0041,-26.3669],[-49.0036,-26.3873]]]]}}]}