{"type":"FeatureCollection","features":[{"type":"Feature","properties":{"codarea":"3300209","centroide":[-42.29325963459522,-22.75510168751958],"codigo_ibge":3300209,"nome_ig":"Região de Tanguá"},"geometry":{"type":"MultiPolygon","coordinates":[[[[-42.1824,-22.5526],[-42.1314,-22.6531],[-42.1669,-22.6807],[-42.2183,-22.7702],[-42.2554,-22.7951],[-42.2396,-22.8403],[-42.2495,-22.8479],[-42.2368,-22.8635],[-42.2826,-22.9001],[-42.2753,-22.9171],[-42.2912,-22.939],[-42.3827,-22.9357],[-42.3777,-22.9078],[-42.3863,-22.8958],[-42.3699,-22.8355],[-42.4505,-22.82],[-42.4418,-22.73],[-42.4201,-22.7364],[-42.3791,-22.7184],[-42.3317,-22.7041],[-42.3144,-22.6479],[-42.2954,-22.6238],[-42.2713,-22.6086],[-42.2468,-22.6127],[-42.2378,-22.5994],[-42.2153,-22.5917],[-42.1869,-22.5554],[-42.1824,-22.5526]]]]}},{"type":"Feature","properties":{"codarea":"3301900","centroide":[-42.8541019413468,-22.748832805302992],"codigo_ibge":3301900,"nome_ig":"Região de Tanguá"},"geometry":{"type":"MultiPolygon","coordinates":[[[[-42.7442,-22.6851],[-42.7496,-22.7109],[-42.7666,-22.7383],[-42.7974,-22.7369],[-42.8043,-22.7444],[-42.7852,-22.76],[-42.7833,-22.7752],[-42.803,-22.7941],[-42.7842,-22.804],[-42.76,-22.7987],[-42.7367,-22.8112],[-42.7489,-22.823],[-42.7336,-22.8411],[-42.7558,-22.851],[-42.7623,-22.8441],[-42.8258,-22.8603],[-42.8467,-22.8728],[-42.8859,-22.8676],[-42.9058,-22.8164],[-42.94,-22.8077],[-42.9403,-22.7766],[-42.9617,-22.76],[-43.0106,-22.7364],[-43.0325,-22.7472],[-43.0262,-22.7258],[-43.0096,-22.7154],[-42.994,-22.7273],[-42.9636,-22.7251],[-42.9117,-22.6718],[-42.9074,-22.6553],[-42.8451,-22.6361],[-42.7902,-22.6345],[-42.7442,-22.6851]]]]}},{"type":"Feature","properties":{"codarea":"3304300","centroide":[-42.588113837468796,-22.734992095195082],"codigo_ibge":3304300,"nome_ig":"Região de Tanguá"},"geometry":{"type":"MultiPolygon","coordinates":[[[[-42.4418,-22.73],[-42.4505,-22.82],[-42.4823,-22.8282],[-42.523,-22.8241],[-42.5319,-22.8087],[-42.554,-22.8148],[-42.5819,-22.8059],[-42.6298,-22.8333],[-42.6424,-22.8511],[-42.6687,-22.845],[-42.6562,-22.8289],[-42.6698,-22.815],[-42.6594,-22.7988],[-42.6793,-22.7948],[-42.6793,-22.7948],[-42.6882,-22.786],[-42.6759,-22.7742],[-42.6943,-22.7525],[-42.7088,-22.7234],[-42.7442,-22.6851],[-42.7092,-22.6704],[-42.6913,-22.6544],[-42.6927,-22.6429],[-42.655,-22.6378],[-42.6262,-22.6571],[-42.5846,-22.6251],[-42.5645,-22.6201],[-42.528,-22.6316],[-42.5267,-22.7053],[-42.5307,-22.717],[-42.4971,-22.7255],[-42.4601,-22.7185],[-42.4418,-22.73]]]]}},{"type":"Feature","properties":{"codarea":"3305752","centroide":[-42.72520959598261,-22.783206258997346],"codigo_ibge":3305752,"nome_ig":"Região de Tanguá"},"geometry":{"type":"MultiPolygon","coordinates":[[[[-42.6424,-22.8511],[-42.6609,-22.859],[-42.7178,-22.8539],[-42.7336,-22.8411],[-42.7489,-22.823],[-42.7367,-22.8112],[-42.76,-22.7987],[-42.7842,-22.804],[-42.803,-22.7941],[-42.7833,-22.7752],[-42.7852,-22.76],[-42.8043,-22.7444],[-42.7974,-22.7369],[-42.7666,-22.7383],[-42.7496,-22.7109],[-42.7442,-22.6851],[-42.7088,-22.7234],[-42.6943,-22.7525],[-42.6759,-22.7742],[-42.6882,-22.786],[-42.6793,-22.7948],[-42.6793,-22.7948],[-42.6594,-22.7988],[-42.6698,-22.815],[-42.6562,-22.8289],[-42.6687,-22.845],[-42.6424,-22.8511]]]]}}]}