{"type":"FeatureCollection","features":[{"type":"Feature","properties":{"codarea":"3111507","centroide":[-46.19700806139451,-19.60501058986441],"codigo_ibge":3111507,"nome_ig":"Região de São Gotardo"},"geometry":{"type":"Polygon","coordinates":[[[-46.1276,-19.5426],[-46.1381,-19.5573],[-46.1046,-19.5834],[-46.1069,-19.6095],[-46.0665,-19.6366],[-46.0693,-19.6499],[-46.0934,-19.6637],[-46.1193,-19.6642],[-46.1306,-19.6849],[-46.1033,-19.6954],[-46.1061,-19.7349],[-46.1237,-19.7409],[-46.1222,-19.7844],[-46.1326,-19.8017],[-46.208,-19.8038],[-46.2256,-19.7964],[-46.2217,-19.7703],[-46.2424,-19.7588],[-46.2478,-19.7446],[-46.2484,-19.7021],[-46.2954,-19.6856],[-46.2991,-19.6662],[-46.3278,-19.6415],[-46.302,-19.6197],[-46.28,-19.6313],[-46.2718,-19.6211],[-46.2841,-19.6052],[-46.2678,-19.5642],[-46.3063,-19.5118],[-46.3257,-19.4926],[-46.2838,-19.4632],[-46.2823,-19.4404],[-46.2662,-19.4317],[-46.2531,-19.4457],[-46.2257,-19.4243],[-46.1744,-19.4232],[-46.1554,-19.4102],[-46.1388,-19.4376],[-46.1332,-19.4618],[-46.1059,-19.4681],[-46.134,-19.5013],[-46.1067,-19.5267],[-46.1276,-19.5426]]]}},{"type":"Feature","properties":{"codarea":"3129509","centroide":[-46.59536671174786,-19.5579480157574],"codigo_ibge":3129509,"nome_ig":"Região de São Gotardo"},"geometry":{"type":"Polygon","coordinates":[[[-46.4962,-19.3137],[-46.4888,-19.3202],[-46.4502,-19.3114],[-46.422,-19.3305],[-46.4132,-19.3646],[-46.3909,-19.4015],[-46.3535,-19.399],[-46.3168,-19.3826],[-46.3055,-19.3903],[-46.3069,-19.4109],[-46.2861,-19.4314],[-46.2662,-19.4317],[-46.2823,-19.4404],[-46.2838,-19.4632],[-46.3257,-19.4926],[-46.3063,-19.5118],[-46.2678,-19.5642],[-46.2841,-19.6052],[-46.2718,-19.6211],[-46.28,-19.6313],[-46.302,-19.6197],[-46.3278,-19.6415],[-46.3538,-19.6439],[-46.3632,-19.6744],[-46.3993,-19.6678],[-46.4308,-19.6997],[-46.4489,-19.6681],[-46.4802,-19.6554],[-46.5052,-19.6614],[-46.5177,-19.6742],[-46.545,-19.6652],[-46.5714,-19.6816],[-46.5752,-19.7024],[-46.5445,-19.7327],[-46.547,-19.772],[-46.5131,-19.7921],[-46.5077,-19.8151],[-46.4946,-19.8249],[-46.5056,-19.8574],[-46.5157,-19.8588],[-46.5414,-19.8689],[-46.5403,-19.8876],[-46.5504,-19.907],[-46.5707,-19.8907],[-46.5946,-19.9099],[-46.6006,-19.9267],[-46.6115,-19.9061],[-46.6671,-19.8719],[-46.6795,-19.8973],[-46.707,-19.8702],[-46.7081,-19.8528],[-46.7513,-19.8244],[-46.7511,-19.8153],[-46.8093,-19.7921],[-46.826,-19.7746],[-46.836,-19.7454],[-46.7994,-19.7213],[-46.7618,-19.6753],[-46.7595,-19.6512],[-46.7399,-19.6297],[-46.7462,-19.6116],[-46.789,-19.5963],[-46.8039,-19.5772],[-46.8174,-19.5755],[-46.8342,-19.5505],[-46.8462,-19.5588],[-46.8628,-19.5195],[-46.8622,-19.5056],[-46.8918,-19.4794],[-46.9062,-19.482],[-46.8938,-19.4688],[-46.8834,-19.4754],[-46.8578,-19.4686],[-46.8489,-19.4415],[-46.854,-19.4193],[-46.847,-19.3921],[-46.8592,-19.3806],[-46.8446,-19.3554],[-46.8469,-19.3372],[-46.8373,-19.3033],[-46.8229,-19.316],[-46.7984,-19.3061],[-46.7553,-19.308],[-46.7502,-19.2864],[-46.7432,-19.2967],[-46.7172,-19.2959],[-46.6775,-19.3206],[-46.6717,-19.3076],[-46.6515,-19.3234],[-46.5741,-19.321],[-46.5462,-19.3374],[-46.5269,-19.3221],[-46.5163,-19.3295],[-46.4962,-19.3137]]]}},{"type":"Feature","properties":{"codarea":"3141207","centroide":[-45.99540880031607,-19.194082942109436],"codigo_ibge":3141207,"nome_ig":"Região de São Gotardo"},"geometry":{"type":"Polygon","coordinates":[[[-46.0557,-19.0789],[-46.0515,-19.0978],[-46.0298,-19.1334],[-46.0141,-19.1443],[-46.0013,-19.1796],[-45.9836,-19.1889],[-45.975,-19.2061],[-45.9378,-19.1599],[-45.9092,-19.1517],[-45.8601,-19.1582],[-45.8338,-19.1796],[-45.864,-19.1767],[-45.8705,-19.1992],[-45.9025,-19.2015],[-45.9219,-19.2165],[-45.9194,-19.257],[-45.9309,-19.2885],[-45.9824,-19.2675],[-46.0019,-19.2665],[-46.0319,-19.2459],[-46.0682,-19.2344],[-46.0655,-19.2218],[-46.1098,-19.1969],[-46.0818,-19.1295],[-46.0886,-19.1076],[-46.0746,-19.0882],[-46.0557,-19.0789]]]}},{"type":"Feature","properties":{"codarea":"3155504","centroide":[-46.29839779257301,-19.240012436627016],"codigo_ibge":3155504,"nome_ig":"Região de São Gotardo"},"geometry":{"type":"Polygon","coordinates":[[[-46.2174,-19.0629],[-46.1964,-19.081],[-46.1578,-19.0903],[-46.1323,-19.1064],[-46.0886,-19.1076],[-46.0818,-19.1295],[-46.1098,-19.1969],[-46.1076,-19.2135],[-46.1322,-19.2618],[-46.1298,-19.2802],[-46.1365,-19.3176],[-46.1245,-19.3684],[-46.1438,-19.3768],[-46.1554,-19.4102],[-46.1744,-19.4232],[-46.2257,-19.4243],[-46.2531,-19.4457],[-46.2662,-19.4317],[-46.2861,-19.4314],[-46.3069,-19.4109],[-46.3055,-19.3903],[-46.3168,-19.3826],[-46.3535,-19.399],[-46.3909,-19.4015],[-46.4132,-19.3646],[-46.422,-19.3305],[-46.4502,-19.3114],[-46.4888,-19.3202],[-46.4962,-19.3137],[-46.5173,-19.2711],[-46.5101,-19.2625],[-46.5227,-19.2173],[-46.5414,-19.1902],[-46.5273,-19.1578],[-46.4967,-19.1574],[-46.4832,-19.1465],[-46.4741,-19.1035],[-46.4451,-19.0968],[-46.4125,-19.0774],[-46.4118,-19.0672],[-46.4067,-19.0912],[-46.3831,-19.0991],[-46.3724,-19.1169],[-46.3262,-19.1142],[-46.3078,-19.1019],[-46.2841,-19.1022],[-46.2637,-19.0884],[-46.2637,-19.0643],[-46.2345,-19.0492],[-46.2168,-19.0496],[-46.2174,-19.0629]]]}},{"type":"Feature","properties":{"codarea":"3162104","centroide":[-46.00007260444483,-19.360004823922875],"codigo_ibge":3162104,"nome_ig":"Região de São Gotardo"},"geometry":{"type":"Polygon","coordinates":[[[-45.8338,-19.1796],[-45.8038,-19.1959],[-45.8139,-19.2101],[-45.8097,-19.2418],[-45.8198,-19.2678],[-45.834,-19.2751],[-45.8516,-19.3253],[-45.8655,-19.3394],[-45.8658,-19.364],[-45.8782,-19.3675],[-45.8896,-19.4001],[-45.8874,-19.4326],[-45.9006,-19.4379],[-45.9021,-19.4652],[-45.9231,-19.4734],[-45.9402,-19.4612],[-45.9777,-19.46],[-45.9904,-19.4781],[-45.9916,-19.4957],[-46.0135,-19.5313],[-46.0352,-19.5315],[-46.042,-19.5544],[-46.0986,-19.5515],[-46.1276,-19.5426],[-46.1067,-19.5267],[-46.134,-19.5013],[-46.1059,-19.4681],[-46.1332,-19.4618],[-46.1388,-19.4376],[-46.1554,-19.4102],[-46.1438,-19.3768],[-46.1245,-19.3684],[-46.1365,-19.3176],[-46.1298,-19.2802],[-46.1322,-19.2618],[-46.1076,-19.2135],[-46.1098,-19.1969],[-46.0655,-19.2218],[-46.0682,-19.2344],[-46.0319,-19.2459],[-46.0019,-19.2665],[-45.9824,-19.2675],[-45.9309,-19.2885],[-45.9194,-19.257],[-45.9219,-19.2165],[-45.9025,-19.2015],[-45.8705,-19.1992],[-45.864,-19.1767],[-45.8338,-19.1796]]]}},{"type":"Feature","properties":{"codarea":"3168903","centroide":[-45.82412048602767,-18.859877433407654],"codigo_ibge":3168903,"nome_ig":"Região de São Gotardo"},"geometry":{"type":"Polygon","coordinates":[[[-45.6448,-18.4819],[-45.6348,-18.4975],[-45.6395,-18.5149],[-45.6216,-18.5225],[-45.6154,-18.5719],[-45.6372,-18.608],[-45.6331,-18.6282],[-45.639,-18.665],[-45.6625,-18.6796],[-45.6685,-18.7008],[-45.6909,-18.7072],[-45.6935,-18.7413],[-45.7019,-18.7611],[-45.6815,-18.779],[-45.6433,-18.7743],[-45.637,-18.7919],[-45.6487,-18.8204],[-45.6476,-18.8482],[-45.6691,-18.8452],[-45.6672,-18.8808],[-45.6922,-18.9225],[-45.686,-18.936],[-45.7041,-18.9494],[-45.7134,-18.9718],[-45.6993,-18.9847],[-45.7159,-19.0035],[-45.712,-19.0296],[-45.7402,-19.0438],[-45.7443,-19.0761],[-45.7573,-19.0987],[-45.7583,-19.117],[-45.7715,-19.1182],[-45.7752,-19.153],[-45.784,-19.1571],[-45.7868,-19.1727],[-45.8065,-19.1866],[-45.8038,-19.1959],[-45.8338,-19.1796],[-45.8601,-19.1582],[-45.9092,-19.1517],[-45.9378,-19.1599],[-45.975,-19.2061],[-45.9836,-19.1889],[-46.0013,-19.1796],[-46.0141,-19.1443],[-46.0298,-19.1334],[-46.0515,-19.0978],[-46.0557,-19.0789],[-46.0398,-19.0324],[-46.0385,-18.9934],[-46.0429,-18.9817],[-46.0204,-18.9378],[-45.9871,-18.8968],[-45.978,-18.8976],[-45.9627,-18.8687],[-45.9711,-18.8299],[-45.9534,-18.8037],[-45.9569,-18.7865],[-45.9426,-18.7688],[-45.9497,-18.7632],[-45.9344,-18.7433],[-45.8911,-18.7396],[-45.8858,-18.7124],[-45.8677,-18.6792],[-45.8622,-18.6397],[-45.8631,-18.6297],[-45.8276,-18.6085],[-45.829,-18.5872],[-45.8089,-18.5689],[-45.8154,-18.5545],[-45.8012,-18.538],[-45.8048,-18.5198],[-45.792,-18.5042],[-45.8057,-18.4841],[-45.7732,-18.467],[-45.7666,-18.4801],[-45.7402,-18.4902],[-45.723,-18.5073],[-45.704,-18.4882],[-45.6765,-18.4924],[-45.6448,-18.4819]]]}}]}