{"type":"FeatureCollection","features":[{"type":"Feature","properties":{"codarea":"3112703","centroide":[-43.66447563342066,-16.13649526863238],"codigo_ibge":3112703,"nome_ig":"Região do Jaíba"},"geometry":{"type":"Polygon","coordinates":[[[-43.6202,-15.7853],[-43.6307,-15.8056],[-43.6164,-15.8091],[-43.6188,-15.8548],[-43.5827,-15.8772],[-43.5702,-15.9081],[-43.5565,-15.9102],[-43.5396,-15.9527],[-43.5601,-15.9755],[-43.5635,-15.996],[-43.5362,-16.016],[-43.5441,-16.047],[-43.5275,-16.0867],[-43.5215,-16.0992],[-43.5375,-16.1205],[-43.5377,-16.142],[-43.6734,-16.2967],[-43.676,-16.4045],[-43.6962,-16.4164],[-43.7195,-16.4154],[-43.7467,-16.4052],[-43.7622,-16.4008],[-43.7635,-16.3803],[-43.7929,-16.3534],[-43.7832,-16.3415],[-43.7959,-16.2969],[-43.7788,-16.2821],[-43.7923,-16.2646],[-43.7966,-16.2341],[-43.783,-16.2326],[-43.7911,-16.207],[-43.7741,-16.195],[-43.7755,-16.1768],[-43.7647,-16.1656],[-43.7663,-16.1461],[-43.7851,-16.1261],[-43.7656,-16.0892],[-43.7596,-16.0754],[-43.7227,-16.0627],[-43.7015,-16.0408],[-43.6988,-16.0082],[-43.6872,-15.988],[-43.6691,-15.9751],[-43.641,-15.939],[-43.6464,-15.933],[-43.6312,-15.9057],[-43.6532,-15.8919],[-43.6333,-15.8898],[-43.6363,-15.8633],[-43.6625,-15.8396],[-43.6334,-15.8328],[-43.6345,-15.8194],[-43.6566,-15.7859],[-43.6235,-15.7937],[-43.6202,-15.7853]]]}},{"type":"Feature","properties":{"codarea":"3132107","centroide":[-44.12491469954362,-15.176942173753059],"codigo_ibge":3132107,"nome_ig":"Região do Jaíba"},"geometry":{"type":"Polygon","coordinates":[[[-44.0065,-14.9787],[-43.9973,-14.9767],[-44.0052,-15.003],[-44.0181,-15.0141],[-44.0142,-15.0525],[-44.0187,-15.0701],[-44.042,-15.1096],[-44.0352,-15.1266],[-44.0438,-15.1527],[-44.0673,-15.1906],[-44.0614,-15.2054],[-44.0425,-15.2172],[-44.0262,-15.2499],[-44.0096,-15.2612],[-43.9951,-15.2545],[-43.9593,-15.2903],[-43.93,-15.3075],[-43.9254,-15.3462],[-43.9375,-15.3671],[-43.9303,-15.4374],[-43.9426,-15.4544],[-43.9647,-15.4612],[-43.9723,-15.4783],[-44.0018,-15.5051],[-44.0136,-15.4865],[-44.0298,-15.4873],[-44.0409,-15.454],[-44.0739,-15.4379],[-44.1069,-15.4315],[-44.1318,-15.403],[-44.1456,-15.3734],[-44.1649,-15.3779],[-44.1274,-15.3185],[-44.1163,-15.2763],[-44.118,-15.2629],[-44.1357,-15.2597],[-44.1295,-15.2357],[-44.1055,-15.2104],[-44.1004,-15.1771],[-44.1034,-15.1566],[-44.1219,-15.197],[-44.1694,-15.1745],[-44.2096,-15.1753],[-44.2238,-15.1693],[-44.2417,-15.136],[-44.2407,-15.1129],[-44.2311,-15.1001],[-44.2488,-15.0862],[-44.2762,-15.0877],[-44.2946,-15.0767],[-44.3273,-15.0397],[-44.3491,-14.9924],[-44.3629,-14.9793],[-44.4102,-14.9715],[-44.4678,-14.9804],[-44.4871,-14.9643],[-44.4836,-14.907],[-44.4533,-14.9261],[-44.3813,-14.9347],[-44.3668,-14.9491],[-44.3542,-14.9353],[-44.3311,-14.9498],[-44.3303,-14.9595],[-44.2986,-14.9739],[-44.2811,-14.9919],[-44.2663,-14.9947],[-44.2582,-14.9773],[-44.2291,-14.9839],[-44.2112,-14.9683],[-44.1878,-14.9729],[-44.1385,-14.9664],[-44.1189,-14.9719],[-44.1054,-14.9627],[-44.0626,-14.9908],[-44.0065,-14.9787]]]}},{"type":"Feature","properties":{"codarea":"3135050","centroide":[-43.67461467236448,-15.233297116941516],"codigo_ibge":3135050,"nome_ig":"Região do Jaíba"},"geometry":{"type":"Polygon","coordinates":[[[-43.5252,-14.9773],[-43.5037,-14.9866],[-43.5081,-15.0252],[-43.4867,-15.0409],[-43.4882,-15.0552],[-43.4747,-15.0725],[-43.4389,-15.075],[-43.4189,-15.0678],[-43.3689,-15.0605],[-43.3643,-15.0775],[-43.3498,-15.0662],[-43.3544,-15.0515],[-43.3249,-15.0661],[-43.3118,-15.0836],[-43.3305,-15.1063],[-43.3204,-15.1268],[-43.332,-15.1407],[-43.3117,-15.1652],[-43.3186,-15.1958],[-43.3094,-15.236],[-43.3233,-15.2602],[-43.3105,-15.2931],[-43.3115,-15.3271],[-43.4425,-15.3589],[-43.6718,-15.4142],[-43.6634,-15.4027],[-43.6495,-15.4081],[-43.6609,-15.3772],[-43.6861,-15.3824],[-43.6795,-15.355],[-43.7031,-15.3633],[-43.7008,-15.374],[-43.7261,-15.3842],[-43.734,-15.3779],[-43.7627,-15.4139],[-43.8037,-15.4146],[-43.8305,-15.4356],[-43.8632,-15.4442],[-43.8753,-15.4648],[-43.899,-15.479],[-43.9091,-15.4947],[-43.9201,-15.5156],[-43.9488,-15.5285],[-43.9738,-15.5307],[-44.0018,-15.5051],[-43.9723,-15.4783],[-43.9647,-15.4612],[-43.9426,-15.4544],[-43.9303,-15.4374],[-43.9375,-15.3671],[-43.9254,-15.3462],[-43.93,-15.3075],[-43.9593,-15.2903],[-43.9951,-15.2545],[-44.0096,-15.2612],[-44.0262,-15.2499],[-44.0425,-15.2172],[-44.0614,-15.2054],[-44.0673,-15.1906],[-44.0438,-15.1527],[-44.0352,-15.1266],[-44.042,-15.1096],[-44.0187,-15.0701],[-43.9994,-15.0705],[-43.7899,-15.1122],[-43.6597,-15.1132],[-43.6397,-15.1005],[-43.6134,-15.0942],[-43.6264,-15.0746],[-43.6408,-15.0708],[-43.6199,-15.0413],[-43.5842,-15.0508],[-43.5861,-15.0242],[-43.5634,-15.0411],[-43.5553,-15.0315],[-43.5762,-15.0233],[-43.5845,-15.008],[-43.5673,-15.0035],[-43.5591,-15.0164],[-43.5367,-15.0231],[-43.539,-15.0036],[-43.5703,-14.9765],[-43.5469,-14.968],[-43.528,-14.9889],[-43.5252,-14.9773]]]}},{"type":"Feature","properties":{"codarea":"3135100","centroide":[-43.396583310271645,-15.79901571296744],"codigo_ibge":3135100,"nome_ig":"Região do Jaíba"},"geometry":{"type":"Polygon","coordinates":[[[-43.2772,-15.606],[-43.2752,-15.622],[-43.2999,-15.6516],[-43.2962,-15.6621],[-43.3061,-15.701],[-43.2926,-15.7278],[-43.3066,-15.7413],[-43.317,-15.7806],[-43.301,-15.7986],[-43.2907,-15.8286],[-43.2623,-15.8284],[-43.2406,-15.8178],[-43.2303,-15.8319],[-43.2161,-15.8296],[-43.2252,-15.8534],[-43.2044,-15.8744],[-43.2141,-15.9304],[-43.2262,-15.9345],[-43.215,-15.9773],[-43.2191,-16.01],[-43.2309,-16.0419],[-43.2309,-16.042],[-43.231,-16.0526],[-43.2702,-16.0831],[-43.2602,-16.121],[-43.2691,-16.1154],[-43.2941,-16.1273],[-43.33,-16.1159],[-43.3481,-16.1238],[-43.3723,-16.1214],[-43.3893,-16.0999],[-43.426,-16.0852],[-43.4389,-16.0723],[-43.4514,-16.0873],[-43.4948,-16.0971],[-43.5275,-16.0867],[-43.5441,-16.047],[-43.5362,-16.016],[-43.5635,-15.996],[-43.5601,-15.9755],[-43.5396,-15.9527],[-43.5565,-15.9102],[-43.5702,-15.9081],[-43.5827,-15.8772],[-43.6188,-15.8548],[-43.6164,-15.8091],[-43.6307,-15.8056],[-43.6202,-15.7853],[-43.6184,-15.765],[-43.5943,-15.754],[-43.5855,-15.7348],[-43.6026,-15.7205],[-43.5085,-15.6624],[-43.5003,-15.6486],[-43.3931,-15.5306],[-43.3879,-15.4994],[-43.3717,-15.4904],[-43.3631,-15.4669],[-43.3818,-15.4472],[-43.3802,-15.4186],[-43.401,-15.3896],[-43.4317,-15.3795],[-43.4425,-15.3589],[-43.3115,-15.3271],[-43.3131,-15.3429],[-43.2972,-15.367],[-43.2896,-15.3938],[-43.2944,-15.4131],[-43.2786,-15.4189],[-43.279,-15.4398],[-43.2543,-15.4786],[-43.2565,-15.5062],[-43.2717,-15.5105],[-43.2832,-15.5459],[-43.2765,-15.5496],[-43.2772,-15.606]]]}},{"type":"Feature","properties":{"codarea":"3135209","centroide":[-44.849877486069765,-15.31980935965494],"codigo_ibge":3135209,"nome_ig":"Região do Jaíba"},"geometry":{"type":"Polygon","coordinates":[[[-45.3056,-14.8336],[-45.2835,-14.8625],[-45.2384,-14.877],[-45.2163,-14.9086],[-45.1855,-14.9825],[-45.1545,-15.0121],[-45.0731,-15.0749],[-45.0417,-15.0813],[-45.032,-15.1157],[-44.998,-15.1625],[-44.9959,-15.1749],[-44.9752,-15.1986],[-44.9858,-15.2129],[-45.0063,-15.26],[-45.0236,-15.2734],[-44.9954,-15.2966],[-44.993,-15.3298],[-44.9835,-15.3454],[-44.9637,-15.3515],[-44.9189,-15.3845],[-44.8812,-15.3968],[-44.8547,-15.4146],[-44.8309,-15.4406],[-44.7842,-15.4542],[-44.7618,-15.4857],[-44.7093,-15.4568],[-44.6957,-15.4542],[-44.6929,-15.4383],[-44.6588,-15.3964],[-44.6469,-15.3616],[-44.6269,-15.3395],[-44.5913,-15.323],[-44.5485,-15.3129],[-44.5296,-15.2874],[-44.5048,-15.2926],[-44.5015,-15.3246],[-44.4771,-15.3466],[-44.4571,-15.3553],[-44.4495,-15.3716],[-44.3647,-15.4615],[-44.3362,-15.4362],[-44.3433,-15.4129],[-44.3678,-15.3993],[-44.3626,-15.3019],[-44.3778,-15.3001],[-44.4036,-15.2524],[-44.4356,-15.2203],[-44.456,-15.2203],[-44.4509,-15.2428],[-44.4687,-15.269],[-44.4885,-15.2712],[-44.552,-15.1885],[-44.5608,-15.1701],[-44.5581,-15.1507],[-44.5777,-15.1299],[-44.5648,-15.1085],[-44.579,-15.0938],[-44.573,-15.0706],[-44.546,-15.0338],[-44.5446,-15.0105],[-44.5242,-14.9972],[-44.5205,-14.9765],[-44.4929,-14.9599],[-44.4871,-14.9643],[-44.4678,-14.9804],[-44.4102,-14.9715],[-44.3629,-14.9793],[-44.3491,-14.9924],[-44.3273,-15.0397],[-44.2946,-15.0767],[-44.2762,-15.0877],[-44.2488,-15.0862],[-44.2311,-15.1001],[-44.2407,-15.1129],[-44.2417,-15.136],[-44.2238,-15.1693],[-44.2096,-15.1753],[-44.1694,-15.1745],[-44.1219,-15.197],[-44.1034,-15.1566],[-44.1004,-15.1771],[-44.1055,-15.2104],[-44.1295,-15.2357],[-44.1357,-15.2597],[-44.1535,-15.2981],[-44.1496,-15.3203],[-44.1674,-15.3463],[-44.1806,-15.3899],[-44.1924,-15.3978],[-44.2341,-15.4006],[-44.2652,-15.4328],[-44.2679,-15.449],[-44.2934,-15.4755],[-44.3453,-15.4834],[-44.3731,-15.5173],[-44.3705,-15.5562],[-44.3892,-15.5931],[-44.4253,-15.6054],[-44.4539,-15.6229],[-44.4717,-15.6263],[-44.5326,-15.6889],[-44.5616,-15.7038],[-44.5834,-15.7035],[-44.609,-15.7262],[-44.6429,-15.7431],[-44.6579,-15.7654],[-44.6833,-15.7758],[-44.7198,-15.7769],[-44.7823,-15.8086],[-44.7974,-15.7724],[-44.8361,-15.7418],[-44.8635,-15.7302],[-44.8814,-15.7115],[-44.8804,-15.6975],[-44.9033,-15.6871],[-44.9145,-15.6666],[-44.9264,-15.6642],[-44.9509,-15.6422],[-44.9616,-15.6204],[-44.9831,-15.6093],[-44.9811,-15.5902],[-44.998,-15.5898],[-45.0118,-15.5621],[-45.0486,-15.554],[-45.0941,-15.5867],[-45.1161,-15.5714],[-45.1275,-15.5759],[-45.1557,-15.5568],[-45.1815,-15.557],[-45.1952,-15.5381],[-45.2314,-15.5106],[-45.239,-15.4852],[-45.2364,-15.4651],[-45.2551,-15.4146],[-45.2569,-15.3756],[-45.2768,-15.3555],[-45.3086,-15.3515],[-45.3206,-15.3379],[-45.3462,-15.3371],[-45.3516,-15.3492],[-45.3842,-15.3266],[-45.4345,-15.3174],[-45.4493,-15.2801],[-45.4658,-15.2719],[-45.4685,-15.2457],[-45.4555,-15.2307],[-45.47,-15.2157],[-45.4437,-15.1928],[-45.4388,-15.163],[-45.4198,-15.1538],[-45.4319,-15.134],[-45.468,-15.1167],[-45.4903,-15.0981],[-45.5096,-15.0489],[-45.5325,-15.0342],[-45.5724,-15.0265],[-45.5873,-15.0344],[-45.6185,-15.0241],[-45.6169,-15.0141],[-45.5934,-14.9755],[-45.5666,-14.9555],[-45.5667,-14.9448],[-45.5361,-14.9381],[-45.5206,-14.9535],[-45.4984,-14.9463],[-45.49,-14.9607],[-45.471,-14.9503],[-45.4579,-14.9547],[-45.4352,-14.9226],[-45.4102,-14.9234],[-45.3689,-14.8904],[-45.3622,-14.8707],[-45.318,-14.8525],[-45.3056,-14.8336]]]}},{"type":"Feature","properties":{"codarea":"3139300","centroide":[-44.0925077287815,-14.648550678884872],"codigo_ibge":3139300,"nome_ig":"Região do Jaíba"},"geometry":{"type":"Polygon","coordinates":[[[-43.8184,-14.3876],[-43.8319,-14.443],[-43.8702,-14.513],[-43.8811,-14.5624],[-43.8924,-14.5792],[-43.9174,-14.6566],[-43.9171,-14.7148],[-43.934,-14.7719],[-43.9196,-14.8234],[-43.9216,-14.8464],[-43.9544,-14.9157],[-43.9665,-14.9287],[-43.9834,-14.9665],[-43.9973,-14.9767],[-44.0065,-14.9787],[-44.0087,-14.9622],[-44.0558,-14.9487],[-44.0499,-14.9224],[-44.0652,-14.9145],[-44.0698,-14.8838],[-44.0864,-14.8787],[-44.1008,-14.8483],[-44.0937,-14.8269],[-44.1123,-14.8104],[-44.1297,-14.8072],[-44.171,-14.7748],[-44.1945,-14.7636],[-44.211,-14.7645],[-44.2352,-14.7875],[-44.2831,-14.8066],[-44.2955,-14.8199],[-44.3236,-14.8027],[-44.2902,-14.776],[-44.2992,-14.7364],[-44.2844,-14.7256],[-44.3006,-14.7239],[-44.3218,-14.7087],[-44.323,-14.6896],[-44.3414,-14.6799],[-44.3506,-14.6604],[-44.3375,-14.6459],[-44.3685,-14.6045],[-44.398,-14.593],[-44.3665,-14.5828],[-44.3412,-14.5653],[-44.3237,-14.5668],[-44.3205,-14.5484],[-44.3017,-14.5429],[-44.2831,-14.5489],[-44.2737,-14.5631],[-44.2579,-14.5648],[-44.2514,-14.5395],[-44.2353,-14.516],[-44.2138,-14.5025],[-44.1956,-14.4612],[-44.2159,-14.4435],[-44.2108,-14.428],[-44.1904,-14.4194],[-44.1894,-14.4057],[-44.1616,-14.4103],[-44.1456,-14.4052],[-44.1254,-14.3713],[-44.082,-14.3617],[-44.058,-14.3752],[-44.0254,-14.4998],[-44.0114,-14.5357],[-43.9415,-14.519],[-43.9321,-14.5236],[-43.9015,-14.4925],[-43.8977,-14.4632],[-43.866,-14.4042],[-43.8184,-14.3876]]]}},{"type":"Feature","properties":{"codarea":"3140852","centroide":[-43.76131091432254,-14.903537255306096],"codigo_ibge":3140852,"nome_ig":"Região do Jaíba"},"geometry":{"type":"Polygon","coordinates":[[[-43.7121,-14.7152],[-43.7217,-14.7268],[-43.6959,-14.7239],[-43.6721,-14.7299],[-43.657,-14.7457],[-43.615,-14.7598],[-43.5862,-14.75],[-43.5737,-14.7651],[-43.5416,-14.7791],[-43.531,-14.8154],[-43.5083,-14.8492],[-43.4953,-14.882],[-43.508,-14.8899],[-43.4978,-14.94],[-43.5169,-14.9362],[-43.5395,-14.9614],[-43.5252,-14.9773],[-43.528,-14.9889],[-43.5469,-14.968],[-43.5703,-14.9765],[-43.539,-15.0036],[-43.5367,-15.0231],[-43.5591,-15.0164],[-43.5673,-15.0035],[-43.5845,-15.008],[-43.5762,-15.0233],[-43.5553,-15.0315],[-43.5634,-15.0411],[-43.5861,-15.0242],[-43.5842,-15.0508],[-43.6199,-15.0413],[-43.6408,-15.0708],[-43.6264,-15.0746],[-43.6134,-15.0942],[-43.6397,-15.1005],[-43.6597,-15.1132],[-43.7899,-15.1122],[-43.9994,-15.0705],[-44.0187,-15.0701],[-44.0142,-15.0525],[-44.0181,-15.0141],[-44.0052,-15.003],[-43.9973,-14.9767],[-43.9834,-14.9665],[-43.9665,-14.9287],[-43.9544,-14.9157],[-43.9216,-14.8464],[-43.9196,-14.8234],[-43.934,-14.7719],[-43.9171,-14.7148],[-43.9174,-14.6566],[-43.8924,-14.5792],[-43.8811,-14.5624],[-43.8872,-14.5851],[-43.8748,-14.5963],[-43.8708,-14.6208],[-43.8835,-14.6525],[-43.8592,-14.6742],[-43.8468,-14.6721],[-43.7988,-14.6874],[-43.7632,-14.6926],[-43.7555,-14.7008],[-43.7263,-14.6981],[-43.7121,-14.7152]]]}},{"type":"Feature","properties":{"codarea":"3143302","centroide":[-43.929553022624376,-16.619075291315458],"codigo_ibge":3143302,"nome_ig":"Região do Jaíba"},"geometry":{"type":"Polygon","coordinates":[[[-43.7656,-16.0892],[-43.7851,-16.1261],[-43.7663,-16.1461],[-43.7647,-16.1656],[-43.7755,-16.1768],[-43.7741,-16.195],[-43.7911,-16.207],[-43.783,-16.2326],[-43.7966,-16.2341],[-43.7923,-16.2646],[-43.7788,-16.2821],[-43.7959,-16.2969],[-43.7832,-16.3415],[-43.7929,-16.3534],[-43.7635,-16.3803],[-43.7622,-16.4008],[-43.7467,-16.4052],[-43.7394,-16.4166],[-43.7414,-16.4462],[-43.7354,-16.489],[-43.7585,-16.5012],[-43.7517,-16.5188],[-43.7617,-16.5331],[-43.741,-16.5418],[-43.7515,-16.5687],[-43.7406,-16.5879],[-43.7402,-16.6096],[-43.7202,-16.6331],[-43.7223,-16.6432],[-43.7028,-16.6661],[-43.7071,-16.6865],[-43.6898,-16.7105],[-43.6678,-16.7251],[-43.6925,-16.7426],[-43.6978,-16.7747],[-43.6744,-16.8087],[-43.6998,-16.8276],[-43.69,-16.838],[-43.7014,-16.8509],[-43.7142,-16.8676],[-43.7077,-16.875],[-43.718,-16.9016],[-43.7444,-16.9072],[-43.7734,-16.8886],[-43.8105,-16.8999],[-43.8376,-16.8947],[-43.8638,-16.9038],[-43.8733,-16.9249],[-43.8567,-16.9387],[-43.8632,-16.9475],[-43.8873,-16.9489],[-43.8891,-16.9687],[-43.9201,-16.9652],[-43.9531,-16.9906],[-43.9662,-17.0268],[-44.0164,-17.0519],[-44.0232,-17.0688],[-44.0203,-17.1088],[-44.0268,-17.1218],[-44.0645,-17.1299],[-44.1056,-17.1457],[-44.0995,-17.1285],[-44.1269,-17.1091],[-44.1569,-17.1103],[-44.1813,-17.096],[-44.1951,-17.1036],[-44.195,-17.0671],[-44.1632,-17.0339],[-44.1505,-17.0315],[-44.1603,-16.9996],[-44.1325,-16.9643],[-44.1275,-16.9418],[-44.1414,-16.9324],[-44.1329,-16.8922],[-44.12,-16.8798],[-44.1301,-16.8214],[-44.0903,-16.8155],[-44.0724,-16.7993],[-44.1034,-16.7653],[-44.1095,-16.7451],[-44.1338,-16.7412],[-44.1459,-16.7261],[-44.1266,-16.6711],[-44.1069,-16.6437],[-44.1082,-16.6108],[-44.0825,-16.6048],[-44.0502,-16.6179],[-44.0214,-16.591],[-44.0052,-16.5494],[-43.9814,-16.5336],[-43.9687,-16.5108],[-43.9789,-16.4716],[-43.994,-16.4536],[-44.0167,-16.4464],[-44.0652,-16.4905],[-44.0821,-16.4908],[-44.1011,-16.466],[-44.1332,-16.4606],[-44.145,-16.4382],[-44.1819,-16.4208],[-44.2109,-16.3905],[-44.1618,-16.37],[-44.149,-16.3549],[-44.1273,-16.3765],[-44.1044,-16.3733],[-44.0927,-16.3913],[-44.0504,-16.4248],[-44.0378,-16.4244],[-44.0499,-16.3933],[-44.0607,-16.3844],[-44.0492,-16.2995],[-43.9806,-16.2346],[-43.9926,-16.2085],[-43.9901,-16.1631],[-43.9691,-16.0866],[-43.9426,-16.1043],[-43.9288,-16.098],[-43.8905,-16.1125],[-43.862,-16.1144],[-43.8307,-16.0931],[-43.8034,-16.0944],[-43.7839,-16.0843],[-43.7656,-16.0892]]]}},{"type":"Feature","properties":{"codarea":"3145059","centroide":[-43.2749400779456,-15.734757666672095],"codigo_ibge":3145059,"nome_ig":"Região do Jaíba"},"geometry":{"type":"Polygon","coordinates":[[[-43.2623,-15.8284],[-43.2907,-15.8286],[-43.301,-15.7986],[-43.317,-15.7806],[-43.3066,-15.7413],[-43.2926,-15.7278],[-43.3061,-15.701],[-43.2962,-15.6621],[-43.2999,-15.6516],[-43.2752,-15.622],[-43.2772,-15.606],[-43.2677,-15.6212],[-43.2701,-15.6601],[-43.2346,-15.7015],[-43.243,-15.726],[-43.2323,-15.7412],[-43.2433,-15.7776],[-43.2647,-15.819],[-43.2623,-15.8284]]]}},{"type":"Feature","properties":{"codarea":"3149150","centroide":[-44.32373538473878,-15.625850919028544],"codigo_ibge":3149150,"nome_ig":"Região do Jaíba"},"geometry":{"type":"Polygon","coordinates":[[[-44.0298,-15.4873],[-44.0546,-15.4734],[-44.0703,-15.4833],[-44.0837,-15.5075],[-44.0709,-15.5113],[-44.0935,-15.548],[-44.0952,-15.5801],[-44.1122,-15.599],[-44.1225,-15.6728],[-44.1412,-15.6558],[-44.1667,-15.6476],[-44.1797,-15.6352],[-44.1955,-15.6684],[-44.1854,-15.6758],[-44.2042,-15.6868],[-44.2334,-15.6756],[-44.2354,-15.7008],[-44.25,-15.7289],[-44.2745,-15.7335],[-44.2779,-15.7438],[-44.2947,-15.7669],[-44.3124,-15.7736],[-44.2948,-15.8047],[-44.2913,-15.8329],[-44.3037,-15.8436],[-44.3284,-15.8209],[-44.3442,-15.8238],[-44.3447,-15.8101],[-44.3689,-15.7851],[-44.4012,-15.7904],[-44.4272,-15.8054],[-44.4394,-15.8255],[-44.4385,-15.851],[-44.4907,-15.8037],[-44.4866,-15.7837],[-44.5006,-15.7751],[-44.542,-15.7847],[-44.5561,-15.7951],[-44.5664,-15.8331],[-44.5628,-15.8558],[-44.5372,-15.8725],[-44.5437,-15.9035],[-44.5766,-15.88],[-44.5822,-15.866],[-44.6139,-15.8354],[-44.6531,-15.8255],[-44.6625,-15.8026],[-44.6833,-15.7758],[-44.6579,-15.7654],[-44.6429,-15.7431],[-44.609,-15.7262],[-44.5834,-15.7035],[-44.5616,-15.7038],[-44.5326,-15.6889],[-44.4717,-15.6263],[-44.4539,-15.6229],[-44.4253,-15.6054],[-44.3892,-15.5931],[-44.3705,-15.5562],[-44.3731,-15.5173],[-44.3453,-15.4834],[-44.2934,-15.4755],[-44.2679,-15.449],[-44.2652,-15.4328],[-44.2341,-15.4006],[-44.1924,-15.3978],[-44.1806,-15.3899],[-44.1674,-15.3463],[-44.1496,-15.3203],[-44.1535,-15.2981],[-44.1357,-15.2597],[-44.118,-15.2629],[-44.1163,-15.2763],[-44.1274,-15.3185],[-44.1649,-15.3779],[-44.1456,-15.3734],[-44.1318,-15.403],[-44.1069,-15.4315],[-44.0739,-15.4379],[-44.0409,-15.454],[-44.0298,-15.4873]]]}},{"type":"Feature","properties":{"codarea":"3152204","centroide":[-43.075141562307095,-15.717071437375694],"codigo_ibge":3152204,"nome_ig":"Região do Jaíba"},"geometry":{"type":"Polygon","coordinates":[[[-42.9122,-15.4952],[-42.882,-15.5225],[-42.8358,-15.5348],[-42.8158,-15.5535],[-42.8112,-15.6097],[-42.8039,-15.6057],[-42.8006,-15.6454],[-42.7747,-15.6597],[-42.769,-15.6734],[-42.7858,-15.6768],[-42.7767,-15.7295],[-42.7883,-15.7238],[-42.826,-15.7357],[-42.8443,-15.7251],[-42.85,-15.709],[-42.8783,-15.6867],[-42.9089,-15.6984],[-42.9012,-15.7186],[-42.9123,-15.7409],[-42.9195,-15.786],[-42.9272,-15.786],[-42.9426,-15.8164],[-42.9548,-15.8217],[-42.9991,-15.8017],[-43.0182,-15.8059],[-43.0272,-15.7975],[-43.0405,-15.8123],[-43.0563,-15.8569],[-43.0937,-15.8372],[-43.1141,-15.8471],[-43.0901,-15.8923],[-43.1023,-15.9263],[-43.0946,-15.9308],[-43.1137,-15.9656],[-43.1334,-15.9641],[-43.1211,-16.0065],[-43.1452,-16.0369],[-43.1283,-16.0896],[-43.1353,-16.1101],[-43.128,-16.12],[-43.1314,-16.1518],[-43.1401,-16.1666],[-43.1576,-16.1265],[-43.1765,-16.1242],[-43.1905,-16.1112],[-43.1845,-16.0676],[-43.199,-16.0453],[-43.2146,-16.0554],[-43.2309,-16.042],[-43.2309,-16.0419],[-43.2191,-16.01],[-43.215,-15.9773],[-43.2262,-15.9345],[-43.2141,-15.9304],[-43.2044,-15.8744],[-43.2252,-15.8534],[-43.2161,-15.8296],[-43.2303,-15.8319],[-43.2406,-15.8178],[-43.2623,-15.8284],[-43.2647,-15.819],[-43.2433,-15.7776],[-43.2323,-15.7412],[-43.243,-15.726],[-43.2346,-15.7015],[-43.2701,-15.6601],[-43.2677,-15.6212],[-43.2772,-15.606],[-43.2765,-15.5496],[-43.2832,-15.5459],[-43.2717,-15.5105],[-43.2565,-15.5062],[-43.2543,-15.4786],[-43.279,-15.4398],[-43.2786,-15.4189],[-43.2944,-15.4131],[-43.2896,-15.3938],[-43.2972,-15.367],[-43.3131,-15.3429],[-43.3115,-15.3271],[-43.2621,-15.3304],[-43.2647,-15.3648],[-43.2523,-15.3737],[-43.2592,-15.3869],[-43.2522,-15.4039],[-43.2381,-15.4085],[-43.2545,-15.429],[-43.2355,-15.5026],[-43.2153,-15.5318],[-43.1837,-15.5521],[-43.1888,-15.5744],[-43.1695,-15.5783],[-43.1344,-15.5981],[-43.1292,-15.6113],[-43.0661,-15.6073],[-43.0503,-15.5915],[-43.0321,-15.5499],[-42.9737,-15.5217],[-42.9147,-15.5134],[-42.9122,-15.4952]]]}},{"type":"Feature","properties":{"codarea":"3161106","centroide":[-44.86120965539176,-15.896201690055774],"codigo_ibge":3161106,"nome_ig":"Região do Jaíba"},"geometry":{"type":"Polygon","coordinates":[[[-44.6833,-15.7758],[-44.6625,-15.8026],[-44.6531,-15.8255],[-44.6139,-15.8354],[-44.5822,-15.866],[-44.5766,-15.88],[-44.5437,-15.9035],[-44.5372,-15.8725],[-44.5628,-15.8558],[-44.5664,-15.8331],[-44.5561,-15.7951],[-44.542,-15.7847],[-44.5006,-15.7751],[-44.4866,-15.7837],[-44.4907,-15.8037],[-44.4385,-15.851],[-44.415,-15.8668],[-44.4114,-15.893],[-44.4227,-15.9079],[-44.4115,-15.9282],[-44.4354,-15.9561],[-44.4301,-15.9731],[-44.4574,-15.9939],[-44.4759,-15.9935],[-44.4965,-16.0206],[-44.5027,-16.0394],[-44.4977,-16.058],[-44.5092,-16.0713],[-44.5439,-16.0801],[-44.5602,-16.0752],[-44.5838,-16.0829],[-44.6085,-16.103],[-44.6237,-16.107],[-44.6595,-16.1339],[-44.6752,-16.0733],[-44.7035,-16.1119],[-44.7268,-16.1321],[-44.7459,-16.1346],[-44.7742,-16.1601],[-44.7913,-16.1504],[-44.8107,-16.1558],[-44.8284,-16.1422],[-44.8673,-16.1282],[-44.8801,-16.1413],[-44.9086,-16.1411],[-44.9761,-16.1629],[-45.0024,-16.1593],[-45.0142,-16.1494],[-45.0496,-16.1439],[-45.0795,-16.1216],[-45.0666,-16.0608],[-45.0417,-16.0124],[-45.0429,-15.9928],[-45.0913,-15.9832],[-45.0948,-15.9646],[-45.1135,-15.9584],[-45.1551,-15.8826],[-45.1938,-15.8519],[-45.2256,-15.8434],[-45.2454,-15.7913],[-45.2488,-15.7616],[-45.2575,-15.7458],[-45.2433,-15.7254],[-45.2187,-15.7124],[-45.2091,-15.6965],[-45.1718,-15.6591],[-45.1228,-15.6272],[-45.1095,-15.5984],[-45.0941,-15.5867],[-45.0486,-15.554],[-45.0118,-15.5621],[-44.998,-15.5898],[-44.9811,-15.5902],[-44.9831,-15.6093],[-44.9616,-15.6204],[-44.9509,-15.6422],[-44.9264,-15.6642],[-44.9145,-15.6666],[-44.9033,-15.6871],[-44.8804,-15.6975],[-44.8814,-15.7115],[-44.8635,-15.7302],[-44.8361,-15.7418],[-44.7974,-15.7724],[-44.7823,-15.8086],[-44.7198,-15.7769],[-44.6833,-15.7758]]]}},{"type":"Feature","properties":{"codarea":"3171030","centroide":[-43.62837444631972,-15.540194169832603],"codigo_ibge":3171030,"nome_ig":"Região do Jaíba"},"geometry":{"type":"Polygon","coordinates":[[[-43.4425,-15.3589],[-43.4317,-15.3795],[-43.401,-15.3896],[-43.3802,-15.4186],[-43.3818,-15.4472],[-43.3631,-15.4669],[-43.3717,-15.4904],[-43.3879,-15.4994],[-43.3931,-15.5306],[-43.5003,-15.6486],[-43.5085,-15.6624],[-43.6026,-15.7205],[-43.6231,-15.7093],[-43.6435,-15.7106],[-43.6727,-15.7328],[-43.6971,-15.7299],[-43.725,-15.7588],[-43.7476,-15.7567],[-43.7614,-15.7798],[-43.7952,-15.7312],[-43.7887,-15.7024],[-43.8068,-15.6911],[-43.8184,-15.6672],[-43.8531,-15.6392],[-43.836,-15.6316],[-43.8305,-15.6078],[-43.7916,-15.5715],[-43.7629,-15.5693],[-43.7764,-15.5387],[-43.8377,-15.5234],[-43.8784,-15.4906],[-43.9091,-15.4947],[-43.899,-15.479],[-43.8753,-15.4648],[-43.8632,-15.4442],[-43.8305,-15.4356],[-43.8037,-15.4146],[-43.7627,-15.4139],[-43.734,-15.3779],[-43.7261,-15.3842],[-43.7008,-15.374],[-43.7031,-15.3633],[-43.6795,-15.355],[-43.6861,-15.3824],[-43.6609,-15.3772],[-43.6495,-15.4081],[-43.6634,-15.4027],[-43.6718,-15.4142],[-43.4425,-15.3589]]]}}]}