{"type":"FeatureCollection","features":[{"type":"Feature","properties":{"codarea":"3500303","centroide":[-47.03956414113343,-22.049810276561164],"codigo_ibge":3500303,"nome_ig":"Região de Pinhal"},"geometry":{"type":"MultiPolygon","coordinates":[[[[-46.9397,-21.978],[-46.9419,-21.9988],[-46.9303,-22.0109],[-46.9025,-22.0065],[-46.882,-22.0121],[-46.8611,-22.0504],[-46.8812,-22.0643],[-46.892,-22.086],[-46.8896,-22.1115],[-46.8748,-22.1131],[-46.8932,-22.13],[-46.9212,-22.1306],[-46.937,-22.1464],[-46.9604,-22.1437],[-46.9782,-22.1267],[-46.9957,-22.1273],[-47.0171,-22.1145],[-47.0462,-22.1156],[-47.0565,-22.1018],[-47.0887,-22.0848],[-47.1009,-22.0666],[-47.1304,-22.088],[-47.1399,-22.1124],[-47.1658,-22.0931],[-47.1974,-22.0987],[-47.22,-22.0778],[-47.2185,-22.0637],[-47.2337,-22.0544],[-47.2016,-22.0341],[-47.2162,-21.9759],[-47.1954,-21.9737],[-47.1703,-21.9772],[-47.1642,-21.988],[-47.1159,-21.9733],[-47.0952,-21.9855],[-47.0353,-21.9921],[-47.031,-22.0104],[-47.0128,-22.0064],[-47.0075,-21.9756],[-46.9821,-21.9676],[-46.9603,-21.982],[-46.9397,-21.978]]]]}},{"type":"Feature","properties":{"codarea":"3500402","centroide":[-46.691340434098535,-21.912913207583102],"codigo_ibge":3500402,"nome_ig":"Região de Pinhal"},"geometry":{"type":"MultiPolygon","coordinates":[[[[-46.6907,-21.8376],[-46.6667,-21.849],[-46.6475,-21.8804],[-46.6531,-21.896],[-46.6737,-21.911],[-46.6556,-21.9394],[-46.6442,-21.9745],[-46.6179,-21.995],[-46.6132,-22.0149],[-46.6499,-22.0095],[-46.6744,-21.9903],[-46.713,-21.9684],[-46.7334,-21.9509],[-46.7319,-21.8741],[-46.7581,-21.8473],[-46.7505,-21.8341],[-46.7361,-21.8185],[-46.6907,-21.8376]]]]}},{"type":"Feature","properties":{"codarea":"3515186","centroide":[-46.79443152560404,-22.19209616096674],"codigo_ibge":3515186,"nome_ig":"Região de Pinhal"},"geometry":{"type":"MultiPolygon","coordinates":[[[[-46.7466,-22.0924],[-46.7577,-22.1117],[-46.7333,-22.153],[-46.7126,-22.1735],[-46.6718,-22.1783],[-46.6803,-22.2165],[-46.694,-22.2466],[-46.7104,-22.2623],[-46.7053,-22.2959],[-46.7232,-22.3066],[-46.7351,-22.2924],[-46.7502,-22.2997],[-46.7683,-22.286],[-46.7912,-22.2973],[-46.7972,-22.2799],[-46.8238,-22.2666],[-46.867,-22.2591],[-46.8999,-22.2457],[-46.897,-22.2048],[-46.8999,-22.1756],[-46.8828,-22.1658],[-46.8838,-22.1539],[-46.8656,-22.1334],[-46.8748,-22.1131],[-46.8896,-22.1115],[-46.892,-22.086],[-46.865,-22.0814],[-46.8425,-22.0949],[-46.8181,-22.0844],[-46.8218,-22.0699],[-46.7867,-22.0927],[-46.7692,-22.0874],[-46.7466,-22.0924]]]]}},{"type":"Feature","properties":{"codarea":"3557303","centroide":[-46.94356787652194,-22.23669795894923],"codigo_ibge":3557303,"nome_ig":"Região de Pinhal"},"geometry":{"type":"MultiPolygon","coordinates":[[[[-46.897,-22.2048],[-46.8999,-22.2457],[-46.9133,-22.2628],[-46.9568,-22.2956],[-46.9695,-22.2953],[-46.9775,-22.2557],[-46.9837,-22.1999],[-46.9583,-22.1978],[-46.954,-22.1865],[-46.9273,-22.1848],[-46.9126,-22.2152],[-46.897,-22.2048]]]]}},{"type":"Feature","properties":{"codarea":"3522604","centroide":[-46.77203780695336,-22.432145581216485],"codigo_ibge":3522604,"nome_ig":"Região de Pinhal"},"geometry":{"type":"MultiPolygon","coordinates":[[[[-46.7232,-22.3066],[-46.7011,-22.3214],[-46.6976,-22.3432],[-46.6752,-22.3694],[-46.6609,-22.366],[-46.6664,-22.4152],[-46.6316,-22.4358],[-46.6163,-22.4386],[-46.6582,-22.4731],[-46.6934,-22.4795],[-46.6885,-22.4903],[-46.7125,-22.5037],[-46.7203,-22.5264],[-46.7371,-22.5474],[-46.7603,-22.5469],[-46.7703,-22.5363],[-46.7976,-22.5414],[-46.8184,-22.5528],[-46.8332,-22.5793],[-46.8692,-22.5839],[-46.8805,-22.5835],[-46.8716,-22.5476],[-46.8632,-22.5065],[-46.8846,-22.4655],[-46.864,-22.4441],[-46.871,-22.4292],[-46.8602,-22.3979],[-46.8721,-22.3881],[-46.8548,-22.3483],[-46.8269,-22.3363],[-46.7912,-22.2973],[-46.7683,-22.286],[-46.7502,-22.2997],[-46.7351,-22.2924],[-46.7232,-22.3066]]]]}},{"type":"Feature","properties":{"codarea":"3530706","centroide":[-47.02804336918324,-22.231812762682214],"codigo_ibge":3530706,"nome_ig":"Região de Pinhal"},"geometry":{"type":"MultiPolygon","coordinates":[[[[-46.8748,-22.1131],[-46.8656,-22.1334],[-46.8838,-22.1539],[-46.8828,-22.1658],[-46.8999,-22.1756],[-46.897,-22.2048],[-46.9126,-22.2152],[-46.9273,-22.1848],[-46.954,-22.1865],[-46.9583,-22.1978],[-46.9837,-22.1999],[-46.9775,-22.2557],[-46.9695,-22.2953],[-46.9568,-22.2956],[-46.9133,-22.2628],[-46.8999,-22.2457],[-46.867,-22.2591],[-46.8238,-22.2666],[-46.7972,-22.2799],[-46.7912,-22.2973],[-46.8269,-22.3363],[-46.8548,-22.3483],[-46.8721,-22.3881],[-46.8903,-22.3771],[-46.9127,-22.3765],[-46.9395,-22.4008],[-46.9701,-22.3783],[-46.9827,-22.3783],[-47.0023,-22.3605],[-47.0161,-22.3375],[-47.0139,-22.3242],[-47.0321,-22.3076],[-47.0837,-22.2998],[-47.0997,-22.2929],[-47.1341,-22.3001],[-47.1688,-22.2843],[-47.1842,-22.292],[-47.1882,-22.2713],[-47.2111,-22.2778],[-47.2326,-22.2504],[-47.2186,-22.2312],[-47.2417,-22.2197],[-47.2242,-22.2063],[-47.2045,-22.2047],[-47.1911,-22.1735],[-47.1992,-22.1447],[-47.1935,-22.1118],[-47.1974,-22.0987],[-47.1658,-22.0931],[-47.1399,-22.1124],[-47.1304,-22.088],[-47.1009,-22.0666],[-47.0887,-22.0848],[-47.0565,-22.1018],[-47.0462,-22.1156],[-47.0171,-22.1145],[-46.9957,-22.1273],[-46.9782,-22.1267],[-46.9604,-22.1437],[-46.937,-22.1464],[-46.9212,-22.1306],[-46.8932,-22.13],[-46.8748,-22.1131]]]]}},{"type":"Feature","properties":{"codarea":"3548104","centroide":[-46.68323096970195,-22.131045713825493],"codigo_ibge":3548104,"nome_ig":"Região de Pinhal"},"geometry":{"type":"MultiPolygon","coordinates":[[[[-46.6455,-22.1806],[-46.6718,-22.1783],[-46.7126,-22.1735],[-46.7333,-22.153],[-46.7577,-22.1117],[-46.7466,-22.0924],[-46.7195,-22.0832],[-46.7,-22.0951],[-46.6467,-22.0918],[-46.6241,-22.1085],[-46.6161,-22.1306],[-46.5985,-22.1363],[-46.613,-22.1502],[-46.6404,-22.1577],[-46.6455,-22.1806]]]]}},{"type":"Feature","properties":{"codarea":"3549102","centroide":[-46.802365188479016,-21.97727943606413],"codigo_ibge":3549102,"nome_ig":"Região de Pinhal"},"geometry":{"type":"MultiPolygon","coordinates":[[[[-46.7581,-21.8473],[-46.7319,-21.8741],[-46.7334,-21.9509],[-46.713,-21.9684],[-46.6744,-21.9903],[-46.6499,-22.0095],[-46.6622,-22.0236],[-46.6755,-22.0223],[-46.6853,-22.0374],[-46.6647,-22.0688],[-46.7161,-22.0735],[-46.7195,-22.0832],[-46.7466,-22.0924],[-46.7692,-22.0874],[-46.7867,-22.0927],[-46.8218,-22.0699],[-46.8181,-22.0844],[-46.8425,-22.0949],[-46.865,-22.0814],[-46.892,-22.086],[-46.8812,-22.0643],[-46.8611,-22.0504],[-46.882,-22.0121],[-46.9025,-22.0065],[-46.9303,-22.0109],[-46.9419,-21.9988],[-46.9397,-21.978],[-46.9195,-21.9702],[-46.9167,-21.9445],[-46.9257,-21.945],[-46.9349,-21.9218],[-46.9229,-21.9201],[-46.9132,-21.8977],[-46.8886,-21.8727],[-46.8621,-21.886],[-46.8313,-21.8618],[-46.8029,-21.8574],[-46.7893,-21.8393],[-46.7581,-21.8473]]]]}}]}