{"type":"FeatureCollection","features":[{"type":"Feature","properties":{"codarea":"1711951","centroide":[-47.481988788280965,-10.341887084359687],"codigo_ibge":1711951,"nome_ig":"Região do Jalapão do Estado do Tocantins"},"geometry":{"type":"Polygon","coordinates":[[[-47.3042,-10.4395],[-47.3939,-10.5098],[-47.4425,-10.5215],[-47.4526,-10.5356],[-47.4781,-10.5064],[-47.4964,-10.4607],[-47.5211,-10.4526],[-47.54,-10.4245],[-47.5689,-10.4203],[-47.577,-10.4104],[-47.6164,-10.4187],[-47.6274,-10.4029],[-47.668,-10.3939],[-47.6696,-10.3871],[-47.6205,-10.3414],[-47.6409,-10.3277],[-47.6346,-10.2921],[-47.6442,-10.2672],[-47.5982,-10.2503],[-47.5679,-10.2475],[-47.5786,-10.2264],[-47.5807,-10.1837],[-47.5694,-10.164],[-47.5404,-10.1836],[-47.5251,-10.1535],[-47.5148,-10.1725],[-47.4745,-10.1903],[-47.446,-10.1612],[-47.434,-10.1663],[-47.422,-10.1926],[-47.4022,-10.1995],[-47.4285,-10.2335],[-47.3909,-10.2457],[-47.3726,-10.2391],[-47.3592,-10.2813],[-47.3779,-10.3284],[-47.3685,-10.3458],[-47.3713,-10.3619],[-47.3507,-10.3839],[-47.3293,-10.385],[-47.3214,-10.4257],[-47.3042,-10.4395]]]}},{"type":"Feature","properties":{"codarea":"1712405","centroide":[-46.938595193006094,-9.526393943713975],"codigo_ibge":1712405,"nome_ig":"Região do Jalapão do Estado do Tocantins"},"geometry":{"type":"Polygon","coordinates":[[[-47.0388,-9.0009],[-47.0685,-9.012],[-47.0434,-9.0265],[-47.0687,-9.0638],[-47.0343,-9.0694],[-47.0004,-9.0814],[-46.9759,-9.0817],[-46.9402,-9.0637],[-46.9216,-9.0668],[-46.9121,-9.0827],[-46.929,-9.0833],[-46.9263,-9.1349],[-46.9067,-9.1354],[-46.8959,-9.1225],[-46.8846,-9.1439],[-46.8611,-9.1464],[-46.8482,-9.1715],[-46.8507,-9.1918],[-46.8227,-9.199],[-46.8196,-9.2116],[-46.8288,-9.24],[-46.8191,-9.2574],[-46.847,-9.2924],[-46.8353,-9.3082],[-46.8187,-9.3034],[-46.7991,-9.3388],[-46.7663,-9.3676],[-46.7586,-9.3812],[-46.7659,-9.4018],[-46.7543,-9.4138],[-46.7233,-9.3963],[-46.694,-9.398],[-46.6659,-9.3919],[-46.6327,-9.4115],[-46.6479,-9.4271],[-46.64,-9.4577],[-46.6004,-9.4704],[-46.5926,-9.4834],[-46.5732,-9.4777],[-46.5599,-9.4939],[-46.5757,-9.5082],[-46.5745,-9.5206],[-46.5391,-9.5601],[-46.5923,-9.5872],[-46.5913,-9.6053],[-46.6061,-9.6301],[-46.613,-9.6658],[-46.6533,-9.6934],[-46.6443,-9.7403],[-46.6236,-9.7502],[-46.5961,-9.7472],[-46.5693,-9.7697],[-46.5796,-9.7963],[-46.5624,-9.8106],[-46.5357,-9.8086],[-46.5128,-9.7975],[-46.4945,-9.8262],[-46.4971,-9.8436],[-46.4803,-9.8552],[-46.4916,-9.87],[-46.4728,-9.8774],[-46.4756,-9.9065],[-46.5026,-9.8809],[-46.5073,-9.8663],[-46.5484,-9.8575],[-46.5801,-9.8758],[-46.5977,-9.898],[-46.6572,-9.9188],[-46.6586,-9.9106],[-46.728,-9.9186],[-46.7524,-9.9449],[-46.783,-9.9502],[-46.801,-9.9696],[-46.8334,-9.979],[-46.8391,-9.97],[-46.8676,-9.9675],[-46.899,-9.9825],[-46.9078,-9.9722],[-46.9209,-9.9823],[-46.9775,-9.9911],[-46.999,-10.0038],[-47.0157,-10.0037],[-47.0409,-10.022],[-47.0374,-10.0327],[-47.0697,-10.0676],[-47.0954,-10.0723],[-47.1156,-10.043],[-47.1708,-10.0383],[-47.181,-10.0219],[-47.2037,-10.0209],[-47.2104,-10.0024],[-47.2012,-9.9568],[-47.1782,-9.9549],[-47.1663,-9.9337],[-47.1518,-9.933],[-47.1562,-9.9116],[-47.1346,-9.8904],[-47.1434,-9.8745],[-47.1186,-9.8543],[-47.1216,-9.8425],[-47.0745,-9.8139],[-47.0703,-9.7893],[-47.0876,-9.7794],[-47.0859,-9.7217],[-47.0988,-9.702],[-47.0824,-9.6851],[-47.0795,-9.6497],[-47.0639,-9.6452],[-47.0581,-9.6251],[-47.07,-9.6262],[-47.0869,-9.5855],[-47.0894,-9.5452],[-47.0973,-9.5153],[-47.0815,-9.4879],[-47.084,-9.4716],[-47.1022,-9.4784],[-47.0905,-9.4616],[-47.1252,-9.4406],[-47.1921,-9.4116],[-47.1987,-9.3983],[-47.2258,-9.396],[-47.2555,-9.3597],[-47.2626,-9.3382],[-47.3251,-9.3224],[-47.3373,-9.2885],[-47.3464,-9.2879],[-47.3272,-9.2548],[-47.2987,-9.2524],[-47.2766,-9.2341],[-47.2899,-9.2269],[-47.2675,-9.2066],[-47.2475,-9.0644],[-47.2592,-9.0439],[-47.2407,-9.0111],[-47.2372,-8.9594],[-47.2232,-8.9411],[-47.2066,-8.9495],[-47.1646,-8.9247],[-47.1402,-8.9226],[-47.1272,-8.9394],[-47.0971,-8.9353],[-47.0798,-8.958],[-47.0608,-8.9556],[-47.0388,-9.0009]]]}},{"type":"Feature","properties":{"codarea":"1712702","centroide":[-46.5009429270188,-10.575896056780627],"codigo_ibge":1712702,"nome_ig":"Região do Jalapão do Estado do Tocantins"},"geometry":{"type":"Polygon","coordinates":[[[-46.1948,-10.1829],[-46.1633,-10.2136],[-46.1302,-10.2065],[-46.0928,-10.2099],[-46.039,-10.1767],[-46.0232,-10.1833],[-46.0177,-10.2403],[-46.0029,-10.2617],[-45.9962,-10.2503],[-45.9739,-10.2483],[-45.9462,-10.2585],[-45.8778,-10.2393],[-45.8432,-10.2592],[-45.7937,-10.2676],[-45.744,-10.2399],[-45.7272,-10.2033],[-45.7349,-10.1721],[-45.7239,-10.1556],[-45.6999,-10.186],[-45.6967,-10.257],[-45.7205,-10.2974],[-45.7239,-10.3141],[-45.745,-10.3484],[-45.7954,-10.3529],[-45.8288,-10.3713],[-45.8319,-10.4564],[-45.8454,-10.4877],[-45.9268,-10.5175],[-45.9611,-10.5369],[-46.0069,-10.5753],[-46.0736,-10.6041],[-46.0984,-10.6054],[-46.1157,-10.6198],[-46.1417,-10.6236],[-46.182,-10.6387],[-46.2068,-10.6592],[-46.1928,-10.6866],[-46.1939,-10.7182],[-46.2561,-10.7594],[-46.2297,-10.7675],[-46.2309,-10.7966],[-46.2512,-10.8143],[-46.282,-10.8233],[-46.299,-10.864],[-46.2858,-10.9097],[-46.3185,-10.9289],[-46.3244,-10.9398],[-46.3557,-10.9603],[-46.4023,-11.0002],[-46.4039,-11.0141],[-46.4217,-11.0359],[-46.4475,-11.0923],[-46.4533,-11.1561],[-46.4665,-11.1831],[-46.4881,-11.205],[-46.5451,-11.2267],[-46.582,-11.2467],[-46.609,-11.2557],[-46.6366,-11.2291],[-46.6767,-11.217],[-46.69,-11.2013],[-46.6854,-11.1689],[-46.6975,-11.1373],[-46.7034,-11.1296],[-46.7149,-11.1026],[-46.7104,-11.0937],[-46.7283,-11.0713],[-46.7662,-11.0492],[-46.7791,-11.0356],[-46.8135,-11.0545],[-46.8419,-11.0583],[-46.8731,-11.0415],[-46.8533,-11.0089],[-46.8291,-10.953],[-46.8136,-10.9578],[-46.8089,-10.945],[-46.8283,-10.9307],[-46.8425,-10.9407],[-46.8551,-10.9667],[-46.8524,-10.9313],[-46.8402,-10.9279],[-46.8492,-10.8854],[-46.8885,-10.9021],[-46.8877,-10.8303],[-46.8751,-10.8283],[-46.877,-10.8019],[-46.8905,-10.8083],[-46.8875,-10.779],[-46.9159,-10.7807],[-46.9197,-10.7537],[-46.9081,-10.7541],[-46.9018,-10.7292],[-46.9104,-10.7168],[-46.8805,-10.7161],[-46.8894,-10.6891],[-46.9065,-10.6919],[-46.9043,-10.6732],[-46.9338,-10.6755],[-46.9291,-10.6578],[-46.9472,-10.6685],[-46.9549,-10.6615],[-46.949,-10.6393],[-46.958,-10.6217],[-46.9732,-10.6186],[-46.9598,-10.5869],[-47.0022,-10.5858],[-46.9936,-10.5753],[-46.9937,-10.5515],[-47.0144,-10.5089],[-47.0235,-10.5186],[-47.0376,-10.5115],[-47.0535,-10.5187],[-47.058,-10.5028],[-47.0738,-10.5075],[-47.0825,-10.4712],[-47.0976,-10.4859],[-47.1136,-10.4861],[-47.1092,-10.4558],[-47.0874,-10.4506],[-47.1006,-10.4399],[-47.1238,-10.4531],[-47.1281,-10.44],[-47.11,-10.4216],[-47.1019,-10.3812],[-47.089,-10.3652],[-47.0737,-10.3592],[-47.0561,-10.3372],[-47.0518,-10.3199],[-47.0369,-10.3314],[-47.0352,-10.3105],[-47.021,-10.308],[-47.0232,-10.2852],[-47.0073,-10.2683],[-46.9887,-10.2752],[-46.9769,-10.2574],[-46.9955,-10.2452],[-46.9503,-10.1877],[-46.9476,-10.1762],[-46.9067,-10.1864],[-46.9019,-10.1943],[-46.8602,-10.1934],[-46.8387,-10.1841],[-46.8167,-10.1603],[-46.7848,-10.1622],[-46.756,-10.1485],[-46.7223,-10.1598],[-46.7134,-10.1522],[-46.6804,-10.1627],[-46.6669,-10.1869],[-46.6138,-10.2248],[-46.5633,-10.2088],[-46.5253,-10.2008],[-46.4781,-10.204],[-46.4364,-10.2176],[-46.4175,-10.2109],[-46.3917,-10.2124],[-46.3697,-10.2234],[-46.3469,-10.2096],[-46.3175,-10.2103],[-46.2967,-10.23],[-46.283,-10.2273],[-46.2658,-10.1985],[-46.2197,-10.1957],[-46.212,-10.2026],[-46.1948,-10.1829]]]}},{"type":"Feature","properties":{"codarea":"1715101","centroide":[-47.38269635506046,-10.155489558019315],"codigo_ibge":1715101,"nome_ig":"Região do Jalapão do Estado do Tocantins"},"geometry":{"type":"Polygon","coordinates":[[[-47.2037,-10.0209],[-47.181,-10.0219],[-47.1708,-10.0383],[-47.1156,-10.043],[-47.0954,-10.0723],[-47.076,-10.0809],[-47.0506,-10.1026],[-47.0487,-10.1211],[-47.0224,-10.1242],[-46.9936,-10.1373],[-46.9821,-10.1537],[-46.954,-10.1648],[-46.9476,-10.1762],[-46.9503,-10.1877],[-46.9955,-10.2452],[-46.9769,-10.2574],[-46.9887,-10.2752],[-47.0073,-10.2683],[-47.0232,-10.2852],[-47.021,-10.308],[-47.0352,-10.3105],[-47.0369,-10.3314],[-47.0518,-10.3199],[-47.0561,-10.3372],[-47.0737,-10.3592],[-47.089,-10.3652],[-47.1024,-10.3416],[-47.1182,-10.356],[-47.1255,-10.3821],[-47.1497,-10.3962],[-47.2118,-10.4067],[-47.2315,-10.389],[-47.2767,-10.4071],[-47.2892,-10.4064],[-47.2878,-10.4267],[-47.3042,-10.4395],[-47.3214,-10.4257],[-47.3293,-10.385],[-47.3507,-10.3839],[-47.3713,-10.3619],[-47.3685,-10.3458],[-47.3779,-10.3284],[-47.3592,-10.2813],[-47.3726,-10.2391],[-47.3909,-10.2457],[-47.4285,-10.2335],[-47.4022,-10.1995],[-47.422,-10.1926],[-47.434,-10.1663],[-47.446,-10.1612],[-47.4745,-10.1903],[-47.5148,-10.1725],[-47.5251,-10.1535],[-47.5404,-10.1836],[-47.5694,-10.164],[-47.5807,-10.1837],[-47.5786,-10.2264],[-47.5679,-10.2475],[-47.6148,-10.2389],[-47.6321,-10.2169],[-47.6416,-10.2228],[-47.6751,-10.1958],[-47.7123,-10.1938],[-47.7543,-10.1845],[-47.7614,-10.1674],[-47.7941,-10.1664],[-47.8005,-10.123],[-47.8104,-10.0991],[-47.8041,-10.0458],[-47.8196,-10.0196],[-47.8332,-9.9944],[-47.8313,-9.9708],[-47.8597,-9.9335],[-47.8426,-9.9095],[-47.8406,-9.8797],[-47.8169,-9.8887],[-47.7917,-9.9209],[-47.7564,-9.9271],[-47.6994,-9.9566],[-47.6662,-9.9641],[-47.662,-9.9734],[-47.6275,-9.9878],[-47.5985,-9.9784],[-47.556,-9.9807],[-47.5322,-9.9889],[-47.4798,-9.992],[-47.4559,-9.9989],[-47.4222,-10.0243],[-47.4147,-10.0386],[-47.3794,-10.0485],[-47.3727,-10.0384],[-47.3077,-10.0394],[-47.2805,-10.0564],[-47.2634,-10.0534],[-47.2531,-10.0398],[-47.2037,-10.0209]]]}},{"type":"Feature","properties":{"codarea":"1717909","centroide":[-47.32662254893408,-10.752064958194657],"codigo_ibge":1717909,"nome_ig":"Região do Jalapão do Estado do Tocantins"},"geometry":{"type":"Polygon","coordinates":[[[-47.089,-10.3652],[-47.1019,-10.3812],[-47.11,-10.4216],[-47.1281,-10.44],[-47.1238,-10.4531],[-47.1006,-10.4399],[-47.0874,-10.4506],[-47.1092,-10.4558],[-47.1136,-10.4861],[-47.0976,-10.4859],[-47.0825,-10.4712],[-47.0738,-10.5075],[-47.058,-10.5028],[-47.0535,-10.5187],[-47.0376,-10.5115],[-47.0235,-10.5186],[-47.0144,-10.5089],[-46.9937,-10.5515],[-46.9936,-10.5753],[-47.0022,-10.5858],[-46.9598,-10.5869],[-46.9732,-10.6186],[-46.958,-10.6217],[-46.949,-10.6393],[-46.9549,-10.6615],[-46.9472,-10.6685],[-46.9291,-10.6578],[-46.9338,-10.6755],[-46.9043,-10.6732],[-46.9065,-10.6919],[-46.8894,-10.6891],[-46.8805,-10.7161],[-46.9104,-10.7168],[-46.9018,-10.7292],[-46.9081,-10.7541],[-46.9197,-10.7537],[-46.9159,-10.7807],[-46.8875,-10.779],[-46.8905,-10.8083],[-46.877,-10.8019],[-46.8751,-10.8283],[-46.8877,-10.8303],[-46.8885,-10.9021],[-46.8492,-10.8854],[-46.8402,-10.9279],[-46.8524,-10.9313],[-46.8551,-10.9667],[-46.8425,-10.9407],[-46.8283,-10.9307],[-46.8089,-10.945],[-46.8136,-10.9578],[-46.8291,-10.953],[-46.8533,-11.0089],[-46.8731,-11.0415],[-46.8419,-11.0583],[-46.8135,-11.0545],[-46.7791,-11.0356],[-46.7662,-11.0492],[-46.7283,-11.0713],[-46.7104,-11.0937],[-46.7149,-11.1026],[-46.7034,-11.1296],[-46.7447,-11.1237],[-46.7586,-11.1031],[-46.7908,-11.0983],[-46.844,-11.098],[-46.8538,-11.1127],[-46.9085,-11.1231],[-46.9215,-11.1344],[-46.9709,-11.1535],[-46.9831,-11.1641],[-47.0204,-11.1631],[-47.038,-11.1541],[-47.0544,-11.134],[-47.0683,-11.138],[-47.0913,-11.1247],[-47.1074,-11.1054],[-47.1293,-11.1054],[-47.1621,-11.0429],[-47.188,-11.0392],[-47.1958,-11.0272],[-47.2211,-11.0254],[-47.2317,-11.0098],[-47.2685,-10.9837],[-47.3266,-10.9959],[-47.333,-11.0052],[-47.3459,-10.995],[-47.3546,-11.0058],[-47.3725,-10.9998],[-47.4007,-11.0032],[-47.4025,-11.0186],[-47.4186,-11.0051],[-47.4357,-11.02],[-47.4654,-11.0273],[-47.4775,-11.0151],[-47.5225,-11.0161],[-47.527,-10.9997],[-47.5389,-11.013],[-47.5658,-11.0133],[-47.5687,-10.9901],[-47.6057,-11.0001],[-47.6205,-10.9775],[-47.6347,-10.9707],[-47.6478,-10.9791],[-47.6625,-10.9631],[-47.7015,-10.9552],[-47.7094,-10.9443],[-47.7266,-10.9512],[-47.7465,-10.9368],[-47.7359,-10.9199],[-47.7431,-10.9078],[-47.7539,-10.8965],[-47.7575,-10.8632],[-47.7898,-10.7857],[-47.8239,-10.7458],[-47.785,-10.7094],[-47.7926,-10.6899],[-47.8114,-10.6785],[-47.8043,-10.6668],[-47.8197,-10.6551],[-47.8298,-10.6338],[-47.8268,-10.6063],[-47.8497,-10.586],[-47.857,-10.5624],[-47.8405,-10.5469],[-47.848,-10.5281],[-47.8352,-10.4933],[-47.8219,-10.4911],[-47.8333,-10.4278],[-47.843,-10.4085],[-47.8378,-10.3954],[-47.8235,-10.4078],[-47.7985,-10.4043],[-47.7632,-10.4183],[-47.7393,-10.4155],[-47.7237,-10.4021],[-47.6957,-10.405],[-47.668,-10.3939],[-47.6274,-10.4029],[-47.6164,-10.4187],[-47.577,-10.4104],[-47.5689,-10.4203],[-47.54,-10.4245],[-47.5211,-10.4526],[-47.4964,-10.4607],[-47.4781,-10.5064],[-47.4526,-10.5356],[-47.4425,-10.5215],[-47.3939,-10.5098],[-47.3042,-10.4395],[-47.2878,-10.4267],[-47.2892,-10.4064],[-47.2767,-10.4071],[-47.2315,-10.389],[-47.2118,-10.4067],[-47.1497,-10.3962],[-47.1255,-10.3821],[-47.1182,-10.356],[-47.1024,-10.3416],[-47.089,-10.3652]]]}},{"type":"Feature","properties":{"codarea":"1718758","centroide":[-47.49611010083898,-9.647106581734743],"codigo_ibge":1718758,"nome_ig":"Região do Jalapão do Estado do Tocantins"},"geometry":{"type":"Polygon","coordinates":[[[-47.3464,-9.2879],[-47.3373,-9.2885],[-47.3251,-9.3224],[-47.2626,-9.3382],[-47.2555,-9.3597],[-47.2258,-9.396],[-47.1987,-9.3983],[-47.1921,-9.4116],[-47.1252,-9.4406],[-47.0905,-9.4616],[-47.1022,-9.4784],[-47.084,-9.4716],[-47.0815,-9.4879],[-47.0973,-9.5153],[-47.0894,-9.5452],[-47.0869,-9.5855],[-47.07,-9.6262],[-47.0581,-9.6251],[-47.0639,-9.6452],[-47.0795,-9.6497],[-47.0824,-9.6851],[-47.0988,-9.702],[-47.0859,-9.7217],[-47.0876,-9.7794],[-47.0703,-9.7893],[-47.0745,-9.8139],[-47.1216,-9.8425],[-47.1186,-9.8543],[-47.1434,-9.8745],[-47.1346,-9.8904],[-47.1562,-9.9116],[-47.1518,-9.933],[-47.1663,-9.9337],[-47.1782,-9.9549],[-47.2012,-9.9568],[-47.2104,-10.0024],[-47.2037,-10.0209],[-47.2531,-10.0398],[-47.2634,-10.0534],[-47.2805,-10.0564],[-47.3077,-10.0394],[-47.3727,-10.0384],[-47.3794,-10.0485],[-47.4147,-10.0386],[-47.4222,-10.0243],[-47.4559,-9.9989],[-47.4798,-9.992],[-47.5322,-9.9889],[-47.556,-9.9807],[-47.5985,-9.9784],[-47.6275,-9.9878],[-47.662,-9.9734],[-47.6662,-9.9641],[-47.6994,-9.9566],[-47.7564,-9.9271],[-47.7917,-9.9209],[-47.8169,-9.8887],[-47.8406,-9.8797],[-47.8691,-9.856],[-47.8785,-9.8395],[-47.8953,-9.7719],[-47.908,-9.659],[-47.9199,-9.6291],[-47.9114,-9.6079],[-47.9228,-9.5894],[-47.9254,-9.5555],[-47.9362,-9.5367],[-47.9252,-9.5109],[-47.9302,-9.4894],[-47.8999,-9.3999],[-47.8976,-9.3608],[-47.9051,-9.3401],[-47.8779,-9.3338],[-47.8521,-9.353],[-47.8166,-9.321],[-47.7625,-9.3224],[-47.7401,-9.3343],[-47.7382,-9.3176],[-47.7243,-9.3189],[-47.7275,-9.3337],[-47.6827,-9.3335],[-47.6545,-9.355],[-47.6451,-9.353],[-47.6348,-9.3281],[-47.6205,-9.3316],[-47.5955,-9.3014],[-47.5619,-9.3155],[-47.5186,-9.2899],[-47.5294,-9.2655],[-47.5175,-9.2542],[-47.4955,-9.2589],[-47.4664,-9.2438],[-47.4539,-9.2491],[-47.4343,-9.2327],[-47.4134,-9.2364],[-47.3795,-9.2533],[-47.3464,-9.2879]]]}},{"type":"Feature","properties":{"codarea":"1719004","centroide":[-47.74261501278977,-10.299259560357717],"codigo_ibge":1719004,"nome_ig":"Região do Jalapão do Estado do Tocantins"},"geometry":{"type":"Polygon","coordinates":[[[-47.5679,-10.2475],[-47.5982,-10.2503],[-47.6442,-10.2672],[-47.6346,-10.2921],[-47.6409,-10.3277],[-47.6205,-10.3414],[-47.6696,-10.3871],[-47.668,-10.3939],[-47.6957,-10.405],[-47.7237,-10.4021],[-47.7393,-10.4155],[-47.7632,-10.4183],[-47.7985,-10.4043],[-47.8235,-10.4078],[-47.8378,-10.3954],[-47.8472,-10.3798],[-47.8652,-10.3766],[-47.868,-10.3293],[-47.855,-10.3118],[-47.8589,-10.2927],[-47.8303,-10.2628],[-47.8177,-10.2377],[-47.815,-10.2072],[-47.7941,-10.1664],[-47.7614,-10.1674],[-47.7543,-10.1845],[-47.7123,-10.1938],[-47.6751,-10.1958],[-47.6416,-10.2228],[-47.6321,-10.2169],[-47.6148,-10.2389],[-47.5679,-10.2475]]]}},{"type":"Feature","properties":{"codarea":"1720150","centroide":[-46.677744177485664,-10.068715475965117],"codigo_ibge":1720150,"nome_ig":"Região do Jalapão do Estado do Tocantins"},"geometry":{"type":"Polygon","coordinates":[[[-46.4756,-9.9065],[-46.4779,-9.9249],[-46.4657,-9.937],[-46.4766,-9.957],[-46.4773,-9.9898],[-46.457,-10.018],[-46.4574,-10.0472],[-46.4452,-10.0773],[-46.4206,-10.0808],[-46.3839,-10.1201],[-46.3678,-10.1688],[-46.3247,-10.1831],[-46.313,-10.1728],[-46.2682,-10.1812],[-46.2408,-10.1718],[-46.2108,-10.1697],[-46.1948,-10.1829],[-46.212,-10.2026],[-46.2197,-10.1957],[-46.2658,-10.1985],[-46.283,-10.2273],[-46.2967,-10.23],[-46.3175,-10.2103],[-46.3469,-10.2096],[-46.3697,-10.2234],[-46.3917,-10.2124],[-46.4175,-10.2109],[-46.4364,-10.2176],[-46.4781,-10.204],[-46.5253,-10.2008],[-46.5633,-10.2088],[-46.6138,-10.2248],[-46.6669,-10.1869],[-46.6804,-10.1627],[-46.7134,-10.1522],[-46.7223,-10.1598],[-46.756,-10.1485],[-46.7848,-10.1622],[-46.8167,-10.1603],[-46.8387,-10.1841],[-46.8602,-10.1934],[-46.9019,-10.1943],[-46.9067,-10.1864],[-46.9476,-10.1762],[-46.954,-10.1648],[-46.9821,-10.1537],[-46.9936,-10.1373],[-47.0224,-10.1242],[-47.0487,-10.1211],[-47.0506,-10.1026],[-47.076,-10.0809],[-47.0954,-10.0723],[-47.0697,-10.0676],[-47.0374,-10.0327],[-47.0409,-10.022],[-47.0157,-10.0037],[-46.999,-10.0038],[-46.9775,-9.9911],[-46.9209,-9.9823],[-46.9078,-9.9722],[-46.899,-9.9825],[-46.8676,-9.9675],[-46.8391,-9.97],[-46.8334,-9.979],[-46.801,-9.9696],[-46.783,-9.9502],[-46.7524,-9.9449],[-46.728,-9.9186],[-46.6586,-9.9106],[-46.6572,-9.9188],[-46.5977,-9.898],[-46.5801,-9.8758],[-46.5484,-9.8575],[-46.5073,-9.8663],[-46.5026,-9.8809],[-46.4756,-9.9065]]]}}]}