{"type":"FeatureCollection","features":[{"type":"Feature","properties":{"codarea":"3154200","centroide":[-44.292940984863826,-20.837019015462403],"codigo_ibge":3154200,"nome_ig":"Resende Costa - MG"},"geometry":{"type":"Polygon","coordinates":[[[-44.265,-20.7235],[-44.2372,-20.7223],[-44.2319,-20.7317],[-44.1897,-20.7409],[-44.1903,-20.7511],[-44.1394,-20.746],[-44.1497,-20.765],[-44.1679,-20.7663],[-44.1932,-20.7975],[-44.1901,-20.826],[-44.2015,-20.8658],[-44.1666,-20.9018],[-44.1497,-20.9008],[-44.1457,-20.9174],[-44.156,-20.9426],[-44.1473,-20.9504],[-44.1895,-20.9762],[-44.1998,-20.9936],[-44.2347,-20.9759],[-44.2405,-20.9914],[-44.2777,-21.016],[-44.2634,-20.991],[-44.2831,-20.9568],[-44.2873,-20.9172],[-44.3439,-20.8963],[-44.3622,-20.8722],[-44.3947,-20.8577],[-44.4065,-20.8753],[-44.4459,-20.8991],[-44.4575,-20.8322],[-44.4476,-20.7862],[-44.4295,-20.7665],[-44.428,-20.724],[-44.4213,-20.7125],[-44.3972,-20.7346],[-44.3941,-20.7529],[-44.3805,-20.7572],[-44.378,-20.74],[-44.3611,-20.7121],[-44.3316,-20.7265],[-44.3083,-20.7164],[-44.303,-20.7252],[-44.265,-20.7235]]]}}]}