{"type":"FeatureCollection","features":[{"type":"Feature","properties":{"codarea":"1300409","centroide":[-63.43495232239745,-0.4652973997845323],"codigo_ibge":1300409,"nome_ig":"Rio Negro"},"geometry":{"type":"Polygon","coordinates":[[[-62.7363,1.5296],[-62.7308,1.4996],[-62.6769,1.4546],[-62.6399,1.4382],[-62.6202,1.4037],[-62.6205,1.3626],[-62.6021,1.3257],[-62.5974,1.2902],[-62.5766,1.2274],[-62.5591,1.1876],[-62.5452,1.1207],[-62.521,1.0838],[-62.4716,1.0862],[-62.4791,1.0479],[-62.4746,1.0162],[-62.4458,0.9768],[-62.4427,0.9585],[-62.4535,0.9346],[-62.4671,0.9237],[-62.4846,0.876],[-62.481,0.8426],[-62.466,0.829],[-62.4585,0.7996],[-62.463,0.7768],[-62.5004,0.7479],[-62.5333,0.7013],[-62.5382,0.6751],[-62.5188,0.5938],[-62.533,0.5088],[-62.5229,0.4855],[-62.5186,0.4437],[-62.5093,0.4404],[-62.4852,0.454],[-62.4585,0.4176],[-62.456,0.3924],[-62.4463,0.3791],[-62.4668,0.3329],[-62.4585,0.3134],[-62.4666,0.2679],[-62.4544,0.2435],[-62.4527,0.2074],[-62.4385,0.1948],[-62.4241,0.1532],[-62.4288,0.1185],[-62.4149,0.0743],[-62.3707,0.054],[-62.3466,0.0296],[-62.3227,-0.0242],[-62.3197,-0.1025],[-62.2939,-0.1283],[-62.268,-0.1638],[-62.245,-0.1747],[-62.253,-0.2366],[-62.2417,-0.2608],[-62.2542,-0.2797],[-62.2394,-0.308],[-62.1972,-0.323],[-62.1953,-0.3644],[-62.2039,-0.3683],[-62.2022,-0.393],[-62.2172,-0.3994],[-62.2272,-0.4258],[-62.2739,-0.4541],[-62.275,-0.4786],[-62.2903,-0.4841],[-62.2947,-0.5077],[-62.3092,-0.5141],[-62.3039,-0.5347],[-62.3183,-0.5525],[-62.3097,-0.5833],[-62.2908,-0.6022],[-62.3017,-0.6191],[-62.2875,-0.6383],[-62.3092,-0.6608],[-62.3267,-0.6563],[-62.3413,-0.6759],[-62.3707,-0.6767],[-62.3671,-0.71],[-62.3821,-0.7061],[-62.4069,-0.7272],[-62.4105,-0.7103],[-62.4285,-0.6928],[-62.4696,-0.6939],[-62.4866,-0.6814],[-62.5082,-0.7142],[-62.4949,-0.7506],[-62.5102,-0.7589],[-62.501,-0.7814],[-62.4807,-0.795],[-62.4655,-0.7889],[-62.4482,-0.81],[-62.3957,-0.8203],[-62.376,-0.8364],[-62.3763,-0.8661],[-62.3566,-0.875],[-62.3402,-0.9042],[-62.3171,-0.9142],[-62.3127,-0.9303],[-62.2938,-0.9481],[-62.2721,-0.952],[-62.2591,-0.9759],[-62.2274,-0.9734],[-62.2038,-0.9828],[-62.1999,-1.0003],[-62.1719,-1.0059],[-62.143,-1.0373],[-62.1255,-1.0373],[-62.1113,-1.0603],[-62.1182,-1.0764],[-62.0996,-1.0967],[-62.0621,-1.0997],[-62.0174,-1.1417],[-61.9894,-1.2017],[-61.988,-1.2167],[-61.9669,-1.2428],[-61.9499,-1.297],[-61.9274,-1.3206],[-61.9068,-1.3561],[-61.8966,-1.3953],[-61.8693,-1.4017],[-61.8399,-1.401],[-61.8171,-1.3995],[-61.798,-1.3806],[-61.7407,-1.392],[-61.718,-1.4097],[-61.658,-1.43],[-61.6355,-1.4339],[-61.6049,-1.4481],[-61.5596,-1.495],[-61.5446,-1.5256],[-61.4827,-1.5806],[-61.4746,-1.5789],[-61.4624,-1.6068],[-61.423,-1.6204],[-61.4137,-1.6369],[-61.4172,-1.6679],[-61.4124,-1.7031],[-61.4242,-1.7566],[-61.4195,-1.7927],[-61.3863,-1.8632],[-61.3823,-1.8951],[-61.462,-1.9064],[-61.4477,-1.9314],[-61.4546,-1.9497],[-61.4746,-1.9536],[-61.4965,-1.9698],[-61.5274,-1.9163],[-61.5372,-1.8891],[-61.5351,-1.8687],[-61.573,-1.8652],[-61.5938,-1.875],[-61.5956,-1.8402],[-61.614,-1.8274],[-61.6342,-1.8348],[-61.6388,-1.8256],[-61.6541,-1.84],[-61.6473,-1.8561],[-61.6543,-1.8725],[-61.6675,-1.8705],[-61.6831,-1.8922],[-61.7029,-1.8935],[-61.7131,-1.8821],[-61.724,-1.8989],[-61.7394,-1.8886],[-61.7635,-1.9198],[-61.7787,-1.922],[-61.8067,-1.9455],[-61.8272,-1.9261],[-61.8452,-1.9222],[-61.8534,-1.9367],[-61.8824,-1.9347],[-61.8841,-1.9112],[-61.9204,-1.9264],[-61.9225,-1.9475],[-61.9439,-1.9444],[-61.9283,-1.9588],[-61.9572,-1.9725],[-61.962,-1.9885],[-61.9953,-2.0251],[-62.0224,-2.026],[-62.0219,-1.9992],[-62.0471,-1.975],[-62.0726,-2.0006],[-62.0843,-2.037],[-62.0649,-2.0591],[-62.0797,-2.0645],[-62.1097,-2.0548],[-62.1228,-2.0906],[-62.1467,-2.1019],[-62.1588,-2.1326],[-62.2091,-2.1201],[-62.2253,-2.1474],[-62.2378,-2.1328],[-62.292,-2.1602],[-62.3022,-2.1484],[-62.3516,-2.1785],[-62.3537,-2.1938],[-62.3925,-2.2119],[-62.4006,-2.2073],[-62.5087,-2.243],[-62.544,-2.2722],[-62.5748,-2.2793],[-62.621,-2.2809],[-62.6506,-2.2898],[-62.6658,-2.2799],[-62.6864,-2.2852],[-62.7223,-2.2781],[-62.7402,-2.2929],[-62.7585,-2.2917],[-62.7654,-2.3032],[-62.7991,-2.3193],[-62.829,-2.3234],[-62.854,-2.3363],[-62.8832,-2.384],[-62.8853,-2.3986],[-62.9073,-2.4154],[-62.9505,-2.4249],[-62.998,-2.4415],[-63.0144,-2.455],[-63.0325,-2.4513],[-63.0405,-2.4831],[-63.075,-2.477],[-63.1257,-2.4827],[-63.1418,-2.4908],[-63.1767,-2.4927],[-63.1982,-2.4848],[-63.2342,-2.483],[-63.2567,-2.4675],[-63.2791,-2.4361],[-63.305,-2.4309],[-63.3324,-2.4628],[-63.3691,-2.4899],[-63.3895,-2.4884],[-63.424,-2.47],[-63.4414,-2.4478],[-63.4484,-2.4134],[-63.4762,-2.3819],[-63.5193,-2.3916],[-63.537,-2.3873],[-63.5651,-2.3627],[-63.6009,-2.3594],[-63.6337,-2.3904],[-63.6576,-2.392],[-63.6946,-2.3784],[-63.7127,-2.3893],[-63.7258,-2.423],[-63.7504,-2.4386],[-63.8026,-2.4396],[-63.8227,-2.4306],[-63.8755,-2.4451],[-63.9063,-2.4396],[-63.9574,-2.4447],[-63.9744,-2.4227],[-63.9772,-2.3735],[-64.0068,-2.3284],[-63.9998,-2.2721],[-64.0024,-2.2421],[-63.9929,-2.2159],[-64.0127,-2.1876],[-64.0113,-2.1616],[-64.0287,-2.1606],[-64.075,-2.1908],[-64.0858,-2.1917],[-64.1556,-2.1716],[-64.1689,-2.1314],[-64.2015,-2.1033],[-64.2332,-2.1068],[-64.2538,-2.1241],[-64.26,-2.2051],[-64.2864,-2.2169],[-64.3139,-2.267],[-64.3377,-2.2777],[-64.3672,-2.2651],[-64.3673,-2.2534],[-64.4076,-2.2078],[-64.4625,-2.1854],[-64.4965,-2.1805],[-64.5039,-2.1917],[-64.5117,-2.2354],[-64.5335,-2.2453],[-64.5708,-2.2365],[-64.5902,-2.2234],[-64.6061,-2.2252],[-64.616,-2.2413],[-64.6449,-2.2121],[-64.6633,-2.2142],[-64.6659,-2.1946],[-64.701,-2.163],[-64.7118,-2.1424],[-64.7083,-2.1197],[-64.6947,-2.0896],[-64.6879,-2.0576],[-64.7044,-2.0196],[-64.722,-2.0184],[-64.7504,-2.0361],[-64.7869,-2.0468],[-64.8028,-2.0733],[-64.8669,-2.0803],[-64.8867,-2.1001],[-64.9306,-2.11],[-64.9359,-2.0942],[-64.9249,-2.0447],[-64.9282,-2.0264],[-64.9496,-2.0003],[-64.9343,-1.8996],[-64.9437,-1.887],[-64.9735,-1.887],[-65.0202,-1.9131],[-65.0415,-1.9533],[-65.058,-1.9696],[-65.0849,-1.9618],[-65.1363,-1.9747],[-65.1714,-1.9597],[-65.1831,-1.937],[-65.1771,-1.8477],[-65.187,-1.8106],[-65.2093,-1.7818],[-65.2291,-1.7759],[-65.2908,-1.7857],[-65.3111,-1.7785],[-65.3106,-1.7501],[-65.3243,-1.7393],[-65.3405,-1.7465],[-65.3533,-1.7338],[-65.3581,-1.7133],[-65.3731,-1.7068],[-65.3763,-1.6624],[-65.359,-1.6506],[-65.3573,-1.6202],[-65.331,-1.5906],[-65.3258,-1.5657],[-65.3091,-1.5499],[-65.2987,-1.5248],[-65.3026,-1.4878],[-65.2599,-1.4809],[-65.2531,-1.4923],[-65.2262,-1.4797],[-65.2032,-1.479],[-65.1978,-1.4639],[-65.1563,-1.4617],[-65.1171,-1.4523],[-65.1057,-1.4594],[-65.0927,-1.447],[-65.0866,-1.4584],[-65.0721,-1.446],[-65.0787,-1.4348],[-65.0572,-1.4189],[-65.0449,-1.3824],[-65.0669,-1.3727],[-65.0784,-1.3427],[-65.0743,-1.3024],[-65.0636,-1.2804],[-65.0395,-1.2797],[-65.0653,-1.2439],[-65.0463,-1.2294],[-65.0364,-1.2001],[-65.0458,-1.1899],[-65.0322,-1.1664],[-65.0072,-1.1705],[-64.9808,-1.158],[-64.9719,-1.1397],[-64.9739,-1.0876],[-64.9677,-1.0813],[-64.9866,-1.062],[-64.9861,-1.0467],[-64.9661,-1.052],[-64.955,-1.0192],[-64.9167,-1.0147],[-64.8973,-1.0297],[-64.8786,-1.0222],[-64.8848,-1.0083],[-64.869,-0.9988],[-64.8691,-0.968],[-64.8607,-0.9671],[-64.8646,-0.9427],[-64.8469,-0.9223],[-64.8383,-0.8747],[-64.847,-0.8733],[-64.8497,-0.8481],[-64.8338,-0.823],[-64.8154,-0.8296],[-64.8148,-0.8072],[-64.7928,-0.8038],[-64.8078,-0.7673],[-64.7899,-0.7549],[-64.8096,-0.7399],[-64.7972,-0.7284],[-64.7969,-0.7042],[-64.8107,-0.6844],[-64.804,-0.6405],[-64.816,-0.6321],[-64.807,-0.6091],[-64.8237,-0.5971],[-64.8239,-0.5784],[-64.8095,-0.5737],[-64.8234,-0.5489],[-64.8207,-0.5294],[-64.8303,-0.5141],[-64.8192,-0.4944],[-64.7724,-0.4706],[-64.7611,-0.4577],[-64.7084,-0.4544],[-64.6938,-0.4428],[-64.6713,-0.4388],[-64.6528,-0.4235],[-64.6114,-0.4269],[-64.5971,-0.4173],[-64.5643,-0.4109],[-64.5359,-0.3937],[-64.501,-0.386],[-64.4843,-0.39],[-64.4345,-0.3486],[-64.378,-0.3418],[-64.3245,-0.3316],[-64.2332,-0.3381],[-64.1926,-0.3273],[-64.1616,-0.3036],[-64.0992,-0.2865],[-64.081,-0.2539],[-64.0851,-0.2348],[-64.0795,-0.1905],[-64.0999,-0.1897],[-64.0975,-0.1721],[-64.1195,-0.1553],[-64.1113,-0.1359],[-64.0951,-0.1469],[-64.0786,-0.1425],[-64.0506,-0.102],[-64.0291,-0.1066],[-64.0254,-0.0741],[-64.0148,-0.065],[-64.0169,-0.0412],[-64.0053,-0.0335],[-64.0006,-0.0098],[-63.9849,0.0001],[-63.9822,0.0427],[-63.9935,0.0633],[-63.9798,0.1037],[-63.9698,0.1163],[-63.9599,0.1492],[-63.9766,0.1794],[-63.9955,0.1939],[-63.9846,0.1996],[-64.0204,0.2718],[-64.0119,0.2892],[-64.0237,0.2939],[-64.026,0.3161],[-64.0116,0.3182],[-64.0082,0.3476],[-64.0244,0.3491],[-64.0389,0.3704],[-64.0344,0.3951],[-64.049,0.4049],[-64.0541,0.4353],[-64.0471,0.458],[-64.0524,0.4829],[-64.0764,0.5392],[-64.0677,0.5477],[-64.0841,0.5818],[-64.1002,0.5843],[-64.103,0.6007],[-64.1277,0.6207],[-64.1466,0.6274],[-64.1488,0.6437],[-64.1644,0.664],[-64.1802,0.6654],[-64.2024,0.6535],[-64.2458,0.7027],[-64.2427,0.7152],[-64.2679,0.7069],[-64.2921,0.7235],[-64.3057,0.7161],[-64.3169,0.7321],[-64.3549,0.7357],[-64.3796,0.774],[-64.3969,0.7779],[-64.3966,0.7937],[-64.4246,0.8079],[-64.441,0.8054],[-64.448,0.8532],[-64.4758,0.8638],[-64.5062,0.8961],[-64.5244,0.8956],[-64.5479,0.9106],[-64.554,0.9318],[-64.5697,0.9333],[-64.5864,0.9795],[-64.6094,0.9955],[-64.6238,1.0307],[-64.6394,1.0407],[-64.6455,1.0282],[-64.672,1.0423],[-64.6978,1.0304],[-64.7304,1.0782],[-64.7437,1.0792],[-64.7956,1.1344],[-64.8179,1.1506],[-64.8267,1.1775],[-64.8461,1.1784],[-64.8642,1.198],[-64.8511,1.2343],[-64.823,1.2784],[-64.8033,1.3105],[-64.7891,1.2857],[-64.7935,1.2693],[-64.7638,1.2307],[-64.7466,1.2254],[-64.7224,1.2384],[-64.7019,1.2913],[-64.6846,1.2838],[-64.6602,1.2913],[-64.6349,1.3202],[-64.6113,1.3357],[-64.5907,1.3374],[-64.576,1.354],[-64.5827,1.3754],[-64.5533,1.4168],[-64.5219,1.4376],[-64.5005,1.4426],[-64.4766,1.4679],[-64.4535,1.4802],[-64.4385,1.4718],[-64.4149,1.4985],[-64.3974,1.5268],[-64.3513,1.5182],[-64.3571,1.4838],[-64.3788,1.4635],[-64.3746,1.4565],[-64.3913,1.4296],[-64.3999,1.3948],[-64.3774,1.3865],[-64.3594,1.3899],[-64.3458,1.366],[-64.3427,1.3843],[-64.3296,1.3949],[-64.326,1.4359],[-64.3021,1.4682],[-64.2674,1.4846],[-64.2616,1.4998],[-64.2402,1.5112],[-64.2155,1.5084],[-64.1949,1.5248],[-64.1938,1.5426],[-64.1677,1.5759],[-64.1441,1.5824],[-64.126,1.5776],[-64.1121,1.5893],[-64.0874,1.6401],[-64.0652,1.676],[-64.0613,1.7016],[-64.0721,1.7257],[-64.0688,1.7476],[-64.078,1.759],[-64.0624,1.7896],[-64.056,1.841],[-64.071,1.8523],[-64.0619,1.8827],[-64.0619,1.9307],[-64.0191,1.9512],[-63.9955,1.9798],[-63.9755,1.9913],[-63.9385,1.9893],[-63.9227,1.9829],[-63.9066,1.9915],[-63.8877,1.9824],[-63.8541,1.9785],[-63.846,1.964],[-63.8296,1.9682],[-63.8238,1.991],[-63.7849,1.9815],[-63.7602,2.004],[-63.7405,1.9996],[-63.7391,2.0163],[-63.7033,2.0462],[-63.6921,2.0232],[-63.668,2.0168],[-63.6608,2.0332],[-63.6621,2.0654],[-63.6449,2.0649],[-63.6227,2.089],[-63.6174,2.1065],[-63.5619,2.1323],[-63.5363,2.131],[-63.5094,2.1135],[-63.4924,2.1154],[-63.4666,2.1409],[-63.4441,2.1251],[-63.421,2.1313],[-63.3977,2.1468],[-63.3888,2.1829],[-63.3952,2.1996],[-63.372,2.2118],[-63.3597,2.1971],[-63.3107,2.165],[-63.2763,2.1543],[-63.1941,2.1812],[-63.1654,2.1803],[-63.1375,2.161],[-63.1385,2.1427],[-63.1198,2.0964],[-63.0855,2.0614],[-63.0772,2.046],[-63.0237,2.0146],[-62.9804,2.0179],[-62.9484,2.031],[-62.9327,2.027],[-62.8385,2.0163],[-62.8132,1.9916],[-62.7295,1.9605],[-62.7033,1.9338],[-62.6987,1.9119],[-62.7041,1.8739],[-62.731,1.8182],[-62.7223,1.7224],[-62.7286,1.6999],[-62.7658,1.6713],[-62.7929,1.6353],[-62.8052,1.5913],[-62.7363,1.5296]]]}},{"type":"Feature","properties":{"codarea":"1303601","centroide":[-65.52118941515039,-0.31838209687325064],"codigo_ibge":1303601,"nome_ig":"Rio Negro"},"geometry":{"type":"Polygon","coordinates":[[[-64.823,1.2784],[-64.8511,1.2343],[-64.8642,1.198],[-64.8461,1.1784],[-64.8267,1.1775],[-64.8179,1.1506],[-64.7956,1.1344],[-64.7437,1.0792],[-64.7304,1.0782],[-64.6978,1.0304],[-64.672,1.0423],[-64.6455,1.0282],[-64.6394,1.0407],[-64.6238,1.0307],[-64.6094,0.9955],[-64.5864,0.9795],[-64.5697,0.9333],[-64.554,0.9318],[-64.5479,0.9106],[-64.5244,0.8956],[-64.5062,0.8961],[-64.4758,0.8638],[-64.448,0.8532],[-64.441,0.8054],[-64.4246,0.8079],[-64.3966,0.7937],[-64.3969,0.7779],[-64.3796,0.774],[-64.3549,0.7357],[-64.3169,0.7321],[-64.3057,0.7161],[-64.2921,0.7235],[-64.2679,0.7069],[-64.2427,0.7152],[-64.2458,0.7027],[-64.2024,0.6535],[-64.1802,0.6654],[-64.1644,0.664],[-64.1488,0.6437],[-64.1466,0.6274],[-64.1277,0.6207],[-64.103,0.6007],[-64.1002,0.5843],[-64.0841,0.5818],[-64.0677,0.5477],[-64.0764,0.5392],[-64.0524,0.4829],[-64.0471,0.458],[-64.0541,0.4353],[-64.049,0.4049],[-64.0344,0.3951],[-64.0389,0.3704],[-64.0244,0.3491],[-64.0082,0.3476],[-64.0116,0.3182],[-64.026,0.3161],[-64.0237,0.2939],[-64.0119,0.2892],[-64.0204,0.2718],[-63.9846,0.1996],[-63.9955,0.1939],[-63.9766,0.1794],[-63.9599,0.1492],[-63.9698,0.1163],[-63.9798,0.1037],[-63.9935,0.0633],[-63.9822,0.0427],[-63.9849,0.0001],[-64.0006,-0.0098],[-64.0053,-0.0335],[-64.0169,-0.0412],[-64.0148,-0.065],[-64.0254,-0.0741],[-64.0291,-0.1066],[-64.0506,-0.102],[-64.0786,-0.1425],[-64.0951,-0.1469],[-64.1113,-0.1359],[-64.1195,-0.1553],[-64.0975,-0.1721],[-64.0999,-0.1897],[-64.0795,-0.1905],[-64.0851,-0.2348],[-64.081,-0.2539],[-64.0992,-0.2865],[-64.1616,-0.3036],[-64.1926,-0.3273],[-64.2332,-0.3381],[-64.3245,-0.3316],[-64.378,-0.3418],[-64.4345,-0.3486],[-64.4843,-0.39],[-64.501,-0.386],[-64.5359,-0.3937],[-64.5643,-0.4109],[-64.5971,-0.4173],[-64.6114,-0.4269],[-64.6528,-0.4235],[-64.6713,-0.4388],[-64.6938,-0.4428],[-64.7084,-0.4544],[-64.7611,-0.4577],[-64.7724,-0.4706],[-64.8192,-0.4944],[-64.8303,-0.5141],[-64.8207,-0.5294],[-64.8234,-0.5489],[-64.8095,-0.5737],[-64.8239,-0.5784],[-64.8237,-0.5971],[-64.807,-0.6091],[-64.816,-0.6321],[-64.804,-0.6405],[-64.8107,-0.6844],[-64.7969,-0.7042],[-64.7972,-0.7284],[-64.8096,-0.7399],[-64.7899,-0.7549],[-64.8078,-0.7673],[-64.7928,-0.8038],[-64.8148,-0.8072],[-64.8154,-0.8296],[-64.8338,-0.823],[-64.8497,-0.8481],[-64.847,-0.8733],[-64.8383,-0.8747],[-64.8469,-0.9223],[-64.8646,-0.9427],[-64.8607,-0.9671],[-64.8691,-0.968],[-64.869,-0.9988],[-64.8848,-1.0083],[-64.8786,-1.0222],[-64.8973,-1.0297],[-64.9167,-1.0147],[-64.955,-1.0192],[-64.9661,-1.052],[-64.9861,-1.0467],[-64.9866,-1.062],[-64.9677,-1.0813],[-64.9739,-1.0876],[-64.9719,-1.1397],[-64.9808,-1.158],[-65.0072,-1.1705],[-65.0322,-1.1664],[-65.0458,-1.1899],[-65.0364,-1.2001],[-65.0463,-1.2294],[-65.0653,-1.2439],[-65.0395,-1.2797],[-65.0636,-1.2804],[-65.0743,-1.3024],[-65.0784,-1.3427],[-65.0669,-1.3727],[-65.0449,-1.3824],[-65.0572,-1.4189],[-65.0787,-1.4348],[-65.0721,-1.446],[-65.0866,-1.4584],[-65.0927,-1.447],[-65.1057,-1.4594],[-65.1171,-1.4523],[-65.1563,-1.4617],[-65.1978,-1.4639],[-65.2032,-1.479],[-65.2262,-1.4797],[-65.2531,-1.4923],[-65.2599,-1.4809],[-65.3026,-1.4878],[-65.2987,-1.5248],[-65.3091,-1.5499],[-65.3258,-1.5657],[-65.331,-1.5906],[-65.3573,-1.6202],[-65.359,-1.6506],[-65.3763,-1.6624],[-65.3731,-1.7068],[-65.3581,-1.7133],[-65.3533,-1.7338],[-65.3405,-1.7465],[-65.3243,-1.7393],[-65.3106,-1.7501],[-65.3111,-1.7785],[-65.3909,-1.7544],[-65.4205,-1.7354],[-65.4389,-1.7335],[-65.4667,-1.744],[-65.4959,-1.7983],[-65.514,-1.7929],[-65.5258,-1.7672],[-65.525,-1.6975],[-65.5424,-1.6679],[-65.5597,-1.66],[-65.6048,-1.6629],[-65.6409,-1.6361],[-65.6479,-1.6056],[-65.6395,-1.5566],[-65.6623,-1.5158],[-65.6865,-1.5019],[-65.7217,-1.4977],[-65.759,-1.503],[-65.7832,-1.4942],[-65.8177,-1.4731],[-65.8605,-1.4715],[-65.8765,-1.4601],[-65.8939,-1.4325],[-65.9422,-1.4125],[-65.9819,-1.4171],[-66.0015,-1.4137],[-66.0974,-1.423],[-66.1241,-1.4305],[-66.1633,-1.4508],[-66.1928,-1.4723],[-66.2415,-1.4919],[-66.2686,-1.5194],[-66.2881,-1.5485],[-66.3168,-1.5692],[-66.3457,-1.5633],[-66.3721,-1.5332],[-66.3637,-1.485],[-66.387,-1.4694],[-66.4178,-1.4793],[-66.4531,-1.4787],[-66.4955,-1.5191],[-66.5518,-1.5363],[-66.6302,-1.5713],[-66.6574,-1.6014],[-66.7051,-1.6238],[-66.7379,-1.624],[-66.7752,-1.6016],[-66.8184,-1.5989],[-66.8526,-1.6077],[-66.8821,-1.605],[-66.9185,-1.6102],[-66.9731,-1.5909],[-67.0061,-1.5946],[-67.0497,-1.5817],[-67.11,-1.5821],[-67.1514,-1.6043],[-67.2148,-1.6089],[-67.2542,-1.6199],[-67.2862,-1.6096],[-67.3304,-1.6198],[-67.3438,-1.6183],[-67.3693,-1.6318],[-67.3857,-1.6643],[-67.3939,-1.6653],[-67.4388,-1.6407],[-67.4892,-1.6521],[-67.5266,-1.6509],[-67.5546,-1.6399],[-67.59,-1.6169],[-67.6085,-1.6122],[-67.6191,-1.5959],[-67.6167,-1.5665],[-67.6495,-1.512],[-67.6379,-1.5056],[-67.616,-1.4736],[-67.5989,-1.4653],[-67.5562,-1.4616],[-67.5193,-1.4326],[-67.5091,-1.4077],[-67.4984,-1.3545],[-67.3695,-1.2791],[-67.3208,-1.2634],[-67.269,-1.236],[-67.247,-1.215],[-67.2096,-1.1897],[-67.182,-1.1794],[-67.1255,-1.1349],[-67.0997,-1.1327],[-67.0752,-1.1393],[-67.036,-1.164],[-67.0159,-1.1666],[-66.9798,-1.1518],[-66.9477,-1.1483],[-66.9262,-1.1358],[-66.9119,-1.1158],[-66.9156,-1.0946],[-66.9307,-1.0694],[-66.9523,-1.0476],[-66.9544,-1.0353],[-66.9244,-0.9751],[-66.8957,-0.9772],[-66.8429,-0.9687],[-66.7808,-0.9917],[-66.7639,-0.9892],[-66.7496,-0.974],[-66.7409,-0.9492],[-66.7396,-0.9018],[-66.7163,-0.8532],[-66.6911,-0.8277],[-66.6945,-0.8102],[-66.7236,-0.8175],[-66.7257,-0.8],[-66.7024,-0.7616],[-66.701,-0.7321],[-66.7145,-0.7131],[-66.71,-0.6916],[-66.6809,-0.6775],[-66.6443,-0.648],[-66.6089,-0.6338],[-66.5677,-0.604],[-66.5254,-0.5949],[-66.5084,-0.585],[-66.4907,-0.5601],[-66.4593,-0.5555],[-66.4241,-0.5938],[-66.4068,-0.6017],[-66.3337,-0.5781],[-66.2836,-0.5376],[-66.2852,-0.508],[-66.2532,-0.4818],[-66.2283,-0.49],[-66.2022,-0.4811],[-66.1526,-0.4862],[-66.1347,-0.48],[-66.1204,-0.4269],[-66.0976,-0.4123],[-66.0926,-0.3675],[-66.0669,-0.3544],[-66.0266,-0.3572],[-66.0061,-0.3473],[-65.9901,-0.3283],[-65.9673,-0.3336],[-65.9383,-0.3301],[-65.9358,-0.3222],[-65.8906,-0.3105],[-65.8887,-0.2577],[-65.8965,-0.2468],[-65.9023,-0.2122],[-65.9227,-0.1847],[-65.9654,-0.1943],[-65.9758,-0.1828],[-65.9983,-0.2079],[-66.0007,-0.2354],[-66.0153,-0.2434],[-66.0281,-0.2353],[-66.0427,-0.2491],[-66.0573,-0.1986],[-66.089,-0.1574],[-66.0784,-0.1239],[-66.1049,-0.1323],[-66.1172,-0.1154],[-66.0925,-0.1014],[-66.0818,-0.0821],[-66.0922,-0.074],[-66.131,-0.0667],[-66.1295,-0.0498],[-66.1163,-0.0466],[-66.11,-0.0183],[-66.1195,-0.0017],[-66.115,0.032],[-66.136,0.046],[-66.1759,0.1073],[-66.246,0.1056],[-66.2718,0.1257],[-66.28,0.1115],[-66.292,0.1312],[-66.3294,0.1451],[-66.3389,0.1644],[-66.3567,0.1738],[-66.3779,0.1684],[-66.3921,0.177],[-66.3912,0.1909],[-66.418,0.2298],[-66.4014,0.2291],[-66.3988,0.2412],[-66.3688,0.2673],[-66.3451,0.269],[-66.3039,0.3267],[-66.3108,0.3402],[-66.2884,0.3395],[-66.2921,0.3681],[-66.3008,0.3769],[-66.2953,0.4048],[-66.3122,0.4206],[-66.3037,0.4622],[-66.2653,0.5004],[-66.2452,0.4919],[-66.2404,0.5079],[-66.1672,0.5401],[-66.1626,0.5554],[-66.1412,0.5567],[-66.116,0.597],[-66.1313,0.605],[-66.139,0.6293],[-66.1618,0.6362],[-66.1742,0.6562],[-66.2348,0.6841],[-66.2554,0.7124],[-66.2741,0.7102],[-66.3087,0.7364],[-66.3164,0.7361],[-66.3184,0.755],[-66.2129,0.7806],[-66.1881,0.7786],[-66.1826,0.7671],[-66.151,0.7444],[-66.1211,0.752],[-66.1145,0.7633],[-66.0885,0.759],[-66.0762,0.7682],[-66.07,0.805],[-66.0379,0.812],[-66.0172,0.8],[-65.9644,0.8094],[-65.9459,0.8525],[-65.9333,0.8625],[-65.9365,0.8821],[-65.9253,0.8912],[-65.9011,0.8836],[-65.8815,0.9016],[-65.8622,0.9309],[-65.8316,0.94],[-65.8163,0.952],[-65.7672,0.964],[-65.761,0.981],[-65.7394,0.9995],[-65.7121,0.9974],[-65.6955,1.004],[-65.6866,0.9907],[-65.6527,1.0117],[-65.6249,0.989],[-65.6271,1.0092],[-65.5855,1.0089],[-65.5722,0.9849],[-65.5577,0.9933],[-65.558,0.9758],[-65.5419,0.9755],[-65.5363,0.948],[-65.5083,0.9155],[-65.5122,0.8852],[-65.4961,0.8893],[-65.5052,0.8685],[-65.5002,0.8424],[-65.5277,0.8332],[-65.5241,0.8245],[-65.5485,0.7745],[-65.5735,0.7643],[-65.5758,0.7446],[-65.5913,0.7216],[-65.5763,0.7115],[-65.5641,0.6757],[-65.5405,0.6487],[-65.5305,0.6679],[-65.5005,0.6721],[-65.443,0.6898],[-65.4235,0.7079],[-65.4138,0.7551],[-65.3974,0.7499],[-65.3966,0.7905],[-65.413,0.8157],[-65.398,0.8213],[-65.3916,0.8441],[-65.3769,0.8493],[-65.3735,0.8646],[-65.3519,0.8729],[-65.3291,0.9315],[-65.3027,0.9421],[-65.2699,0.9432],[-65.2635,0.9195],[-65.2088,0.9287],[-65.2074,0.9068],[-65.1824,0.9224],[-65.1649,0.9504],[-65.1641,0.9699],[-65.1472,1.0093],[-65.1668,1.0113],[-65.154,1.0563],[-65.1503,1.1073],[-65.155,1.1249],[-65.1299,1.1306],[-65.103,1.1566],[-65.0881,1.1459],[-65.0712,1.1534],[-65.0608,1.1376],[-65.0613,1.1117],[-65.0222,1.1149],[-64.9702,1.1729],[-64.9608,1.1896],[-64.9696,1.2171],[-64.9516,1.2315],[-64.9435,1.2157],[-64.9263,1.2146],[-64.9066,1.2416],[-64.891,1.2482],[-64.8866,1.2318],[-64.8685,1.2318],[-64.8527,1.2635],[-64.8616,1.2693],[-64.8251,1.2951],[-64.823,1.2784]]]}}]}