{"type":"FeatureCollection","features":[{"type":"Feature","properties":{"codarea":"3156700","centroide":[-43.779347089152104,-19.85146782278268],"codigo_ibge":3156700,"nome_ig":"Sabará"},"geometry":{"type":"Polygon","coordinates":[[[-43.7084,-19.7466],[-43.6884,-19.7671],[-43.6906,-19.7996],[-43.6749,-19.8223],[-43.7009,-19.8217],[-43.7186,-19.8295],[-43.7132,-19.8394],[-43.7233,-19.8605],[-43.7081,-19.888],[-43.7361,-19.8775],[-43.7486,-19.897],[-43.736,-19.9174],[-43.7229,-19.9667],[-43.748,-19.9583],[-43.8286,-19.9415],[-43.8341,-19.9274],[-43.8701,-19.9278],[-43.8902,-19.8867],[-43.9059,-19.8865],[-43.895,-19.8646],[-43.8775,-19.8685],[-43.8664,-19.8571],[-43.8619,-19.8277],[-43.84,-19.8258],[-43.8212,-19.8355],[-43.8212,-19.8355],[-43.8088,-19.8424],[-43.7889,-19.8367],[-43.7745,-19.8089],[-43.7924,-19.8062],[-43.8054,-19.7632],[-43.7679,-19.7448],[-43.7704,-19.7255],[-43.7275,-19.7349],[-43.7084,-19.7466]]]}}]}