{"type":"FeatureCollection","features":[{"type":"Feature","properties":{"codarea":"4200408","centroide":[-51.612055573809904,-26.76425661953201],"codigo_ibge":4200408,"nome_ig":"Santa Catarina"},"geometry":{"type":"MultiPolygon","coordinates":[[[[-51.512,-26.5816],[-51.4973,-26.5852],[-51.4792,-26.6089],[-51.4853,-26.6246],[-51.4676,-26.6222],[-51.4557,-26.6544],[-51.4394,-26.6672],[-51.4353,-26.6881],[-51.4073,-26.7006],[-51.4114,-26.7171],[-51.4131,-26.7204],[-51.4485,-26.7725],[-51.4738,-26.7901],[-51.4722,-26.808],[-51.4334,-26.8239],[-51.4276,-26.8411],[-51.4383,-26.8542],[-51.5103,-26.8386],[-51.5297,-26.8795],[-51.5408,-26.9394],[-51.5169,-26.9617],[-51.507,-26.9614],[-51.4725,-27.0125],[-51.4509,-27.0183],[-51.4622,-27.0276],[-51.4572,-27.0698],[-51.4667,-27.052],[-51.4902,-27.0614],[-51.4974,-27.0481],[-51.5193,-27.0456],[-51.5439,-27.0576],[-51.5741,-27.0478],[-51.5993,-27.049],[-51.6179,-27.0401],[-51.6127,-27.015],[-51.617,-26.9925],[-51.6098,-26.9804],[-51.6307,-26.9797],[-51.6324,-26.9431],[-51.6227,-26.9357],[-51.6896,-26.9299],[-51.675,-26.9128],[-51.6748,-26.8849],[-51.6908,-26.8876],[-51.695,-26.8514],[-51.7239,-26.8529],[-51.7284,-26.8454],[-51.7027,-26.8199],[-51.68,-26.8185],[-51.7043,-26.7921],[-51.736,-26.7886],[-51.7522,-26.7745],[-51.7653,-26.7883],[-51.7827,-26.7722],[-51.7833,-26.7598],[-51.7594,-26.7356],[-51.7809,-26.7044],[-51.8088,-26.6911],[-51.8421,-26.6969],[-51.8544,-26.7056],[-51.8491,-26.6788],[-51.8631,-26.6879],[-51.8807,-26.6732],[-51.8548,-26.6696],[-51.847,-26.6375],[-51.8318,-26.6209],[-51.8239,-26.5819],[-51.7906,-26.5886],[-51.7376,-26.5729],[-51.6926,-26.5805],[-51.6719,-26.5651],[-51.6584,-26.5654],[-51.6324,-26.5872],[-51.5969,-26.584],[-51.5356,-26.5917],[-51.512,-26.5816]]]]}},{"type":"Feature","properties":{"codarea":"4201109","centroide":[-49.139742954239985,-27.88018352283417],"codigo_ibge":4201109,"nome_ig":"Santa Catarina"},"geometry":{"type":"MultiPolygon","coordinates":[[[[-49.0316,-27.7744],[-49.0363,-27.8247],[-49.0193,-27.8396],[-49.0173,-27.8663],[-49.0173,-27.9094],[-49.0377,-27.9253],[-49.0443,-27.9452],[-49.0333,-27.9542],[-49.0486,-27.9731],[-49.0517,-27.9902],[-49.1052,-28.0069],[-49.1474,-28.006],[-49.1523,-27.973],[-49.1608,-27.9676],[-49.1768,-27.9817],[-49.1922,-27.9706],[-49.2593,-27.9521],[-49.2934,-27.9354],[-49.3086,-27.9403],[-49.3,-27.9011],[-49.2818,-27.8735],[-49.2722,-27.8553],[-49.25,-27.8489],[-49.2346,-27.8307],[-49.2131,-27.8289],[-49.1878,-27.8031],[-49.1913,-27.783],[-49.1644,-27.7601],[-49.1585,-27.7441],[-49.1288,-27.7468],[-49.1296,-27.7564],[-49.1089,-27.7697],[-49.0949,-27.7534],[-49.0636,-27.758],[-49.0539,-27.7719],[-49.0362,-27.7344],[-49.0316,-27.7744]]]]}},{"type":"Feature","properties":{"codarea":"4201604","centroide":[-51.33664418631228,-26.921525803002858],"codigo_ibge":4201604,"nome_ig":"Santa Catarina"},"geometry":{"type":"MultiPolygon","coordinates":[[[[-51.2838,-26.8767],[-51.2876,-26.8951],[-51.2678,-26.9178],[-51.2832,-26.9211],[-51.3531,-26.9816],[-51.368,-26.9842],[-51.3819,-26.9688],[-51.3945,-26.9701],[-51.406,-26.9431],[-51.3639,-26.9397],[-51.3711,-26.9098],[-51.3636,-26.9017],[-51.3683,-26.8696],[-51.3369,-26.8745],[-51.3245,-26.8655],[-51.2838,-26.8767]]]]}},{"type":"Feature","properties":{"codarea":"4202503","centroide":[-49.653145824983724,-28.361066022140058],"codigo_ibge":4202503,"nome_ig":"Santa Catarina"},"geometry":{"type":"MultiPolygon","coordinates":[[[[-49.4745,-28.1255],[-49.4884,-28.1273],[-49.4956,-28.1474],[-49.5107,-28.1551],[-49.5147,-28.1759],[-49.5305,-28.1877],[-49.5303,-28.2261],[-49.5507,-28.2395],[-49.5339,-28.2419],[-49.5323,-28.2541],[-49.5482,-28.2723],[-49.5278,-28.2681],[-49.524,-28.308],[-49.536,-28.3141],[-49.5352,-28.3321],[-49.5605,-28.3729],[-49.5437,-28.383],[-49.5673,-28.4133],[-49.5607,-28.4344],[-49.5348,-28.4355],[-49.5628,-28.4669],[-49.5524,-28.4841],[-49.5688,-28.5041],[-49.5909,-28.5011],[-49.603,-28.5197],[-49.6454,-28.5421],[-49.6556,-28.5611],[-49.6459,-28.589],[-49.6529,-28.6022],[-49.685,-28.621],[-49.7031,-28.6289],[-49.6918,-28.619],[-49.7101,-28.6043],[-49.7123,-28.5722],[-49.725,-28.5708],[-49.7305,-28.5515],[-49.7465,-28.5496],[-49.7467,-28.5353],[-49.7268,-28.5189],[-49.7465,-28.5068],[-49.7482,-28.4939],[-49.7654,-28.5012],[-49.7674,-28.4595],[-49.7805,-28.4712],[-49.7909,-28.4964],[-49.8162,-28.469],[-49.8031,-28.4568],[-49.8124,-28.4387],[-49.8311,-28.4252],[-49.8112,-28.4216],[-49.7831,-28.429],[-49.7543,-28.418],[-49.7696,-28.4135],[-49.7708,-28.3955],[-49.8068,-28.3852],[-49.8052,-28.3666],[-49.7831,-28.3656],[-49.7644,-28.3488],[-49.774,-28.3312],[-49.7738,-28.285],[-49.7556,-28.2491],[-49.7319,-28.2393],[-49.7113,-28.2212],[-49.6722,-28.2304],[-49.6664,-28.2144],[-49.6695,-28.1848],[-49.6598,-28.1851],[-49.6444,-28.1644],[-49.612,-28.1626],[-49.5775,-28.149],[-49.5639,-28.1154],[-49.5453,-28.1251],[-49.5116,-28.1271],[-49.4796,-28.1187],[-49.4745,-28.1255]]]]}},{"type":"Feature","properties":{"codarea":"4202602","centroide":[-49.56373819835596,-27.78520546253864],"codigo_ibge":4202602,"nome_ig":"Santa Catarina"},"geometry":{"type":"MultiPolygon","coordinates":[[[[-49.5078,-27.6004],[-49.5104,-27.6342],[-49.5042,-27.6531],[-49.4689,-27.6863],[-49.4583,-27.7097],[-49.4728,-27.7302],[-49.4587,-27.7608],[-49.4358,-27.7578],[-49.4209,-27.7816],[-49.3819,-27.8143],[-49.3573,-27.8124],[-49.3394,-27.8359],[-49.3195,-27.8294],[-49.2964,-27.8749],[-49.2818,-27.8735],[-49.3,-27.9011],[-49.3169,-27.9026],[-49.33,-27.9236],[-49.3607,-27.9237],[-49.3808,-27.942],[-49.4123,-27.9523],[-49.428,-27.9352],[-49.4411,-27.9431],[-49.4529,-27.9316],[-49.493,-27.9314],[-49.5188,-27.9146],[-49.5552,-27.9113],[-49.5791,-27.8985],[-49.6072,-27.9011],[-49.6455,-27.8798],[-49.6562,-27.8593],[-49.6909,-27.8336],[-49.7156,-27.8382],[-49.7516,-27.8549],[-49.7608,-27.8159],[-49.7843,-27.8307],[-49.7785,-27.8034],[-49.7549,-27.7894],[-49.7814,-27.7635],[-49.7608,-27.7513],[-49.7738,-27.7337],[-49.7985,-27.7361],[-49.7995,-27.7158],[-49.8123,-27.7009],[-49.8423,-27.7],[-49.8393,-27.6778],[-49.8182,-27.6882],[-49.795,-27.6646],[-49.7872,-27.6716],[-49.7649,-27.6572],[-49.7428,-27.6685],[-49.7301,-27.6548],[-49.7149,-27.6447],[-49.6895,-27.6524],[-49.6517,-27.6423],[-49.6239,-27.6176],[-49.639,-27.645],[-49.6376,-27.6593],[-49.618,-27.6589],[-49.588,-27.6437],[-49.5807,-27.6297],[-49.548,-27.6131],[-49.5078,-27.6004]]]]}},{"type":"Feature","properties":{"codarea":"4202875","centroide":[-50.844952895789696,-27.34567916101707],"codigo_ibge":4202875,"nome_ig":"Santa Catarina"},"geometry":{"type":"MultiPolygon","coordinates":[[[[-50.8204,-27.2295],[-50.7955,-27.2412],[-50.7868,-27.2542],[-50.8002,-27.2603],[-50.777,-27.2671],[-50.7794,-27.2914],[-50.7656,-27.3053],[-50.7503,-27.3297],[-50.7614,-27.3523],[-50.7377,-27.3509],[-50.7586,-27.3651],[-50.7565,-27.3888],[-50.7705,-27.403],[-50.7541,-27.4221],[-50.7666,-27.44],[-50.7826,-27.4302],[-50.795,-27.4352],[-50.7807,-27.4488],[-50.7866,-27.4596],[-50.8068,-27.457],[-50.808,-27.4697],[-50.8236,-27.4513],[-50.8218,-27.4351],[-50.8351,-27.4288],[-50.8446,-27.4437],[-50.8497,-27.4288],[-50.8722,-27.4343],[-50.8888,-27.4286],[-50.902,-27.4105],[-50.908,-27.3793],[-50.93,-27.3785],[-50.941,-27.3878],[-50.9622,-27.3796],[-50.9708,-27.337],[-50.9373,-27.331],[-50.9443,-27.3172],[-50.9334,-27.296],[-50.8947,-27.2705],[-50.876,-27.2733],[-50.851,-27.2474],[-50.8511,-27.2291],[-50.8204,-27.2295]]]]}},{"type":"Feature","properties":{"codarea":"4203006","centroide":[-51.08654991899436,-26.762106471213748],"codigo_ibge":4203006,"nome_ig":"Santa Catarina"},"geometry":{"type":"MultiPolygon","coordinates":[[[[-51.2388,-26.6278],[-51.2253,-26.6754],[-51.1918,-26.669],[-51.1712,-26.6771],[-51.1497,-26.6953],[-51.1225,-26.7088],[-51.0986,-26.6962],[-51.0531,-26.7011],[-51.0258,-26.6725],[-50.9855,-26.6483],[-50.9538,-26.6593],[-50.9218,-26.6785],[-50.9264,-26.6901],[-50.8531,-26.7321],[-50.8542,-26.7451],[-50.8303,-26.7494],[-50.8037,-26.7651],[-50.8001,-26.7792],[-50.8204,-26.7992],[-50.8322,-26.8299],[-50.8532,-26.8518],[-50.8461,-26.8714],[-50.9043,-26.8846],[-50.9256,-26.9021],[-50.9424,-26.884],[-50.9701,-26.8969],[-50.9945,-26.8631],[-51.0424,-26.8632],[-51.0539,-26.8585],[-51.0502,-26.8416],[-51.0986,-26.837],[-51.1251,-26.842],[-51.1732,-26.8318],[-51.1896,-26.8521],[-51.2198,-26.8595],[-51.245,-26.8847],[-51.2851,-26.873],[-51.2767,-26.8492],[-51.2374,-26.8228],[-51.2393,-26.8017],[-51.2554,-26.7739],[-51.2883,-26.7668],[-51.3123,-26.7467],[-51.3389,-26.7343],[-51.3787,-26.7371],[-51.4131,-26.7204],[-51.4114,-26.7171],[-51.3999,-26.7121],[-51.3927,-26.6848],[-51.4049,-26.6755],[-51.3911,-26.6632],[-51.347,-26.6485],[-51.2814,-26.6522],[-51.2835,-26.6423],[-51.2578,-26.6252],[-51.2388,-26.6278]]]]}},{"type":"Feature","properties":{"codarea":"4203402","centroide":[-50.771819332717186,-27.846895944394923],"codigo_ibge":4203402,"nome_ig":"Santa Catarina"},"geometry":{"type":"MultiPolygon","coordinates":[[[[-50.6413,-27.7143],[-50.6301,-27.7297],[-50.6405,-27.7595],[-50.6272,-27.7654],[-50.6299,-27.7855],[-50.6114,-27.7912],[-50.6186,-27.8057],[-50.6056,-27.8331],[-50.618,-27.8469],[-50.6217,-27.8697],[-50.65,-27.9075],[-50.6489,-27.9204],[-50.6259,-27.93],[-50.6302,-27.9497],[-50.6558,-27.9864],[-50.7096,-28.0006],[-50.7224,-28.0134],[-50.7489,-28.0153],[-50.7417,-28.0305],[-50.7788,-28.0269],[-50.7921,-28.0156],[-50.8331,-28.0516],[-50.8391,-28.043],[-50.8752,-28.0413],[-50.8896,-28.0229],[-50.9241,-28.0104],[-50.9239,-27.9716],[-50.9428,-27.9683],[-50.9783,-27.9482],[-50.9606,-27.9457],[-50.9612,-27.9344],[-50.9264,-27.9283],[-50.9263,-27.9037],[-50.8921,-27.8964],[-50.8575,-27.7738],[-50.8432,-27.7633],[-50.854,-27.7322],[-50.8474,-27.6975],[-50.8626,-27.636],[-50.8569,-27.6223],[-50.8752,-27.6015],[-50.852,-27.6019],[-50.8151,-27.6173],[-50.8027,-27.599],[-50.7998,-27.6145],[-50.7814,-27.6346],[-50.756,-27.6233],[-50.7583,-27.6378],[-50.7186,-27.6482],[-50.7265,-27.6645],[-50.714,-27.6764],[-50.697,-27.6693],[-50.7059,-27.6855],[-50.6775,-27.7151],[-50.6637,-27.7096],[-50.6529,-27.7267],[-50.6413,-27.7143]]]]}},{"type":"Feature","properties":{"codarea":"4203253","centroide":[-50.607442577435066,-28.062655488184916],"codigo_ibge":4203253,"nome_ig":"Santa Catarina"},"geometry":{"type":"MultiPolygon","coordinates":[[[[-50.6956,-28.2699],[-50.749,-28.2485],[-50.7621,-28.1914],[-50.7888,-28.1983],[-50.7834,-28.1749],[-50.792,-28.1551],[-50.7847,-28.1439],[-50.816,-28.1416],[-50.8341,-28.1177],[-50.8589,-28.1397],[-50.8752,-28.1307],[-50.8691,-28.1164],[-50.8759,-28.095],[-50.9029,-28.0884],[-50.8858,-28.0717],[-50.8752,-28.0413],[-50.8391,-28.043],[-50.8331,-28.0516],[-50.7921,-28.0156],[-50.7788,-28.0269],[-50.7417,-28.0305],[-50.7489,-28.0153],[-50.7224,-28.0134],[-50.7096,-28.0006],[-50.6558,-27.9864],[-50.6302,-27.9497],[-50.6259,-27.93],[-50.6489,-27.9204],[-50.65,-27.9075],[-50.6217,-27.8697],[-50.618,-27.8469],[-50.6056,-27.8331],[-50.5775,-27.8408],[-50.5367,-27.8746],[-50.5202,-27.8742],[-50.4692,-27.856],[-50.4365,-27.8726],[-50.4272,-27.8633],[-50.3902,-27.882],[-50.362,-27.9165],[-50.373,-27.9398],[-50.3716,-27.9647],[-50.3974,-27.9742],[-50.4105,-27.9996],[-50.3889,-28.0228],[-50.4013,-28.0478],[-50.4288,-28.0599],[-50.4483,-28.0827],[-50.4726,-28.0836],[-50.4904,-28.1093],[-50.5215,-28.1292],[-50.5231,-28.1574],[-50.5048,-28.1939],[-50.5182,-28.2193],[-50.539,-28.2229],[-50.5444,-28.2508],[-50.5606,-28.2517],[-50.5847,-28.2769],[-50.5888,-28.2658],[-50.633,-28.2963],[-50.6734,-28.2823],[-50.666,-28.2548],[-50.6956,-28.2699]]]]}},{"type":"Feature","properties":{"codarea":"4204178","centroide":[-50.9328822892716,-27.776468620376146],"codigo_ibge":4204178,"nome_ig":"Santa Catarina"},"geometry":{"type":"MultiPolygon","coordinates":[[[[-50.9339,-27.5799],[-50.9014,-27.5734],[-50.8864,-27.6086],[-50.8752,-27.6015],[-50.8569,-27.6223],[-50.8626,-27.636],[-50.8474,-27.6975],[-50.854,-27.7322],[-50.8432,-27.7633],[-50.8575,-27.7738],[-50.8921,-27.8964],[-50.9263,-27.9037],[-50.9264,-27.9283],[-50.9612,-27.9344],[-50.9606,-27.9457],[-50.9783,-27.9482],[-50.9936,-27.946],[-51.0015,-27.9631],[-51.0189,-27.957],[-51.0199,-27.9224],[-51.0559,-27.9036],[-51.0566,-27.8867],[-51.0534,-27.8688],[-51.042,-27.8715],[-51.0208,-27.8382],[-50.9969,-27.8224],[-50.9346,-27.8183],[-50.9592,-27.782],[-50.961,-27.7494],[-50.9542,-27.7587],[-50.9272,-27.742],[-50.915,-27.7157],[-50.9096,-27.6814],[-50.9296,-27.6681],[-50.9469,-27.6722],[-50.9406,-27.6558],[-50.9612,-27.6459],[-50.9912,-27.6217],[-50.989,-27.6056],[-50.9556,-27.5956],[-50.9721,-27.5777],[-50.9525,-27.5694],[-50.9339,-27.5799]]]]}},{"type":"Feature","properties":{"codarea":"4204806","centroide":[-50.6172317986435,-27.293718286744095],"codigo_ibge":4204806,"nome_ig":"Santa Catarina"},"geometry":{"type":"MultiPolygon","coordinates":[[[[-50.5261,-27.1189],[-50.5375,-27.1419],[-50.5602,-27.1442],[-50.5694,-27.1312],[-50.6272,-27.1565],[-50.6101,-27.1643],[-50.6049,-27.1982],[-50.5698,-27.1943],[-50.5528,-27.2146],[-50.5326,-27.2053],[-50.5003,-27.2181],[-50.4974,-27.2489],[-50.5049,-27.25],[-50.498,-27.308],[-50.4834,-27.3084],[-50.4639,-27.3274],[-50.463,-27.3683],[-50.4737,-27.3788],[-50.487,-27.435],[-50.4769,-27.4405],[-50.4864,-27.4586],[-50.5004,-27.4673],[-50.5135,-27.4567],[-50.5344,-27.4706],[-50.5262,-27.4917],[-50.5421,-27.4848],[-50.5696,-27.5043],[-50.5757,-27.4864],[-50.565,-27.4665],[-50.6047,-27.4697],[-50.6347,-27.4537],[-50.6341,-27.4682],[-50.6488,-27.4524],[-50.6704,-27.4704],[-50.6763,-27.4376],[-50.6893,-27.4431],[-50.6893,-27.4268],[-50.7154,-27.4264],[-50.7132,-27.4497],[-50.7358,-27.4381],[-50.7504,-27.4492],[-50.7541,-27.4221],[-50.7705,-27.403],[-50.7565,-27.3888],[-50.7586,-27.3651],[-50.7377,-27.3509],[-50.7614,-27.3523],[-50.7503,-27.3297],[-50.7656,-27.3053],[-50.7691,-27.2849],[-50.7589,-27.2774],[-50.7429,-27.2867],[-50.7377,-27.2703],[-50.7543,-27.2704],[-50.7489,-27.2491],[-50.7281,-27.2554],[-50.7408,-27.2257],[-50.7224,-27.2238],[-50.7302,-27.2023],[-50.7002,-27.1886],[-50.6814,-27.1561],[-50.7098,-27.1447],[-50.6991,-27.1365],[-50.7161,-27.1345],[-50.7073,-27.1009],[-50.6881,-27.0937],[-50.6911,-27.084],[-50.6574,-27.0869],[-50.64,-27.0719],[-50.6369,-27.0567],[-50.609,-27.0642],[-50.5985,-27.0518],[-50.564,-27.057],[-50.5542,-27.0861],[-50.5443,-27.0719],[-50.5303,-27.088],[-50.5261,-27.1189]]]]}},{"type":"Feature","properties":{"codarea":"4205506","centroide":[-50.872296723103545,-27.037569006224427],"codigo_ibge":4205506,"nome_ig":"Santa Catarina"},"geometry":{"type":"MultiPolygon","coordinates":[[[[-50.7073,-27.1009],[-50.7161,-27.1345],[-50.6991,-27.1365],[-50.7199,-27.1378],[-50.7355,-27.1202],[-50.7542,-27.1239],[-50.7857,-27.1181],[-50.8244,-27.1568],[-50.8377,-27.183],[-50.8501,-27.1563],[-50.8754,-27.1483],[-50.8805,-27.1262],[-50.9308,-27.1179],[-50.9655,-27.1336],[-50.9987,-27.1363],[-51.0084,-27.1202],[-50.9928,-27.1092],[-50.9723,-27.0777],[-50.9718,-27.0413],[-51.0065,-27.0359],[-51.0143,-27.0047],[-51.0451,-26.9864],[-51.0268,-26.9803],[-50.986,-26.9789],[-50.9904,-26.9609],[-50.9277,-26.9244],[-50.8461,-26.8714],[-50.8393,-26.9061],[-50.8476,-26.9209],[-50.8357,-26.9377],[-50.8341,-26.9646],[-50.8245,-26.9896],[-50.7975,-26.9983],[-50.8021,-27.0136],[-50.7771,-27.0001],[-50.7466,-26.9978],[-50.7505,-27.0095],[-50.7331,-27.0176],[-50.7488,-27.0303],[-50.7323,-27.0342],[-50.7341,-27.0682],[-50.715,-27.0829],[-50.7073,-27.1009]]]]}},{"type":"Feature","properties":{"codarea":"4205555","centroide":[-50.764622187808904,-27.190445011367252],"codigo_ibge":4205555,"nome_ig":"Santa Catarina"},"geometry":{"type":"MultiPolygon","coordinates":[[[[-50.6991,-27.1365],[-50.7098,-27.1447],[-50.6814,-27.1561],[-50.7002,-27.1886],[-50.7302,-27.2023],[-50.7224,-27.2238],[-50.7408,-27.2257],[-50.7281,-27.2554],[-50.7489,-27.2491],[-50.7543,-27.2704],[-50.7377,-27.2703],[-50.7429,-27.2867],[-50.7589,-27.2774],[-50.7691,-27.2849],[-50.7656,-27.3053],[-50.7794,-27.2914],[-50.777,-27.2671],[-50.8002,-27.2603],[-50.7868,-27.2542],[-50.7955,-27.2412],[-50.8204,-27.2295],[-50.8158,-27.2158],[-50.8265,-27.1904],[-50.8377,-27.183],[-50.8244,-27.1568],[-50.7857,-27.1181],[-50.7542,-27.1239],[-50.7355,-27.1202],[-50.7199,-27.1378],[-50.6991,-27.1365]]]]}},{"type":"Feature","properties":{"codarea":"4207577","centroide":[-51.27540631369579,-26.987933961013052],"codigo_ibge":4207577,"nome_ig":"Santa Catarina"},"geometry":{"type":"MultiPolygon","coordinates":[[[[-51.1962,-27.0289],[-51.2507,-27.0339],[-51.3168,-27.0186],[-51.3342,-27.0203],[-51.3454,-27.014],[-51.3403,-26.9976],[-51.3531,-26.9816],[-51.2832,-26.9211],[-51.2654,-26.9265],[-51.2653,-26.9532],[-51.2531,-26.9638],[-51.2152,-26.9637],[-51.2163,-26.9897],[-51.1966,-27.0156],[-51.1962,-27.0289]]]]}},{"type":"Feature","properties":{"codarea":"4209300","centroide":[-50.34063523055474,-28.019802827730363],"codigo_ibge":4209300,"nome_ig":"Santa Catarina"},"geometry":{"type":"MultiPolygon","coordinates":[[[[-50.001,-27.6402],[-50.0035,-27.6742],[-50.0238,-27.684],[-50.0322,-27.7247],[-50.0323,-27.7577],[-50.0432,-27.7715],[-50.0755,-27.7824],[-50.0791,-27.8011],[-50.0691,-27.8106],[-50.0728,-27.8395],[-50.097,-27.8549],[-50.1609,-27.8602],[-50.1703,-27.8693],[-50.2018,-27.8633],[-50.2141,-27.8745],[-50.215,-27.8947],[-50.1932,-27.9152],[-50.1826,-27.9424],[-50.1965,-27.9668],[-50.2015,-27.9937],[-50.1918,-28.0886],[-50.2004,-28.1105],[-50.1895,-28.1397],[-50.1728,-28.1618],[-50.1878,-28.1665],[-50.1673,-28.1988],[-50.1876,-28.2138],[-50.2167,-28.2069],[-50.2321,-28.2191],[-50.2174,-28.233],[-50.2293,-28.2431],[-50.2176,-28.2511],[-50.2456,-28.2572],[-50.2448,-28.2898],[-50.2309,-28.3016],[-50.2714,-28.3098],[-50.2785,-28.3228],[-50.2652,-28.3296],[-50.2787,-28.3488],[-50.2872,-28.3453],[-50.3352,-28.3662],[-50.3354,-28.3817],[-50.3777,-28.3723],[-50.3861,-28.3868],[-50.4067,-28.3951],[-50.405,-28.4234],[-50.4247,-28.4333],[-50.4568,-28.4106],[-50.4989,-28.413],[-50.5312,-28.406],[-50.5309,-28.4286],[-50.5661,-28.4124],[-50.5931,-28.3815],[-50.624,-28.393],[-50.6281,-28.3661],[-50.6652,-28.3379],[-50.6585,-28.3242],[-50.6776,-28.3],[-50.6952,-28.2885],[-50.6956,-28.2699],[-50.666,-28.2548],[-50.6734,-28.2823],[-50.633,-28.2963],[-50.5888,-28.2658],[-50.5847,-28.2769],[-50.5606,-28.2517],[-50.5444,-28.2508],[-50.539,-28.2229],[-50.5182,-28.2193],[-50.5048,-28.1939],[-50.5231,-28.1574],[-50.5215,-28.1292],[-50.4904,-28.1093],[-50.4726,-28.0836],[-50.4483,-28.0827],[-50.4288,-28.0599],[-50.4013,-28.0478],[-50.3889,-28.0228],[-50.4105,-27.9996],[-50.3974,-27.9742],[-50.3716,-27.9647],[-50.373,-27.9398],[-50.362,-27.9165],[-50.3902,-27.882],[-50.4272,-27.8633],[-50.4365,-27.8726],[-50.4692,-27.856],[-50.5202,-27.8742],[-50.5367,-27.8746],[-50.5775,-27.8408],[-50.6056,-27.8331],[-50.6186,-27.8057],[-50.6114,-27.7912],[-50.6299,-27.7855],[-50.6272,-27.7654],[-50.6405,-27.7595],[-50.6301,-27.7297],[-50.6413,-27.7143],[-50.6052,-27.7287],[-50.5953,-27.7083],[-50.5748,-27.7152],[-50.5829,-27.7282],[-50.5545,-27.7241],[-50.5428,-27.7345],[-50.5565,-27.7496],[-50.5451,-27.7638],[-50.5122,-27.7867],[-50.4956,-27.7686],[-50.4337,-27.773],[-50.3945,-27.7497],[-50.3948,-27.7254],[-50.3764,-27.7415],[-50.3282,-27.7497],[-50.31,-27.7486],[-50.2997,-27.7002],[-50.3115,-27.678],[-50.2736,-27.6759],[-50.1978,-27.6327],[-50.1882,-27.6523],[-50.1621,-27.665],[-50.1537,-27.6518],[-50.1379,-27.7087],[-50.1354,-27.6955],[-50.1057,-27.676],[-50.0809,-27.6266],[-50.0539,-27.6177],[-50.0463,-27.5783],[-50.0278,-27.5711],[-50.0125,-27.5772],[-50.0289,-27.5921],[-50.0141,-27.6024],[-50.0196,-27.6159],[-50.001,-27.6402]]]]}},{"type":"Feature","properties":{"codarea":"4210050","centroide":[-51.35469613925666,-26.80291601165498],"codigo_ibge":4210050,"nome_ig":"Santa Catarina"},"geometry":{"type":"MultiPolygon","coordinates":[[[[-51.2851,-26.873],[-51.2838,-26.8767],[-51.3245,-26.8655],[-51.3369,-26.8745],[-51.3683,-26.8696],[-51.4383,-26.8542],[-51.4276,-26.8411],[-51.4334,-26.8239],[-51.4722,-26.808],[-51.4738,-26.7901],[-51.4485,-26.7725],[-51.4131,-26.7204],[-51.3787,-26.7371],[-51.3389,-26.7343],[-51.3123,-26.7467],[-51.2883,-26.7668],[-51.2554,-26.7739],[-51.2393,-26.8017],[-51.2374,-26.8228],[-51.2767,-26.8492],[-51.2851,-26.873]]]]}},{"type":"Feature","properties":{"codarea":"4211892","centroide":[-50.07316287876868,-27.96407899117921],"codigo_ibge":4211892,"nome_ig":"Santa Catarina"},"geometry":{"type":"MultiPolygon","coordinates":[[[[-49.8696,-27.901],[-49.8676,-27.9106],[-49.9334,-27.936],[-49.9442,-27.9501],[-49.9639,-27.954],[-49.9664,-27.9957],[-50.0009,-28.004],[-49.9985,-28.0322],[-50.0186,-28.0462],[-50.0156,-28.0699],[-50.0421,-28.0679],[-50.0552,-28.094],[-50.0728,-28.1013],[-50.0594,-28.113],[-50.0974,-28.1237],[-50.1146,-28.1358],[-50.1046,-28.1583],[-50.1436,-28.1525],[-50.1525,-28.1429],[-50.1728,-28.1618],[-50.1895,-28.1397],[-50.2004,-28.1105],[-50.1918,-28.0886],[-50.2015,-27.9937],[-50.1965,-27.9668],[-50.1826,-27.9424],[-50.1932,-27.9152],[-50.215,-27.8947],[-50.2141,-27.8745],[-50.2018,-27.8633],[-50.1703,-27.8693],[-50.1609,-27.8602],[-50.097,-27.8549],[-50.0728,-27.8395],[-50.0691,-27.8106],[-50.0347,-27.8111],[-49.9948,-27.7933],[-49.9898,-27.8268],[-49.9555,-27.8487],[-49.9221,-27.8419],[-49.9044,-27.8451],[-49.911,-27.8554],[-49.8783,-27.8969],[-49.8696,-27.901]]]]}},{"type":"Feature","properties":{"codarea":"4213005","centroide":[-51.23567287424137,-27.04987505942046],"codigo_ibge":4213005,"nome_ig":"Santa Catarina"},"geometry":{"type":"MultiPolygon","coordinates":[[[[-51.1962,-27.0289],[-51.177,-27.0394],[-51.1602,-27.0869],[-51.2037,-27.0785],[-51.2133,-27.0684],[-51.253,-27.0623],[-51.2717,-27.0671],[-51.2844,-27.0508],[-51.2989,-27.0575],[-51.3176,-27.0442],[-51.3168,-27.0186],[-51.2507,-27.0339],[-51.1962,-27.0289]]]]}},{"type":"Feature","properties":{"codarea":"4214300","centroide":[-49.09027200075478,-27.67329906304198],"codigo_ibge":4214300,"nome_ig":"Santa Catarina"},"geometry":{"type":"MultiPolygon","coordinates":[[[[-48.9702,-27.6351],[-48.9639,-27.6576],[-48.982,-27.687],[-49.0064,-27.701],[-49.0316,-27.7744],[-49.0362,-27.7344],[-49.0539,-27.7719],[-49.0636,-27.758],[-49.0949,-27.7534],[-49.1089,-27.7697],[-49.1296,-27.7564],[-49.1288,-27.7468],[-49.1585,-27.7441],[-49.1489,-27.688],[-49.1573,-27.6727],[-49.202,-27.6458],[-49.2114,-27.6285],[-49.2053,-27.6026],[-49.1824,-27.5909],[-49.1435,-27.593],[-49.1384,-27.5819],[-49.1281,-27.6007],[-49.0899,-27.5855],[-49.0814,-27.623],[-49.0654,-27.6483],[-49.0112,-27.6225],[-48.9702,-27.6351]]]]}},{"type":"Feature","properties":{"codarea":"4214409","centroide":[-51.06168546016121,-26.90937074268111],"codigo_ibge":4214409,"nome_ig":"Santa Catarina"},"geometry":{"type":"MultiPolygon","coordinates":[[[[-50.8461,-26.8714],[-50.9277,-26.9244],[-50.9904,-26.9609],[-50.986,-26.9789],[-51.0268,-26.9803],[-51.0451,-26.9864],[-51.0722,-26.9805],[-51.1177,-26.983],[-51.1274,-26.9616],[-51.1437,-26.9516],[-51.1612,-26.9546],[-51.1641,-26.9282],[-51.1797,-26.9163],[-51.1841,-26.8856],[-51.1788,-26.8691],[-51.1896,-26.8521],[-51.1732,-26.8318],[-51.1251,-26.842],[-51.0986,-26.837],[-51.0502,-26.8416],[-51.0539,-26.8585],[-51.0424,-26.8632],[-50.9945,-26.8631],[-50.9701,-26.8969],[-50.9424,-26.884],[-50.9256,-26.9021],[-50.9043,-26.8846],[-50.8461,-26.8714]]]]}},{"type":"Feature","properties":{"codarea":"4215406","centroide":[-51.42811372007251,-26.89607646402209],"codigo_ibge":4215406,"nome_ig":"Santa Catarina"},"geometry":{"type":"MultiPolygon","coordinates":[[[[-51.5103,-26.8386],[-51.4383,-26.8542],[-51.3683,-26.8696],[-51.3636,-26.9017],[-51.3711,-26.9098],[-51.3639,-26.9397],[-51.406,-26.9431],[-51.4103,-26.9473],[-51.464,-26.9327],[-51.479,-26.9237],[-51.488,-26.8609],[-51.5103,-26.8386]]]]}},{"type":"Feature","properties":{"codarea":"4216503","centroide":[-50.01411040460193,-28.298047181917987],"codigo_ibge":4216503,"nome_ig":"Santa Catarina"},"geometry":{"type":"MultiPolygon","coordinates":[[[[-49.8489,-28.1027],[-49.8153,-28.1189],[-49.7914,-28.1111],[-49.7763,-28.1446],[-49.7591,-28.1524],[-49.7354,-28.1808],[-49.6849,-28.2125],[-49.6722,-28.2304],[-49.7113,-28.2212],[-49.7319,-28.2393],[-49.7556,-28.2491],[-49.7738,-28.285],[-49.774,-28.3312],[-49.7644,-28.3488],[-49.7831,-28.3656],[-49.8052,-28.3666],[-49.8068,-28.3852],[-49.7708,-28.3955],[-49.7696,-28.4135],[-49.7543,-28.418],[-49.7831,-28.429],[-49.8112,-28.4216],[-49.8311,-28.4252],[-49.8124,-28.4387],[-49.8031,-28.4568],[-49.8162,-28.469],[-49.8124,-28.4849],[-49.8666,-28.4886],[-49.8635,-28.4628],[-49.8777,-28.4551],[-49.8542,-28.4446],[-49.8984,-28.445],[-49.8888,-28.4594],[-49.9044,-28.4646],[-49.9285,-28.4512],[-49.9384,-28.4581],[-49.9284,-28.4714],[-49.9459,-28.4817],[-49.9522,-28.4507],[-49.9672,-28.4559],[-49.9707,-28.4402],[-49.9886,-28.4452],[-49.9885,-28.4569],[-50.0202,-28.4525],[-50.0271,-28.4742],[-50.0686,-28.4792],[-50.0863,-28.4726],[-50.1004,-28.4863],[-50.1069,-28.4733],[-50.1222,-28.4762],[-50.1265,-28.4627],[-50.1113,-28.4454],[-50.1275,-28.4403],[-50.1601,-28.4632],[-50.1393,-28.4932],[-50.1626,-28.4953],[-50.162,-28.4798],[-50.1784,-28.4518],[-50.2032,-28.4435],[-50.2158,-28.4603],[-50.2357,-28.457],[-50.2468,-28.4282],[-50.2642,-28.4429],[-50.2502,-28.447],[-50.2736,-28.457],[-50.3013,-28.4392],[-50.3389,-28.4387],[-50.3368,-28.4544],[-50.352,-28.4572],[-50.3509,-28.4248],[-50.3674,-28.4208],[-50.3811,-28.447],[-50.3968,-28.4327],[-50.4247,-28.4333],[-50.405,-28.4234],[-50.4067,-28.3951],[-50.3861,-28.3868],[-50.3777,-28.3723],[-50.3354,-28.3817],[-50.3352,-28.3662],[-50.2872,-28.3453],[-50.2787,-28.3488],[-50.2652,-28.3296],[-50.2785,-28.3228],[-50.2714,-28.3098],[-50.2309,-28.3016],[-50.2448,-28.2898],[-50.2456,-28.2572],[-50.2176,-28.2511],[-50.2293,-28.2431],[-50.2174,-28.233],[-50.2321,-28.2191],[-50.2167,-28.2069],[-50.1876,-28.2138],[-50.1673,-28.1988],[-50.1878,-28.1665],[-50.1728,-28.1618],[-50.1525,-28.1429],[-50.1436,-28.1525],[-50.1046,-28.1583],[-50.1146,-28.1358],[-50.0974,-28.1237],[-50.0594,-28.113],[-50.0728,-28.1013],[-50.0552,-28.094],[-50.0212,-28.1006],[-50.0128,-28.0878],[-49.9912,-28.1038],[-49.9257,-28.0955],[-49.9055,-28.1115],[-49.8982,-28.092],[-49.8821,-28.1096],[-49.8655,-28.0957],[-49.8489,-28.1027]]]]}},{"type":"Feature","properties":{"codarea":"4216800","centroide":[-50.65243886404153,-27.598159590317614],"codigo_ibge":4216800,"nome_ig":"Santa Catarina"},"geometry":{"type":"MultiPolygon","coordinates":[[[[-50.5696,-27.5043],[-50.5491,-27.5288],[-50.5237,-27.5838],[-50.537,-27.6065],[-50.5118,-27.5963],[-50.5063,-27.6207],[-50.5235,-27.6319],[-50.4958,-27.6281],[-50.4842,-27.6537],[-50.4273,-27.6817],[-50.4377,-27.6949],[-50.4306,-27.712],[-50.4117,-27.7068],[-50.3948,-27.7254],[-50.3945,-27.7497],[-50.4337,-27.773],[-50.4956,-27.7686],[-50.5122,-27.7867],[-50.5451,-27.7638],[-50.5565,-27.7496],[-50.5428,-27.7345],[-50.5545,-27.7241],[-50.5829,-27.7282],[-50.5748,-27.7152],[-50.5953,-27.7083],[-50.6052,-27.7287],[-50.6413,-27.7143],[-50.6529,-27.7267],[-50.6637,-27.7096],[-50.6775,-27.7151],[-50.7059,-27.6855],[-50.697,-27.6693],[-50.714,-27.6764],[-50.7265,-27.6645],[-50.7186,-27.6482],[-50.7583,-27.6378],[-50.756,-27.6233],[-50.7814,-27.6346],[-50.7998,-27.6145],[-50.8027,-27.599],[-50.8151,-27.6173],[-50.852,-27.6019],[-50.8752,-27.6015],[-50.8864,-27.6086],[-50.9014,-27.5734],[-50.9339,-27.5799],[-50.9349,-27.5707],[-50.9618,-27.5548],[-50.913,-27.5562],[-50.9155,-27.5398],[-50.9037,-27.5361],[-50.8969,-27.561],[-50.8865,-27.5356],[-50.8721,-27.5432],[-50.8507,-27.5098],[-50.8317,-27.5148],[-50.8263,-27.5032],[-50.8053,-27.496],[-50.8052,-27.4833],[-50.8314,-27.4782],[-50.8236,-27.4513],[-50.808,-27.4697],[-50.8068,-27.457],[-50.7866,-27.4596],[-50.7807,-27.4488],[-50.795,-27.4352],[-50.7826,-27.4302],[-50.7666,-27.44],[-50.7541,-27.4221],[-50.7504,-27.4492],[-50.7358,-27.4381],[-50.7132,-27.4497],[-50.7154,-27.4264],[-50.6893,-27.4268],[-50.6893,-27.4431],[-50.6763,-27.4376],[-50.6704,-27.4704],[-50.6488,-27.4524],[-50.6341,-27.4682],[-50.6347,-27.4537],[-50.6047,-27.4697],[-50.565,-27.4665],[-50.5757,-27.4864],[-50.5696,-27.5043]]]]}},{"type":"Feature","properties":{"codarea":"4217907","centroide":[-51.14853583913314,-27.14686740951575],"codigo_ibge":4217907,"nome_ig":"Santa Catarina"},"geometry":{"type":"MultiPolygon","coordinates":[[[[-51.1602,-27.0869],[-51.1431,-27.099],[-51.1415,-27.1146],[-51.1269,-27.0993],[-51.1077,-27.1025],[-51.0839,-27.122],[-51.0498,-27.0973],[-51.0445,-27.1158],[-51.0234,-27.1278],[-51.0084,-27.1202],[-50.9987,-27.1363],[-50.9655,-27.1336],[-50.9308,-27.1179],[-50.9555,-27.149],[-50.9957,-27.1705],[-51.0106,-27.1725],[-51.0292,-27.2236],[-51.0379,-27.2335],[-51.0666,-27.252],[-51.0934,-27.2501],[-51.1124,-27.2387],[-51.1333,-27.215],[-51.1527,-27.2199],[-51.1738,-27.2042],[-51.1944,-27.1694],[-51.2115,-27.1592],[-51.2292,-27.1613],[-51.2329,-27.1397],[-51.2599,-27.1375],[-51.2945,-27.1616],[-51.322,-27.1516],[-51.3328,-27.1463],[-51.3381,-27.1173],[-51.3268,-27.1091],[-51.3205,-27.0785],[-51.3057,-27.0737],[-51.2989,-27.0575],[-51.2844,-27.0508],[-51.2717,-27.0671],[-51.253,-27.0623],[-51.2133,-27.0684],[-51.2037,-27.0785],[-51.1602,-27.0869]]]]}},{"type":"Feature","properties":{"codarea":"4218509","centroide":[-51.44812171099621,-26.965316413506027],"codigo_ibge":4218509,"nome_ig":"Santa Catarina"},"geometry":{"type":"MultiPolygon","coordinates":[[[[-51.406,-26.9431],[-51.3945,-26.9701],[-51.3819,-26.9688],[-51.368,-26.9842],[-51.3531,-26.9816],[-51.3403,-26.9976],[-51.3454,-27.014],[-51.3342,-27.0203],[-51.3455,-27.0399],[-51.4209,-27.0396],[-51.4622,-27.0276],[-51.4509,-27.0183],[-51.4725,-27.0125],[-51.507,-26.9614],[-51.5169,-26.9617],[-51.5408,-26.9394],[-51.5297,-26.8795],[-51.5103,-26.8386],[-51.488,-26.8609],[-51.479,-26.9237],[-51.464,-26.9327],[-51.4103,-26.9473],[-51.406,-26.9431]]]]}},{"type":"Feature","properties":{"codarea":"4218905","centroide":[-49.576767430337796,-28.038123544343172],"codigo_ibge":4218905,"nome_ig":"Santa Catarina"},"geometry":{"type":"MultiPolygon","coordinates":[[[[-49.3,-27.9011],[-49.3086,-27.9403],[-49.3108,-27.9709],[-49.324,-27.9837],[-49.3499,-27.9958],[-49.3555,-28.0287],[-49.3719,-28.044],[-49.3732,-28.0659],[-49.3994,-28.0806],[-49.395,-28.1116],[-49.4366,-28.1173],[-49.4411,-28.1322],[-49.4742,-28.1344],[-49.4745,-28.1255],[-49.4796,-28.1187],[-49.5116,-28.1271],[-49.5453,-28.1251],[-49.5639,-28.1154],[-49.5775,-28.149],[-49.612,-28.1626],[-49.6444,-28.1644],[-49.6598,-28.1851],[-49.6695,-28.1848],[-49.6664,-28.2144],[-49.6722,-28.2304],[-49.6849,-28.2125],[-49.7354,-28.1808],[-49.7591,-28.1524],[-49.7763,-28.1446],[-49.7914,-28.1111],[-49.8153,-28.1189],[-49.8489,-28.1027],[-49.8223,-28.079],[-49.8138,-28.0586],[-49.7907,-28.0473],[-49.7708,-28.0245],[-49.7451,-28.0309],[-49.7163,-28.0284],[-49.7111,-28.0077],[-49.7151,-27.942],[-49.701,-27.9167],[-49.6525,-27.9065],[-49.6072,-27.9011],[-49.5791,-27.8985],[-49.5552,-27.9113],[-49.5188,-27.9146],[-49.493,-27.9314],[-49.4529,-27.9316],[-49.4411,-27.9431],[-49.428,-27.9352],[-49.4123,-27.9523],[-49.3808,-27.942],[-49.3607,-27.9237],[-49.33,-27.9236],[-49.3169,-27.9026],[-49.3,-27.9011]]]]}},{"type":"Feature","properties":{"codarea":"4218954","centroide":[-49.900447541624494,-28.023561372446387],"codigo_ibge":4218954,"nome_ig":"Santa Catarina"},"geometry":{"type":"MultiPolygon","coordinates":[[[[-49.7451,-28.0309],[-49.7708,-28.0245],[-49.7907,-28.0473],[-49.8138,-28.0586],[-49.8223,-28.079],[-49.8489,-28.1027],[-49.8655,-28.0957],[-49.8821,-28.1096],[-49.8982,-28.092],[-49.9055,-28.1115],[-49.9257,-28.0955],[-49.9912,-28.1038],[-50.0128,-28.0878],[-50.0212,-28.1006],[-50.0552,-28.094],[-50.0421,-28.0679],[-50.0156,-28.0699],[-50.0186,-28.0462],[-49.9985,-28.0322],[-50.0009,-28.004],[-49.9664,-27.9957],[-49.9639,-27.954],[-49.9442,-27.9501],[-49.9334,-27.936],[-49.8676,-27.9106],[-49.8431,-27.9387],[-49.8555,-27.9504],[-49.8207,-27.9712],[-49.8094,-27.9639],[-49.7931,-27.9929],[-49.7762,-27.9964],[-49.7451,-28.0309]]]]}},{"type":"Feature","properties":{"codarea":"4219176","centroide":[-51.75577669772447,-26.945896670059618],"codigo_ibge":4219176,"nome_ig":"Santa Catarina"},"geometry":{"type":"MultiPolygon","coordinates":[[[[-51.7284,-26.8454],[-51.7239,-26.8529],[-51.695,-26.8514],[-51.6908,-26.8876],[-51.6748,-26.8849],[-51.675,-26.9128],[-51.6896,-26.9299],[-51.6227,-26.9357],[-51.6324,-26.9431],[-51.653,-26.9546],[-51.6809,-26.9581],[-51.6974,-26.9866],[-51.6846,-27.0077],[-51.7006,-27.0047],[-51.7337,-27.04],[-51.7585,-27.0507],[-51.7872,-27.0516],[-51.8023,-27.0406],[-51.8437,-26.9948],[-51.8629,-26.9815],[-51.8193,-26.938],[-51.8244,-26.924],[-51.8132,-26.8547],[-51.7704,-26.8537],[-51.7708,-26.8408],[-51.7275,-26.8527],[-51.7284,-26.8454]]]]}},{"type":"Feature","properties":{"codarea":"4219309","centroide":[-51.12685992183422,-27.006781849180907],"codigo_ibge":4219309,"nome_ig":"Santa Catarina"},"geometry":{"type":"MultiPolygon","coordinates":[[[[-51.1896,-26.8521],[-51.1788,-26.8691],[-51.1841,-26.8856],[-51.1797,-26.9163],[-51.1641,-26.9282],[-51.1612,-26.9546],[-51.1437,-26.9516],[-51.1274,-26.9616],[-51.1177,-26.983],[-51.0722,-26.9805],[-51.0451,-26.9864],[-51.0143,-27.0047],[-51.0065,-27.0359],[-50.9718,-27.0413],[-50.9723,-27.0777],[-50.9928,-27.1092],[-51.0084,-27.1202],[-51.0234,-27.1278],[-51.0445,-27.1158],[-51.0498,-27.0973],[-51.0839,-27.122],[-51.1077,-27.1025],[-51.1269,-27.0993],[-51.1415,-27.1146],[-51.1431,-27.099],[-51.1602,-27.0869],[-51.177,-27.0394],[-51.1962,-27.0289],[-51.1966,-27.0156],[-51.2163,-26.9897],[-51.2152,-26.9637],[-51.2531,-26.9638],[-51.2653,-26.9532],[-51.2654,-26.9265],[-51.2832,-26.9211],[-51.2678,-26.9178],[-51.2876,-26.8951],[-51.2838,-26.8767],[-51.2851,-26.873],[-51.245,-26.8847],[-51.2198,-26.8595],[-51.1896,-26.8521]]]]}}]}