{"type":"FeatureCollection","features":[{"type":"Feature","properties":{"codarea":"3162500","centroide":[-44.2745994943532,-21.262712803233445],"codigo_ibge":3162500,"nome_ig":"São João del-Rei"},"geometry":{"type":"Polygon","coordinates":[[[-44.2742,-21.0569],[-44.264,-21.0836],[-44.2458,-21.0799],[-44.2351,-21.0645],[-44.2244,-21.0747],[-44.2088,-21.0885],[-44.2046,-21.1154],[-44.2349,-21.12],[-44.2294,-21.1277],[-44.1998,-21.1227],[-44.1629,-21.1347],[-44.1618,-21.1442],[-44.1213,-21.1787],[-44.1235,-21.1965],[-44.1027,-21.2065],[-44.0781,-21.2006],[-44.0702,-21.2199],[-44.0456,-21.225],[-44.0423,-21.2429],[-44.0229,-21.2415],[-44.0246,-21.2592],[-44.0089,-21.2713],[-44.0112,-21.2838],[-43.9884,-21.2976],[-44.0166,-21.3151],[-44.0243,-21.3415],[-44.0054,-21.3632],[-44.0322,-21.3808],[-44.0542,-21.4072],[-44.0677,-21.4057],[-44.0891,-21.4353],[-44.1093,-21.424],[-44.1144,-21.4048],[-44.143,-21.3856],[-44.1987,-21.3907],[-44.2046,-21.3789],[-44.241,-21.3778],[-44.2611,-21.3704],[-44.3488,-21.3925],[-44.3641,-21.4084],[-44.4175,-21.412],[-44.4431,-21.3968],[-44.4817,-21.4082],[-44.5024,-21.3944],[-44.5133,-21.4078],[-44.5344,-21.3868],[-44.5138,-21.3721],[-44.5112,-21.3543],[-44.5282,-21.335],[-44.5471,-21.3389],[-44.5542,-21.3136],[-44.5748,-21.3092],[-44.5284,-21.2809],[-44.5084,-21.2796],[-44.4643,-21.2448],[-44.466,-21.2309],[-44.4609,-21.2041],[-44.4399,-21.1956],[-44.4253,-21.1783],[-44.4189,-21.1447],[-44.3971,-21.1474],[-44.3881,-21.1358],[-44.4082,-21.1296],[-44.4285,-21.0966],[-44.4093,-21.0897],[-44.3845,-21.0941],[-44.3547,-21.0719],[-44.3103,-21.0621],[-44.3089,-21.0525],[-44.2866,-21.0441],[-44.2742,-21.0569]]]}}]}