{"type":"FeatureCollection","features":[{"type":"Feature","properties":{"codarea":"3165008","centroide":[-44.561150463080565,-20.93845136576421],"codigo_ibge":3165008,"nome_ig":"São Tiago"},"geometry":{"type":"Polygon","coordinates":[[[-44.4459,-20.8991],[-44.4793,-20.9612],[-44.4815,-21.0116],[-44.4924,-21.0347],[-44.4823,-21.0436],[-44.509,-21.07],[-44.5092,-21.0799],[-44.5341,-21.0778],[-44.5529,-21.0991],[-44.56,-21.0922],[-44.5805,-21.1028],[-44.5843,-21.0805],[-44.6213,-21.0958],[-44.624,-21.0518],[-44.6324,-21.0503],[-44.6429,-21.0242],[-44.6401,-21],[-44.6611,-20.99],[-44.6653,-20.9493],[-44.6594,-20.8985],[-44.7091,-20.8488],[-44.6653,-20.8528],[-44.6511,-20.8708],[-44.6421,-20.8387],[-44.6108,-20.8115],[-44.5975,-20.8228],[-44.5812,-20.8076],[-44.5605,-20.8039],[-44.5485,-20.8198],[-44.515,-20.834],[-44.4678,-20.7889],[-44.4476,-20.7862],[-44.4575,-20.8322],[-44.4459,-20.8991]]]}}]}