{"type":"FeatureCollection","features":[{"type":"Feature","properties":{"codarea":"3204906","centroide":[-40.02185110748462,-18.748350426521252],"codigo_ibge":3204906,"nome_ig":"São Mateus"},"geometry":{"type":"MultiPolygon","coordinates":[[[[-39.7464,-18.7061],[-39.7503,-18.8417],[-39.7429,-18.931],[-39.7189,-19.097],[-39.7326,-19.0973],[-39.7411,-19.1489],[-39.8613,-18.9967],[-39.9014,-18.9589],[-39.9622,-18.8934],[-39.9661,-18.8806],[-39.9892,-18.8769],[-40.0078,-18.8941],[-40.0073,-18.8134],[-40.0501,-18.8115],[-40.0865,-18.803],[-40.1159,-18.775],[-40.1244,-18.7768],[-40.2077,-18.8844],[-40.2509,-18.864],[-40.2624,-18.8372],[-40.3242,-18.8506],[-40.3473,-18.8451],[-40.3729,-18.8497],[-40.4016,-18.8509],[-40.4055,-18.8344],[-40.3903,-18.8023],[-40.3945,-18.7817],[-40.3481,-18.7454],[-40.3364,-18.7258],[-40.2842,-18.5767],[-40.246,-18.5683],[-40.2204,-18.5861],[-40.2086,-18.5713],[-40.1674,-18.5461],[-40.1583,-18.5102],[-40.1245,-18.4885],[-40.0792,-18.4821],[-40.0572,-18.4592],[-40.0572,-18.4592],[-40.0298,-18.4441],[-39.9825,-18.5042],[-39.8357,-18.6827],[-39.8329,-18.6731],[-39.8088,-18.6745],[-39.8162,-18.6833],[-39.8132,-18.7211],[-39.7856,-18.7055],[-39.7464,-18.7061]]]]}}]}