{"type":"FeatureCollection","features":[{"type":"Feature","properties":{"codarea":"2929750","centroide":[-38.77001628479046,-12.77529689209123],"codigo_ibge":2929750,"nome_ig":"Saubara - BA"},"geometry":{"type":"MultiPolygon","coordinates":[[[[-38.6872,-12.7265],[-38.6952,-12.7541],[-38.6985,-12.8005],[-38.7429,-12.8174],[-38.7929,-12.8317],[-38.8018,-12.8385],[-38.8185,-12.8512],[-38.8457,-12.839],[-38.8312,-12.8212],[-38.8299,-12.7948],[-38.8166,-12.7749],[-38.8443,-12.728],[-38.8413,-12.7194],[-38.7804,-12.7267],[-38.7669,-12.7161],[-38.7585,-12.7276],[-38.6872,-12.7265]]]]}}]}