{"type":"FeatureCollection","features":[{"type":"Feature","properties":{"codarea":"2413359","centroide":[-37.02496536389724,-5.172119863684368],"codigo_ibge":2413359,"nome_ig":"Serra do Mel"},"geometry":{"type":"Polygon","coordinates":[[[-36.9118,-5.0161],[-36.9111,-5.076],[-36.9541,-5.076],[-36.9722,-5.1029],[-36.9721,-5.1316],[-36.929,-5.1349],[-36.928,-5.2937],[-37.0512,-5.294],[-37.1261,-5.2934],[-37.1558,-5.2938],[-37.1564,-5.1666],[-37.111,-5.1665],[-37.1054,-5.1326],[-37.1114,-5.1246],[-37.1117,-5.0967],[-37.0508,-5.0965],[-37.0509,-5.0597],[-37.0284,-5.0596],[-37.0286,-5.0424],[-37.0113,-5.0424],[-37.0114,-5.0219],[-36.9657,-5.0218],[-36.9659,-4.9858],[-36.9121,-4.9855],[-36.9118,-5.0161]]]}}]}