{"type":"FeatureCollection","features":[{"type":"Feature","properties":{"codarea":"3102407","centroide":[-43.36737521454318,-18.77899145714578],"codigo_ibge":3102407,"nome_ig":"Serro"},"geometry":{"type":"Polygon","coordinates":[[[-43.2291,-18.742],[-43.2465,-18.7722],[-43.2607,-18.7942],[-43.292,-18.7997],[-43.3072,-18.8096],[-43.3245,-18.8026],[-43.3118,-18.8397],[-43.3014,-18.8409],[-43.2935,-18.8674],[-43.3078,-18.8677],[-43.34,-18.8701],[-43.3781,-18.8562],[-43.4038,-18.8605],[-43.4196,-18.8778],[-43.4329,-18.8796],[-43.4425,-18.8624],[-43.4611,-18.8549],[-43.4637,-18.8104],[-43.4845,-18.8104],[-43.5006,-18.7894],[-43.5358,-18.774],[-43.5181,-18.7673],[-43.4937,-18.7465],[-43.4626,-18.7591],[-43.4448,-18.7461],[-43.427,-18.7573],[-43.3765,-18.6953],[-43.3512,-18.675],[-43.3363,-18.6717],[-43.3319,-18.6861],[-43.2921,-18.6895],[-43.2871,-18.7096],[-43.276,-18.7008],[-43.2291,-18.742]]]}},{"type":"Feature","properties":{"codarea":"3117504","centroide":[-43.508263110408855,-18.936980512395362],"codigo_ibge":3117504,"nome_ig":"Serro"},"geometry":{"type":"Polygon","coordinates":[[[-43.7359,-18.6241],[-43.7287,-18.6476],[-43.6849,-18.6541],[-43.6783,-18.6453],[-43.6738,-18.6575],[-43.6541,-18.6659],[-43.6383,-18.6579],[-43.5878,-18.6809],[-43.5639,-18.7044],[-43.5323,-18.7116],[-43.5106,-18.6966],[-43.4884,-18.7087],[-43.4914,-18.7182],[-43.4937,-18.7465],[-43.5181,-18.7673],[-43.5358,-18.774],[-43.5006,-18.7894],[-43.4845,-18.8104],[-43.4637,-18.8104],[-43.4611,-18.8549],[-43.4425,-18.8624],[-43.4329,-18.8796],[-43.4196,-18.8778],[-43.4038,-18.8605],[-43.3781,-18.8562],[-43.34,-18.8701],[-43.3078,-18.8677],[-43.306,-18.8813],[-43.3539,-18.8974],[-43.3737,-18.9123],[-43.3544,-18.9149],[-43.3515,-18.9308],[-43.3083,-18.966],[-43.3159,-18.9989],[-43.2958,-19.0203],[-43.2924,-19.0432],[-43.3215,-19.0672],[-43.3129,-19.0904],[-43.2949,-19.0977],[-43.2687,-19.1142],[-43.2774,-19.1268],[-43.2546,-19.1399],[-43.235,-19.1296],[-43.2244,-19.1396],[-43.1942,-19.1337],[-43.1828,-19.1394],[-43.1635,-19.1145],[-43.1387,-19.1666],[-43.1464,-19.1787],[-43.1175,-19.1989],[-43.1214,-19.2202],[-43.0987,-19.2481],[-43.1088,-19.2544],[-43.1252,-19.2371],[-43.159,-19.2519],[-43.1657,-19.2378],[-43.1912,-19.2423],[-43.1853,-19.2172],[-43.1991,-19.2017],[-43.2315,-19.2138],[-43.246,-19.2049],[-43.2725,-19.1721],[-43.3202,-19.1318],[-43.3167,-19.1176],[-43.3441,-19.099],[-43.3558,-19.1264],[-43.3706,-19.1415],[-43.4212,-19.1437],[-43.4558,-19.1373],[-43.4656,-19.1688],[-43.4967,-19.1833],[-43.5074,-19.1682],[-43.5495,-19.1644],[-43.5532,-19.1379],[-43.5653,-19.1209],[-43.6114,-19.1018],[-43.6223,-19.0767],[-43.6431,-19.0299],[-43.6347,-19.0143],[-43.6684,-18.9726],[-43.6819,-18.9434],[-43.6495,-18.9336],[-43.6367,-18.9221],[-43.6473,-18.9001],[-43.6388,-18.8794],[-43.6213,-18.8993],[-43.6083,-18.898],[-43.617,-18.8671],[-43.6015,-18.8353],[-43.6162,-18.8026],[-43.6123,-18.7531],[-43.6054,-18.7391],[-43.6157,-18.7258],[-43.6386,-18.7419],[-43.6325,-18.7569],[-43.6515,-18.7504],[-43.6695,-18.7311],[-43.7062,-18.7406],[-43.7002,-18.7748],[-43.7223,-18.765],[-43.7377,-18.7431],[-43.7958,-18.7672],[-43.7951,-18.7877],[-43.8124,-18.798],[-43.8482,-18.7049],[-43.8627,-18.6973],[-43.8689,-18.6715],[-43.8237,-18.6588],[-43.8249,-18.6459],[-43.7969,-18.6109],[-43.7772,-18.621],[-43.7662,-18.6386],[-43.7526,-18.6372],[-43.7495,-18.6218],[-43.7359,-18.6241]]]}},{"type":"Feature","properties":{"codarea":"3122603","centroide":[-43.25946498104359,-18.92801837942842],"codigo_ibge":3122603,"nome_ig":"Serro"},"geometry":{"type":"Polygon","coordinates":[[[-43.1995,-18.8604],[-43.2088,-18.8711],[-43.1681,-18.9259],[-43.1726,-18.9441],[-43.1559,-18.9708],[-43.1844,-18.984],[-43.1954,-18.9732],[-43.2196,-18.9818],[-43.2205,-19.0046],[-43.2447,-19.0193],[-43.2317,-19.0415],[-43.2451,-19.0499],[-43.2474,-19.068],[-43.2312,-19.0833],[-43.2606,-19.0959],[-43.2949,-19.0977],[-43.3129,-19.0904],[-43.3215,-19.0672],[-43.2924,-19.0432],[-43.2958,-19.0203],[-43.3159,-18.9989],[-43.3083,-18.966],[-43.3515,-18.9308],[-43.3544,-18.9149],[-43.3737,-18.9123],[-43.3539,-18.8974],[-43.306,-18.8813],[-43.3078,-18.8677],[-43.2935,-18.8674],[-43.3014,-18.8409],[-43.3118,-18.8397],[-43.3245,-18.8026],[-43.3072,-18.8096],[-43.292,-18.7997],[-43.2607,-18.7942],[-43.2465,-18.7722],[-43.2133,-18.7719],[-43.2056,-18.7882],[-43.2079,-18.8404],[-43.1995,-18.8604]]]}},{"type":"Feature","properties":{"codarea":"3140605","centroide":[-43.045867624893525,-18.461020962689428],"codigo_ibge":3140605,"nome_ig":"Serro"},"geometry":{"type":"Polygon","coordinates":[[[-42.8693,-18.3642],[-42.8875,-18.3933],[-42.9191,-18.3934],[-42.9239,-18.4302],[-42.9305,-18.4388],[-42.956,-18.4363],[-42.9974,-18.4578],[-43.0186,-18.5077],[-43.0374,-18.505],[-43.0567,-18.5278],[-43.0523,-18.5344],[-43.0733,-18.5661],[-43.0942,-18.5699],[-43.0881,-18.547],[-43.1412,-18.5595],[-43.1531,-18.5544],[-43.1514,-18.5405],[-43.169,-18.5255],[-43.1605,-18.5039],[-43.1677,-18.4821],[-43.1219,-18.4772],[-43.1021,-18.4686],[-43.1035,-18.4345],[-43.1125,-18.4295],[-43.111,-18.4175],[-43.0919,-18.4096],[-43.079,-18.388],[-43.0722,-18.399],[-43.0482,-18.3969],[-43.0331,-18.4052],[-43.0143,-18.39],[-43.0039,-18.395],[-42.984,-18.3781],[-42.9694,-18.387],[-42.946,-18.3738],[-42.9301,-18.3787],[-42.9253,-18.3666],[-42.9117,-18.3767],[-42.8693,-18.3642]]]}},{"type":"Feature","properties":{"codarea":"3148400","centroide":[-42.863703212421996,-18.45724529207441],"codigo_ibge":3148400,"nome_ig":"Serro"},"geometry":{"type":"Polygon","coordinates":[[[-42.8003,-18.3796],[-42.8161,-18.4068],[-42.8087,-18.4597],[-42.8184,-18.5174],[-42.865,-18.5642],[-42.8956,-18.5609],[-42.9244,-18.5],[-42.9102,-18.4915],[-42.9141,-18.4594],[-42.9305,-18.4388],[-42.9239,-18.4302],[-42.9191,-18.3934],[-42.8875,-18.3933],[-42.8693,-18.3642],[-42.8515,-18.3585],[-42.8396,-18.3745],[-42.8231,-18.3434],[-42.8003,-18.3796]]]}},{"type":"Feature","properties":{"codarea":"3156007","centroide":[-43.05479487844614,-18.254778970214453],"codigo_ibge":3156007,"nome_ig":"Serro"},"geometry":{"type":"Polygon","coordinates":[[[-42.8668,-18.123],[-42.8892,-18.1589],[-42.9296,-18.1819],[-42.9454,-18.2348],[-42.9254,-18.2468],[-42.9221,-18.2805],[-42.9119,-18.2901],[-42.8857,-18.2759],[-42.8658,-18.2988],[-42.8718,-18.3282],[-42.8638,-18.352],[-42.8693,-18.3642],[-42.9117,-18.3767],[-42.9253,-18.3666],[-42.9301,-18.3787],[-42.946,-18.3738],[-42.9694,-18.387],[-42.984,-18.3781],[-43.0039,-18.395],[-43.0143,-18.39],[-43.0331,-18.4052],[-43.0482,-18.3969],[-43.0722,-18.399],[-43.079,-18.388],[-43.0919,-18.4096],[-43.111,-18.4175],[-43.1125,-18.4295],[-43.1358,-18.423],[-43.1337,-18.3936],[-43.1491,-18.3788],[-43.1403,-18.3639],[-43.1602,-18.3554],[-43.1677,-18.3382],[-43.194,-18.3415],[-43.21,-18.3351],[-43.2256,-18.2991],[-43.241,-18.3253],[-43.2531,-18.3253],[-43.2636,-18.3061],[-43.2628,-18.3034],[-43.2594,-18.2872],[-43.2743,-18.2696],[-43.273,-18.2524],[-43.2568,-18.2729],[-43.2327,-18.2697],[-43.2209,-18.2405],[-43.2408,-18.1959],[-43.2253,-18.2114],[-43.2015,-18.2176],[-43.1856,-18.2014],[-43.1845,-18.1784],[-43.1384,-18.1229],[-43.1373,-18.1088],[-43.1369,-18.1081],[-43.1332,-18.0955],[-43.0884,-18.0991],[-43.0756,-18.068],[-43.0336,-18.0874],[-43.0294,-18.102],[-43.0048,-18.1248],[-42.9897,-18.1491],[-42.968,-18.1512],[-42.9652,-18.1273],[-42.9442,-18.1126],[-42.9221,-18.1069],[-42.8813,-18.1257],[-42.8668,-18.123]]]}},{"type":"Feature","properties":{"codarea":"3156809","centroide":[-43.062346999241996,-18.649182076548495],"codigo_ibge":3156809,"nome_ig":"Serro"},"geometry":{"type":"Polygon","coordinates":[[[-42.9305,-18.4388],[-42.9141,-18.4594],[-42.9102,-18.4915],[-42.9244,-18.5],[-42.8956,-18.5609],[-42.9103,-18.5779],[-42.8908,-18.6015],[-42.8857,-18.6356],[-42.8512,-18.6749],[-42.892,-18.6693],[-42.912,-18.6741],[-42.9222,-18.6657],[-42.9465,-18.6708],[-42.9712,-18.6544],[-43.0088,-18.6926],[-42.9795,-18.7341],[-42.9999,-18.7471],[-43.0412,-18.7611],[-43.0625,-18.7897],[-43.0941,-18.8166],[-43.0998,-18.8285],[-43.1316,-18.8253],[-43.1541,-18.8382],[-43.1609,-18.8561],[-43.1995,-18.8604],[-43.2079,-18.8404],[-43.2056,-18.7882],[-43.2133,-18.7719],[-43.2465,-18.7722],[-43.2291,-18.742],[-43.2289,-18.7308],[-43.1855,-18.7121],[-43.2113,-18.6945],[-43.2151,-18.661],[-43.2042,-18.6215],[-43.2151,-18.5977],[-43.191,-18.602],[-43.1812,-18.5726],[-43.1531,-18.5544],[-43.1412,-18.5595],[-43.0881,-18.547],[-43.0942,-18.5699],[-43.0733,-18.5661],[-43.0523,-18.5344],[-43.0567,-18.5278],[-43.0374,-18.505],[-43.0186,-18.5077],[-42.9974,-18.4578],[-42.956,-18.4363],[-42.9305,-18.4388]]]}},{"type":"Feature","properties":{"codarea":"3160207","centroide":[-43.26704556701689,-18.47790612384178],"codigo_ibge":3160207,"nome_ig":"Serro"},"geometry":{"type":"Polygon","coordinates":[[[-43.1677,-18.4821],[-43.1605,-18.5039],[-43.169,-18.5255],[-43.1514,-18.5405],[-43.1531,-18.5544],[-43.1812,-18.5726],[-43.191,-18.602],[-43.2151,-18.5977],[-43.208,-18.5989],[-43.1985,-18.5682],[-43.2028,-18.5532],[-43.2282,-18.5474],[-43.2468,-18.5288],[-43.278,-18.5191],[-43.3058,-18.5283],[-43.3449,-18.5225],[-43.359,-18.5328],[-43.3724,-18.5234],[-43.3763,-18.4978],[-43.3638,-18.4825],[-43.3822,-18.4481],[-43.3538,-18.4244],[-43.3475,-18.3975],[-43.3364,-18.3939],[-43.3133,-18.3909],[-43.2839,-18.3965],[-43.2713,-18.3862],[-43.2474,-18.3971],[-43.241,-18.4158],[-43.2186,-18.431],[-43.2022,-18.4327],[-43.1918,-18.4616],[-43.1753,-18.4539],[-43.1677,-18.4821]]]}},{"type":"Feature","properties":{"codarea":"3166501","centroide":[-43.206263673251954,-18.391662852606903],"codigo_ibge":3166501,"nome_ig":"Serro"},"geometry":{"type":"Polygon","coordinates":[[[-43.1125,-18.4295],[-43.1035,-18.4345],[-43.1021,-18.4686],[-43.1219,-18.4772],[-43.1677,-18.4821],[-43.1753,-18.4539],[-43.1918,-18.4616],[-43.2022,-18.4327],[-43.2186,-18.431],[-43.241,-18.4158],[-43.2474,-18.3971],[-43.2713,-18.3862],[-43.2839,-18.3965],[-43.3133,-18.3909],[-43.3364,-18.3939],[-43.3305,-18.3748],[-43.3024,-18.357],[-43.2982,-18.3417],[-43.2636,-18.3061],[-43.2531,-18.3253],[-43.241,-18.3253],[-43.2256,-18.2991],[-43.21,-18.3351],[-43.194,-18.3415],[-43.1677,-18.3382],[-43.1602,-18.3554],[-43.1403,-18.3639],[-43.1491,-18.3788],[-43.1337,-18.3936],[-43.1358,-18.423],[-43.1125,-18.4295]]]}},{"type":"Feature","properties":{"codarea":"3167103","centroide":[-43.401757037104616,-18.536747969055867],"codigo_ibge":3167103,"nome_ig":"Serro"},"geometry":{"type":"Polygon","coordinates":[[[-43.2628,-18.3034],[-43.2636,-18.3061],[-43.2982,-18.3417],[-43.3024,-18.357],[-43.3305,-18.3748],[-43.3364,-18.3939],[-43.3475,-18.3975],[-43.3538,-18.4244],[-43.3822,-18.4481],[-43.3638,-18.4825],[-43.3763,-18.4978],[-43.3724,-18.5234],[-43.359,-18.5328],[-43.3449,-18.5225],[-43.3058,-18.5283],[-43.278,-18.5191],[-43.2468,-18.5288],[-43.2282,-18.5474],[-43.2028,-18.5532],[-43.1985,-18.5682],[-43.208,-18.5989],[-43.2151,-18.5977],[-43.2042,-18.6215],[-43.2151,-18.661],[-43.2113,-18.6945],[-43.1855,-18.7121],[-43.2289,-18.7308],[-43.2291,-18.742],[-43.276,-18.7008],[-43.2871,-18.7096],[-43.2921,-18.6895],[-43.3319,-18.6861],[-43.3363,-18.6717],[-43.3512,-18.675],[-43.3765,-18.6953],[-43.427,-18.7573],[-43.4448,-18.7461],[-43.4626,-18.7591],[-43.4937,-18.7465],[-43.4914,-18.7182],[-43.5221,-18.599],[-43.5521,-18.5903],[-43.5987,-18.533],[-43.6086,-18.5189],[-43.5703,-18.4393],[-43.5491,-18.4465],[-43.5313,-18.4349],[-43.5132,-18.3983],[-43.4976,-18.3895],[-43.5032,-18.3746],[-43.4789,-18.3654],[-43.4554,-18.3261],[-43.461,-18.3103],[-43.4403,-18.2875],[-43.4234,-18.3021],[-43.4022,-18.2934],[-43.3475,-18.3129],[-43.3421,-18.3259],[-43.3225,-18.3209],[-43.3057,-18.2807],[-43.2755,-18.2798],[-43.2628,-18.3034]]]}}]}