{"type":"FeatureCollection","features":[{"type":"Feature","properties":{"codarea":"4101002","centroide":[-53.482936434976615,-25.916419823389308],"codigo_ibge":4101002,"nome_ig":"Sudoeste do Paraná"},"geometry":{"type":"Polygon","coordinates":[[[-53.5767,-25.7994],[-53.5478,-25.812],[-53.5333,-25.8322],[-53.5146,-25.8268],[-53.5031,-25.811],[-53.4906,-25.8147],[-53.495,-25.8304],[-53.4827,-25.8432],[-53.4789,-25.8642],[-53.4673,-25.8671],[-53.4322,-25.9],[-53.39,-25.9178],[-53.3469,-25.9268],[-53.3455,-25.9465],[-53.3712,-25.9675],[-53.3787,-26.0007],[-53.3609,-26.0159],[-53.3649,-26.0203],[-53.3749,-26.0097],[-53.4002,-26.0089],[-53.4077,-25.9969],[-53.445,-26.0021],[-53.484,-25.9942],[-53.5164,-25.964],[-53.5388,-25.9708],[-53.5507,-25.9541],[-53.566,-25.9573],[-53.5816,-25.9485],[-53.5551,-25.9279],[-53.5745,-25.9296],[-53.5859,-25.9276],[-53.5747,-25.9018],[-53.5571,-25.8868],[-53.5841,-25.8775],[-53.5997,-25.8612],[-53.5712,-25.865],[-53.5716,-25.8365],[-53.5872,-25.8442],[-53.5882,-25.8278],[-53.5685,-25.8295],[-53.6032,-25.8133],[-53.5965,-25.8019],[-53.5767,-25.7994]]]}},{"type":"Feature","properties":{"codarea":"4102604","centroide":[-53.53000456456959,-26.24667698854261],"codigo_ibge":4102604,"nome_ig":"Sudoeste do Paraná"},"geometry":{"type":"Polygon","coordinates":[[[-53.4737,-26.1991],[-53.4373,-26.2187],[-53.4417,-26.2265],[-53.4123,-26.2535],[-53.4428,-26.2517],[-53.4429,-26.2664],[-53.4281,-26.2812],[-53.4616,-26.2963],[-53.471,-26.2898],[-53.4958,-26.3027],[-53.5228,-26.2922],[-53.5539,-26.2922],[-53.5822,-26.2724],[-53.5864,-26.2557],[-53.6257,-26.2625],[-53.6389,-26.2507],[-53.6535,-26.2351],[-53.6411,-26.2155],[-53.6514,-26.2068],[-53.6335,-26.2019],[-53.6025,-26.2123],[-53.5582,-26.2082],[-53.541,-26.1975],[-53.5058,-26.219],[-53.4947,-26.2188],[-53.4737,-26.1991]]]}},{"type":"Feature","properties":{"codarea":"4102752","centroide":[-53.63361603879945,-25.881248180131674],"codigo_ibge":4102752,"nome_ig":"Sudoeste do Paraná"},"geometry":{"type":"Polygon","coordinates":[[[-53.5745,-25.9296],[-53.6023,-25.9441],[-53.6109,-25.9559],[-53.6379,-25.9428],[-53.6416,-25.928],[-53.6577,-25.938],[-53.6835,-25.9238],[-53.697,-25.9018],[-53.7005,-25.8817],[-53.723,-25.8586],[-53.6789,-25.8642],[-53.6934,-25.8263],[-53.6541,-25.8257],[-53.6327,-25.8329],[-53.6202,-25.8177],[-53.6032,-25.8133],[-53.5685,-25.8295],[-53.5882,-25.8278],[-53.5872,-25.8442],[-53.5716,-25.8365],[-53.5712,-25.865],[-53.5997,-25.8612],[-53.5841,-25.8775],[-53.5571,-25.8868],[-53.5747,-25.9018],[-53.5859,-25.9276],[-53.5745,-25.9296]]]}},{"type":"Feature","properties":{"codarea":"4103024","centroide":[-53.22571641320036,-25.64007904847024],"codigo_ibge":4103024,"nome_ig":"Sudoeste do Paraná"},"geometry":{"type":"Polygon","coordinates":[[[-53.1691,-25.656],[-53.1598,-25.6686],[-53.1777,-25.6914],[-53.2068,-25.7059],[-53.2597,-25.6998],[-53.284,-25.6872],[-53.2742,-25.6747],[-53.3023,-25.6706],[-53.2884,-25.6594],[-53.2962,-25.6294],[-53.2717,-25.6161],[-53.2937,-25.6],[-53.2772,-25.5945],[-53.2542,-25.6072],[-53.2619,-25.5918],[-53.2378,-25.5744],[-53.2078,-25.5739],[-53.1949,-25.5634],[-53.1755,-25.5879],[-53.1741,-25.6047],[-53.1545,-25.6256],[-53.1746,-25.6353],[-53.1691,-25.656]]]}},{"type":"Feature","properties":{"codarea":"4103156","centroide":[-53.5522017212145,-26.162423041409852],"codigo_ibge":4103156,"nome_ig":"Sudoeste do Paraná"},"geometry":{"type":"Polygon","coordinates":[[[-53.5361,-26.0928],[-53.5133,-26.1018],[-53.51,-26.1179],[-53.4978,-26.1072],[-53.4716,-26.1338],[-53.474,-26.1468],[-53.4619,-26.1649],[-53.4737,-26.1991],[-53.4947,-26.2188],[-53.5058,-26.219],[-53.541,-26.1975],[-53.5582,-26.2082],[-53.6025,-26.2123],[-53.6335,-26.2019],[-53.6514,-26.2068],[-53.672,-26.1761],[-53.6446,-26.172],[-53.6283,-26.1518],[-53.585,-26.1263],[-53.5845,-26.1135],[-53.5672,-26.1086],[-53.5538,-26.0895],[-53.5361,-26.0928]]]}},{"type":"Feature","properties":{"codarea":"4103222","centroide":[-52.838975070087116,-26.08588414661563],"codigo_ibge":4103222,"nome_ig":"Sudoeste do Paraná"},"geometry":{"type":"Polygon","coordinates":[[[-52.7431,-26.1096],[-52.7204,-26.1236],[-52.7193,-26.1441],[-52.7533,-26.1577],[-52.7692,-26.155],[-52.7993,-26.1635],[-52.8183,-26.1581],[-52.8199,-26.1466],[-52.8288,-26.1304],[-52.878,-26.1209],[-52.9331,-26.0887],[-52.93,-26.0708],[-52.9409,-26.0563],[-52.9132,-26.0506],[-52.9347,-26.043],[-52.9344,-26.0312],[-52.9143,-26.0243],[-52.8929,-26.0024],[-52.8781,-26.0022],[-52.8381,-26.0237],[-52.8144,-26.0222],[-52.8022,-26.0576],[-52.8225,-26.0549],[-52.8324,-26.0678],[-52.8083,-26.0743],[-52.7431,-26.1096]]]}},{"type":"Feature","properties":{"codarea":"4104501","centroide":[-53.76308624326702,-25.611021046000484],"codigo_ibge":4104501,"nome_ig":"Sudoeste do Paraná"},"geometry":{"type":"Polygon","coordinates":[[[-53.6042,-25.5617],[-53.5876,-25.5743],[-53.5943,-25.5844],[-53.6215,-25.5866],[-53.6236,-25.5967],[-53.6014,-25.5956],[-53.5928,-25.6042],[-53.6141,-25.6084],[-53.6057,-25.6481],[-53.6302,-25.6332],[-53.622,-25.6482],[-53.6385,-25.6542],[-53.6588,-25.6417],[-53.7088,-25.6742],[-53.7309,-25.6662],[-53.7467,-25.6734],[-53.7514,-25.6915],[-53.7794,-25.7057],[-53.802,-25.701],[-53.8209,-25.7091],[-53.8497,-25.6907],[-53.8624,-25.6586],[-53.8954,-25.6417],[-53.8948,-25.6227],[-53.9123,-25.6362],[-53.9163,-25.6165],[-53.9318,-25.6226],[-53.9485,-25.6115],[-53.9514,-25.6467],[-53.9618,-25.6436],[-53.9702,-25.6009],[-53.9912,-25.5859],[-53.9646,-25.5854],[-53.9399,-25.5715],[-53.9165,-25.5829],[-53.8958,-25.5949],[-53.8188,-25.5399],[-53.8072,-25.54],[-53.7981,-25.5573],[-53.818,-25.5897],[-53.8104,-25.6031],[-53.791,-25.6055],[-53.7789,-25.5904],[-53.7758,-25.5557],[-53.7575,-25.5529],[-53.7254,-25.5861],[-53.7041,-25.5807],[-53.7176,-25.552],[-53.6936,-25.5289],[-53.6818,-25.5048],[-53.6544,-25.5116],[-53.624,-25.5331],[-53.6042,-25.5617]]]}},{"type":"Feature","properties":{"codarea":"4105409","centroide":[-52.45071803195278,-25.812268297640436],"codigo_ibge":4105409,"nome_ig":"Sudoeste do Paraná"},"geometry":{"type":"Polygon","coordinates":[[[-52.5306,-25.6459],[-52.4989,-25.6619],[-52.4981,-25.6797],[-52.4836,-25.6714],[-52.4671,-25.6786],[-52.4482,-25.6729],[-52.4171,-25.6957],[-52.3952,-25.7002],[-52.3544,-25.703],[-52.3274,-25.6785],[-52.3097,-25.6915],[-52.3317,-25.7143],[-52.3235,-25.7237],[-52.2959,-25.7086],[-52.2653,-25.7264],[-52.2545,-25.7449],[-52.233,-25.7404],[-52.2139,-25.7565],[-52.2314,-25.7708],[-52.2247,-25.794],[-52.2469,-25.8125],[-52.2576,-25.8468],[-52.2734,-25.8456],[-52.263,-25.8596],[-52.2928,-25.8905],[-52.3263,-25.9082],[-52.3491,-25.9422],[-52.3826,-25.9449],[-52.4487,-25.9295],[-52.5647,-25.9306],[-52.6002,-25.8923],[-52.6214,-25.88],[-52.6569,-25.8877],[-52.6732,-25.8779],[-52.7012,-25.8906],[-52.7228,-25.8832],[-52.7225,-25.8716],[-52.6744,-25.8521],[-52.6794,-25.8231],[-52.6896,-25.8093],[-52.6975,-25.7639],[-52.7154,-25.7602],[-52.7039,-25.7511],[-52.6623,-25.7585],[-52.6618,-25.7703],[-52.6443,-25.7726],[-52.6429,-25.7892],[-52.6616,-25.7883],[-52.6613,-25.8013],[-52.6018,-25.7973],[-52.6035,-25.7692],[-52.5472,-25.7773],[-52.5545,-25.753],[-52.5452,-25.7374],[-52.5556,-25.7205],[-52.5413,-25.7202],[-52.5442,-25.6962],[-52.5235,-25.6931],[-52.5216,-25.6804],[-52.5388,-25.6624],[-52.5437,-25.6444],[-52.5306,-25.6459]]]}},{"type":"Feature","properties":{"codarea":"4105706","centroide":[-52.358306024319745,-26.345435206843835],"codigo_ibge":4105706,"nome_ig":"Sudoeste do Paraná"},"geometry":{"type":"Polygon","coordinates":[[[-52.3162,-26.2714],[-52.3063,-26.2896],[-52.2791,-26.2871],[-52.243,-26.3065],[-52.2371,-26.2928],[-52.2055,-26.3068],[-52.2084,-26.3199],[-52.1889,-26.3202],[-52.1924,-26.3385],[-52.1759,-26.3428],[-52.161,-26.3433],[-52.1508,-26.3574],[-52.1669,-26.4161],[-52.1587,-26.4662],[-52.1863,-26.4451],[-52.2028,-26.4587],[-52.2298,-26.467],[-52.2616,-26.4542],[-52.2736,-26.4613],[-52.3043,-26.4406],[-52.3486,-26.4405],[-52.3684,-26.4328],[-52.3774,-26.4409],[-52.398,-26.4288],[-52.4426,-26.4381],[-52.4636,-26.4396],[-52.478,-26.4208],[-52.4919,-26.4211],[-52.5232,-26.3995],[-52.5118,-26.3791],[-52.5168,-26.3705],[-52.4971,-26.3272],[-52.5065,-26.315],[-52.4915,-26.2883],[-52.4958,-26.2692],[-52.5331,-26.2356],[-52.5477,-26.1942],[-52.5445,-26.1716],[-52.5345,-26.1712],[-52.5201,-26.1508],[-52.5178,-26.1776],[-52.4741,-26.1681],[-52.4631,-26.1862],[-52.4801,-26.1781],[-52.4814,-26.2045],[-52.4713,-26.1941],[-52.4344,-26.219],[-52.4591,-26.2224],[-52.4238,-26.2598],[-52.3998,-26.2747],[-52.3901,-26.2678],[-52.4111,-26.2539],[-52.4041,-26.2473],[-52.3566,-26.2746],[-52.3362,-26.2797],[-52.3162,-26.2714]]]}},{"type":"Feature","properties":{"codarea":"4106456","centroide":[-51.92354344300184,-26.182479225226004],"codigo_ibge":4106456,"nome_ig":"Sudoeste do Paraná"},"geometry":{"type":"Polygon","coordinates":[[[-51.7954,-25.9993],[-51.7792,-25.9984],[-51.7685,-26.0113],[-51.7395,-25.9946],[-51.7228,-26.0078],[-51.7383,-26.0493],[-51.6961,-26.1041],[-51.7469,-26.2331],[-51.7788,-26.2429],[-51.7771,-26.2553],[-51.7449,-26.2517],[-51.7395,-26.2657],[-51.7254,-26.2588],[-51.7172,-26.2752],[-51.7269,-26.3041],[-51.7372,-26.3046],[-51.7479,-26.3323],[-51.7649,-26.3422],[-51.8127,-26.3574],[-51.8588,-26.4067],[-51.8826,-26.4108],[-51.8943,-26.3929],[-51.9097,-26.4096],[-51.9322,-26.396],[-51.9324,-26.371],[-51.9505,-26.3653],[-51.9746,-26.3791],[-52.0026,-26.3757],[-52.0451,-26.3527],[-52.0342,-26.3436],[-52.0556,-26.333],[-52.0458,-26.3157],[-52.0939,-26.3156],[-52.0974,-26.3026],[-52.1178,-26.3193],[-52.1287,-26.3397],[-52.1537,-26.3354],[-52.1625,-26.3159],[-52.1759,-26.3428],[-52.1924,-26.3385],[-52.1889,-26.3202],[-52.1642,-26.3021],[-52.1389,-26.2627],[-52.1119,-26.2371],[-52.1149,-26.2227],[-52.0922,-26.1985],[-52.0976,-26.1691],[-52.1116,-26.1523],[-52.0994,-26.1366],[-52.1096,-26.1102],[-52.0984,-26.0724],[-52.0896,-26.0674],[-52.0821,-26.0234],[-52.103,-26.0233],[-52.0932,-26.0025],[-52.0799,-26.0038],[-52.0868,-25.9783],[-52.0788,-25.9693],[-52.0994,-25.9444],[-52.0868,-25.9376],[-52.0489,-25.9379],[-52.0332,-25.9469],[-52.0344,-25.9689],[-52.0134,-25.9791],[-52.0084,-26.0106],[-51.978,-26.0126],[-51.9661,-25.9883],[-51.9159,-25.9973],[-51.8654,-26.0261],[-51.8451,-26.0116],[-51.8287,-26.0143],[-51.7954,-25.9993]]]}},{"type":"Feature","properties":{"codarea":"4106506","centroide":[-52.56412226094592,-25.99241122339698],"codigo_ibge":4106506,"nome_ig":"Sudoeste do Paraná"},"geometry":{"type":"Polygon","coordinates":[[[-52.7225,-25.8716],[-52.7228,-25.8832],[-52.7012,-25.8906],[-52.6732,-25.8779],[-52.6569,-25.8877],[-52.6214,-25.88],[-52.6002,-25.8923],[-52.5647,-25.9306],[-52.4487,-25.9295],[-52.3826,-25.9449],[-52.3846,-26.0023],[-52.3727,-26.0069],[-52.3634,-26.032],[-52.3751,-26.0408],[-52.382,-26.0516],[-52.3576,-26.0669],[-52.3844,-26.0856],[-52.4073,-26.0907],[-52.415,-26.1049],[-52.4451,-26.1049],[-52.4861,-26.0846],[-52.5166,-26.0887],[-52.5142,-26.1029],[-52.5376,-26.1146],[-52.5606,-26.1077],[-52.5752,-26.1144],[-52.607,-26.1095],[-52.5965,-26.0871],[-52.6326,-26.0914],[-52.6203,-26.0776],[-52.5898,-26.0767],[-52.5985,-26.0608],[-52.6262,-26.0637],[-52.6489,-26.049],[-52.6338,-26.0283],[-52.6652,-26.0356],[-52.6744,-26.0174],[-52.6628,-26.0151],[-52.674,-25.9979],[-52.6866,-26.0096],[-52.7037,-25.9966],[-52.7239,-26.0211],[-52.7346,-26.0102],[-52.7458,-25.9892],[-52.7239,-25.9627],[-52.7657,-25.9504],[-52.7723,-25.9596],[-52.7891,-25.9514],[-52.7733,-25.9337],[-52.7992,-25.9392],[-52.8214,-25.9242],[-52.8083,-25.9066],[-52.7905,-25.9025],[-52.7892,-25.917],[-52.7723,-25.9174],[-52.7517,-25.8841],[-52.7225,-25.8716]]]}},{"type":"Feature","properties":{"codarea":"4106571","centroide":[-53.12952764573215,-25.595341841091678],"codigo_ibge":4106571,"nome_ig":"Sudoeste do Paraná"},"geometry":{"type":"Polygon","coordinates":[[[-53.1435,-25.5136],[-53.1348,-25.558],[-53.1248,-25.5641],[-53.0932,-25.5268],[-53.0775,-25.5394],[-53.0688,-25.5665],[-53.0748,-25.5765],[-53.113,-25.5732],[-53.1025,-25.5886],[-53.0609,-25.5853],[-53.0536,-25.5962],[-53.0779,-25.5966],[-53.0864,-25.6093],[-53.0639,-25.6166],[-53.0625,-25.6374],[-53.0765,-25.6607],[-53.1108,-25.6729],[-53.1197,-25.6842],[-53.1691,-25.656],[-53.1746,-25.6353],[-53.1545,-25.6256],[-53.1741,-25.6047],[-53.1755,-25.5879],[-53.1949,-25.5634],[-53.2012,-25.5282],[-53.1887,-25.5156],[-53.1588,-25.5089],[-53.1435,-25.5136]]]}},{"type":"Feature","properties":{"codarea":"4107207","centroide":[-53.07575557230785,-25.749931641345146],"codigo_ibge":4107207,"nome_ig":"Sudoeste do Paraná"},"geometry":{"type":"Polygon","coordinates":[[[-52.9787,-25.7817],[-52.9952,-25.7921],[-52.9848,-25.8087],[-53.0158,-25.8313],[-53.0093,-25.8372],[-53.0266,-25.8597],[-53.045,-25.8563],[-53.0797,-25.877],[-53.1203,-25.8716],[-53.1304,-25.8376],[-53.1463,-25.8262],[-53.149,-25.7769],[-53.1388,-25.7699],[-53.1532,-25.752],[-53.2197,-25.726],[-53.2597,-25.6998],[-53.2068,-25.7059],[-53.1777,-25.6914],[-53.1598,-25.6686],[-53.1691,-25.656],[-53.1197,-25.6842],[-53.1108,-25.6729],[-53.0765,-25.6607],[-53.0625,-25.6374],[-53.0639,-25.6166],[-53.0535,-25.6088],[-53.0372,-25.6235],[-53.0429,-25.6596],[-53.0239,-25.6482],[-52.997,-25.6455],[-53.0245,-25.6796],[-52.9856,-25.6785],[-52.9797,-25.6952],[-52.9519,-25.7131],[-52.9526,-25.7381],[-52.9818,-25.7504],[-52.9787,-25.7817]]]}},{"type":"Feature","properties":{"codarea":"4107405","centroide":[-53.153662090586636,-25.904650553030066],"codigo_ibge":4107405,"nome_ig":"Sudoeste do Paraná"},"geometry":{"type":"Polygon","coordinates":[[[-53.149,-25.7769],[-53.1463,-25.8262],[-53.1304,-25.8376],[-53.1203,-25.8716],[-53.0797,-25.877],[-53.071,-25.912],[-53.0955,-25.9497],[-53.1276,-25.974],[-53.155,-25.9856],[-53.1676,-25.9813],[-53.2319,-25.9869],[-53.2385,-25.9517],[-53.2185,-25.9476],[-53.2098,-25.9145],[-53.188,-25.9037],[-53.1784,-25.884],[-53.1831,-25.8424],[-53.1775,-25.8343],[-53.1821,-25.8006],[-53.1993,-25.7953],[-53.1949,-25.7817],[-53.149,-25.7769]]]}},{"type":"Feature","properties":{"codarea":"4107850","centroide":[-53.28580730495748,-26.238555103951256],"codigo_ibge":4107850,"nome_ig":"Sudoeste do Paraná"},"geometry":{"type":"Polygon","coordinates":[[[-53.4619,-26.1649],[-53.4268,-26.1877],[-53.4097,-26.1912],[-53.39,-26.2258],[-53.3721,-26.2189],[-53.3679,-26.204],[-53.3486,-26.2089],[-53.3452,-26.2209],[-53.3268,-26.2177],[-53.3098,-26.1933],[-53.2992,-26.1914],[-53.2883,-26.1819],[-53.2586,-26.1943],[-53.248,-26.1973],[-53.2097,-26.1835],[-53.165,-26.1803],[-53.1565,-26.1937],[-53.1745,-26.1969],[-53.1688,-26.2243],[-53.1812,-26.232],[-53.1898,-26.2676],[-53.179,-26.2915],[-53.181,-26.3184],[-53.1692,-26.348],[-53.1827,-26.3445],[-53.2645,-26.2893],[-53.267,-26.2637],[-53.289,-26.248],[-53.3048,-26.2605],[-53.3422,-26.249],[-53.376,-26.2416],[-53.3998,-26.254],[-53.4281,-26.2812],[-53.4429,-26.2664],[-53.4428,-26.2517],[-53.4123,-26.2535],[-53.4417,-26.2265],[-53.4373,-26.2187],[-53.4737,-26.1991],[-53.4619,-26.1649]]]}},{"type":"Feature","properties":{"codarea":"4108403","centroide":[-53.13236629920526,-26.047470845970636],"codigo_ibge":4108403,"nome_ig":"Sudoeste do Paraná"},"geometry":{"type":"Polygon","coordinates":[[[-52.9181,-25.9424],[-52.9527,-25.9628],[-52.9529,-25.9885],[-52.9656,-25.9964],[-52.9416,-26.0071],[-52.9178,-25.9959],[-52.8929,-26.0024],[-52.9143,-26.0243],[-52.9344,-26.0312],[-52.9347,-26.043],[-52.9132,-26.0506],[-52.9409,-26.0563],[-52.93,-26.0708],[-52.944,-26.0868],[-52.9799,-26.1007],[-52.9932,-26.0989],[-53.006,-26.116],[-53.1104,-26.1201],[-53.1001,-26.1239],[-53.1359,-26.1471],[-53.1334,-26.168],[-53.165,-26.1803],[-53.2097,-26.1835],[-53.248,-26.1973],[-53.2586,-26.1943],[-53.2423,-26.1748],[-53.2444,-26.1401],[-53.2697,-26.1102],[-53.2622,-26.0956],[-53.285,-26.085],[-53.2894,-26.0612],[-53.3136,-26.0546],[-53.3116,-26.0405],[-53.3288,-26.0236],[-53.3609,-26.0159],[-53.3787,-26.0007],[-53.3712,-25.9675],[-53.3455,-25.9465],[-53.3349,-25.9707],[-53.3052,-25.9645],[-53.2669,-25.9823],[-53.2319,-25.9869],[-53.1676,-25.9813],[-53.155,-25.9856],[-53.1276,-25.974],[-53.0955,-25.9497],[-53.0514,-25.9455],[-53.0276,-25.9374],[-52.9933,-25.9491],[-52.9181,-25.9424]]]}},{"type":"Feature","properties":{"codarea":"4109658","centroide":[-52.37323155584019,-26.16406948739005],"codigo_ibge":4109658,"nome_ig":"Sudoeste do Paraná"},"geometry":{"type":"Polygon","coordinates":[[[-52.3162,-26.2714],[-52.3362,-26.2797],[-52.3566,-26.2746],[-52.4041,-26.2473],[-52.4111,-26.2539],[-52.3901,-26.2678],[-52.3998,-26.2747],[-52.4238,-26.2598],[-52.4591,-26.2224],[-52.4344,-26.219],[-52.4713,-26.1941],[-52.4814,-26.2045],[-52.4801,-26.1781],[-52.4631,-26.1862],[-52.4741,-26.1681],[-52.5178,-26.1776],[-52.5201,-26.1508],[-52.5345,-26.1712],[-52.5416,-26.1576],[-52.5762,-26.1511],[-52.5596,-26.1395],[-52.5752,-26.1144],[-52.5606,-26.1077],[-52.5376,-26.1146],[-52.5142,-26.1029],[-52.5166,-26.0887],[-52.4861,-26.0846],[-52.4451,-26.1049],[-52.415,-26.1049],[-52.4073,-26.0907],[-52.3844,-26.0856],[-52.3576,-26.0669],[-52.382,-26.0516],[-52.3751,-26.0408],[-52.3227,-26.0668],[-52.3027,-26.0465],[-52.2935,-26.0536],[-52.3052,-26.0768],[-52.2947,-26.1107],[-52.2628,-26.1074],[-52.2536,-26.1392],[-52.2232,-26.1341],[-52.2102,-26.1504],[-52.2186,-26.1734],[-52.2139,-26.1951],[-52.223,-26.2088],[-52.2557,-26.2281],[-52.2839,-26.2373],[-52.3162,-26.2714]]]}},{"type":"Feature","properties":{"codarea":"4114351","centroide":[-53.34395637331418,-26.0958499795897],"codigo_ibge":4114351,"nome_ig":"Sudoeste do Paraná"},"geometry":{"type":"Polygon","coordinates":[[[-53.2586,-26.1943],[-53.2883,-26.1819],[-53.2992,-26.1914],[-53.3161,-26.1636],[-53.3336,-26.1637],[-53.3502,-26.1349],[-53.3506,-26.1202],[-53.3725,-26.1085],[-53.4161,-26.1018],[-53.436,-26.0868],[-53.4447,-26.069],[-53.4636,-26.0889],[-53.4734,-26.0646],[-53.491,-26.0752],[-53.4904,-26.0534],[-53.4751,-26.0467],[-53.4358,-26.0435],[-53.3931,-26.0341],[-53.3649,-26.0203],[-53.3609,-26.0159],[-53.3288,-26.0236],[-53.3116,-26.0405],[-53.3136,-26.0546],[-53.2894,-26.0612],[-53.285,-26.085],[-53.2622,-26.0956],[-53.2697,-26.1102],[-53.2444,-26.1401],[-53.2423,-26.1748],[-53.2586,-26.1943]]]}},{"type":"Feature","properties":{"codarea":"4114401","centroide":[-52.20946285827486,-26.034164878698522],"codigo_ibge":4114401,"nome_ig":"Sudoeste do Paraná"},"geometry":{"type":"Polygon","coordinates":[[[-52.1231,-25.7747],[-52.1114,-25.7919],[-52.1358,-25.7934],[-52.1685,-25.833],[-52.1637,-25.8603],[-52.1343,-25.8941],[-52.1095,-25.8975],[-52.0868,-25.9376],[-52.0994,-25.9444],[-52.0788,-25.9693],[-52.0868,-25.9783],[-52.0799,-26.0038],[-52.0932,-26.0025],[-52.103,-26.0233],[-52.0821,-26.0234],[-52.0896,-26.0674],[-52.0984,-26.0724],[-52.1096,-26.1102],[-52.0994,-26.1366],[-52.1116,-26.1523],[-52.0976,-26.1691],[-52.0922,-26.1985],[-52.1149,-26.2227],[-52.1119,-26.2371],[-52.1389,-26.2627],[-52.1642,-26.3021],[-52.1889,-26.3202],[-52.2084,-26.3199],[-52.2055,-26.3068],[-52.2371,-26.2928],[-52.243,-26.3065],[-52.2791,-26.2871],[-52.3063,-26.2896],[-52.3162,-26.2714],[-52.2839,-26.2373],[-52.2557,-26.2281],[-52.223,-26.2088],[-52.2139,-26.1951],[-52.2186,-26.1734],[-52.2102,-26.1504],[-52.2232,-26.1341],[-52.2536,-26.1392],[-52.2628,-26.1074],[-52.2947,-26.1107],[-52.3052,-26.0768],[-52.2935,-26.0536],[-52.3027,-26.0465],[-52.3227,-26.0668],[-52.3751,-26.0408],[-52.3634,-26.032],[-52.3727,-26.0069],[-52.3846,-26.0023],[-52.3826,-25.9449],[-52.3491,-25.9422],[-52.3263,-25.9082],[-52.2928,-25.8905],[-52.263,-25.8596],[-52.2734,-25.8456],[-52.2576,-25.8468],[-52.2469,-25.8125],[-52.2247,-25.794],[-52.2314,-25.7708],[-52.2139,-25.7565],[-52.1878,-25.771],[-52.1697,-25.7489],[-52.1561,-25.7538],[-52.1435,-25.7737],[-52.1231,-25.7747]]]}},{"type":"Feature","properties":{"codarea":"4115309","centroide":[-52.58096242732604,-26.336345620817053],"codigo_ibge":4115309,"nome_ig":"Sudoeste do Paraná"},"geometry":{"type":"Polygon","coordinates":[[[-52.5232,-26.3995],[-52.5569,-26.4077],[-52.5958,-26.416],[-52.6167,-26.4076],[-52.6212,-26.3954],[-52.6449,-26.3808],[-52.6801,-26.3527],[-52.7005,-26.3579],[-52.6849,-26.3016],[-52.6736,-26.3106],[-52.6608,-26.3014],[-52.5868,-26.2994],[-52.5787,-26.284],[-52.5527,-26.2701],[-52.5419,-26.2561],[-52.5521,-26.2486],[-52.5331,-26.2356],[-52.4958,-26.2692],[-52.4915,-26.2883],[-52.5065,-26.315],[-52.4971,-26.3272],[-52.5168,-26.3705],[-52.5118,-26.3791],[-52.5232,-26.3995]]]}},{"type":"Feature","properties":{"codarea":"4115408","centroide":[-53.093166189967626,-26.245825142965238],"codigo_ibge":4115408,"nome_ig":"Sudoeste do Paraná"},"geometry":{"type":"Polygon","coordinates":[[[-53.0279,-26.3701],[-53.046,-26.3811],[-53.0932,-26.392],[-53.0932,-26.3824],[-53.1272,-26.3722],[-53.1441,-26.3447],[-53.1601,-26.3506],[-53.1692,-26.348],[-53.181,-26.3184],[-53.179,-26.2915],[-53.1898,-26.2676],[-53.1812,-26.232],[-53.1688,-26.2243],[-53.1745,-26.1969],[-53.1565,-26.1937],[-53.165,-26.1803],[-53.1334,-26.168],[-53.1359,-26.1471],[-53.1001,-26.1239],[-53.1104,-26.1201],[-53.006,-26.116],[-52.9932,-26.0989],[-52.9846,-26.1222],[-52.9852,-26.1594],[-53.0224,-26.2064],[-53.0231,-26.183],[-53.0421,-26.1994],[-53.0414,-26.2171],[-53.0681,-26.2358],[-53.0564,-26.24],[-53.0674,-26.259],[-53.0445,-26.3025],[-53.0221,-26.3193],[-53.0283,-26.3386],[-53.0279,-26.3701]]]}},{"type":"Feature","properties":{"codarea":"4116950","centroide":[-53.258938703829266,-25.899836420798007],"codigo_ibge":4116950,"nome_ig":"Sudoeste do Paraná"},"geometry":{"type":"Polygon","coordinates":[[[-53.1949,-25.7817],[-53.1993,-25.7953],[-53.1821,-25.8006],[-53.1775,-25.8343],[-53.1831,-25.8424],[-53.1784,-25.884],[-53.188,-25.9037],[-53.2098,-25.9145],[-53.2185,-25.9476],[-53.2385,-25.9517],[-53.2319,-25.9869],[-53.2669,-25.9823],[-53.3052,-25.9645],[-53.3349,-25.9707],[-53.3455,-25.9465],[-53.3469,-25.9268],[-53.3383,-25.9081],[-53.3637,-25.8967],[-53.3426,-25.8885],[-53.355,-25.8777],[-53.3077,-25.876],[-53.2904,-25.8517],[-53.291,-25.8671],[-53.2384,-25.8486],[-53.2318,-25.8235],[-53.1949,-25.7817]]]}},{"type":"Feature","properties":{"codarea":"4117255","centroide":[-53.37959817629995,-25.591226897296497],"codigo_ibge":4117255,"nome_ig":"Sudoeste do Paraná"},"geometry":{"type":"Polygon","coordinates":[[[-53.2619,-25.5918],[-53.2542,-25.6072],[-53.2772,-25.5945],[-53.2937,-25.6],[-53.2717,-25.6161],[-53.2962,-25.6294],[-53.2884,-25.6594],[-53.3023,-25.6706],[-53.3406,-25.6949],[-53.3889,-25.6923],[-53.4039,-25.6881],[-53.4074,-25.6484],[-53.4173,-25.6454],[-53.424,-25.6661],[-53.4321,-25.6431],[-53.4263,-25.6295],[-53.4484,-25.6282],[-53.464,-25.6454],[-53.4791,-25.641],[-53.4905,-25.5944],[-53.5053,-25.5803],[-53.5,-25.5499],[-53.4788,-25.5315],[-53.4547,-25.5335],[-53.4377,-25.5048],[-53.3882,-25.5045],[-53.3701,-25.5315],[-53.3527,-25.5352],[-53.3382,-25.5158],[-53.3531,-25.4903],[-53.3439,-25.4797],[-53.3214,-25.4775],[-53.3031,-25.4967],[-53.3288,-25.539],[-53.3251,-25.5503],[-53.2798,-25.544],[-53.2699,-25.5521],[-53.2703,-25.5878],[-53.2619,-25.5918]]]}},{"type":"Feature","properties":{"codarea":"4117602","centroide":[-51.814622801502786,-26.451368637507983],"codigo_ibge":4117602,"nome_ig":"Sudoeste do Paraná"},"geometry":{"type":"Polygon","coordinates":[[[-51.5778,-26.2934],[-51.5931,-26.3082],[-51.5747,-26.3511],[-51.5883,-26.3559],[-51.5638,-26.3668],[-51.5609,-26.3773],[-51.5816,-26.3939],[-51.5411,-26.3922],[-51.5532,-26.4126],[-51.5331,-26.4386],[-51.5357,-26.4577],[-51.5164,-26.4754],[-51.529,-26.5131],[-51.5168,-26.5443],[-51.512,-26.5816],[-51.5356,-26.5917],[-51.5969,-26.584],[-51.6324,-26.5872],[-51.6584,-26.5654],[-51.6719,-26.5651],[-51.6926,-26.5805],[-51.7376,-26.5729],[-51.7906,-26.5886],[-51.8239,-26.5819],[-51.8463,-26.5941],[-51.8734,-26.5993],[-51.9002,-26.5792],[-51.9283,-26.5843],[-51.9433,-26.5712],[-52.0084,-26.5665],[-52.0291,-26.5468],[-52.0651,-26.523],[-52.0813,-26.5251],[-52.0937,-26.5133],[-52.0983,-26.4835],[-52.1587,-26.4662],[-52.1669,-26.4161],[-52.1508,-26.3574],[-52.161,-26.3433],[-52.1759,-26.3428],[-52.1625,-26.3159],[-52.1537,-26.3354],[-52.1287,-26.3397],[-52.1178,-26.3193],[-52.0974,-26.3026],[-52.0939,-26.3156],[-52.0458,-26.3157],[-52.0556,-26.333],[-52.0342,-26.3436],[-52.0451,-26.3527],[-52.0026,-26.3757],[-51.9746,-26.3791],[-51.9505,-26.3653],[-51.9324,-26.371],[-51.9322,-26.396],[-51.9097,-26.4096],[-51.8943,-26.3929],[-51.8826,-26.4108],[-51.8588,-26.4067],[-51.8127,-26.3574],[-51.7649,-26.3422],[-51.7479,-26.3323],[-51.7372,-26.3046],[-51.7269,-26.3041],[-51.7172,-26.2752],[-51.7254,-26.2588],[-51.7076,-26.2583],[-51.6936,-26.246],[-51.6826,-26.2873],[-51.6797,-26.2689],[-51.6437,-26.2653],[-51.6324,-26.2712],[-51.6319,-26.2893],[-51.6041,-26.2948],[-51.6007,-26.2859],[-51.5778,-26.2934]]]}},{"type":"Feature","properties":{"codarea":"4118501","centroide":[-52.6637106922182,-26.169775836707313],"codigo_ibge":4118501,"nome_ig":"Sudoeste do Paraná"},"geometry":{"type":"Polygon","coordinates":[[[-52.5752,-26.1144],[-52.5596,-26.1395],[-52.5762,-26.1511],[-52.5416,-26.1576],[-52.5345,-26.1712],[-52.5445,-26.1716],[-52.5477,-26.1942],[-52.5331,-26.2356],[-52.5521,-26.2486],[-52.5419,-26.2561],[-52.5527,-26.2701],[-52.5787,-26.284],[-52.5868,-26.2994],[-52.6608,-26.3014],[-52.6882,-26.2675],[-52.73,-26.2748],[-52.7542,-26.2576],[-52.7507,-26.2509],[-52.7853,-26.2336],[-52.8019,-26.2184],[-52.7817,-26.2014],[-52.8131,-26.1767],[-52.7993,-26.1635],[-52.7692,-26.155],[-52.7533,-26.1577],[-52.7193,-26.1441],[-52.7204,-26.1236],[-52.7431,-26.1096],[-52.7327,-26.072],[-52.7456,-26.0603],[-52.753,-26.0358],[-52.7346,-26.0102],[-52.7239,-26.0211],[-52.7037,-25.9966],[-52.6866,-26.0096],[-52.674,-25.9979],[-52.6628,-26.0151],[-52.6744,-26.0174],[-52.6652,-26.0356],[-52.6338,-26.0283],[-52.6489,-26.049],[-52.6262,-26.0637],[-52.5985,-26.0608],[-52.5898,-26.0767],[-52.6203,-26.0776],[-52.6326,-26.0914],[-52.5965,-26.0871],[-52.607,-26.1095],[-52.5752,-26.1144]]]}},{"type":"Feature","properties":{"codarea":"4119251","centroide":[-53.47764623847951,-26.017573727405235],"codigo_ibge":4119251,"nome_ig":"Sudoeste do Paraná"},"geometry":{"type":"Polygon","coordinates":[[[-53.3649,-26.0203],[-53.3931,-26.0341],[-53.4358,-26.0435],[-53.4751,-26.0467],[-53.4904,-26.0534],[-53.5189,-26.0648],[-53.5201,-26.0539],[-53.5496,-26.0478],[-53.5324,-26.0062],[-53.5455,-25.9926],[-53.5736,-25.9879],[-53.537,-25.9813],[-53.5388,-25.9708],[-53.5164,-25.964],[-53.484,-25.9942],[-53.445,-26.0021],[-53.4077,-25.9969],[-53.4002,-26.0089],[-53.3749,-26.0097],[-53.3649,-26.0203]]]}},{"type":"Feature","properties":{"codarea":"4119806","centroide":[-53.70763467872942,-25.737677003872957],"codigo_ibge":4119806,"nome_ig":"Sudoeste do Paraná"},"geometry":{"type":"Polygon","coordinates":[[[-53.622,-25.6482],[-53.6234,-25.6789],[-53.5926,-25.6891],[-53.6149,-25.7074],[-53.5932,-25.7235],[-53.5886,-25.7398],[-53.6056,-25.7749],[-53.5756,-25.7668],[-53.5816,-25.7761],[-53.5675,-25.7963],[-53.5767,-25.7994],[-53.5965,-25.8019],[-53.6214,-25.8113],[-53.6307,-25.8055],[-53.6633,-25.8083],[-53.6877,-25.8222],[-53.7057,-25.8034],[-53.7483,-25.7795],[-53.7521,-25.791],[-53.8107,-25.794],[-53.8271,-25.7831],[-53.8335,-25.7632],[-53.8426,-25.7706],[-53.8568,-25.7659],[-53.8427,-25.7528],[-53.8487,-25.7412],[-53.8666,-25.7433],[-53.859,-25.7232],[-53.8785,-25.7069],[-53.8556,-25.7076],[-53.8497,-25.6907],[-53.8209,-25.7091],[-53.802,-25.701],[-53.7794,-25.7057],[-53.7514,-25.6915],[-53.7467,-25.6734],[-53.7309,-25.6662],[-53.7088,-25.6742],[-53.6588,-25.6417],[-53.6385,-25.6542],[-53.622,-25.6482]]]}},{"type":"Feature","properties":{"codarea":"4120358","centroide":[-53.72177411715681,-25.966317605030437],"codigo_ibge":4120358,"nome_ig":"Sudoeste do Paraná"},"geometry":{"type":"Polygon","coordinates":[[[-53.5745,-25.9296],[-53.5551,-25.9279],[-53.5816,-25.9485],[-53.566,-25.9573],[-53.575,-25.9734],[-53.6181,-25.9763],[-53.6094,-25.9878],[-53.6503,-25.9867],[-53.7318,-26.0374],[-53.7342,-26.0428],[-53.7586,-26.0385],[-53.7799,-26.022],[-53.7817,-26.0077],[-53.8179,-25.9898],[-53.819,-25.9763],[-53.84,-25.9538],[-53.8423,-25.9323],[-53.8197,-25.9264],[-53.8187,-25.9124],[-53.7708,-25.9156],[-53.7497,-25.9273],[-53.697,-25.9018],[-53.6835,-25.9238],[-53.6577,-25.938],[-53.6416,-25.928],[-53.6379,-25.9428],[-53.6109,-25.9559],[-53.6023,-25.9441],[-53.5745,-25.9296]]]}},{"type":"Feature","properties":{"codarea":"4121406","centroide":[-53.54393369096959,-25.67483635798512],"codigo_ibge":4121406,"nome_ig":"Sudoeste do Paraná"},"geometry":{"type":"Polygon","coordinates":[[[-53.5,-25.5499],[-53.5053,-25.5803],[-53.4905,-25.5944],[-53.4791,-25.641],[-53.4876,-25.6538],[-53.4771,-25.6959],[-53.4844,-25.7325],[-53.468,-25.7578],[-53.4777,-25.784],[-53.5109,-25.7862],[-53.4982,-25.793],[-53.5031,-25.811],[-53.5146,-25.8268],[-53.5333,-25.8322],[-53.5478,-25.812],[-53.5767,-25.7994],[-53.5675,-25.7963],[-53.5816,-25.7761],[-53.5756,-25.7668],[-53.6056,-25.7749],[-53.5886,-25.7398],[-53.5932,-25.7235],[-53.6149,-25.7074],[-53.5926,-25.6891],[-53.6234,-25.6789],[-53.622,-25.6482],[-53.6302,-25.6332],[-53.6057,-25.6481],[-53.6141,-25.6084],[-53.5928,-25.6042],[-53.6014,-25.5956],[-53.6236,-25.5967],[-53.6215,-25.5866],[-53.5943,-25.5844],[-53.5876,-25.5743],[-53.6042,-25.5617],[-53.5763,-25.562],[-53.5793,-25.5257],[-53.5629,-25.5072],[-53.5502,-25.5095],[-53.5475,-25.5374],[-53.5366,-25.5462],[-53.5,-25.5499]]]}},{"type":"Feature","properties":{"codarea":"4121604","centroide":[-52.95084708302803,-26.225596101966598],"codigo_ibge":4121604,"nome_ig":"Sudoeste do Paraná"},"geometry":{"type":"Polygon","coordinates":[[[-52.8199,-26.1466],[-52.8214,-26.1576],[-52.8495,-26.1713],[-52.8489,-26.2022],[-52.8697,-26.2186],[-52.8788,-26.2418],[-52.8978,-26.26],[-52.9339,-26.2332],[-52.9422,-26.2473],[-52.9181,-26.2639],[-52.8979,-26.3057],[-52.9033,-26.3535],[-52.9083,-26.3594],[-52.9376,-26.3622],[-52.9816,-26.3468],[-52.9933,-26.3475],[-53.0279,-26.3701],[-53.0283,-26.3386],[-53.0221,-26.3193],[-53.0445,-26.3025],[-53.0674,-26.259],[-53.0564,-26.24],[-53.0681,-26.2358],[-53.0414,-26.2171],[-53.0421,-26.1994],[-53.0231,-26.183],[-53.0224,-26.2064],[-52.9852,-26.1594],[-52.9846,-26.1222],[-52.9932,-26.0989],[-52.9799,-26.1007],[-52.944,-26.0868],[-52.93,-26.0708],[-52.9331,-26.0887],[-52.878,-26.1209],[-52.8288,-26.1304],[-52.8199,-26.1466]]]}},{"type":"Feature","properties":{"codarea":"4122800","centroide":[-53.41329155321735,-26.142476967611152],"codigo_ibge":4122800,"nome_ig":"Sudoeste do Paraná"},"geometry":{"type":"Polygon","coordinates":[[[-53.5201,-26.0539],[-53.5189,-26.0648],[-53.4904,-26.0534],[-53.491,-26.0752],[-53.4734,-26.0646],[-53.4636,-26.0889],[-53.4447,-26.069],[-53.436,-26.0868],[-53.4161,-26.1018],[-53.3725,-26.1085],[-53.3506,-26.1202],[-53.3502,-26.1349],[-53.3336,-26.1637],[-53.3161,-26.1636],[-53.2992,-26.1914],[-53.3098,-26.1933],[-53.3268,-26.2177],[-53.3452,-26.2209],[-53.3486,-26.2089],[-53.3679,-26.204],[-53.3721,-26.2189],[-53.39,-26.2258],[-53.4097,-26.1912],[-53.4268,-26.1877],[-53.4619,-26.1649],[-53.474,-26.1468],[-53.4716,-26.1338],[-53.4978,-26.1072],[-53.51,-26.1179],[-53.5133,-26.1018],[-53.5361,-26.0928],[-53.5143,-26.0721],[-53.5384,-26.0564],[-53.5201,-26.0539]]]}},{"type":"Feature","properties":{"codarea":"4123006","centroide":[-53.287292798827416,-25.77504312378238],"codigo_ibge":4123006,"nome_ig":"Sudoeste do Paraná"},"geometry":{"type":"Polygon","coordinates":[[[-53.2597,-25.6998],[-53.2197,-25.726],[-53.1532,-25.752],[-53.1388,-25.7699],[-53.149,-25.7769],[-53.1949,-25.7817],[-53.2318,-25.8235],[-53.2384,-25.8486],[-53.291,-25.8671],[-53.2904,-25.8517],[-53.3077,-25.876],[-53.355,-25.8777],[-53.3512,-25.8696],[-53.3741,-25.8528],[-53.3555,-25.852],[-53.3778,-25.8328],[-53.37,-25.8176],[-53.3866,-25.795],[-53.3702,-25.7981],[-53.37,-25.7739],[-53.3439,-25.7781],[-53.3594,-25.7537],[-53.3677,-25.7092],[-53.392,-25.7073],[-53.3889,-25.6923],[-53.3406,-25.6949],[-53.3023,-25.6706],[-53.2742,-25.6747],[-53.284,-25.6872],[-53.2597,-25.6998]]]}},{"type":"Feature","properties":{"codarea":"4123808","centroide":[-53.423500773457796,-25.78325462137375],"codigo_ibge":4123808,"nome_ig":"Sudoeste do Paraná"},"geometry":{"type":"Polygon","coordinates":[[[-53.3889,-25.6923],[-53.392,-25.7073],[-53.3677,-25.7092],[-53.3594,-25.7537],[-53.3439,-25.7781],[-53.37,-25.7739],[-53.3702,-25.7981],[-53.3866,-25.795],[-53.37,-25.8176],[-53.3778,-25.8328],[-53.3555,-25.852],[-53.3741,-25.8528],[-53.3512,-25.8696],[-53.355,-25.8777],[-53.3426,-25.8885],[-53.3637,-25.8967],[-53.3383,-25.9081],[-53.3469,-25.9268],[-53.39,-25.9178],[-53.4322,-25.9],[-53.4673,-25.8671],[-53.4789,-25.8642],[-53.4827,-25.8432],[-53.495,-25.8304],[-53.4906,-25.8147],[-53.5031,-25.811],[-53.4982,-25.793],[-53.5109,-25.7862],[-53.4777,-25.784],[-53.468,-25.7578],[-53.4844,-25.7325],[-53.4771,-25.6959],[-53.4876,-25.6538],[-53.4791,-25.641],[-53.464,-25.6454],[-53.4484,-25.6282],[-53.4263,-25.6295],[-53.4321,-25.6431],[-53.424,-25.6661],[-53.4173,-25.6454],[-53.4074,-25.6484],[-53.4039,-25.6881],[-53.3889,-25.6923]]]}},{"type":"Feature","properties":{"codarea":"4124400","centroide":[-53.6331366407406,-26.06643463843037],"codigo_ibge":4124400,"nome_ig":"Sudoeste do Paraná"},"geometry":{"type":"Polygon","coordinates":[[[-53.5388,-25.9708],[-53.537,-25.9813],[-53.5736,-25.9879],[-53.5455,-25.9926],[-53.5324,-26.0062],[-53.5496,-26.0478],[-53.5201,-26.0539],[-53.5384,-26.0564],[-53.5143,-26.0721],[-53.5361,-26.0928],[-53.5538,-26.0895],[-53.5672,-26.1086],[-53.5845,-26.1135],[-53.585,-26.1263],[-53.6283,-26.1518],[-53.6446,-26.172],[-53.672,-26.1761],[-53.6989,-26.1537],[-53.7103,-26.1305],[-53.7403,-26.1179],[-53.7401,-26.0835],[-53.7271,-26.0669],[-53.7342,-26.0428],[-53.7318,-26.0374],[-53.6503,-25.9867],[-53.6094,-25.9878],[-53.6181,-25.9763],[-53.575,-25.9734],[-53.566,-25.9573],[-53.5507,-25.9541],[-53.5388,-25.9708]]]}},{"type":"Feature","properties":{"codarea":"4124806","centroide":[-52.792103145139244,-25.77370764620237],"codigo_ibge":4124806,"nome_ig":"Sudoeste do Paraná"},"geometry":{"type":"Polygon","coordinates":[[[-52.7851,-25.5669],[-52.7832,-25.57],[-52.7814,-25.7374],[-52.7039,-25.7511],[-52.7154,-25.7602],[-52.6975,-25.7639],[-52.6896,-25.8093],[-52.6794,-25.8231],[-52.6744,-25.8521],[-52.7225,-25.8716],[-52.7517,-25.8841],[-52.7723,-25.9174],[-52.7892,-25.917],[-52.7905,-25.9025],[-52.8083,-25.9066],[-52.8079,-25.8657],[-52.821,-25.8755],[-52.8464,-25.857],[-52.867,-25.8658],[-52.852,-25.8367],[-52.8584,-25.8306],[-52.8956,-25.8306],[-52.8984,-25.807],[-52.8681,-25.8145],[-52.8688,-25.8043],[-52.8952,-25.7929],[-52.9051,-25.8051],[-52.9444,-25.7824],[-52.8564,-25.7698],[-52.8116,-25.7403],[-52.8156,-25.7264],[-52.8484,-25.7036],[-52.8556,-25.6835],[-52.847,-25.6649],[-52.8482,-25.6349],[-52.8399,-25.6333],[-52.8456,-25.6066],[-52.857,-25.6028],[-52.8376,-25.5838],[-52.8118,-25.6072],[-52.8001,-25.5955],[-52.8,-25.5752],[-52.7851,-25.5669]]]}},{"type":"Feature","properties":{"codarea":"4126272","centroide":[-52.60437403921254,-25.712615532402864],"codigo_ibge":4126272,"nome_ig":"Sudoeste do Paraná"},"geometry":{"type":"Polygon","coordinates":[[[-52.5442,-25.6962],[-52.5413,-25.7202],[-52.5556,-25.7205],[-52.5452,-25.7374],[-52.5545,-25.753],[-52.5472,-25.7773],[-52.6035,-25.7692],[-52.6018,-25.7973],[-52.6613,-25.8013],[-52.6616,-25.7883],[-52.6429,-25.7892],[-52.6443,-25.7726],[-52.6618,-25.7703],[-52.6623,-25.7585],[-52.6159,-25.7654],[-52.6231,-25.7449],[-52.6434,-25.7363],[-52.6397,-25.7046],[-52.6597,-25.6864],[-52.6767,-25.6556],[-52.6277,-25.655],[-52.6193,-25.6141],[-52.604,-25.6159],[-52.6029,-25.632],[-52.5752,-25.6487],[-52.5766,-25.662],[-52.5442,-25.6962]]]}},{"type":"Feature","properties":{"codarea":"4126652","centroide":[-52.718057236843336,-25.693871227497162],"codigo_ibge":4126652,"nome_ig":"Sudoeste do Paraná"},"geometry":{"type":"Polygon","coordinates":[[[-52.6767,-25.6556],[-52.6597,-25.6864],[-52.6397,-25.7046],[-52.6434,-25.7363],[-52.6231,-25.7449],[-52.6159,-25.7654],[-52.6623,-25.7585],[-52.7039,-25.7511],[-52.7814,-25.7374],[-52.7832,-25.57],[-52.7687,-25.6083],[-52.7566,-25.617],[-52.7237,-25.623],[-52.7152,-25.6649],[-52.687,-25.6519],[-52.6767,-25.6556]]]}},{"type":"Feature","properties":{"codarea":"4128609","centroide":[-52.95918711458236,-25.873377456907534],"codigo_ibge":4128609,"nome_ig":"Sudoeste do Paraná"},"geometry":{"type":"Polygon","coordinates":[[[-52.9444,-25.7824],[-52.9051,-25.8051],[-52.8952,-25.7929],[-52.8688,-25.8043],[-52.8681,-25.8145],[-52.8984,-25.807],[-52.8956,-25.8306],[-52.8584,-25.8306],[-52.852,-25.8367],[-52.867,-25.8658],[-52.8568,-25.8757],[-52.8665,-25.8902],[-52.8458,-25.8967],[-52.8427,-25.9115],[-52.8755,-25.928],[-52.8823,-25.9508],[-52.898,-25.9385],[-52.9181,-25.9424],[-52.9933,-25.9491],[-53.0276,-25.9374],[-53.0514,-25.9455],[-53.0955,-25.9497],[-53.071,-25.912],[-53.0797,-25.877],[-53.045,-25.8563],[-53.0266,-25.8597],[-53.0093,-25.8372],[-53.0158,-25.8313],[-52.9848,-25.8087],[-52.9952,-25.7921],[-52.9787,-25.7817],[-52.9636,-25.7857],[-52.9655,-25.756],[-52.9206,-25.7485],[-52.923,-25.7654],[-52.9444,-25.7824]]]}},{"type":"Feature","properties":{"codarea":"4128708","centroide":[-52.80736029296088,-26.281723042982875],"codigo_ibge":4128708,"nome_ig":"Sudoeste do Paraná"},"geometry":{"type":"Polygon","coordinates":[[[-52.7993,-26.1635],[-52.8131,-26.1767],[-52.7817,-26.2014],[-52.8019,-26.2184],[-52.7853,-26.2336],[-52.7507,-26.2509],[-52.7542,-26.2576],[-52.73,-26.2748],[-52.6882,-26.2675],[-52.6608,-26.3014],[-52.6736,-26.3106],[-52.6849,-26.3016],[-52.7005,-26.3579],[-52.7173,-26.3574],[-52.7377,-26.3421],[-52.7627,-26.3535],[-52.7753,-26.3478],[-52.8469,-26.3444],[-52.8663,-26.3581],[-52.9083,-26.3594],[-52.9033,-26.3535],[-52.8979,-26.3057],[-52.9181,-26.2639],[-52.9422,-26.2473],[-52.9339,-26.2332],[-52.8978,-26.26],[-52.8788,-26.2418],[-52.8697,-26.2186],[-52.8489,-26.2022],[-52.8495,-26.1713],[-52.8214,-26.1576],[-52.8199,-26.1466],[-52.8183,-26.1581],[-52.7993,-26.1635]]]}}]}