{"type":"FeatureCollection","features":[{"type":"Feature","properties":{"codarea":"3101904","centroide":[-46.37594113852117,-20.85957188534426],"codigo_ibge":3101904,"nome_ig":"Sudoeste de Minas"},"geometry":{"type":"Polygon","coordinates":[[[-46.3579,-20.6863],[-46.3485,-20.7085],[-46.3315,-20.7195],[-46.3267,-20.7584],[-46.3201,-20.7537],[-46.3076,-20.7753],[-46.296,-20.7779],[-46.3019,-20.7987],[-46.2936,-20.8186],[-46.3171,-20.8474],[-46.3143,-20.8566],[-46.268,-20.866],[-46.2513,-20.8927],[-46.2612,-20.9116],[-46.288,-20.9322],[-46.2876,-20.9454],[-46.3113,-20.9482],[-46.3482,-20.9376],[-46.339,-20.97],[-46.3582,-20.9896],[-46.3981,-20.981],[-46.3941,-20.9696],[-46.4121,-20.962],[-46.4574,-20.9737],[-46.4731,-20.9494],[-46.5133,-20.9421],[-46.5282,-20.9305],[-46.5046,-20.9254],[-46.4753,-20.8882],[-46.4634,-20.8915],[-46.4699,-20.8715],[-46.4541,-20.8417],[-46.4402,-20.8296],[-46.431,-20.8041],[-46.4084,-20.8048],[-46.4056,-20.7704],[-46.3971,-20.7522],[-46.4062,-20.7378],[-46.3893,-20.7333],[-46.3985,-20.7132],[-46.3795,-20.6961],[-46.3978,-20.6895],[-46.399,-20.6737],[-46.3767,-20.6662],[-46.3579,-20.6863]]]}},{"type":"Feature","properties":{"codarea":"3102001","centroide":[-46.15327766895298,-21.225282338112407],"codigo_ibge":3102001,"nome_ig":"Sudoeste de Minas"},"geometry":{"type":"Polygon","coordinates":[[[-46.0701,-21.1469],[-46.0629,-21.1453],[-46.0414,-21.1806],[-46.0437,-21.1921],[-46.0447,-21.2151],[-46.0171,-21.2493],[-46.0384,-21.2763],[-46.0623,-21.2815],[-46.0555,-21.3078],[-46.1177,-21.321],[-46.1494,-21.2944],[-46.1888,-21.2797],[-46.2081,-21.2669],[-46.2404,-21.2565],[-46.2564,-21.2568],[-46.2834,-21.2377],[-46.2933,-21.2174],[-46.3338,-21.2031],[-46.3492,-21.1793],[-46.3197,-21.1837],[-46.3019,-21.1748],[-46.2922,-21.1532],[-46.2396,-21.1865],[-46.2204,-21.177],[-46.1766,-21.1969],[-46.1758,-21.1842],[-46.1436,-21.1537],[-46.1175,-21.1466],[-46.0701,-21.1469]]]}},{"type":"Feature","properties":{"codarea":"3104106","centroide":[-46.94211281374963,-21.35912303169121],"codigo_ibge":3104106,"nome_ig":"Sudoeste de Minas"},"geometry":{"type":"Polygon","coordinates":[[[-46.8784,-21.2909],[-46.8916,-21.3053],[-46.8838,-21.3361],[-46.8916,-21.3817],[-46.8846,-21.4071],[-46.9083,-21.4211],[-46.9342,-21.4252],[-46.9647,-21.4181],[-46.9843,-21.4266],[-47.0115,-21.4222],[-47.0161,-21.3965],[-47.0045,-21.3835],[-47.0095,-21.3707],[-46.9966,-21.3572],[-46.977,-21.3364],[-46.9797,-21.329],[-46.9676,-21.2823],[-46.9597,-21.2781],[-46.9301,-21.2953],[-46.9012,-21.2781],[-46.8784,-21.2909]]]}},{"type":"Feature","properties":{"codarea":"3107604","centroide":[-46.52914842693627,-21.01305042038507],"codigo_ibge":3107604,"nome_ig":"Sudoeste de Minas"},"geometry":{"type":"Polygon","coordinates":[[[-46.4574,-20.9737],[-46.4628,-20.9946],[-46.4514,-21.0125],[-46.4252,-21.0267],[-46.4367,-21.0557],[-46.4815,-21.0628],[-46.4901,-21.0708],[-46.5277,-21.0714],[-46.5519,-21.0858],[-46.5614,-21.0627],[-46.5861,-21.0464],[-46.6077,-21.0443],[-46.6367,-21.0111],[-46.6266,-20.9924],[-46.6292,-20.972],[-46.6134,-20.9708],[-46.6075,-20.9577],[-46.5886,-20.9637],[-46.5871,-20.9786],[-46.5696,-20.9908],[-46.5609,-20.9716],[-46.5454,-20.9781],[-46.5315,-20.9682],[-46.5228,-20.9401],[-46.5282,-20.9305],[-46.5133,-20.9421],[-46.4731,-20.9494],[-46.4574,-20.9737]]]}},{"type":"Feature","properties":{"codarea":"3108404","centroide":[-46.419977786101654,-21.637088994648572],"codigo_ibge":3108404,"nome_ig":"Sudoeste de Minas"},"geometry":{"type":"Polygon","coordinates":[[[-46.3225,-21.5731],[-46.2955,-21.5718],[-46.2949,-21.5877],[-46.2781,-21.6091],[-46.2973,-21.6195],[-46.297,-21.6335],[-46.3136,-21.6618],[-46.3352,-21.6704],[-46.3525,-21.6888],[-46.3737,-21.6932],[-46.3739,-21.6932],[-46.385,-21.6983],[-46.4198,-21.6926],[-46.4226,-21.7128],[-46.4346,-21.7263],[-46.4217,-21.7326],[-46.4424,-21.7551],[-46.4618,-21.7572],[-46.4655,-21.7292],[-46.451,-21.7087],[-46.4835,-21.7116],[-46.4767,-21.6996],[-46.4994,-21.6929],[-46.5073,-21.7031],[-46.5272,-21.6848],[-46.5166,-21.6728],[-46.526,-21.6455],[-46.5547,-21.6534],[-46.5529,-21.638],[-46.5182,-21.6128],[-46.5244,-21.6009],[-46.5118,-21.5653],[-46.4949,-21.5892],[-46.4647,-21.5761],[-46.4512,-21.5477],[-46.4259,-21.5431],[-46.4198,-21.5703],[-46.3794,-21.571],[-46.3612,-21.5866],[-46.3225,-21.5731]]]}},{"type":"Feature","properties":{"codarea":"3109501","centroide":[-46.39148747220586,-21.481796336525132],"codigo_ibge":3109501,"nome_ig":"Sudoeste de Minas"},"geometry":{"type":"Polygon","coordinates":[[[-46.2404,-21.4217],[-46.2302,-21.4223],[-46.2096,-21.4466],[-46.2632,-21.4576],[-46.279,-21.4696],[-46.2986,-21.4706],[-46.3342,-21.5165],[-46.3547,-21.5233],[-46.3492,-21.5582],[-46.3338,-21.5561],[-46.3225,-21.5731],[-46.3612,-21.5866],[-46.3794,-21.571],[-46.4198,-21.5703],[-46.4259,-21.5431],[-46.4512,-21.5477],[-46.4647,-21.5761],[-46.4949,-21.5892],[-46.5118,-21.5653],[-46.5007,-21.5497],[-46.5229,-21.5299],[-46.5192,-21.5008],[-46.5088,-21.4891],[-46.4949,-21.5113],[-46.4697,-21.4875],[-46.467,-21.4738],[-46.4822,-21.4505],[-46.4537,-21.4218],[-46.4455,-21.3897],[-46.4124,-21.3977],[-46.4069,-21.3912],[-46.3579,-21.3778],[-46.3398,-21.4167],[-46.3163,-21.4191],[-46.2928,-21.409],[-46.2828,-21.4317],[-46.2404,-21.4217]]]}},{"type":"Feature","properties":{"codarea":"3114402","centroide":[-46.09851600681569,-20.972322789883737],"codigo_ibge":3114402,"nome_ig":"Sudoeste de Minas"},"geometry":{"type":"Polygon","coordinates":[[[-46.1668,-20.8009],[-46.1743,-20.8357],[-46.1648,-20.8449],[-46.1255,-20.8158],[-46.0634,-20.8229],[-46.052,-20.8352],[-46.0492,-20.8636],[-46.0244,-20.8584],[-45.9746,-20.8709],[-45.965,-20.8837],[-45.9412,-20.8906],[-45.9461,-20.8963],[-45.9394,-20.9295],[-45.895,-20.9217],[-45.8878,-20.943],[-45.9081,-20.9707],[-45.9282,-20.9996],[-45.9032,-21.0205],[-45.9217,-21.039],[-45.9635,-21.0884],[-45.9734,-21.14],[-45.9842,-21.159],[-46.0155,-21.1691],[-46.0147,-21.1852],[-46.0437,-21.1921],[-46.0414,-21.1806],[-46.0629,-21.1453],[-46.0701,-21.1469],[-46.0935,-21.0947],[-46.1205,-21.0962],[-46.134,-21.0803],[-46.13,-21.0698],[-46.1433,-21.0522],[-46.184,-21.0479],[-46.1992,-21.0398],[-46.2349,-21.0369],[-46.2516,-21.0126],[-46.2926,-20.9977],[-46.301,-21.0084],[-46.3258,-21.0036],[-46.3503,-21.0131],[-46.3582,-20.9896],[-46.339,-20.97],[-46.3482,-20.9376],[-46.3113,-20.9482],[-46.2876,-20.9454],[-46.288,-20.9322],[-46.2612,-20.9116],[-46.2513,-20.8927],[-46.268,-20.866],[-46.2554,-20.8659],[-46.2575,-20.8443],[-46.2293,-20.8301],[-46.2118,-20.8101],[-46.1859,-20.7969],[-46.1668,-20.8009]]]}},{"type":"Feature","properties":{"codarea":"3117108","centroide":[-46.225949750602574,-21.09650445942916],"codigo_ibge":3117108,"nome_ig":"Sudoeste de Minas"},"geometry":{"type":"Polygon","coordinates":[[[-46.0701,-21.1469],[-46.1175,-21.1466],[-46.1436,-21.1537],[-46.1758,-21.1842],[-46.1766,-21.1969],[-46.2204,-21.177],[-46.2396,-21.1865],[-46.2922,-21.1532],[-46.2984,-21.1354],[-46.2879,-21.1167],[-46.2948,-21.1083],[-46.3261,-21.1059],[-46.3397,-21.0908],[-46.332,-21.0841],[-46.3566,-21.0607],[-46.3462,-21.0387],[-46.3503,-21.0131],[-46.3258,-21.0036],[-46.301,-21.0084],[-46.2926,-20.9977],[-46.2516,-21.0126],[-46.2349,-21.0369],[-46.1992,-21.0398],[-46.184,-21.0479],[-46.1433,-21.0522],[-46.13,-21.0698],[-46.134,-21.0803],[-46.1205,-21.0962],[-46.0935,-21.0947],[-46.0701,-21.1469]]]}},{"type":"Feature","properties":{"codarea":"3126307","centroide":[-46.772108150541804,-20.888451267584543],"codigo_ibge":3126307,"nome_ig":"Sudoeste de Minas"},"geometry":{"type":"Polygon","coordinates":[[[-46.7466,-20.8326],[-46.7221,-20.8228],[-46.7056,-20.8407],[-46.6974,-20.864],[-46.6722,-20.8681],[-46.6732,-20.898],[-46.6991,-20.9268],[-46.7157,-20.9289],[-46.7518,-20.9469],[-46.752,-20.969],[-46.7784,-20.9649],[-46.7981,-20.9757],[-46.8122,-20.9533],[-46.8073,-20.9184],[-46.8235,-20.9246],[-46.8449,-20.9156],[-46.8746,-20.8856],[-46.8428,-20.8479],[-46.8368,-20.8212],[-46.8258,-20.8236],[-46.805,-20.8037],[-46.7956,-20.8253],[-46.7616,-20.8501],[-46.7466,-20.8326]]]}},{"type":"Feature","properties":{"codarea":"3128303","centroide":[-46.80712571201216,-21.27762798213695],"codigo_ibge":3128303,"nome_ig":"Sudoeste de Minas"},"geometry":{"type":"Polygon","coordinates":[[[-46.7853,-21.1518],[-46.782,-21.1576],[-46.7478,-21.1723],[-46.7303,-21.1873],[-46.7349,-21.2252],[-46.7158,-21.2277],[-46.7205,-21.2647],[-46.7451,-21.2665],[-46.7461,-21.2902],[-46.7578,-21.2961],[-46.7647,-21.36],[-46.7814,-21.3707],[-46.8173,-21.3664],[-46.836,-21.3707],[-46.8359,-21.3835],[-46.8846,-21.4071],[-46.8916,-21.3817],[-46.8838,-21.3361],[-46.8916,-21.3053],[-46.8784,-21.2909],[-46.8618,-21.2857],[-46.8648,-21.2591],[-46.8361,-21.2108],[-46.8405,-21.202],[-46.8119,-21.1758],[-46.8029,-21.1514],[-46.7853,-21.1518]]]}},{"type":"Feature","properties":{"codarea":"3128709","centroide":[-46.682974570005996,-21.290029357934177],"codigo_ibge":3128709,"nome_ig":"Sudoeste de Minas"},"geometry":{"type":"Polygon","coordinates":[[[-46.6179,-21.1931],[-46.6236,-21.1948],[-46.6217,-21.2474],[-46.6101,-21.2576],[-46.612,-21.2918],[-46.6006,-21.3286],[-46.6239,-21.3487],[-46.6268,-21.3636],[-46.6476,-21.3795],[-46.6471,-21.3641],[-46.6667,-21.3612],[-46.6931,-21.3842],[-46.7074,-21.4046],[-46.7147,-21.3926],[-46.7389,-21.3925],[-46.7621,-21.3749],[-46.7647,-21.36],[-46.7578,-21.2961],[-46.7461,-21.2902],[-46.7451,-21.2665],[-46.7205,-21.2647],[-46.7158,-21.2277],[-46.7349,-21.2252],[-46.7303,-21.1873],[-46.7231,-21.183],[-46.6667,-21.1931],[-46.6633,-21.1835],[-46.6277,-21.1779],[-46.6179,-21.1931]]]}},{"type":"Feature","properties":{"codarea":"3132909","centroide":[-47.04997613017722,-21.07429364475112],"codigo_ibge":3132909,"nome_ig":"Sudoeste de Minas"},"geometry":{"type":"Polygon","coordinates":[[[-46.9354,-21.0618],[-46.9533,-21.0741],[-46.9638,-21.0925],[-46.9603,-21.1055],[-46.9833,-21.1271],[-47.0357,-21.1389],[-47.0428,-21.1257],[-47.0706,-21.131],[-47.0805,-21.1484],[-47.1176,-21.1531],[-47.133,-21.1332],[-47.1131,-21.1049],[-47.1422,-21.0882],[-47.139,-21.0692],[-47.1478,-21.0354],[-47.1229,-21.0287],[-47.108,-21.0147],[-47.0753,-21.0181],[-47.0534,-21.0033],[-47.0259,-20.9968],[-47.019,-21.0138],[-46.9992,-21.0165],[-46.9563,-21.0386],[-46.9573,-21.0525],[-46.9354,-21.0618]]]}},{"type":"Feature","properties":{"codarea":"3134806","centroide":[-46.735212373847965,-21.0236366018011],"codigo_ibge":3134806,"nome_ig":"Sudoeste de Minas"},"geometry":{"type":"Polygon","coordinates":[[[-46.6134,-20.9708],[-46.6292,-20.972],[-46.6266,-20.9924],[-46.6367,-21.0111],[-46.6529,-21.0487],[-46.6402,-21.0524],[-46.6487,-21.0886],[-46.6674,-21.1094],[-46.7388,-21.1096],[-46.7598,-21.1182],[-46.7634,-21.1406],[-46.782,-21.1576],[-46.7853,-21.1518],[-46.7903,-21.1081],[-46.8113,-21.0841],[-46.8376,-21.0873],[-46.8578,-21.0767],[-46.8568,-21.0552],[-46.8672,-21.0522],[-46.8918,-21.0653],[-46.8836,-21.036],[-46.8684,-21.0105],[-46.8436,-20.9977],[-46.8129,-20.997],[-46.7981,-20.9757],[-46.7784,-20.9649],[-46.752,-20.969],[-46.7518,-20.9469],[-46.7157,-20.9289],[-46.6991,-20.9268],[-46.6732,-20.898],[-46.6451,-20.8922],[-46.6308,-20.9106],[-46.6541,-20.9255],[-46.6221,-20.9515],[-46.6134,-20.9708]]]}},{"type":"Feature","properties":{"codarea":"3136900","centroide":[-46.5262002058124,-21.220870633606744],"codigo_ibge":3136900,"nome_ig":"Sudoeste de Minas"},"geometry":{"type":"Polygon","coordinates":[[[-46.4154,-21.195],[-46.4161,-21.2169],[-46.4029,-21.2278],[-46.4114,-21.2471],[-46.4375,-21.2459],[-46.4455,-21.2371],[-46.5054,-21.2482],[-46.5457,-21.2703],[-46.5474,-21.2921],[-46.5718,-21.3073],[-46.612,-21.2918],[-46.6101,-21.2576],[-46.6217,-21.2474],[-46.6236,-21.1948],[-46.6179,-21.1931],[-46.5711,-21.1966],[-46.568,-21.1623],[-46.5505,-21.1506],[-46.5267,-21.1603],[-46.5097,-21.1543],[-46.4957,-21.1733],[-46.4648,-21.165],[-46.4608,-21.172],[-46.4255,-21.1702],[-46.4154,-21.195]]]}},{"type":"Feature","properties":{"codarea":"3143005","centroide":[-46.326887039836876,-21.314782779228565],"codigo_ibge":3143005,"nome_ig":"Sudoeste de Minas"},"geometry":{"type":"Polygon","coordinates":[[[-46.2404,-21.2565],[-46.2425,-21.3233],[-46.2064,-21.3561],[-46.2257,-21.3671],[-46.2121,-21.3749],[-46.2177,-21.393],[-46.2404,-21.4217],[-46.2828,-21.4317],[-46.2928,-21.409],[-46.3163,-21.4191],[-46.3398,-21.4167],[-46.3579,-21.3778],[-46.4069,-21.3912],[-46.4124,-21.3977],[-46.4455,-21.3897],[-46.4321,-21.3731],[-46.4348,-21.3435],[-46.4169,-21.325],[-46.4157,-21.2911],[-46.4008,-21.2732],[-46.4114,-21.2471],[-46.4029,-21.2278],[-46.4161,-21.2169],[-46.4154,-21.195],[-46.3943,-21.2037],[-46.3851,-21.1924],[-46.3492,-21.1793],[-46.3338,-21.2031],[-46.2933,-21.2174],[-46.2834,-21.2377],[-46.2564,-21.2568],[-46.2404,-21.2565]]]}},{"type":"Feature","properties":{"codarea":"3143203","centroide":[-46.9457934363193,-21.188233211007542],"codigo_ibge":3143203,"nome_ig":"Sudoeste de Minas"},"geometry":{"type":"Polygon","coordinates":[[[-46.7853,-21.1518],[-46.8029,-21.1514],[-46.8119,-21.1758],[-46.8405,-21.202],[-46.8361,-21.2108],[-46.8648,-21.2591],[-46.8618,-21.2857],[-46.8784,-21.2909],[-46.9012,-21.2781],[-46.9301,-21.2953],[-46.9597,-21.2781],[-46.9676,-21.2823],[-46.9797,-21.329],[-46.977,-21.3364],[-46.9966,-21.3572],[-47.0165,-21.3423],[-47.0209,-21.3216],[-47.0351,-21.31],[-47.0442,-21.2673],[-47.0522,-21.2465],[-47.0772,-21.2402],[-47.0647,-21.207],[-47.0956,-21.2096],[-47.1185,-21.1859],[-47.1176,-21.1531],[-47.0805,-21.1484],[-47.0706,-21.131],[-47.0428,-21.1257],[-47.0357,-21.1389],[-46.9833,-21.1271],[-46.9603,-21.1055],[-46.9638,-21.0925],[-46.9533,-21.0741],[-46.9354,-21.0618],[-46.9054,-21.0732],[-46.8918,-21.0653],[-46.8672,-21.0522],[-46.8568,-21.0552],[-46.8578,-21.0767],[-46.8376,-21.0873],[-46.8113,-21.0841],[-46.7903,-21.1081],[-46.7853,-21.1518]]]}},{"type":"Feature","properties":{"codarea":"3144102","centroide":[-46.5162712036693,-21.35619149100229],"codigo_ibge":3144102,"nome_ig":"Sudoeste de Minas"},"geometry":{"type":"Polygon","coordinates":[[[-46.4114,-21.2471],[-46.4008,-21.2732],[-46.4157,-21.2911],[-46.4169,-21.325],[-46.4348,-21.3435],[-46.4321,-21.3731],[-46.4455,-21.3897],[-46.4537,-21.4218],[-46.4822,-21.4505],[-46.467,-21.4738],[-46.4697,-21.4875],[-46.4949,-21.5113],[-46.5088,-21.4891],[-46.5092,-21.4698],[-46.521,-21.4469],[-46.5578,-21.4426],[-46.5765,-21.4269],[-46.6018,-21.4439],[-46.616,-21.4302],[-46.6373,-21.4106],[-46.6476,-21.3795],[-46.6268,-21.3636],[-46.6239,-21.3487],[-46.6006,-21.3286],[-46.612,-21.2918],[-46.5718,-21.3073],[-46.5474,-21.2921],[-46.5457,-21.2703],[-46.5054,-21.2482],[-46.4455,-21.2371],[-46.4375,-21.2459],[-46.4114,-21.2471]]]}},{"type":"Feature","properties":{"codarea":"3145109","centroide":[-46.41573795786038,-21.09790217025283],"codigo_ibge":3145109,"nome_ig":"Sudoeste de Minas"},"geometry":{"type":"Polygon","coordinates":[[[-46.3582,-20.9896],[-46.3503,-21.0131],[-46.3462,-21.0387],[-46.3566,-21.0607],[-46.332,-21.0841],[-46.3397,-21.0908],[-46.3261,-21.1059],[-46.2948,-21.1083],[-46.2879,-21.1167],[-46.2984,-21.1354],[-46.2922,-21.1532],[-46.3019,-21.1748],[-46.3197,-21.1837],[-46.3492,-21.1793],[-46.3851,-21.1924],[-46.3943,-21.2037],[-46.4154,-21.195],[-46.4255,-21.1702],[-46.4608,-21.172],[-46.4648,-21.165],[-46.4957,-21.1733],[-46.5097,-21.1543],[-46.5267,-21.1603],[-46.5505,-21.1506],[-46.5392,-21.1375],[-46.5528,-21.1118],[-46.5434,-21.0962],[-46.5519,-21.0858],[-46.5277,-21.0714],[-46.4901,-21.0708],[-46.4815,-21.0628],[-46.4367,-21.0557],[-46.4252,-21.0267],[-46.4514,-21.0125],[-46.4628,-20.9946],[-46.4574,-20.9737],[-46.4121,-20.962],[-46.3941,-20.9696],[-46.3981,-20.981],[-46.3582,-20.9896]]]}},{"type":"Feature","properties":{"codarea":"3147907","centroide":[-46.62133672763315,-20.718896708036546],"codigo_ibge":3147907,"nome_ig":"Sudoeste de Minas"},"geometry":{"type":"Polygon","coordinates":[[[-46.5945,-20.567],[-46.5842,-20.5909],[-46.5972,-20.621],[-46.5863,-20.639],[-46.5618,-20.6435],[-46.5271,-20.6603],[-46.4677,-20.6596],[-46.4557,-20.6648],[-46.4501,-20.6854],[-46.4329,-20.6907],[-46.399,-20.6737],[-46.3978,-20.6895],[-46.3795,-20.6961],[-46.3985,-20.7132],[-46.3893,-20.7333],[-46.4062,-20.7378],[-46.3971,-20.7522],[-46.4056,-20.7704],[-46.4084,-20.8048],[-46.431,-20.8041],[-46.4402,-20.8296],[-46.4541,-20.8417],[-46.4699,-20.8715],[-46.4634,-20.8915],[-46.4753,-20.8882],[-46.5046,-20.9254],[-46.5282,-20.9305],[-46.5228,-20.9401],[-46.5315,-20.9682],[-46.5454,-20.9781],[-46.5609,-20.9716],[-46.5696,-20.9908],[-46.5871,-20.9786],[-46.5886,-20.9637],[-46.6075,-20.9577],[-46.6134,-20.9708],[-46.6221,-20.9515],[-46.6541,-20.9255],[-46.6308,-20.9106],[-46.6451,-20.8922],[-46.6732,-20.898],[-46.6722,-20.8681],[-46.6974,-20.864],[-46.7056,-20.8407],[-46.6958,-20.8264],[-46.7222,-20.7697],[-46.7364,-20.7538],[-46.7264,-20.7292],[-46.7351,-20.7141],[-46.7307,-20.6904],[-46.7467,-20.6906],[-46.7576,-20.6653],[-46.7996,-20.672],[-46.8195,-20.6605],[-46.8072,-20.6428],[-46.8317,-20.6308],[-46.8353,-20.5847],[-46.8057,-20.5598],[-46.8077,-20.5352],[-46.8556,-20.53],[-46.8538,-20.5124],[-46.8389,-20.5132],[-46.8571,-20.496],[-46.8624,-20.4692],[-46.8197,-20.4618],[-46.7997,-20.4785],[-46.778,-20.485],[-46.6974,-20.4962],[-46.6578,-20.5333],[-46.5945,-20.567]]]}},{"type":"Feature","properties":{"codarea":"3163904","centroide":[-46.6414718456483,-21.126356423047714],"codigo_ibge":3163904,"nome_ig":"Sudoeste de Minas"},"geometry":{"type":"Polygon","coordinates":[[[-46.6367,-21.0111],[-46.6077,-21.0443],[-46.5861,-21.0464],[-46.5614,-21.0627],[-46.5519,-21.0858],[-46.5434,-21.0962],[-46.5528,-21.1118],[-46.5392,-21.1375],[-46.5505,-21.1506],[-46.568,-21.1623],[-46.5711,-21.1966],[-46.6179,-21.1931],[-46.6277,-21.1779],[-46.6633,-21.1835],[-46.6667,-21.1931],[-46.7231,-21.183],[-46.7303,-21.1873],[-46.7478,-21.1723],[-46.782,-21.1576],[-46.7634,-21.1406],[-46.7598,-21.1182],[-46.7388,-21.1096],[-46.6674,-21.1094],[-46.6487,-21.0886],[-46.6402,-21.0524],[-46.6529,-21.0487],[-46.6367,-21.0111]]]}},{"type":"Feature","properties":{"codarea":"3164704","centroide":[-47.006295231320834,-20.922821903779614],"codigo_ibge":3164704,"nome_ig":"Sudoeste de Minas"},"geometry":{"type":"Polygon","coordinates":[[[-46.963,-20.7931],[-46.9449,-20.8227],[-46.9199,-20.8255],[-46.8746,-20.8856],[-46.8449,-20.9156],[-46.8235,-20.9246],[-46.8073,-20.9184],[-46.8122,-20.9533],[-46.7981,-20.9757],[-46.8129,-20.997],[-46.8436,-20.9977],[-46.8684,-21.0105],[-46.8836,-21.036],[-46.8918,-21.0653],[-46.9054,-21.0732],[-46.9354,-21.0618],[-46.9573,-21.0525],[-46.9563,-21.0386],[-46.9992,-21.0165],[-47.019,-21.0138],[-47.0259,-20.9968],[-47.0534,-21.0033],[-47.0753,-21.0181],[-47.108,-21.0147],[-47.1229,-21.0287],[-47.1478,-21.0354],[-47.157,-21.0188],[-47.1437,-20.9823],[-47.1495,-20.9699],[-47.1812,-20.9538],[-47.19,-20.9282],[-47.2104,-20.9241],[-47.24,-20.8852],[-47.2273,-20.8564],[-47.2269,-20.8554],[-47.1974,-20.8632],[-47.1955,-20.8765],[-47.1692,-20.8731],[-47.1566,-20.8792],[-47.1412,-20.8578],[-47.1077,-20.8504],[-47.0841,-20.8363],[-47.0564,-20.846],[-47.0405,-20.8255],[-47.0469,-20.7972],[-47.0285,-20.7313],[-47.014,-20.7475],[-46.985,-20.7596],[-46.963,-20.7931]]]}}]}