{"type":"FeatureCollection","features":[{"type":"Feature","properties":{"codarea":"3107109","centroide":[-45.62153451884998,-21.048680237724355],"codigo_ibge":3107109,"nome_ig":"Sul de Minas"},"geometry":{"type":"Polygon","coordinates":[[[-45.5371,-20.9378],[-45.5246,-20.9722],[-45.4727,-21.0194],[-45.4172,-21.0244],[-45.3916,-21.068],[-45.3944,-21.0777],[-45.4189,-21.0782],[-45.4335,-21.0915],[-45.4294,-21.1131],[-45.4334,-21.1412],[-45.4525,-21.142],[-45.4635,-21.1301],[-45.4874,-21.1318],[-45.5078,-21.1226],[-45.5294,-21.136],[-45.5225,-21.1669],[-45.5314,-21.1758],[-45.514,-21.2006],[-45.5172,-21.2187],[-45.5358,-21.2257],[-45.5641,-21.2533],[-45.5811,-21.2463],[-45.5898,-21.2293],[-45.6039,-21.2313],[-45.6122,-21.2067],[-45.6021,-21.1899],[-45.5802,-21.1824],[-45.576,-21.1647],[-45.5945,-21.1444],[-45.6408,-21.1456],[-45.6781,-21.1367],[-45.706,-21.0926],[-45.727,-21.0832],[-45.7644,-21.0893],[-45.7735,-21.0791],[-45.817,-21.0671],[-45.8387,-21.072],[-45.8583,-21.0609],[-45.9217,-21.039],[-45.9032,-21.0205],[-45.9282,-20.9996],[-45.9081,-20.9707],[-45.8754,-20.9796],[-45.8684,-20.9949],[-45.8001,-21.018],[-45.7764,-21.0355],[-45.7593,-21.0155],[-45.733,-21.0174],[-45.6829,-20.962],[-45.6813,-20.9223],[-45.6917,-20.8972],[-45.6794,-20.8614],[-45.6502,-20.8739],[-45.6142,-20.8678],[-45.6054,-20.8884],[-45.6016,-20.9225],[-45.5893,-20.9364],[-45.5371,-20.9378]]]}},{"type":"Feature","properties":{"codarea":"3108008","centroide":[-44.78449692048796,-21.026164261726066],"codigo_ibge":3108008,"nome_ig":"Sul de Minas"},"geometry":{"type":"Polygon","coordinates":[[[-44.6213,-21.0958],[-44.6591,-21.097],[-44.681,-21.1204],[-44.7045,-21.1193],[-44.695,-21.131],[-44.7107,-21.1369],[-44.7395,-21.142],[-44.7443,-21.1193],[-44.7639,-21.1116],[-44.7756,-21.1174],[-44.7928,-21.1054],[-44.7967,-21.1214],[-44.8307,-21.1234],[-44.8397,-21.1368],[-44.865,-21.1315],[-44.8778,-21.1554],[-44.8856,-21.1817],[-44.9092,-21.1784],[-44.9017,-21.1588],[-44.9112,-21.1482],[-44.9319,-21.1522],[-44.9257,-21.126],[-44.9496,-21.1089],[-44.9379,-21.0729],[-44.9702,-21.0427],[-44.9759,-21.0279],[-44.9715,-21.0109],[-44.9572,-21.0171],[-44.9328,-20.9895],[-44.886,-21.0053],[-44.8651,-20.9547],[-44.8165,-20.9585],[-44.805,-20.8975],[-44.7805,-20.9028],[-44.7674,-20.8954],[-44.7572,-20.8738],[-44.7298,-20.8914],[-44.7091,-20.8488],[-44.6594,-20.8985],[-44.6653,-20.9493],[-44.6611,-20.99],[-44.6401,-21],[-44.6429,-21.0242],[-44.6324,-21.0503],[-44.624,-21.0518],[-44.6213,-21.0958]]]}},{"type":"Feature","properties":{"codarea":"3111606","centroide":[-45.75339956034156,-21.258771836431727],"codigo_ibge":3111606,"nome_ig":"Sul de Minas"},"geometry":{"type":"Polygon","coordinates":[[[-45.6781,-21.1367],[-45.6408,-21.1456],[-45.5945,-21.1444],[-45.576,-21.1647],[-45.5802,-21.1824],[-45.6021,-21.1899],[-45.6122,-21.2067],[-45.6039,-21.2313],[-45.6099,-21.2759],[-45.5981,-21.298],[-45.6004,-21.3154],[-45.6146,-21.3091],[-45.6581,-21.3334],[-45.6855,-21.3347],[-45.6961,-21.3446],[-45.7009,-21.3767],[-45.6733,-21.4113],[-45.6979,-21.4174],[-45.6952,-21.4369],[-45.7017,-21.4522],[-45.7156,-21.4457],[-45.7252,-21.4249],[-45.7642,-21.4229],[-45.7833,-21.4102],[-45.8011,-21.4162],[-45.8048,-21.405],[-45.8313,-21.3935],[-45.8222,-21.3419],[-45.8256,-21.3221],[-45.8569,-21.2838],[-45.9056,-21.2701],[-45.9528,-21.2399],[-45.9477,-21.1649],[-45.9187,-21.1744],[-45.8548,-21.1639],[-45.8547,-21.1504],[-45.7994,-21.1672],[-45.7831,-21.1622],[-45.7579,-21.1704],[-45.7575,-21.1487],[-45.7375,-21.1313],[-45.7053,-21.1273],[-45.6781,-21.1367]]]}},{"type":"Feature","properties":{"codarea":"3119005","centroide":[-45.66163668601155,-21.78235779249757],"codigo_ibge":3119005,"nome_ig":"Sul de Minas"},"geometry":{"type":"Polygon","coordinates":[[[-45.5682,-21.7504],[-45.5692,-21.7841],[-45.5562,-21.789],[-45.583,-21.7905],[-45.6051,-21.8096],[-45.5917,-21.8222],[-45.6061,-21.8495],[-45.6712,-21.8414],[-45.6971,-21.8295],[-45.7226,-21.842],[-45.7388,-21.862],[-45.7419,-21.8306],[-45.7288,-21.8247],[-45.7316,-21.8055],[-45.6948,-21.7684],[-45.7148,-21.7777],[-45.7069,-21.7529],[-45.7286,-21.7268],[-45.729,-21.7074],[-45.7051,-21.678],[-45.6882,-21.717],[-45.6684,-21.7129],[-45.6538,-21.7338],[-45.6309,-21.7448],[-45.6207,-21.7585],[-45.5723,-21.7554],[-45.5682,-21.7504]]]}},{"type":"Feature","properties":{"codarea":"3130002","centroide":[-44.78167472488789,-21.16838070515034],"codigo_ibge":3130002,"nome_ig":"Sul de Minas"},"geometry":{"type":"Polygon","coordinates":[[[-44.7107,-21.1369],[-44.7011,-21.1693],[-44.7075,-21.1968],[-44.7328,-21.2116],[-44.7438,-21.2306],[-44.7596,-21.2348],[-44.7761,-21.2088],[-44.7904,-21.2206],[-44.8099,-21.2207],[-44.8263,-21.2036],[-44.8483,-21.1934],[-44.8425,-21.1715],[-44.8633,-21.1666],[-44.8778,-21.1554],[-44.865,-21.1315],[-44.8397,-21.1368],[-44.8307,-21.1234],[-44.7967,-21.1214],[-44.7928,-21.1054],[-44.7756,-21.1174],[-44.7639,-21.1116],[-44.7443,-21.1193],[-44.7395,-21.142],[-44.7107,-21.1369]]]}},{"type":"Feature","properties":{"codarea":"3130408","centroide":[-44.93358588080011,-21.178769702189538],"codigo_ibge":3130408,"nome_ig":"Sul de Minas"},"geometry":{"type":"Polygon","coordinates":[[[-44.8778,-21.1554],[-44.8633,-21.1666],[-44.8692,-21.2121],[-44.8795,-21.2209],[-44.9071,-21.2123],[-44.9249,-21.2172],[-44.9207,-21.232],[-44.9627,-21.2403],[-44.9603,-21.2171],[-44.9804,-21.2031],[-44.9784,-21.1659],[-44.993,-21.1343],[-44.9683,-21.1269],[-44.9496,-21.1089],[-44.9257,-21.126],[-44.9319,-21.1522],[-44.9112,-21.1482],[-44.9017,-21.1588],[-44.9092,-21.1784],[-44.8856,-21.1817],[-44.8778,-21.1554]]]}},{"type":"Feature","properties":{"codarea":"3162005","centroide":[-45.59427275573979,-21.910871246860612],"codigo_ibge":3162005,"nome_ig":"Sul de Minas"},"geometry":{"type":"Polygon","coordinates":[[[-45.5562,-21.789],[-45.4988,-21.7969],[-45.4932,-21.813],[-45.5049,-21.8343],[-45.492,-21.85],[-45.4879,-21.9038],[-45.4696,-21.9401],[-45.4419,-21.9589],[-45.4362,-21.9773],[-45.4769,-21.9898],[-45.4823,-21.9875],[-45.5323,-22.0062],[-45.5516,-22.0058],[-45.6185,-22.0188],[-45.6158,-22.004],[-45.6377,-22.0002],[-45.6434,-21.9853],[-45.684,-21.9795],[-45.6855,-21.9944],[-45.7055,-21.9868],[-45.7168,-21.9941],[-45.7121,-21.9715],[-45.7308,-21.9549],[-45.7453,-21.9227],[-45.7312,-21.91],[-45.7392,-21.8999],[-45.7291,-21.8832],[-45.7115,-21.8768],[-45.7388,-21.862],[-45.7226,-21.842],[-45.6971,-21.8295],[-45.6712,-21.8414],[-45.6061,-21.8495],[-45.5917,-21.8222],[-45.6051,-21.8096],[-45.583,-21.7905],[-45.5562,-21.789]]]}},{"type":"Feature","properties":{"codarea":"3162302","centroide":[-45.92280891918873,-21.943000054846546],"codigo_ibge":3162302,"nome_ig":"Sul de Minas"},"geometry":{"type":"Polygon","coordinates":[[[-45.8591,-21.8937],[-45.8478,-21.9205],[-45.8614,-21.933],[-45.849,-21.9647],[-45.8611,-21.9794],[-45.8922,-21.9868],[-45.9061,-22.0223],[-45.9048,-21.9998],[-45.9259,-21.9856],[-45.9594,-21.9882],[-45.9696,-21.9802],[-45.9662,-21.9613],[-45.9872,-21.9423],[-45.9871,-21.9099],[-46.032,-21.8862],[-46.0137,-21.8742],[-45.9828,-21.8871],[-45.9836,-21.8986],[-45.9611,-21.9166],[-45.925,-21.9177],[-45.8762,-21.9066],[-45.8591,-21.8937]]]}},{"type":"Feature","properties":{"codarea":"3169307","centroide":[-45.20508971074068,-21.686644466431833],"codigo_ibge":3169307,"nome_ig":"Sul de Minas"},"geometry":{"type":"Polygon","coordinates":[[[-45.1124,-21.5424],[-45.1074,-21.5767],[-45.0918,-21.6157],[-45.0658,-21.6334],[-45.0368,-21.6319],[-45.0463,-21.6582],[-45.0418,-21.6773],[-45.0631,-21.7055],[-45.0523,-21.7291],[-45.0672,-21.7398],[-45.0312,-21.7566],[-45.0432,-21.7778],[-45.0827,-21.7723],[-45.0958,-21.785],[-45.1236,-21.7824],[-45.1116,-21.8056],[-45.1183,-21.8285],[-45.1103,-21.8457],[-45.1417,-21.8676],[-45.1655,-21.835],[-45.2021,-21.7984],[-45.2037,-21.7767],[-45.2138,-21.7668],[-45.2341,-21.7837],[-45.2408,-21.7993],[-45.2701,-21.823],[-45.2784,-21.8127],[-45.2979,-21.818],[-45.3105,-21.7952],[-45.3281,-21.7966],[-45.3457,-21.767],[-45.3394,-21.7156],[-45.354,-21.711],[-45.365,-21.6905],[-45.3655,-21.6664],[-45.4036,-21.6826],[-45.4168,-21.6674],[-45.3999,-21.6485],[-45.395,-21.6274],[-45.36,-21.6356],[-45.3464,-21.6313],[-45.3449,-21.6056],[-45.3221,-21.5835],[-45.3049,-21.5985],[-45.2847,-21.6005],[-45.2734,-21.5815],[-45.2526,-21.5685],[-45.2545,-21.554],[-45.2309,-21.5627],[-45.2213,-21.5419],[-45.1938,-21.5284],[-45.1791,-21.5376],[-45.1565,-21.5345],[-45.1124,-21.5424]]]}},{"type":"Feature","properties":{"codarea":"3169406","centroide":[-45.49807903432585,-21.39328047118652],"codigo_ibge":3169406,"nome_ig":"Sul de Minas"},"geometry":{"type":"Polygon","coordinates":[[[-45.3778,-21.3105],[-45.3594,-21.3232],[-45.3265,-21.3286],[-45.3046,-21.343],[-45.3108,-21.3562],[-45.274,-21.3607],[-45.2726,-21.3767],[-45.3119,-21.3968],[-45.3331,-21.417],[-45.3174,-21.4537],[-45.3348,-21.4525],[-45.3665,-21.4652],[-45.3647,-21.4811],[-45.4086,-21.4667],[-45.4204,-21.4705],[-45.4427,-21.4597],[-45.4896,-21.4786],[-45.4851,-21.512],[-45.5129,-21.5126],[-45.545,-21.4982],[-45.5602,-21.5037],[-45.5814,-21.4749],[-45.5937,-21.4791],[-45.5916,-21.4586],[-45.6053,-21.4678],[-45.6265,-21.4467],[-45.6564,-21.4505],[-45.664,-21.4592],[-45.6837,-21.4341],[-45.6952,-21.4369],[-45.6979,-21.4174],[-45.6733,-21.4113],[-45.7009,-21.3767],[-45.6961,-21.3446],[-45.6855,-21.3347],[-45.6581,-21.3334],[-45.6146,-21.3091],[-45.6004,-21.3154],[-45.5681,-21.2969],[-45.5615,-21.3136],[-45.5274,-21.3079],[-45.512,-21.3194],[-45.5038,-21.3049],[-45.4826,-21.2955],[-45.4599,-21.3178],[-45.441,-21.3029],[-45.4211,-21.302],[-45.3998,-21.3132],[-45.3778,-21.3105]]]}}]}