{"type":"FeatureCollection","features":[{"type":"Feature","properties":{"codarea":"2900603","centroide":[-39.88175949790502,-14.090999884290257],"codigo_ibge":2900603,"nome_ig":"Sul da Bahia"},"geometry":{"type":"MultiPolygon","coordinates":[[[[-39.8,-14.0595],[-39.8082,-14.0766],[-39.8266,-14.0724],[-39.8312,-14.0824],[-39.812,-14.1021],[-39.8213,-14.104],[-39.8606,-14.1461],[-39.8829,-14.1421],[-39.8852,-14.1275],[-39.9005,-14.1583],[-39.9202,-14.1833],[-39.936,-14.1735],[-39.9355,-14.1546],[-39.9494,-14.1521],[-39.9429,-14.0862],[-39.9371,-14.0786],[-39.9016,-14.0468],[-39.9004,-14.0273],[-39.8742,-14.0114],[-39.8391,-14.0198],[-39.8278,-14.0387],[-39.8,-14.0595]]]]}},{"type":"Feature","properties":{"codarea":"2900801","centroide":[-39.409661936946904,-17.467967853239532],"codigo_ibge":2900801,"nome_ig":"Sul da Bahia"},"geometry":{"type":"MultiPolygon","coordinates":[[[[-39.192,-17.4458],[-39.1934,-17.5821],[-39.1839,-17.6153],[-39.169,-17.6419],[-39.1368,-17.6849],[-39.1542,-17.6729],[-39.2496,-17.6367],[-39.3964,-17.6506],[-39.4429,-17.6525],[-39.4611,-17.635],[-39.4651,-17.5924],[-39.4899,-17.5701],[-39.5115,-17.569],[-39.5273,-17.5789],[-39.6046,-17.5579],[-39.6073,-17.411],[-39.6294,-17.3526],[-39.6322,-17.3132],[-39.6117,-17.2839],[-39.5612,-17.2857],[-39.5597,-17.2612],[-39.545,-17.2538],[-39.5363,-17.2686],[-39.5054,-17.2647],[-39.4701,-17.2671],[-39.438,-17.2827],[-39.4147,-17.3027],[-39.4009,-17.2967],[-39.3509,-17.3236],[-39.3367,-17.3512],[-39.2769,-17.3699],[-39.2561,-17.3914],[-39.2538,-17.4091],[-39.2346,-17.432],[-39.2259,-17.4221],[-39.192,-17.4458]]]]}},{"type":"Feature","properties":{"codarea":"2900900","centroide":[-39.66284760347161,-14.70171281782981],"codigo_ibge":2900900,"nome_ig":"Sul da Bahia"},"geometry":{"type":"MultiPolygon","coordinates":[[[[-39.5835,-14.7844],[-39.6196,-14.7886],[-39.6576,-14.7696],[-39.7528,-14.7168],[-39.7457,-14.6584],[-39.7315,-14.6418],[-39.7191,-14.6016],[-39.6973,-14.6057],[-39.6196,-14.6621],[-39.5696,-14.7213],[-39.5738,-14.76],[-39.5835,-14.7844]]]]}},{"type":"Feature","properties":{"codarea":"2901957","centroide":[-39.75134168971085,-13.820563563940004],"codigo_ibge":2901957,"nome_ig":"Sul da Bahia"},"geometry":{"type":"MultiPolygon","coordinates":[[[[-39.8497,-13.7111],[-39.8474,-13.7229],[-39.7824,-13.7502],[-39.7709,-13.784],[-39.7405,-13.7757],[-39.7276,-13.7706],[-39.6886,-13.8078],[-39.7009,-13.8354],[-39.7037,-13.8608],[-39.68,-13.8714],[-39.6945,-13.8916],[-39.705,-13.9095],[-39.7469,-13.9021],[-39.7403,-13.8942],[-39.7576,-13.884],[-39.7472,-13.8665],[-39.7794,-13.861],[-39.7822,-13.8437],[-39.7659,-13.8336],[-39.7832,-13.8154],[-39.7854,-13.8251],[-39.8129,-13.8032],[-39.8134,-13.7645],[-39.8278,-13.7471],[-39.8464,-13.7452],[-39.8497,-13.7111]]]]}},{"type":"Feature","properties":{"codarea":"2902252","centroide":[-39.41204270635803,-15.242483469133553],"codigo_ibge":2902252,"nome_ig":"Sul da Bahia"},"geometry":{"type":"MultiPolygon","coordinates":[[[[-39.3248,-15.3288],[-39.3648,-15.3525],[-39.3993,-15.3492],[-39.4034,-15.3329],[-39.4338,-15.3325],[-39.4276,-15.3171],[-39.4592,-15.3132],[-39.4606,-15.3276],[-39.4808,-15.3417],[-39.4852,-15.3073],[-39.4999,-15.2906],[-39.5213,-15.3004],[-39.5569,-15.292],[-39.5673,-15.3111],[-39.5787,-15.2875],[-39.5725,-15.2824],[-39.5716,-15.2322],[-39.5579,-15.2218],[-39.5426,-15.2418],[-39.4892,-15.2461],[-39.4816,-15.2069],[-39.4601,-15.2056],[-39.4541,-15.1744],[-39.4594,-15.154],[-39.4506,-15.144],[-39.4301,-15.1599],[-39.4063,-15.1333],[-39.3993,-15.1512],[-39.3703,-15.1262],[-39.3295,-15.113],[-39.3244,-15.1394],[-39.3302,-15.1576],[-39.315,-15.1574],[-39.3133,-15.1748],[-39.2984,-15.2044],[-39.3084,-15.2163],[-39.3062,-15.2606],[-39.3202,-15.2639],[-39.3028,-15.2779],[-39.3333,-15.2911],[-39.3402,-15.3193],[-39.3248,-15.3288]]]]}},{"type":"Feature","properties":{"codarea":"2902401","centroide":[-39.47777846194715,-14.362467258230401],"codigo_ibge":2902401,"nome_ig":"Sul da Bahia"},"geometry":{"type":"MultiPolygon","coordinates":[[[[-39.4425,-14.3044],[-39.4154,-14.2954],[-39.4071,-14.3101],[-39.3768,-14.2915],[-39.3664,-14.2785],[-39.3624,-14.3012],[-39.3433,-14.3141],[-39.2907,-14.3119],[-39.3078,-14.332],[-39.3339,-14.3874],[-39.3242,-14.3934],[-39.3288,-14.4329],[-39.3227,-14.46],[-39.3642,-14.4501],[-39.4901,-14.4196],[-39.4759,-14.3958],[-39.4965,-14.4112],[-39.5262,-14.4121],[-39.5357,-14.3928],[-39.5543,-14.3888],[-39.5904,-14.3953],[-39.6965,-14.3695],[-39.6825,-14.3572],[-39.6759,-14.3241],[-39.663,-14.3256],[-39.6607,-14.3103],[-39.6775,-14.3003],[-39.6662,-14.2812],[-39.6386,-14.267],[-39.6256,-14.2873],[-39.599,-14.311],[-39.5742,-14.2981],[-39.5519,-14.3057],[-39.5638,-14.3362],[-39.554,-14.346],[-39.5271,-14.3491],[-39.4999,-14.3352],[-39.4637,-14.3394],[-39.4611,-14.3212],[-39.4425,-14.3044]]]]}},{"type":"Feature","properties":{"codarea":"2903102","centroide":[-39.58906109999827,-14.103739626180978],"codigo_ibge":2903102,"nome_ig":"Sul da Bahia"},"geometry":{"type":"MultiPolygon","coordinates":[[[[-39.5456,-13.96],[-39.5316,-14.0059],[-39.5192,-14.0083],[-39.5312,-14.047],[-39.5431,-14.0576],[-39.5423,-14.0744],[-39.5541,-14.1142],[-39.5403,-14.1306],[-39.5605,-14.1463],[-39.5737,-14.1908],[-39.5761,-14.2163],[-39.5903,-14.2104],[-39.6104,-14.2185],[-39.6253,-14.2073],[-39.6466,-14.2064],[-39.6497,-14.217],[-39.6695,-14.2118],[-39.664,-14.1847],[-39.6674,-14.161],[-39.6527,-14.132],[-39.6298,-14.1147],[-39.61,-14.1145],[-39.6023,-14.0895],[-39.5856,-14.0789],[-39.6043,-14.0654],[-39.6052,-14.0483],[-39.589,-14.0347],[-39.5906,-14.0183],[-39.5715,-14.0064],[-39.5633,-13.9817],[-39.5801,-13.9581],[-39.5696,-13.9349],[-39.5561,-13.932],[-39.5456,-13.96]]]]}},{"type":"Feature","properties":{"codarea":"2903300","centroide":[-39.44435488368869,-14.776472868936498],"codigo_ibge":2903300,"nome_ig":"Sul da Bahia"},"geometry":{"type":"MultiPolygon","coordinates":[[[[-39.3434,-14.7238],[-39.3517,-14.7282],[-39.3553,-14.7593],[-39.3752,-14.7812],[-39.3855,-14.8067],[-39.3955,-14.8115],[-39.405,-14.8372],[-39.4769,-14.8511],[-39.4774,-14.822],[-39.5103,-14.8151],[-39.5098,-14.8003],[-39.5535,-14.7975],[-39.5536,-14.7783],[-39.5333,-14.7423],[-39.51,-14.7321],[-39.4496,-14.7663],[-39.432,-14.7387],[-39.4315,-14.7183],[-39.4101,-14.7168],[-39.3965,-14.6976],[-39.3854,-14.7176],[-39.3752,-14.7018],[-39.3434,-14.7238]]]]}},{"type":"Feature","properties":{"codarea":"2903409","centroide":[-39.17778412032575,-15.935680490006787],"codigo_ibge":2903409,"nome_ig":"Sul da Bahia"},"geometry":{"type":"MultiPolygon","coordinates":[[[[-38.9506,-16.0919],[-39.1505,-16.0522],[-39.1627,-16.0658],[-39.1953,-16.0734],[-39.2302,-16.0911],[-39.2794,-16.1321],[-39.303,-16.1109],[-39.37,-16.1238],[-39.4026,-16.098],[-39.4122,-16.0827],[-39.4329,-16.0768],[-39.433,-16.0768],[-39.4329,-16.0768],[-39.4028,-16.0452],[-39.3867,-16.0502],[-39.4186,-16.0197],[-39.4351,-15.9972],[-39.4526,-15.9855],[-39.4763,-15.9868],[-39.465,-15.9468],[-39.4864,-15.9058],[-39.4922,-15.8833],[-39.5725,-15.7945],[-39.5245,-15.8181],[-39.5159,-15.8093],[-39.4882,-15.8224],[-39.4853,-15.8387],[-39.4679,-15.834],[-39.4557,-15.8121],[-39.4352,-15.7924],[-39.4269,-15.8033],[-39.4004,-15.7939],[-39.3912,-15.7996],[-39.3869,-15.8249],[-39.3722,-15.8224],[-39.3559,-15.8497],[-39.3205,-15.8468],[-39.3153,-15.8391],[-39.2867,-15.8427],[-39.239,-15.797],[-39.2211,-15.803],[-39.2121,-15.7883],[-39.202,-15.803],[-39.1741,-15.8097],[-39.1622,-15.7968],[-39.1399,-15.799],[-39.122,-15.8103],[-39.1222,-15.8258],[-39.1067,-15.8242],[-39.0951,-15.8089],[-39.1065,-15.787],[-38.8999,-15.7681],[-38.8998,-15.7659],[-38.8936,-15.7708],[-38.8691,-15.8233],[-38.8563,-15.8593],[-38.8847,-15.9131],[-38.9199,-16.015],[-38.9506,-16.0919]]]]}},{"type":"Feature","properties":{"codarea":"2903706","centroide":[-40.230663388695824,-14.359462419834914],"codigo_ibge":2903706,"nome_ig":"Sul da Bahia"},"geometry":{"type":"MultiPolygon","coordinates":[[[[-40.0976,-14.2669],[-40.0981,-14.3035],[-40.0693,-14.3149],[-40.0717,-14.3429],[-40.0675,-14.3776],[-40.0357,-14.3914],[-40.0449,-14.4189],[-40.0374,-14.4379],[-40.0489,-14.4373],[-40.0595,-14.4862],[-40.08,-14.4861],[-40.0936,-14.5208],[-40.1193,-14.4907],[-40.1657,-14.4789],[-40.1792,-14.4812],[-40.1917,-14.4615],[-40.2378,-14.4419],[-40.2742,-14.4464],[-40.2948,-14.4393],[-40.3036,-14.4241],[-40.3749,-14.4059],[-40.3981,-14.3956],[-40.4258,-14.3833],[-40.5052,-14.3376],[-40.4733,-14.3078],[-40.4409,-14.2926],[-40.4345,-14.2983],[-40.4124,-14.2814],[-40.3922,-14.2847],[-40.3879,-14.2657],[-40.3751,-14.2741],[-40.3802,-14.2999],[-40.3545,-14.2902],[-40.3533,-14.2745],[-40.3286,-14.2828],[-40.2982,-14.2761],[-40.1958,-14.2393],[-40.1811,-14.2241],[-40.1628,-14.2533],[-40.1129,-14.2279],[-40.0976,-14.2669]]]]}},{"type":"Feature","properties":{"codarea":"2904704","centroide":[-39.269893521684125,-14.99570477035707],"codigo_ibge":2904704,"nome_ig":"Sul da Bahia"},"geometry":{"type":"MultiPolygon","coordinates":[[[[-39.163,-15.0526],[-39.1866,-15.0544],[-39.205,-15.0467],[-39.2194,-15.0555],[-39.236,-15.0484],[-39.2722,-15.0839],[-39.2936,-15.0723],[-39.2794,-15.058],[-39.3073,-15.0213],[-39.3251,-15.0166],[-39.366,-15.0324],[-39.3666,-15.0197],[-39.3541,-14.9895],[-39.3666,-14.9768],[-39.3563,-14.9667],[-39.3563,-14.9667],[-39.3281,-14.9318],[-39.3065,-14.9157],[-39.3019,-14.9298],[-39.2806,-14.9357],[-39.2599,-14.9309],[-39.2404,-14.9381],[-39.2112,-14.9088],[-39.2205,-14.9467],[-39.2012,-15.006],[-39.1704,-15.0231],[-39.163,-15.0526]]]]}},{"type":"Feature","properties":{"codarea":"2904803","centroide":[-40.32480772965362,-15.013002103103576],"codigo_ibge":2904803,"nome_ig":"Sul da Bahia"},"geometry":{"type":"MultiPolygon","coordinates":[[[[-40.296,-14.9349],[-40.2998,-14.9602],[-40.1385,-15.0082],[-40.1347,-15.0439],[-40.1123,-15.0531],[-40.0939,-15.1054],[-40.0956,-15.1107],[-40.1144,-15.1152],[-40.135,-15.1091],[-40.1285,-15.0914],[-40.1345,-15.0634],[-40.3013,-15.0882],[-40.422,-15.0478],[-40.5508,-15.0371],[-40.4339,-14.9195],[-40.4313,-14.9274],[-40.3885,-14.9287],[-40.3608,-14.9104],[-40.3368,-14.9432],[-40.3178,-14.9305],[-40.296,-14.9349]]]]}},{"type":"Feature","properties":{"codarea":"2905602","centroide":[-39.51816202246816,-15.443530120419933],"codigo_ibge":2905602,"nome_ig":"Sul da Bahia"},"geometry":{"type":"MultiPolygon","coordinates":[[[[-39.5935,-15.2731],[-39.5787,-15.2875],[-39.5673,-15.3111],[-39.5569,-15.292],[-39.5213,-15.3004],[-39.4999,-15.2906],[-39.4852,-15.3073],[-39.4808,-15.3417],[-39.4598,-15.3646],[-39.4658,-15.4023],[-39.4527,-15.4086],[-39.4389,-15.3867],[-39.4245,-15.3897],[-39.428,-15.4036],[-39.4145,-15.4178],[-39.3799,-15.4257],[-39.3689,-15.4454],[-39.3643,-15.4722],[-39.3776,-15.4561],[-39.3847,-15.4712],[-39.4195,-15.464],[-39.4342,-15.486],[-39.4402,-15.5245],[-39.4268,-15.5287],[-39.4039,-15.5571],[-39.4457,-15.5815],[-39.4668,-15.579],[-39.4772,-15.5511],[-39.5006,-15.5683],[-39.5109,-15.6008],[-39.5251,-15.6144],[-39.5829,-15.5926],[-39.5895,-15.5999],[-39.6185,-15.553],[-39.5707,-15.544],[-39.5478,-15.5255],[-39.572,-15.5186],[-39.58,-15.5006],[-39.6048,-15.4952],[-39.6136,-15.4705],[-39.5951,-15.4554],[-39.5767,-15.4261],[-39.5851,-15.3887],[-39.6004,-15.3818],[-39.5993,-15.3566],[-39.6251,-15.3491],[-39.6305,-15.3016],[-39.6402,-15.2936],[-39.6433,-15.2787],[-39.6262,-15.2686],[-39.5935,-15.2731]]]]}},{"type":"Feature","properties":{"codarea":"2905800","centroide":[-39.16341538032672,-14.012360577362713],"codigo_ibge":2905800,"nome_ig":"Sul da Bahia"},"geometry":{"type":"MultiPolygon","coordinates":[[[[-38.9536,-13.8741],[-38.9883,-13.8944],[-39.0004,-13.9268],[-38.9872,-13.9671],[-38.9892,-13.9905],[-38.9996,-14.0029],[-39.0047,-14.0321],[-38.9857,-14.0419],[-38.9824,-14.0739],[-39.0208,-14.0998],[-39.0519,-14.1088],[-39.0889,-14.1101],[-39.143,-14.0917],[-39.1654,-14.1021],[-39.1979,-14.1039],[-39.237,-14.1215],[-39.2458,-14.1183],[-39.2457,-14.1183],[-39.2458,-14.1183],[-39.2457,-14.1183],[-39.2748,-14.1375],[-39.346,-14.1482],[-39.3431,-14.1227],[-39.3303,-14.0892],[-39.3553,-14.0458],[-39.3543,-14.0311],[-39.3288,-13.9421],[-39.3018,-13.9492],[-39.2958,-13.9327],[-39.2836,-13.9472],[-39.2165,-13.9295],[-39.1984,-13.9112],[-39.1792,-13.9184],[-39.1669,-13.8935],[-39.1151,-13.887],[-39.0841,-13.8924],[-39.07,-13.915],[-39.043,-13.9177],[-39.0171,-13.905],[-39.0059,-13.8837],[-38.9667,-13.847],[-38.9536,-13.8741]]]]}},{"type":"Feature","properties":{"codarea":"2906303","centroide":[-39.109202793514044,-15.650896643178005],"codigo_ibge":2906303,"nome_ig":"Sul da Bahia"},"geometry":{"type":"MultiPolygon","coordinates":[[[[-38.9737,-15.3855],[-38.9534,-15.4592],[-38.9413,-15.5399],[-38.9446,-15.5564],[-38.9368,-15.6541],[-38.9219,-15.7108],[-38.9139,-15.7147],[-38.8998,-15.7659],[-38.8999,-15.7681],[-39.1065,-15.787],[-39.0951,-15.8089],[-39.1067,-15.8242],[-39.1222,-15.8258],[-39.122,-15.8103],[-39.1399,-15.799],[-39.1622,-15.7968],[-39.1741,-15.8097],[-39.202,-15.803],[-39.2121,-15.7883],[-39.2211,-15.803],[-39.239,-15.797],[-39.2867,-15.8427],[-39.3153,-15.8391],[-39.3205,-15.8468],[-39.3559,-15.8497],[-39.3178,-15.8248],[-39.3234,-15.7975],[-39.3391,-15.7737],[-39.3412,-15.7499],[-39.3632,-15.7437],[-39.3662,-15.7129],[-39.3508,-15.7058],[-39.3491,-15.6882],[-39.3248,-15.6618],[-39.2895,-15.6382],[-39.2761,-15.6407],[-39.2585,-15.6277],[-39.2334,-15.6212],[-39.2233,-15.6054],[-39.2021,-15.5921],[-39.1597,-15.6033],[-39.15,-15.5864],[-39.1545,-15.5729],[-39.1751,-15.5714],[-39.1664,-15.5366],[-39.1952,-15.5319],[-39.2077,-15.5107],[-39.1746,-15.5148],[-39.1421,-15.4934],[-39.1033,-15.4848],[-39.0888,-15.4689],[-39.0446,-15.4589],[-39.0206,-15.4371],[-39.0246,-15.4268],[-39.0238,-15.4082],[-39.0058,-15.3725],[-38.9966,-15.3871],[-38.9737,-15.3855]]]]}},{"type":"Feature","properties":{"codarea":"2908002","centroide":[-39.59227919372211,-14.63199871733814],"codigo_ibge":2908002,"nome_ig":"Sul da Bahia"},"geometry":{"type":"MultiPolygon","coordinates":[[[[-39.5333,-14.7423],[-39.5536,-14.7783],[-39.5835,-14.7844],[-39.5738,-14.76],[-39.5696,-14.7213],[-39.6196,-14.6621],[-39.6973,-14.6057],[-39.7191,-14.6016],[-39.7156,-14.578],[-39.7291,-14.5612],[-39.5505,-14.5617],[-39.511,-14.5476],[-39.5239,-14.6482],[-39.5116,-14.6578],[-39.5263,-14.679],[-39.5333,-14.7423]]]]}},{"type":"Feature","properties":{"codarea":"2909505","centroide":[-39.78397069428796,-13.424558590999219],"codigo_ibge":2909505,"nome_ig":"Sul da Bahia"},"geometry":{"type":"MultiPolygon","coordinates":[[[[-39.7528,-13.3699],[-39.7409,-13.3811],[-39.742,-13.4128],[-39.7239,-13.4122],[-39.7157,-13.4272],[-39.7112,-13.46],[-39.7294,-13.4895],[-39.7086,-13.4975],[-39.6952,-13.5124],[-39.6952,-13.5124],[-39.6952,-13.5125],[-39.7084,-13.5194],[-39.7264,-13.5031],[-39.7437,-13.5033],[-39.7728,-13.5176],[-39.7715,-13.4834],[-39.7852,-13.4768],[-39.7952,-13.456],[-39.8453,-13.4395],[-39.8773,-13.3913],[-39.8125,-13.337],[-39.7793,-13.3745],[-39.7528,-13.3699]]]]}},{"type":"Feature","properties":{"codarea":"2910008","centroide":[-39.98752926029816,-14.405241417527971],"codigo_ibge":2910008,"nome_ig":"Sul da Bahia"},"geometry":{"type":"MultiPolygon","coordinates":[[[[-40.0054,-14.2661],[-39.9823,-14.3216],[-39.9483,-14.3629],[-39.9057,-14.3653],[-39.8912,-14.3803],[-39.8601,-14.386],[-39.8502,-14.3748],[-39.8236,-14.3826],[-39.8236,-14.3825],[-39.8236,-14.3826],[-39.8325,-14.3944],[-39.8301,-14.4222],[-39.8376,-14.4434],[-39.8574,-14.4515],[-39.8721,-14.4331],[-39.9019,-14.4353],[-39.9201,-14.4689],[-39.944,-14.4795],[-39.9504,-14.4687],[-39.963,-14.4828],[-39.9827,-14.4925],[-39.9877,-14.5082],[-40.0084,-14.53],[-40.0329,-14.5381],[-40.051,-14.5284],[-40.0549,-14.5386],[-40.0882,-14.5338],[-40.0936,-14.5208],[-40.08,-14.4861],[-40.0595,-14.4862],[-40.0489,-14.4373],[-40.0374,-14.4379],[-40.0449,-14.4189],[-40.0357,-14.3914],[-40.0675,-14.3776],[-40.0717,-14.3429],[-40.0693,-14.3149],[-40.0981,-14.3035],[-40.0976,-14.2669],[-40.0907,-14.279],[-40.0711,-14.2453],[-40.0544,-14.2827],[-40.0339,-14.2807],[-40.014,-14.2887],[-40.0054,-14.2661]]]]}},{"type":"Feature","properties":{"codarea":"2910727","centroide":[-39.60593209228832,-16.29852690722185],"codigo_ibge":2910727,"nome_ig":"Sul da Bahia"},"geometry":{"type":"MultiPolygon","coordinates":[[[[-39.4026,-16.098],[-39.4206,-16.2328],[-39.3929,-16.2645],[-39.3826,-16.2688],[-39.398,-16.2832],[-39.4387,-16.2826],[-39.4416,-16.3266],[-39.4567,-16.3918],[-39.4828,-16.4073],[-39.5051,-16.444],[-39.519,-16.4953],[-39.5465,-16.4786],[-39.5889,-16.4718],[-39.6035,-16.4591],[-39.6197,-16.4788],[-39.6426,-16.4878],[-39.6511,-16.505],[-39.6829,-16.504],[-39.6984,-16.5126],[-39.6984,-16.5478],[-39.7407,-16.5032],[-39.7349,-16.4712],[-39.7243,-16.462],[-39.7204,-16.4369],[-39.743,-16.4524],[-39.7639,-16.4426],[-39.7731,-16.4122],[-39.7557,-16.3936],[-39.7786,-16.3542],[-39.8186,-16.3211],[-39.8426,-16.295],[-39.8638,-16.2527],[-39.8454,-16.2354],[-39.8315,-16.2373],[-39.7531,-16.1972],[-39.5952,-16.1536],[-39.5439,-16.1163],[-39.5284,-16.124],[-39.5104,-16.0968],[-39.4929,-16.083],[-39.4695,-16.0943],[-39.433,-16.0768],[-39.4329,-16.0768],[-39.4122,-16.0827],[-39.4026,-16.098]]]]}},{"type":"Feature","properties":{"codarea":"2910909","centroide":[-39.91138975939354,-14.931303847113387],"codigo_ibge":2910909,"nome_ig":"Sul da Bahia"},"geometry":{"type":"MultiPolygon","coordinates":[[[[-39.8748,-14.8176],[-39.8817,-14.8658],[-39.8625,-14.9783],[-39.8848,-15.0129],[-39.8977,-15.0335],[-39.9103,-15.0334],[-39.9765,-14.9589],[-39.9681,-14.9344],[-39.9591,-14.9349],[-39.9443,-14.9095],[-39.9379,-14.8774],[-39.9405,-14.8555],[-39.921,-14.8466],[-39.9128,-14.8137],[-39.8983,-14.8252],[-39.8748,-14.8176]]]]}},{"type":"Feature","properties":{"codarea":"2911006","centroide":[-39.717253505133456,-14.841467603486887],"codigo_ibge":2911006,"nome_ig":"Sul da Bahia"},"geometry":{"type":"MultiPolygon","coordinates":[[[[-39.6576,-14.7696],[-39.6642,-14.7908],[-39.6486,-14.8121],[-39.6439,-14.847],[-39.6377,-14.8479],[-39.6382,-14.9173],[-39.6671,-14.9408],[-39.6784,-14.9386],[-39.6993,-14.9344],[-39.6889,-14.9526],[-39.6956,-14.965],[-39.7171,-14.9732],[-39.7367,-14.9117],[-39.7743,-14.907],[-39.776,-14.8929],[-39.7974,-14.8835],[-39.7951,-14.8502],[-39.8015,-14.8315],[-39.7837,-14.8041],[-39.7881,-14.7794],[-39.7793,-14.7418],[-39.7849,-14.7303],[-39.7494,-14.7433],[-39.7528,-14.7168],[-39.6576,-14.7696]]]]}},{"type":"Feature","properties":{"codarea":"2911204","centroide":[-39.48196129665732,-13.787505553953219],"codigo_ibge":2911204,"nome_ig":"Sul da Bahia"},"geometry":{"type":"MultiPolygon","coordinates":[[[[-39.4397,-13.7244],[-39.3798,-13.7145],[-39.3934,-13.7286],[-39.4064,-13.7647],[-39.4387,-13.8022],[-39.4322,-13.8447],[-39.448,-13.8916],[-39.4702,-13.8758],[-39.4901,-13.8794],[-39.4997,-13.8521],[-39.5146,-13.8623],[-39.5375,-13.8621],[-39.5446,-13.8417],[-39.5564,-13.8374],[-39.5297,-13.8042],[-39.5652,-13.7554],[-39.5537,-13.7271],[-39.4804,-13.7108],[-39.4397,-13.7244]]]]}},{"type":"Feature","properties":{"codarea":"2911501","centroide":[-39.582222741448504,-14.281225483112182],"codigo_ibge":2911501,"nome_ig":"Sul da Bahia"},"geometry":{"type":"MultiPolygon","coordinates":[[[[-39.664,-14.1847],[-39.6695,-14.2118],[-39.6497,-14.217],[-39.6466,-14.2064],[-39.6253,-14.2073],[-39.6104,-14.2185],[-39.5903,-14.2104],[-39.5761,-14.2163],[-39.5746,-14.233],[-39.5756,-14.2518],[-39.4926,-14.2808],[-39.4425,-14.3044],[-39.4611,-14.3212],[-39.4637,-14.3394],[-39.4999,-14.3352],[-39.5271,-14.3491],[-39.554,-14.346],[-39.5638,-14.3362],[-39.5519,-14.3057],[-39.5742,-14.2981],[-39.599,-14.311],[-39.6256,-14.2873],[-39.6386,-14.267],[-39.6662,-14.2812],[-39.6775,-14.3003],[-39.6607,-14.3103],[-39.663,-14.3256],[-39.6759,-14.3241],[-39.6825,-14.3572],[-39.6965,-14.3695],[-39.6882,-14.2953],[-39.6658,-14.1845],[-39.664,-14.1847]]]]}},{"type":"Feature","properties":{"codarea":"2911808","centroide":[-39.937146158919845,-16.552819521058314],"codigo_ibge":2911808,"nome_ig":"Sul da Bahia"},"geometry":{"type":"MultiPolygon","coordinates":[[[[-39.8638,-16.2527],[-39.8426,-16.295],[-39.8186,-16.3211],[-39.7786,-16.3542],[-39.7557,-16.3936],[-39.7731,-16.4122],[-39.7639,-16.4426],[-39.743,-16.4524],[-39.7204,-16.4369],[-39.7243,-16.462],[-39.7349,-16.4712],[-39.7407,-16.5032],[-39.6984,-16.5478],[-39.6481,-16.572],[-39.6761,-16.6736],[-39.6681,-16.6946],[-39.6761,-16.7311],[-39.6629,-16.7536],[-39.6607,-16.7808],[-39.6849,-16.7483],[-39.6811,-16.7374],[-39.6976,-16.7287],[-39.7214,-16.7306],[-39.725,-16.7442],[-39.7503,-16.7487],[-39.7676,-16.7335],[-39.8146,-16.7636],[-39.8444,-16.7622],[-39.8542,-16.7521],[-39.8845,-16.7444],[-39.8902,-16.7259],[-39.9173,-16.7338],[-39.9451,-16.726],[-39.9677,-16.73],[-39.9758,-16.7056],[-39.9965,-16.7119],[-40.0085,-16.7018],[-40.0236,-16.7138],[-40.0369,-16.7039],[-40.0545,-16.7176],[-40.0767,-16.7065],[-40.0784,-16.6867],[-40.1269,-16.6791],[-40.1394,-16.7148],[-40.1633,-16.7117],[-40.1568,-16.6956],[-40.2034,-16.696],[-40.2474,-16.7156],[-40.2669,-16.6999],[-40.2617,-16.6836],[-40.2828,-16.6728],[-40.2963,-16.698],[-40.307,-16.6967],[-40.3131,-16.6786],[-40.2982,-16.6524],[-40.2876,-16.6006],[-40.2754,-16.5734],[-40.2603,-16.5743],[-40.2341,-16.5579],[-40.2129,-16.5726],[-40.1578,-16.5794],[-40.1531,-16.5648],[-40.1703,-16.523],[-40.1338,-16.4878],[-40.1102,-16.4492],[-40.0965,-16.4212],[-40.097,-16.448],[-40.0839,-16.4639],[-40.0657,-16.4575],[-40.0618,-16.4313],[-40.0455,-16.422],[-40.0172,-16.3478],[-39.9955,-16.3306],[-39.99,-16.3121],[-39.9783,-16.3111],[-39.9666,-16.3272],[-39.9542,-16.3],[-39.9326,-16.2836],[-39.9178,-16.2842],[-39.9039,-16.2856],[-39.8888,-16.2445],[-39.8638,-16.2527]]]]}},{"type":"Feature","properties":{"codarea":"2912103","centroide":[-39.56833105072865,-14.848961529380038],"codigo_ibge":2912103,"nome_ig":"Sul da Bahia"},"geometry":{"type":"MultiPolygon","coordinates":[[[[-39.5835,-14.7844],[-39.5536,-14.7783],[-39.5535,-14.7975],[-39.5098,-14.8003],[-39.5103,-14.8151],[-39.4774,-14.822],[-39.4769,-14.8511],[-39.4713,-14.8909],[-39.4967,-14.9092],[-39.5211,-14.8941],[-39.5275,-14.9068],[-39.5565,-14.9195],[-39.565,-14.9068],[-39.6031,-14.9039],[-39.6216,-14.9276],[-39.6382,-14.9173],[-39.6377,-14.8479],[-39.6439,-14.847],[-39.6486,-14.8121],[-39.6642,-14.7908],[-39.6576,-14.7696],[-39.6196,-14.7886],[-39.5835,-14.7844]]]]}},{"type":"Feature","properties":{"codarea":"2912301","centroide":[-39.86311774063685,-14.641705358422357],"codigo_ibge":2912301,"nome_ig":"Sul da Bahia"},"geometry":{"type":"MultiPolygon","coordinates":[[[[-39.6965,-14.3695],[-39.7161,-14.4117],[-39.703,-14.4346],[-39.7184,-14.4841],[-39.733,-14.5161],[-39.7353,-14.5552],[-39.7291,-14.5612],[-39.7156,-14.578],[-39.7191,-14.6016],[-39.7315,-14.6418],[-39.7457,-14.6584],[-39.7528,-14.7168],[-39.7494,-14.7433],[-39.7849,-14.7303],[-39.7793,-14.7418],[-39.822,-14.7474],[-39.8318,-14.7758],[-39.8691,-14.7918],[-39.8748,-14.8176],[-39.8983,-14.8252],[-39.9128,-14.8137],[-39.921,-14.8466],[-39.9405,-14.8555],[-39.9379,-14.8774],[-39.9443,-14.9095],[-39.9591,-14.9349],[-39.9681,-14.9344],[-39.9765,-14.9589],[-40.0016,-14.9748],[-40.0447,-14.9497],[-40.0375,-14.93],[-40.0381,-14.8899],[-40.0456,-14.8745],[-40.0246,-14.8185],[-40.0149,-14.7872],[-40.0343,-14.755],[-40.0224,-14.731],[-39.9919,-14.7258],[-39.9752,-14.7097],[-39.9806,-14.6941],[-39.9506,-14.6678],[-39.9406,-14.6864],[-39.9001,-14.6704],[-39.8993,-14.6404],[-39.8871,-14.6298],[-39.8735,-14.5907],[-39.963,-14.4828],[-39.9504,-14.4687],[-39.944,-14.4795],[-39.9201,-14.4689],[-39.9019,-14.4353],[-39.8721,-14.4331],[-39.8574,-14.4515],[-39.8376,-14.4434],[-39.8301,-14.4222],[-39.8325,-14.3944],[-39.8236,-14.3826],[-39.8236,-14.3825],[-39.7893,-14.3505],[-39.7644,-14.3595],[-39.7414,-14.3475],[-39.7458,-14.3698],[-39.6965,-14.3695]]]]}},{"type":"Feature","properties":{"codarea":"2912707","centroide":[-39.434677951486776,-14.060834724650805],"codigo_ibge":2912707,"nome_ig":"Sul da Bahia"},"geometry":{"type":"MultiPolygon","coordinates":[[[[-39.448,-13.8916],[-39.4211,-13.9059],[-39.413,-13.8885],[-39.3987,-13.9086],[-39.3754,-13.916],[-39.3818,-13.9411],[-39.3973,-13.9676],[-39.3913,-13.9912],[-39.4033,-13.9864],[-39.4043,-14.0236],[-39.3827,-14.0273],[-39.3655,-14.05],[-39.3553,-14.0458],[-39.3303,-14.0892],[-39.3431,-14.1227],[-39.346,-14.1482],[-39.3723,-14.1748],[-39.3943,-14.1768],[-39.4438,-14.1999],[-39.4441,-14.2415],[-39.462,-14.229],[-39.4956,-14.2384],[-39.5155,-14.2207],[-39.5156,-14.2078],[-39.4919,-14.1518],[-39.4867,-14.1194],[-39.4707,-14.1067],[-39.4995,-14.0834],[-39.4883,-14.0548],[-39.5061,-14.0421],[-39.4861,-14.0271],[-39.4801,-13.9806],[-39.4908,-13.974],[-39.4877,-13.9347],[-39.5135,-13.933],[-39.5292,-13.9154],[-39.5027,-13.9048],[-39.4901,-13.8794],[-39.4702,-13.8758],[-39.448,-13.8916]]]]}},{"type":"Feature","properties":{"codarea":"2912905","centroide":[-39.6254057177731,-13.974906518387096],"codigo_ibge":2912905,"nome_ig":"Sul da Bahia"},"geometry":{"type":"MultiPolygon","coordinates":[[[[-39.5292,-13.9154],[-39.5135,-13.933],[-39.5097,-13.9507],[-39.5203,-13.9658],[-39.5456,-13.96],[-39.5561,-13.932],[-39.5696,-13.9349],[-39.5801,-13.9581],[-39.5633,-13.9817],[-39.5715,-14.0064],[-39.5906,-14.0183],[-39.589,-14.0347],[-39.6052,-14.0483],[-39.6043,-14.0654],[-39.5856,-14.0789],[-39.6023,-14.0895],[-39.61,-14.1145],[-39.6298,-14.1147],[-39.6527,-14.132],[-39.672,-14.0953],[-39.6675,-14.057],[-39.6803,-14.0518],[-39.6775,-14.033],[-39.6611,-14.0083],[-39.7072,-13.9664],[-39.7074,-13.938],[-39.6892,-13.9171],[-39.6945,-13.8916],[-39.68,-13.8714],[-39.6676,-13.8761],[-39.6262,-13.8668],[-39.6212,-13.8571],[-39.5946,-13.8671],[-39.5956,-13.8802],[-39.5512,-13.8977],[-39.5508,-13.9191],[-39.5292,-13.9154]]]]}},{"type":"Feature","properties":{"codarea":"2913457","centroide":[-39.20478670808532,-13.870416156537058],"codigo_ibge":2913457,"nome_ig":"Sul da Bahia"},"geometry":{"type":"MultiPolygon","coordinates":[[[[-38.9704,-13.8417],[-38.9667,-13.847],[-39.0059,-13.8837],[-39.0171,-13.905],[-39.043,-13.9177],[-39.07,-13.915],[-39.0841,-13.8924],[-39.1151,-13.887],[-39.1669,-13.8935],[-39.1792,-13.9184],[-39.1984,-13.9112],[-39.2165,-13.9295],[-39.2836,-13.9472],[-39.2958,-13.9327],[-39.3018,-13.9492],[-39.3288,-13.9421],[-39.3543,-14.0311],[-39.3553,-14.0458],[-39.3655,-14.05],[-39.3827,-14.0273],[-39.4043,-14.0236],[-39.4033,-13.9864],[-39.3913,-13.9912],[-39.3973,-13.9676],[-39.3818,-13.9411],[-39.3754,-13.916],[-39.3987,-13.9086],[-39.3848,-13.9042],[-39.3661,-13.8532],[-39.3453,-13.828],[-39.3175,-13.8294],[-39.2806,-13.8452],[-39.2607,-13.8376],[-39.2546,-13.8137],[-39.1814,-13.8005],[-39.176,-13.7849],[-39.1479,-13.7678],[-39.149,-13.7517],[-39.1251,-13.7179],[-39.1104,-13.7243],[-39.1013,-13.7492],[-39.0708,-13.7597],[-39.0374,-13.8318],[-39.0134,-13.846],[-38.9704,-13.8417]]]]}},{"type":"Feature","properties":{"codarea":"2913507","centroide":[-40.06646368420452,-14.632369982510609],"codigo_ibge":2913507,"nome_ig":"Sul da Bahia"},"geometry":{"type":"MultiPolygon","coordinates":[[[[-40.0936,-14.5208],[-40.0882,-14.5338],[-40.0549,-14.5386],[-40.051,-14.5284],[-40.0329,-14.5381],[-40.0084,-14.53],[-39.9877,-14.5082],[-39.9827,-14.4925],[-39.963,-14.4828],[-39.8735,-14.5907],[-39.8871,-14.6298],[-39.8993,-14.6404],[-39.9001,-14.6704],[-39.9406,-14.6864],[-39.9506,-14.6678],[-39.9806,-14.6941],[-39.9752,-14.7097],[-39.9919,-14.7258],[-40.0224,-14.731],[-40.0343,-14.755],[-40.0149,-14.7872],[-40.0246,-14.8185],[-40.0888,-14.769],[-40.1123,-14.7869],[-40.1358,-14.759],[-40.1517,-14.7645],[-40.1754,-14.759],[-40.2081,-14.7424],[-40.2075,-14.7035],[-40.2209,-14.6733],[-40.2291,-14.6498],[-40.2154,-14.6011],[-40.2057,-14.5873],[-40.1995,-14.5419],[-40.1916,-14.5402],[-40.1875,-14.5131],[-40.1752,-14.5104],[-40.1657,-14.4789],[-40.1193,-14.4907],[-40.0936,-14.5208]]]]}},{"type":"Feature","properties":{"codarea":"2913606","centroide":[-39.192104486237525,-14.753074414972136],"codigo_ibge":2913606,"nome_ig":"Sul da Bahia"},"geometry":{"type":"MultiPolygon","coordinates":[[[[-39.3642,-14.4501],[-39.3714,-14.4776],[-39.3939,-14.523],[-39.3813,-14.5145],[-39.3985,-14.5472],[-39.3976,-14.5574],[-39.3729,-14.5621],[-39.3606,-14.5739],[-39.3645,-14.6089],[-39.3469,-14.6216],[-39.2721,-14.638],[-39.1944,-14.6099],[-39.1807,-14.5913],[-39.1766,-14.5687],[-39.1415,-14.5421],[-39.1452,-14.5298],[-39.0736,-14.5202],[-39.0417,-14.4981],[-39.0356,-14.515],[-39.0359,-14.5329],[-39.0477,-14.5671],[-39.0641,-14.6375],[-39.0649,-14.7224],[-39.0516,-14.7762],[-39.031,-14.786],[-39.0242,-14.8059],[-39.0247,-14.8491],[-39.0188,-14.9233],[-38.9981,-14.9867],[-38.9968,-15.0851],[-39.0208,-15.0915],[-39.0331,-15.1057],[-39.0633,-15.1118],[-39.0823,-15.0961],[-39.0815,-15.08],[-39.1193,-15.057],[-39.1316,-15.0358],[-39.1588,-15.0588],[-39.163,-15.0526],[-39.1704,-15.0231],[-39.2012,-15.006],[-39.2205,-14.9467],[-39.2112,-14.9088],[-39.191,-14.8981],[-39.2201,-14.885],[-39.2231,-14.8716],[-39.2076,-14.8444],[-39.2357,-14.8482],[-39.2405,-14.8577],[-39.2471,-14.7583],[-39.2617,-14.7557],[-39.2907,-14.6928],[-39.3501,-14.6556],[-39.3548,-14.6606],[-39.3959,-14.6384],[-39.3959,-14.6384],[-39.4043,-14.6282],[-39.4496,-14.6128],[-39.511,-14.5476],[-39.5505,-14.5617],[-39.5355,-14.5237],[-39.5247,-14.5187],[-39.5108,-14.4751],[-39.5113,-14.4514],[-39.4901,-14.4196],[-39.3642,-14.4501]]]]}},{"type":"Feature","properties":{"codarea":"2913903","centroide":[-39.72689616475234,-14.055832487711504],"codigo_ibge":2913903,"nome_ig":"Sul da Bahia"},"geometry":{"type":"MultiPolygon","coordinates":[[[[-39.6527,-14.132],[-39.6674,-14.161],[-39.664,-14.1847],[-39.6899,-14.176],[-39.6998,-14.1526],[-39.7272,-14.1469],[-39.7711,-14.1224],[-39.7756,-14.1068],[-39.812,-14.1021],[-39.8312,-14.0824],[-39.8266,-14.0724],[-39.8082,-14.0766],[-39.8,-14.0595],[-39.7917,-14.041],[-39.7933,-14.0112],[-39.7612,-13.9914],[-39.735,-13.9318],[-39.705,-13.9095],[-39.6945,-13.8916],[-39.6892,-13.9171],[-39.7074,-13.938],[-39.7072,-13.9664],[-39.6611,-14.0083],[-39.6775,-14.033],[-39.6803,-14.0518],[-39.6675,-14.057],[-39.672,-14.0953],[-39.6527,-14.132]]]]}},{"type":"Feature","properties":{"codarea":"2914653","centroide":[-39.551782802844514,-16.662393887879904],"codigo_ibge":2914653,"nome_ig":"Sul da Bahia"},"geometry":{"type":"MultiPolygon","coordinates":[[[[-39.519,-16.4953],[-39.5095,-16.5067],[-39.4533,-16.5407],[-39.4223,-16.5516],[-39.4553,-16.5807],[-39.4733,-16.5797],[-39.4829,-16.6106],[-39.4448,-16.6379],[-39.3933,-16.7114],[-39.3751,-16.7205],[-39.3483,-16.7714],[-39.3374,-16.7845],[-39.3556,-16.7835],[-39.413,-16.748],[-39.4411,-16.7446],[-39.4707,-16.7634],[-39.4856,-16.796],[-39.4795,-16.8308],[-39.5046,-16.872],[-39.5234,-16.8693],[-39.5126,-16.8406],[-39.55,-16.8373],[-39.5839,-16.8534],[-39.606,-16.835],[-39.6368,-16.7941],[-39.6607,-16.7808],[-39.6629,-16.7536],[-39.6761,-16.7311],[-39.6681,-16.6946],[-39.6761,-16.6736],[-39.6481,-16.572],[-39.6984,-16.5478],[-39.6984,-16.5126],[-39.6829,-16.504],[-39.6511,-16.505],[-39.6426,-16.4878],[-39.6197,-16.4788],[-39.6035,-16.4591],[-39.5889,-16.4718],[-39.5465,-16.4786],[-39.519,-16.4953]]]]}},{"type":"Feature","properties":{"codarea":"2914802","centroide":[-39.31309752995195,-14.851089926270895],"codigo_ibge":2914802,"nome_ig":"Sul da Bahia"},"geometry":{"type":"MultiPolygon","coordinates":[[[[-39.2907,-14.6928],[-39.2617,-14.7557],[-39.2471,-14.7583],[-39.2405,-14.8577],[-39.2357,-14.8482],[-39.2076,-14.8444],[-39.2231,-14.8716],[-39.2201,-14.885],[-39.191,-14.8981],[-39.2112,-14.9088],[-39.2404,-14.9381],[-39.2599,-14.9309],[-39.2806,-14.9357],[-39.3019,-14.9298],[-39.3065,-14.9157],[-39.3281,-14.9318],[-39.3563,-14.9667],[-39.3563,-14.9667],[-39.3666,-14.9768],[-39.3541,-14.9895],[-39.3666,-15.0197],[-39.3862,-15.0271],[-39.4041,-15.0236],[-39.4124,-15.0332],[-39.4189,-15.0119],[-39.3931,-14.9729],[-39.365,-14.8971],[-39.3597,-14.8651],[-39.3647,-14.8515],[-39.3945,-14.8578],[-39.405,-14.8372],[-39.3955,-14.8115],[-39.3855,-14.8067],[-39.3752,-14.7812],[-39.3553,-14.7593],[-39.3517,-14.7282],[-39.3434,-14.7238],[-39.2907,-14.6928]]]]}},{"type":"Feature","properties":{"codarea":"2914901","centroide":[-39.157197033779745,-14.362270639326454],"codigo_ibge":2914901,"nome_ig":"Sul da Bahia"},"geometry":{"type":"MultiPolygon","coordinates":[[[[-39.0179,-14.4184],[-39.0429,-14.4193],[-39.0424,-14.4015],[-39.0621,-14.4189],[-39.0932,-14.4337],[-39.0949,-14.4501],[-39.11,-14.4525],[-39.1317,-14.4888],[-39.3227,-14.46],[-39.3288,-14.4329],[-39.3242,-14.3934],[-39.3339,-14.3874],[-39.3078,-14.332],[-39.2907,-14.3119],[-39.2704,-14.306],[-39.2648,-14.2906],[-39.2226,-14.2642],[-39.2043,-14.2714],[-39.1605,-14.2749],[-39.1378,-14.2674],[-39.1373,-14.258],[-39.0965,-14.2534],[-39.0735,-14.2458],[-39.0476,-14.252],[-39.0282,-14.2473],[-39.0191,-14.2295],[-38.9957,-14.2337],[-38.9894,-14.2189],[-38.9941,-14.2669],[-38.9835,-14.2762],[-38.9814,-14.2997],[-38.9912,-14.3137],[-39.0179,-14.4184]]]]}},{"type":"Feature","properties":{"codarea":"2915106","centroide":[-40.02506117271647,-14.161489920433372],"codigo_ibge":2915106,"nome_ig":"Sul da Bahia"},"geometry":{"type":"MultiPolygon","coordinates":[[[[-39.9371,-14.0786],[-39.9429,-14.0862],[-39.9494,-14.1521],[-39.9355,-14.1546],[-39.936,-14.1735],[-39.9767,-14.1627],[-39.9872,-14.2009],[-39.9831,-14.209],[-39.9987,-14.267],[-40.0054,-14.2661],[-40.014,-14.2887],[-40.0339,-14.2807],[-40.0544,-14.2827],[-40.0711,-14.2453],[-40.0907,-14.279],[-40.0976,-14.2669],[-40.0987,-14.2439],[-40.0821,-14.2137],[-40.1003,-14.1792],[-40.1127,-14.1721],[-40.1016,-14.1341],[-40.08,-14.1215],[-40.0497,-14.0653],[-40.0274,-14.049],[-40.0085,-14.0655],[-39.9905,-14.0499],[-39.947,-14.0675],[-39.9371,-14.0786]]]]}},{"type":"Feature","properties":{"codarea":"2915205","centroide":[-39.83035917361647,-14.252161918990652],"codigo_ibge":2915205,"nome_ig":"Sul da Bahia"},"geometry":{"type":"MultiPolygon","coordinates":[[[[-39.664,-14.1847],[-39.6658,-14.1845],[-39.6882,-14.2953],[-39.6965,-14.3695],[-39.7458,-14.3698],[-39.7414,-14.3475],[-39.7644,-14.3595],[-39.7893,-14.3505],[-39.8236,-14.3825],[-39.8236,-14.3826],[-39.8502,-14.3748],[-39.8601,-14.386],[-39.8912,-14.3803],[-39.9057,-14.3653],[-39.9483,-14.3629],[-39.9823,-14.3216],[-40.0054,-14.2661],[-39.9987,-14.267],[-39.9831,-14.209],[-39.9872,-14.2009],[-39.9767,-14.1627],[-39.936,-14.1735],[-39.9202,-14.1833],[-39.9005,-14.1583],[-39.8852,-14.1275],[-39.8829,-14.1421],[-39.8606,-14.1461],[-39.8213,-14.104],[-39.812,-14.1021],[-39.7756,-14.1068],[-39.7711,-14.1224],[-39.7272,-14.1469],[-39.6998,-14.1526],[-39.6899,-14.176],[-39.664,-14.1847]]]]}},{"type":"Feature","properties":{"codarea":"2915304","centroide":[-39.73808538502714,-16.096168430057013],"codigo_ibge":2915304,"nome_ig":"Sul da Bahia"},"geometry":{"type":"MultiPolygon","coordinates":[[[[-39.4695,-16.0943],[-39.4929,-16.083],[-39.5104,-16.0968],[-39.5284,-16.124],[-39.5439,-16.1163],[-39.5952,-16.1536],[-39.7531,-16.1972],[-39.8315,-16.2373],[-39.8454,-16.2354],[-39.8638,-16.2527],[-39.8888,-16.2445],[-39.9039,-16.2856],[-39.9178,-16.2842],[-39.9201,-16.2637],[-39.9357,-16.2438],[-39.8984,-16.2013],[-39.8833,-16.1946],[-39.8829,-16.1637],[-39.8969,-16.1416],[-39.8842,-16.1448],[-39.8568,-16.1138],[-39.8769,-16.0923],[-39.8839,-16.0659],[-39.9221,-16.0286],[-39.9356,-16.0237],[-39.9147,-15.9999],[-39.8668,-15.997],[-39.8433,-15.9765],[-39.8141,-15.9798],[-39.7853,-15.9687],[-39.7487,-15.9721],[-39.6157,-16.0072],[-39.6088,-16.0224],[-39.5564,-16.0319],[-39.4864,-16.0598],[-39.4695,-16.0943]]]]}},{"type":"Feature","properties":{"codarea":"2915403","centroide":[-39.731834483041894,-15.148092053508838],"codigo_ibge":2915403,"nome_ig":"Sul da Bahia"},"geometry":{"type":"MultiPolygon","coordinates":[[[[-39.6784,-14.9386],[-39.6598,-14.9477],[-39.6444,-14.9703],[-39.5974,-14.989],[-39.5943,-15.0064],[-39.5719,-15.0353],[-39.5697,-15.0472],[-39.5725,-15.1101],[-39.5868,-15.1347],[-39.5681,-15.1479],[-39.5741,-15.1734],[-39.5668,-15.1925],[-39.5926,-15.2418],[-39.5935,-15.2731],[-39.6262,-15.2686],[-39.6433,-15.2787],[-39.6402,-15.2936],[-39.6541,-15.2815],[-39.6636,-15.3068],[-39.6905,-15.3026],[-39.685,-15.3368],[-39.7005,-15.3416],[-39.7067,-15.3576],[-39.7186,-15.3517],[-39.7407,-15.3857],[-39.7468,-15.3707],[-39.7658,-15.3669],[-39.7885,-15.3746],[-39.8103,-15.3246],[-39.8476,-15.311],[-39.8955,-15.1017],[-39.8969,-15.0529],[-39.9103,-15.0334],[-39.8977,-15.0335],[-39.8848,-15.0129],[-39.8577,-15.0046],[-39.8541,-14.9915],[-39.836,-15.0021],[-39.8138,-14.9712],[-39.7836,-14.9897],[-39.7672,-14.9913],[-39.7449,-14.977],[-39.7332,-14.9837],[-39.6878,-14.9716],[-39.6889,-14.9526],[-39.6993,-14.9344],[-39.6784,-14.9386]]]]}},{"type":"Feature","properties":{"codarea":"2915502","centroide":[-39.44409402027407,-14.672142029493756],"codigo_ibge":2915502,"nome_ig":"Sul da Bahia"},"geometry":{"type":"MultiPolygon","coordinates":[[[[-39.2907,-14.6928],[-39.3434,-14.7238],[-39.3752,-14.7018],[-39.3854,-14.7176],[-39.3965,-14.6976],[-39.4101,-14.7168],[-39.4315,-14.7183],[-39.432,-14.7387],[-39.4496,-14.7663],[-39.51,-14.7321],[-39.5333,-14.7423],[-39.5263,-14.679],[-39.5116,-14.6578],[-39.5239,-14.6482],[-39.511,-14.5476],[-39.4496,-14.6128],[-39.4043,-14.6282],[-39.3959,-14.6384],[-39.3959,-14.6384],[-39.3548,-14.6606],[-39.3501,-14.6556],[-39.2907,-14.6928]]]]}},{"type":"Feature","properties":{"codarea":"2915601","centroide":[-39.76447947306232,-17.009282303897773],"codigo_ibge":2915601,"nome_ig":"Sul da Bahia"},"geometry":{"type":"MultiPolygon","coordinates":[[[[-39.6607,-16.7808],[-39.6368,-16.7941],[-39.606,-16.835],[-39.5839,-16.8534],[-39.55,-16.8373],[-39.5126,-16.8406],[-39.5234,-16.8693],[-39.5046,-16.872],[-39.4918,-16.891],[-39.5052,-16.9022],[-39.4907,-16.9244],[-39.4691,-16.9243],[-39.4415,-16.8938],[-39.4416,-16.8943],[-39.4486,-16.9157],[-39.4473,-16.9523],[-39.4372,-16.9811],[-39.4752,-16.9525],[-39.4858,-16.9731],[-39.492,-17.0205],[-39.4802,-17.0481],[-39.4922,-17.0873],[-39.4754,-17.1024],[-39.4851,-17.1307],[-39.5012,-17.1425],[-39.5287,-17.1185],[-39.5701,-17.1334],[-39.5676,-17.1516],[-39.5803,-17.1827],[-39.5959,-17.1794],[-39.6022,-17.1569],[-39.6258,-17.16],[-39.6596,-17.1819],[-39.6952,-17.1763],[-39.718,-17.207],[-39.7478,-17.2073],[-39.7711,-17.2241],[-39.8073,-17.2288],[-39.8112,-17.2217],[-39.8356,-17.2419],[-39.8583,-17.2419],[-39.9012,-17.23],[-39.906,-17.2125],[-39.9355,-17.2011],[-39.9555,-17.2093],[-39.9824,-17.1873],[-39.9924,-17.1551],[-40.0126,-17.1486],[-40.0186,-17.1358],[-40.0568,-17.1137],[-40.0769,-17.0825],[-40.0679,-17.0749],[-40.0777,-17.0516],[-40.0794,-17.0247],[-40.0594,-16.9941],[-40.066,-16.9872],[-40.0439,-16.9582],[-40.0512,-16.9479],[-40.0296,-16.9492],[-40.0277,-16.9362],[-40.0098,-16.94],[-39.9903,-16.8948],[-39.9927,-16.8705],[-39.9712,-16.8736],[-39.9458,-16.8466],[-39.931,-16.8671],[-39.9123,-16.8756],[-39.8866,-16.8469],[-39.8448,-16.8359],[-39.8365,-16.8491],[-39.8136,-16.8471],[-39.7954,-16.861],[-39.7674,-16.8688],[-39.7689,-16.7835],[-39.7592,-16.7607],[-39.7676,-16.7335],[-39.7503,-16.7487],[-39.725,-16.7442],[-39.7214,-16.7306],[-39.6976,-16.7287],[-39.6811,-16.7374],[-39.6849,-16.7483],[-39.6607,-16.7808]]]]}},{"type":"Feature","properties":{"codarea":"2915700","centroide":[-39.66707341470926,-13.766377120953514],"codigo_ibge":2915700,"nome_ig":"Sul da Bahia"},"geometry":{"type":"MultiPolygon","coordinates":[[[[-39.5978,-13.7193],[-39.6217,-13.7576],[-39.6209,-13.7755],[-39.6405,-13.7856],[-39.6572,-13.8278],[-39.6601,-13.8488],[-39.68,-13.8714],[-39.7037,-13.8608],[-39.7009,-13.8354],[-39.6886,-13.8078],[-39.7276,-13.7706],[-39.7405,-13.7757],[-39.7136,-13.7351],[-39.6965,-13.7157],[-39.678,-13.7122],[-39.6516,-13.6888],[-39.6092,-13.7027],[-39.5978,-13.7193]]]]}},{"type":"Feature","properties":{"codarea":"2915809","centroide":[-40.480198221347784,-15.163573342341715],"codigo_ibge":2915809,"nome_ig":"Sul da Bahia"},"geometry":{"type":"MultiPolygon","coordinates":[[[[-40.0956,-15.1107],[-40.1321,-15.2243],[-40.2618,-15.1758],[-40.3688,-15.2506],[-40.3711,-15.2766],[-40.3817,-15.274],[-40.4129,-15.2999],[-40.4289,-15.3197],[-40.4417,-15.307],[-40.4706,-15.3008],[-40.4899,-15.2944],[-40.4898,-15.2803],[-40.512,-15.283],[-40.5226,-15.2752],[-40.5472,-15.2872],[-40.5447,-15.2696],[-40.565,-15.2784],[-40.6117,-15.2807],[-40.6225,-15.2655],[-40.6359,-15.2804],[-40.6323,-15.2496],[-40.6474,-15.2746],[-40.6681,-15.2657],[-40.6784,-15.2388],[-40.7097,-15.2514],[-40.72,-15.2437],[-40.7489,-15.249],[-40.7896,-15.2467],[-40.8032,-15.2787],[-40.8169,-15.2852],[-40.8475,-15.2694],[-40.8198,-15.2026],[-40.7027,-15.0757],[-40.5508,-15.0371],[-40.422,-15.0478],[-40.3013,-15.0882],[-40.1345,-15.0634],[-40.1285,-15.0914],[-40.135,-15.1091],[-40.1144,-15.1152],[-40.0956,-15.1107]]]]}},{"type":"Feature","properties":{"codarea":"2916005","centroide":[-40.378552449371256,-17.115503453202287],"codigo_ibge":2916005,"nome_ig":"Sul da Bahia"},"geometry":{"type":"MultiPolygon","coordinates":[[[[-40.4336,-16.8874],[-40.4077,-16.8986],[-40.417,-16.9286],[-40.399,-16.9439],[-40.3934,-16.9606],[-40.3689,-16.9637],[-40.3577,-16.9846],[-40.3415,-16.9806],[-40.3279,-16.9997],[-40.2972,-17.0069],[-40.2749,-16.9953],[-40.2479,-17.0177],[-40.2228,-17.0242],[-40.2254,-17.0348],[-40.1811,-17.0785],[-40.1704,-17.0703],[-40.1606,-17.1079],[-40.1449,-17.0931],[-40.1198,-17.1116],[-40.15,-17.1352],[-40.1428,-17.1635],[-40.1526,-17.1718],[-40.1261,-17.1874],[-40.1388,-17.2317],[-40.1315,-17.2465],[-40.1635,-17.2491],[-40.1968,-17.2295],[-40.2177,-17.2472],[-40.2813,-17.2465],[-40.2981,-17.2596],[-40.3563,-17.2653],[-40.372,-17.258],[-40.3948,-17.2691],[-40.4188,-17.2647],[-40.5477,-17.2837],[-40.5619,-17.2725],[-40.5699,-17.2416],[-40.5538,-17.189],[-40.5725,-17.1823],[-40.5786,-17.1495],[-40.5623,-17.1233],[-40.5567,-17.0896],[-40.5716,-17.0658],[-40.5598,-17.0416],[-40.5454,-16.9841],[-40.5159,-16.9627],[-40.4971,-16.9173],[-40.4923,-16.8873],[-40.4801,-16.8768],[-40.4603,-16.8784],[-40.4514,-16.891],[-40.4336,-16.8874]]]]}},{"type":"Feature","properties":{"codarea":"2916203","centroide":[-39.495341069666196,-14.954559844834517],"codigo_ibge":2916203,"nome_ig":"Sul da Bahia"},"geometry":{"type":"MultiPolygon","coordinates":[[[[-39.4189,-15.0119],[-39.4472,-15.0348],[-39.4661,-15.0379],[-39.497,-15.0645],[-39.5198,-15.0759],[-39.5352,-15.0573],[-39.5485,-15.0768],[-39.5595,-15.0504],[-39.5697,-15.0472],[-39.5719,-15.0353],[-39.5943,-15.0064],[-39.5974,-14.989],[-39.6444,-14.9703],[-39.6598,-14.9477],[-39.6784,-14.9386],[-39.6671,-14.9408],[-39.6382,-14.9173],[-39.6216,-14.9276],[-39.6031,-14.9039],[-39.565,-14.9068],[-39.5565,-14.9195],[-39.5275,-14.9068],[-39.5211,-14.8941],[-39.4967,-14.9092],[-39.4713,-14.8909],[-39.4769,-14.8511],[-39.405,-14.8372],[-39.3945,-14.8578],[-39.3647,-14.8515],[-39.3597,-14.8651],[-39.365,-14.8971],[-39.3931,-14.9729],[-39.4189,-15.0119]]]]}},{"type":"Feature","properties":{"codarea":"2916302","centroide":[-39.65309291116849,-15.912172562987498],"codigo_ibge":2916302,"nome_ig":"Sul da Bahia"},"geometry":{"type":"MultiPolygon","coordinates":[[[[-39.5676,-15.7731],[-39.5489,-15.7914],[-39.5725,-15.7945],[-39.4922,-15.8833],[-39.4864,-15.9058],[-39.465,-15.9468],[-39.4763,-15.9868],[-39.4526,-15.9855],[-39.4351,-15.9972],[-39.4186,-16.0197],[-39.3867,-16.0502],[-39.4028,-16.0452],[-39.4329,-16.0768],[-39.433,-16.0768],[-39.4695,-16.0943],[-39.4864,-16.0598],[-39.5564,-16.0319],[-39.6088,-16.0224],[-39.6157,-16.0072],[-39.7487,-15.9721],[-39.7853,-15.9687],[-39.8141,-15.9798],[-39.8433,-15.9765],[-39.87,-15.9541],[-39.8908,-15.9576],[-39.9082,-15.9471],[-39.9183,-15.9278],[-39.9329,-15.9213],[-39.9491,-15.897],[-39.9471,-15.8679],[-39.9278,-15.8839],[-39.9109,-15.8671],[-39.8859,-15.8888],[-39.8749,-15.8793],[-39.8157,-15.8665],[-39.8166,-15.847],[-39.79,-15.8344],[-39.7878,-15.8122],[-39.7487,-15.8011],[-39.7324,-15.7785],[-39.7174,-15.7796],[-39.6771,-15.7649],[-39.6478,-15.7417],[-39.6318,-15.7438],[-39.6346,-15.7646],[-39.6163,-15.7738],[-39.6003,-15.7661],[-39.5676,-15.7731]]]]}},{"type":"Feature","properties":{"codarea":"2916609","centroide":[-39.620504452249776,-14.473232663404096],"codigo_ibge":2916609,"nome_ig":"Sul da Bahia"},"geometry":{"type":"MultiPolygon","coordinates":[[[[-39.4901,-14.4196],[-39.5113,-14.4514],[-39.5108,-14.4751],[-39.5247,-14.5187],[-39.5355,-14.5237],[-39.5505,-14.5617],[-39.7291,-14.5612],[-39.7353,-14.5552],[-39.733,-14.5161],[-39.7184,-14.4841],[-39.703,-14.4346],[-39.7161,-14.4117],[-39.6965,-14.3695],[-39.5904,-14.3953],[-39.5543,-14.3888],[-39.5357,-14.3928],[-39.5262,-14.4121],[-39.4965,-14.4112],[-39.4759,-14.3958],[-39.4901,-14.4196]]]]}},{"type":"Feature","properties":{"codarea":"2917300","centroide":[-39.15352020153648,-13.74886421176646],"codigo_ibge":2917300,"nome_ig":"Sul da Bahia"},"geometry":{"type":"MultiPolygon","coordinates":[[[[-38.9868,-13.7161],[-39.0012,-13.7665],[-38.9946,-13.8006],[-38.9704,-13.8417],[-39.0134,-13.846],[-39.0374,-13.8318],[-39.0708,-13.7597],[-39.1013,-13.7492],[-39.1104,-13.7243],[-39.1251,-13.7179],[-39.149,-13.7517],[-39.1479,-13.7678],[-39.176,-13.7849],[-39.1814,-13.8005],[-39.2546,-13.8137],[-39.2607,-13.8376],[-39.2806,-13.8452],[-39.3175,-13.8294],[-39.3175,-13.77],[-39.2878,-13.7369],[-39.2731,-13.7116],[-39.2599,-13.7122],[-39.2323,-13.6971],[-39.23,-13.6838],[-39.1996,-13.6698],[-39.1793,-13.668],[-39.1333,-13.6508],[-39.0793,-13.6794],[-39.0591,-13.7046],[-39.0469,-13.696],[-39.0217,-13.7104],[-38.9945,-13.7077],[-38.9868,-13.7161]]]]}},{"type":"Feature","properties":{"codarea":"2917607","centroide":[-39.95634142607188,-13.55414577752982],"codigo_ibge":2917607,"nome_ig":"Sul da Bahia"},"geometry":{"type":"MultiPolygon","coordinates":[[[[-39.9822,-13.3257],[-39.9816,-13.3443],[-39.9953,-13.3645],[-39.9872,-13.4065],[-40.0058,-13.4735],[-39.9307,-13.496],[-39.9205,-13.5207],[-39.892,-13.5281],[-39.8881,-13.5152],[-39.8523,-13.543],[-39.8135,-13.5635],[-39.7927,-13.5792],[-39.7969,-13.5876],[-39.7776,-13.5986],[-39.7804,-13.6107],[-39.7583,-13.6367],[-39.765,-13.6458],[-39.7394,-13.6958],[-39.741,-13.7045],[-39.7232,-13.7328],[-39.7136,-13.7351],[-39.7405,-13.7757],[-39.7709,-13.784],[-39.7824,-13.7502],[-39.8474,-13.7229],[-39.8497,-13.7111],[-39.852,-13.6564],[-39.887,-13.6597],[-39.8954,-13.6952],[-39.918,-13.692],[-39.9249,-13.6746],[-39.9449,-13.6651],[-39.9578,-13.673],[-39.9682,-13.6581],[-40.006,-13.6337],[-40.0203,-13.6408],[-40.0405,-13.6336],[-40.0873,-13.6401],[-40.0966,-13.6705],[-40.0978,-13.6686],[-40.1084,-13.6537],[-40.1136,-13.6185],[-40.1102,-13.5836],[-40.1217,-13.5267],[-40.1057,-13.5239],[-40.0716,-13.4954],[-40.0942,-13.4307],[-40.1201,-13.4099],[-40.1506,-13.3372],[-40.0891,-13.3393],[-40.0771,-13.3337],[-40.0613,-13.3433],[-40.0412,-13.3069],[-39.9974,-13.3123],[-39.9822,-13.3257]]]]}},{"type":"Feature","properties":{"codarea":"2918001","centroide":[-40.14643106210234,-13.877179908808627],"codigo_ibge":2918001,"nome_ig":"Sul da Bahia"},"geometry":{"type":"MultiPolygon","coordinates":[[[[-39.8497,-13.7111],[-39.8464,-13.7452],[-39.8278,-13.7471],[-39.8134,-13.7645],[-39.8129,-13.8032],[-39.7854,-13.8251],[-39.7832,-13.8154],[-39.7659,-13.8336],[-39.7822,-13.8437],[-39.7794,-13.861],[-39.7472,-13.8665],[-39.7576,-13.884],[-39.7403,-13.8942],[-39.7469,-13.9021],[-39.705,-13.9095],[-39.735,-13.9318],[-39.7612,-13.9914],[-39.7813,-13.9557],[-39.7844,-13.9389],[-39.8273,-13.9243],[-39.8242,-13.8956],[-39.8413,-13.8852],[-39.8268,-13.8537],[-39.8447,-13.8476],[-39.8501,-13.8707],[-39.8701,-13.8907],[-39.9322,-13.8921],[-39.9529,-13.9087],[-39.9748,-13.9441],[-39.9559,-13.973],[-39.9381,-13.9861],[-39.9155,-14.0169],[-39.9004,-14.0273],[-39.9016,-14.0468],[-39.9371,-14.0786],[-39.947,-14.0675],[-39.9905,-14.0499],[-40.0085,-14.0655],[-40.0274,-14.049],[-40.0497,-14.0653],[-40.08,-14.1215],[-40.1016,-14.1341],[-40.1127,-14.1721],[-40.1003,-14.1792],[-40.0821,-14.2137],[-40.0987,-14.2439],[-40.0976,-14.2669],[-40.1129,-14.2279],[-40.1628,-14.2533],[-40.1811,-14.2241],[-40.189,-14.2007],[-40.1835,-14.189],[-40.1753,-14.1347],[-40.1812,-14.1236],[-40.2109,-14.1257],[-40.2215,-14.0964],[-40.2196,-14.0718],[-40.2078,-14.0709],[-40.2086,-14.0424],[-40.2255,-14.0309],[-40.2463,-14.0415],[-40.3076,-14.0085],[-40.3185,-14.006],[-40.3496,-14.0327],[-40.5098,-13.9498],[-40.5173,-13.9398],[-40.5054,-13.8866],[-40.4397,-13.8646],[-40.4583,-13.8431],[-40.4929,-13.8179],[-40.5198,-13.788],[-40.5371,-13.7278],[-40.5293,-13.7178],[-40.5022,-13.7149],[-40.4823,-13.7011],[-40.4741,-13.6785],[-40.4635,-13.7202],[-40.4427,-13.7277],[-40.4169,-13.7094],[-40.3697,-13.7097],[-40.3742,-13.701],[-40.3499,-13.698],[-40.3385,-13.7069],[-40.2911,-13.7008],[-40.2386,-13.7154],[-40.1955,-13.7101],[-40.1903,-13.6892],[-40.1732,-13.6847],[-40.1407,-13.699],[-40.1384,-13.6903],[-40.0947,-13.6843],[-40.0966,-13.6705],[-40.0873,-13.6401],[-40.0405,-13.6336],[-40.0203,-13.6408],[-40.006,-13.6337],[-39.9682,-13.6581],[-39.9578,-13.673],[-39.9449,-13.6651],[-39.9249,-13.6746],[-39.918,-13.692],[-39.8954,-13.6952],[-39.887,-13.6597],[-39.852,-13.6564],[-39.8497,-13.7111]]]]}},{"type":"Feature","properties":{"codarea":"2918209","centroide":[-39.58473290179481,-13.323327404546681],"codigo_ibge":2918209,"nome_ig":"Sul da Bahia"},"geometry":{"type":"MultiPolygon","coordinates":[[[[-39.5258,-13.1808],[-39.5388,-13.1842],[-39.5258,-13.2046],[-39.5426,-13.2184],[-39.5322,-13.2742],[-39.538,-13.2785],[-39.5431,-13.3378],[-39.5532,-13.3613],[-39.5509,-13.3817],[-39.5598,-13.4221],[-39.5845,-13.424],[-39.5909,-13.4156],[-39.5983,-13.4708],[-39.6244,-13.4821],[-39.6314,-13.471],[-39.6331,-13.4557],[-39.6487,-13.4479],[-39.6392,-13.4371],[-39.6441,-13.4203],[-39.6306,-13.4068],[-39.6293,-13.3716],[-39.6384,-13.3597],[-39.6207,-13.3118],[-39.6067,-13.2985],[-39.6115,-13.2594],[-39.5922,-13.2507],[-39.6101,-13.1839],[-39.6005,-13.1892],[-39.5389,-13.1757],[-39.5258,-13.1808]]]]}},{"type":"Feature","properties":{"codarea":"2918308","centroide":[-39.86663632920197,-13.958090775426486],"codigo_ibge":2918308,"nome_ig":"Sul da Bahia"},"geometry":{"type":"MultiPolygon","coordinates":[[[[-39.7612,-13.9914],[-39.7933,-14.0112],[-39.7917,-14.041],[-39.8,-14.0595],[-39.8278,-14.0387],[-39.8391,-14.0198],[-39.8742,-14.0114],[-39.9004,-14.0273],[-39.9155,-14.0169],[-39.9381,-13.9861],[-39.9559,-13.973],[-39.9748,-13.9441],[-39.9529,-13.9087],[-39.9322,-13.8921],[-39.8701,-13.8907],[-39.8501,-13.8707],[-39.8447,-13.8476],[-39.8268,-13.8537],[-39.8413,-13.8852],[-39.8242,-13.8956],[-39.8273,-13.9243],[-39.7844,-13.9389],[-39.7813,-13.9557],[-39.7612,-13.9914]]]]}},{"type":"Feature","properties":{"codarea":"2918456","centroide":[-40.100391957720646,-16.84544214761696],"codigo_ibge":2918456,"nome_ig":"Sul da Bahia"},"geometry":{"type":"MultiPolygon","coordinates":[[[[-39.7676,-16.7335],[-39.7592,-16.7607],[-39.7689,-16.7835],[-39.7674,-16.8688],[-39.7954,-16.861],[-39.8136,-16.8471],[-39.8365,-16.8491],[-39.8448,-16.8359],[-39.8866,-16.8469],[-39.9123,-16.8756],[-39.931,-16.8671],[-39.9458,-16.8466],[-39.9712,-16.8736],[-39.9927,-16.8705],[-39.9903,-16.8948],[-40.0098,-16.94],[-40.0277,-16.9362],[-40.0296,-16.9492],[-40.0512,-16.9479],[-40.0439,-16.9582],[-40.066,-16.9872],[-40.0594,-16.9941],[-40.0794,-17.0247],[-40.0777,-17.0516],[-40.0679,-17.0749],[-40.0769,-17.0825],[-40.0912,-17.062],[-40.1158,-17.0807],[-40.1431,-17.0796],[-40.1638,-17.07],[-40.1799,-17.0472],[-40.1826,-17.0155],[-40.211,-16.9965],[-40.2292,-16.9727],[-40.2663,-16.9634],[-40.2946,-16.9622],[-40.3325,-16.948],[-40.3713,-16.942],[-40.396,-16.9434],[-40.4043,-16.929],[-40.4013,-16.8901],[-40.378,-16.8865],[-40.3648,-16.8746],[-40.3487,-16.8993],[-40.3315,-16.908],[-40.3027,-16.8922],[-40.2816,-16.9011],[-40.266,-16.8603],[-40.2469,-16.8457],[-40.2691,-16.7957],[-40.3248,-16.8008],[-40.3442,-16.7843],[-40.3358,-16.7797],[-40.3038,-16.7122],[-40.307,-16.6967],[-40.2963,-16.698],[-40.2828,-16.6728],[-40.2617,-16.6836],[-40.2669,-16.6999],[-40.2474,-16.7156],[-40.2034,-16.696],[-40.1568,-16.6956],[-40.1633,-16.7117],[-40.1394,-16.7148],[-40.1269,-16.6791],[-40.0784,-16.6867],[-40.0767,-16.7065],[-40.0545,-16.7176],[-40.0369,-16.7039],[-40.0236,-16.7138],[-40.0085,-16.7018],[-39.9965,-16.7119],[-39.9758,-16.7056],[-39.9677,-16.73],[-39.9451,-16.726],[-39.9173,-16.7338],[-39.8902,-16.7259],[-39.8845,-16.7444],[-39.8542,-16.7521],[-39.8444,-16.7622],[-39.8146,-16.7636],[-39.7676,-16.7335]]]]}},{"type":"Feature","properties":{"codarea":"2918555","centroide":[-39.49828079389387,-15.136351438624814],"codigo_ibge":2918555,"nome_ig":"Sul da Bahia"},"geometry":{"type":"MultiPolygon","coordinates":[[[[-39.4124,-15.0332],[-39.405,-15.0361],[-39.4086,-15.0622],[-39.3917,-15.0792],[-39.4026,-15.0958],[-39.4063,-15.1333],[-39.4301,-15.1599],[-39.4506,-15.144],[-39.4594,-15.154],[-39.4541,-15.1744],[-39.4601,-15.2056],[-39.4816,-15.2069],[-39.4892,-15.2461],[-39.5426,-15.2418],[-39.5579,-15.2218],[-39.5716,-15.2322],[-39.5725,-15.2824],[-39.5787,-15.2875],[-39.5935,-15.2731],[-39.5926,-15.2418],[-39.5668,-15.1925],[-39.5741,-15.1734],[-39.5681,-15.1479],[-39.5868,-15.1347],[-39.5725,-15.1101],[-39.5697,-15.0472],[-39.5595,-15.0504],[-39.5485,-15.0768],[-39.5352,-15.0573],[-39.5198,-15.0759],[-39.497,-15.0645],[-39.4661,-15.0379],[-39.4472,-15.0348],[-39.4189,-15.0119],[-39.4124,-15.0332]]]]}},{"type":"Feature","properties":{"codarea":"2918803","centroide":[-39.34740005129348,-13.166997766561684],"codigo_ibge":2918803,"nome_ig":"Sul da Bahia"},"geometry":{"type":"MultiPolygon","coordinates":[[[[-39.2561,-13.07],[-39.2464,-13.0953],[-39.2347,-13.0977],[-39.2015,-13.078],[-39.1893,-13.1091],[-39.1769,-13.1055],[-39.1738,-13.088],[-39.1592,-13.0955],[-39.1352,-13.0908],[-39.1229,-13.1084],[-39.1781,-13.1166],[-39.214,-13.1072],[-39.2482,-13.1334],[-39.2905,-13.1378],[-39.3024,-13.1603],[-39.2827,-13.1794],[-39.2509,-13.1878],[-39.2304,-13.2076],[-39.2035,-13.1969],[-39.1713,-13.2332],[-39.1913,-13.239],[-39.2026,-13.2222],[-39.2193,-13.2398],[-39.2181,-13.2668],[-39.2042,-13.2857],[-39.2278,-13.2929],[-39.2477,-13.2659],[-39.2667,-13.2648],[-39.3154,-13.206],[-39.3361,-13.199],[-39.3344,-13.218],[-39.3469,-13.251],[-39.3615,-13.2505],[-39.3812,-13.2329],[-39.3979,-13.2396],[-39.4124,-13.2299],[-39.4167,-13.2427],[-39.4385,-13.2369],[-39.4367,-13.2117],[-39.4474,-13.1864],[-39.4672,-13.1998],[-39.487,-13.1727],[-39.5051,-13.1834],[-39.5258,-13.1808],[-39.5389,-13.1757],[-39.549,-13.1532],[-39.5385,-13.1236],[-39.4945,-13.1114],[-39.4697,-13.1238],[-39.435,-13.1108],[-39.4301,-13.1174],[-39.3746,-13.1109],[-39.3418,-13.0932],[-39.3221,-13.0939],[-39.2761,-13.0699],[-39.2561,-13.07]]]]}},{"type":"Feature","properties":{"codarea":"2920700","centroide":[-39.15055525663529,-14.155695615781204],"codigo_ibge":2920700,"nome_ig":"Sul da Bahia"},"geometry":{"type":"MultiPolygon","coordinates":[[[[-38.9536,-13.8741],[-38.9386,-13.8833],[-38.9285,-13.9069],[-38.9277,-13.9385],[-38.9437,-13.9974],[-38.9546,-14.0793],[-38.9661,-14.1075],[-38.9895,-14.1941],[-38.9894,-14.2189],[-38.9957,-14.2337],[-39.0191,-14.2295],[-39.0282,-14.2473],[-39.0476,-14.252],[-39.0735,-14.2458],[-39.0965,-14.2534],[-39.1373,-14.258],[-39.1378,-14.2674],[-39.1605,-14.2749],[-39.2043,-14.2714],[-39.2226,-14.2642],[-39.2648,-14.2906],[-39.3029,-14.2666],[-39.3177,-14.2784],[-39.3234,-14.2545],[-39.4129,-14.2362],[-39.4441,-14.2415],[-39.4438,-14.1999],[-39.3943,-14.1768],[-39.3723,-14.1748],[-39.346,-14.1482],[-39.2748,-14.1375],[-39.2457,-14.1183],[-39.2458,-14.1183],[-39.2457,-14.1183],[-39.2458,-14.1183],[-39.237,-14.1215],[-39.1979,-14.1039],[-39.1654,-14.1021],[-39.143,-14.0917],[-39.0889,-14.1101],[-39.0519,-14.1088],[-39.0208,-14.0998],[-38.9824,-14.0739],[-38.9857,-14.0419],[-39.0047,-14.0321],[-38.9996,-14.0029],[-38.9892,-13.9905],[-38.9872,-13.9671],[-39.0004,-13.9268],[-38.9883,-13.8944],[-38.9536,-13.8741]]]]}},{"type":"Feature","properties":{"codarea":"2920908","centroide":[-39.41261458093107,-15.662178746469786],"codigo_ibge":2920908,"nome_ig":"Sul da Bahia"},"geometry":{"type":"MultiPolygon","coordinates":[[[[-39.3643,-15.4722],[-39.3643,-15.4862],[-39.3429,-15.4952],[-39.3037,-15.5323],[-39.3043,-15.5501],[-39.2784,-15.5572],[-39.2846,-15.5662],[-39.2233,-15.6054],[-39.2334,-15.6212],[-39.2585,-15.6277],[-39.2761,-15.6407],[-39.2895,-15.6382],[-39.3248,-15.6618],[-39.3491,-15.6882],[-39.3508,-15.7058],[-39.3662,-15.7129],[-39.3632,-15.7437],[-39.3412,-15.7499],[-39.3391,-15.7737],[-39.3234,-15.7975],[-39.3178,-15.8248],[-39.3559,-15.8497],[-39.3722,-15.8224],[-39.3869,-15.8249],[-39.3912,-15.7996],[-39.4004,-15.7939],[-39.4269,-15.8033],[-39.4352,-15.7924],[-39.4557,-15.8121],[-39.4679,-15.834],[-39.4853,-15.8387],[-39.4882,-15.8224],[-39.5159,-15.8093],[-39.5245,-15.8181],[-39.5725,-15.7945],[-39.5489,-15.7914],[-39.5676,-15.7731],[-39.568,-15.7652],[-39.5366,-15.7518],[-39.531,-15.7302],[-39.5431,-15.7133],[-39.5347,-15.7002],[-39.5442,-15.6659],[-39.5373,-15.6253],[-39.5251,-15.6144],[-39.5109,-15.6008],[-39.5006,-15.5683],[-39.4772,-15.5511],[-39.4668,-15.579],[-39.4457,-15.5815],[-39.4039,-15.5571],[-39.4268,-15.5287],[-39.4402,-15.5245],[-39.4342,-15.486],[-39.4195,-15.464],[-39.3847,-15.4712],[-39.3776,-15.4561],[-39.3643,-15.4722]]]]}},{"type":"Feature","properties":{"codarea":"2922003","centroide":[-39.866967177955416,-18.059429345805995],"codigo_ibge":2922003,"nome_ig":"Sul da Bahia"},"geometry":{"type":"MultiPolygon","coordinates":[[[[-40.0678,-17.8493],[-40.0683,-17.8906],[-40.0634,-17.9519],[-40.0431,-17.9522],[-40.0339,-17.9689],[-40.0096,-17.9867],[-39.7401,-17.9892],[-39.7114,-17.9975],[-39.6371,-18.0004],[-39.6057,-17.9871],[-39.5895,-17.9906],[-39.5751,-17.9777],[-39.5484,-17.9843],[-39.508,-17.9856],[-39.4915,-17.9976],[-39.5206,-18.0404],[-39.5519,-18.1015],[-39.5859,-18.146],[-39.6354,-18.2323],[-39.6529,-18.2864],[-39.6583,-18.3235],[-39.6678,-18.3371],[-39.6889,-18.3208],[-39.9117,-18.179],[-40.2219,-17.9806],[-40.2223,-17.9804],[-40.2268,-17.9582],[-40.2597,-17.94],[-40.2635,-17.922],[-40.2119,-17.8949],[-40.1741,-17.8515],[-40.1816,-17.8359],[-40.2043,-17.8286],[-40.206,-17.8025],[-40.218,-17.7956],[-40.2138,-17.7524],[-40.2236,-17.7343],[-40.2012,-17.7353],[-40.1713,-17.7759],[-40.1447,-17.7876],[-40.1211,-17.7883],[-40.1223,-17.8015],[-40.0846,-17.8275],[-40.0678,-17.8493]]]]}},{"type":"Feature","properties":{"codarea":"2922409","centroide":[-39.506407815117115,-13.311385955494453],"codigo_ibge":2922409,"nome_ig":"Sul da Bahia"},"geometry":{"type":"MultiPolygon","coordinates":[[[[-39.4385,-13.2369],[-39.426,-13.2659],[-39.4326,-13.27],[-39.4288,-13.2982],[-39.4447,-13.2881],[-39.4516,-13.3012],[-39.4711,-13.3053],[-39.4675,-13.3295],[-39.4798,-13.3383],[-39.465,-13.3676],[-39.4844,-13.3803],[-39.4846,-13.3946],[-39.502,-13.4194],[-39.5094,-13.4181],[-39.5459,-13.4503],[-39.5693,-13.4773],[-39.5983,-13.4708],[-39.5909,-13.4156],[-39.5845,-13.424],[-39.5598,-13.4221],[-39.5509,-13.3817],[-39.5532,-13.3613],[-39.5431,-13.3378],[-39.538,-13.2785],[-39.5322,-13.2742],[-39.5426,-13.2184],[-39.5258,-13.2046],[-39.5388,-13.1842],[-39.5258,-13.1808],[-39.5051,-13.1834],[-39.487,-13.1727],[-39.4672,-13.1998],[-39.4474,-13.1864],[-39.4367,-13.2117],[-39.4385,-13.2369]]]]}},{"type":"Feature","properties":{"codarea":"2922607","centroide":[-39.173183862234325,-13.660705209937252],"codigo_ibge":2922607,"nome_ig":"Sul da Bahia"},"geometry":{"type":"MultiPolygon","coordinates":[[[[-38.9677,-13.6731],[-38.9643,-13.689],[-38.9868,-13.7161],[-38.9945,-13.7077],[-39.0217,-13.7104],[-39.0469,-13.696],[-39.0591,-13.7046],[-39.0793,-13.6794],[-39.1333,-13.6508],[-39.1793,-13.668],[-39.1996,-13.6698],[-39.23,-13.6838],[-39.2323,-13.6971],[-39.2599,-13.7122],[-39.2731,-13.7116],[-39.2878,-13.7369],[-39.3186,-13.7264],[-39.3637,-13.734],[-39.3798,-13.7145],[-39.4397,-13.7244],[-39.4467,-13.6894],[-39.4303,-13.6555],[-39.3913,-13.6457],[-39.3546,-13.6682],[-39.2928,-13.6742],[-39.2628,-13.6915],[-39.2582,-13.6652],[-39.2435,-13.6431],[-39.2148,-13.654],[-39.2085,-13.6394],[-39.1855,-13.6283],[-39.1833,-13.6165],[-39.1643,-13.6157],[-39.1165,-13.5947],[-39.0862,-13.6003],[-39.08,-13.5633],[-39.0579,-13.5808],[-39.0024,-13.5781],[-39,-13.5912],[-38.9797,-13.6133],[-38.984,-13.626],[-38.9704,-13.6404],[-38.9677,-13.6731]]]]}},{"type":"Feature","properties":{"codarea":"2922706","centroide":[-40.179804004003685,-14.857879964118242],"codigo_ibge":2922706,"nome_ig":"Sul da Bahia"},"geometry":{"type":"MultiPolygon","coordinates":[[[[-40.2209,-14.6733],[-40.2075,-14.7035],[-40.2081,-14.7424],[-40.1754,-14.759],[-40.1517,-14.7645],[-40.1358,-14.759],[-40.1123,-14.7869],[-40.0888,-14.769],[-40.0246,-14.8185],[-40.0456,-14.8745],[-40.0381,-14.8899],[-40.0375,-14.93],[-40.0447,-14.9497],[-40.0729,-15.0043],[-40.0914,-15.0161],[-40.0827,-15.0286],[-40.1021,-15.0447],[-40.1174,-15.0363],[-40.1385,-15.0082],[-40.2998,-14.9602],[-40.296,-14.9349],[-40.2775,-14.9002],[-40.2743,-14.8717],[-40.2822,-14.8557],[-40.3111,-14.8404],[-40.3227,-14.8028],[-40.3148,-14.7888],[-40.3202,-14.7439],[-40.2982,-14.7451],[-40.2933,-14.7225],[-40.3021,-14.7087],[-40.296,-14.6618],[-40.2806,-14.6566],[-40.2676,-14.6664],[-40.2465,-14.6635],[-40.2209,-14.6733]]]]}},{"type":"Feature","properties":{"codarea":"2922755","centroide":[-39.582808934678766,-13.825089324722828],"codigo_ibge":2922755,"nome_ig":"Sul da Bahia"},"geometry":{"type":"MultiPolygon","coordinates":[[[[-39.5537,-13.7271],[-39.5652,-13.7554],[-39.5297,-13.8042],[-39.5564,-13.8374],[-39.5446,-13.8417],[-39.5375,-13.8621],[-39.5146,-13.8623],[-39.4997,-13.8521],[-39.4901,-13.8794],[-39.5027,-13.9048],[-39.5292,-13.9154],[-39.5508,-13.9191],[-39.5512,-13.8977],[-39.5956,-13.8802],[-39.5946,-13.8671],[-39.6212,-13.8571],[-39.6262,-13.8668],[-39.6676,-13.8761],[-39.68,-13.8714],[-39.6601,-13.8488],[-39.6572,-13.8278],[-39.6405,-13.7856],[-39.6209,-13.7755],[-39.6217,-13.7576],[-39.5978,-13.7193],[-39.5537,-13.7271]]]]}},{"type":"Feature","properties":{"codarea":"2923001","centroide":[-39.7138392621323,-17.89974509388072],"codigo_ibge":2923001,"nome_ig":"Sul da Bahia"},"geometry":{"type":"MultiPolygon","coordinates":[[[[-39.265,-17.8407],[-39.2687,-17.8697],[-39.4101,-17.9237],[-39.4438,-17.9465],[-39.4915,-17.9976],[-39.508,-17.9856],[-39.5484,-17.9843],[-39.5751,-17.9777],[-39.5895,-17.9906],[-39.6057,-17.9871],[-39.6371,-18.0004],[-39.7114,-17.9975],[-39.7401,-17.9892],[-40.0096,-17.9867],[-40.0339,-17.9689],[-40.0431,-17.9522],[-40.0634,-17.9519],[-40.0683,-17.8906],[-40.0678,-17.8493],[-40.0535,-17.8563],[-40.0324,-17.8511],[-39.9916,-17.8291],[-39.954,-17.8337],[-39.9437,-17.8466],[-39.9259,-17.8415],[-39.8893,-17.8486],[-39.8582,-17.8259],[-39.8254,-17.8267],[-39.7764,-17.8087],[-39.773,-17.7984],[-39.7355,-17.7771],[-39.7125,-17.774],[-39.6872,-17.7903],[-39.6561,-17.8022],[-39.6287,-17.788],[-39.5867,-17.7969],[-39.5713,-17.8104],[-39.5431,-17.8171],[-39.5347,-17.8112],[-39.4828,-17.8282],[-39.4476,-17.859],[-39.4348,-17.857],[-39.3078,-17.8535],[-39.294,-17.8612],[-39.265,-17.8407]]]]}},{"type":"Feature","properties":{"codarea":"2923902","centroide":[-39.690107061485044,-15.468177861187833],"codigo_ibge":2923902,"nome_ig":"Sul da Bahia"},"geometry":{"type":"MultiPolygon","coordinates":[[[[-39.6402,-15.2936],[-39.6305,-15.3016],[-39.6251,-15.3491],[-39.5993,-15.3566],[-39.6004,-15.3818],[-39.5851,-15.3887],[-39.5767,-15.4261],[-39.5951,-15.4554],[-39.6136,-15.4705],[-39.6048,-15.4952],[-39.58,-15.5006],[-39.572,-15.5186],[-39.5478,-15.5255],[-39.5707,-15.544],[-39.6185,-15.553],[-39.5895,-15.5999],[-39.6174,-15.6205],[-39.6327,-15.6193],[-39.6498,-15.5912],[-39.6751,-15.6218],[-39.6738,-15.6365],[-39.6956,-15.6301],[-39.6839,-15.6216],[-39.6949,-15.5997],[-39.7132,-15.592],[-39.7134,-15.5649],[-39.7518,-15.5554],[-39.7689,-15.566],[-39.791,-15.5419],[-39.8301,-15.5317],[-39.8419,-15.4824],[-39.8296,-15.4592],[-39.7924,-15.4273],[-39.7926,-15.4132],[-39.7658,-15.3768],[-39.7658,-15.3669],[-39.7468,-15.3707],[-39.7407,-15.3857],[-39.7186,-15.3517],[-39.7067,-15.3576],[-39.7005,-15.3416],[-39.685,-15.3368],[-39.6905,-15.3026],[-39.6636,-15.3068],[-39.6541,-15.2815],[-39.6402,-15.2936]]]]}},{"type":"Feature","properties":{"codarea":"2924678","centroide":[-39.37752736165591,-13.806845568412031],"codigo_ibge":2924678,"nome_ig":"Sul da Bahia"},"geometry":{"type":"MultiPolygon","coordinates":[[[[-39.2878,-13.7369],[-39.3175,-13.77],[-39.3175,-13.8294],[-39.3453,-13.828],[-39.3661,-13.8532],[-39.3848,-13.9042],[-39.3987,-13.9086],[-39.413,-13.8885],[-39.4211,-13.9059],[-39.448,-13.8916],[-39.4322,-13.8447],[-39.4387,-13.8022],[-39.4064,-13.7647],[-39.3934,-13.7286],[-39.3798,-13.7145],[-39.3637,-13.734],[-39.3186,-13.7264],[-39.2878,-13.7369]]]]}},{"type":"Feature","properties":{"codarea":"2925303","centroide":[-39.2790899311256,-16.625667040414264],"codigo_ibge":2925303,"nome_ig":"Sul da Bahia"},"geometry":{"type":"MultiPolygon","coordinates":[[[[-39.0085,-16.3458],[-39.008,-16.3747],[-39.0339,-16.3872],[-39.0594,-16.4288],[-39.0622,-16.4755],[-39.0825,-16.5347],[-39.0849,-16.5735],[-39.0937,-16.6141],[-39.0938,-16.6518],[-39.1037,-16.6703],[-39.1061,-16.707],[-39.1377,-16.7497],[-39.1451,-16.8154],[-39.1418,-16.8679],[-39.1176,-16.8922],[-39.1411,-16.8962],[-39.1402,-16.9094],[-39.1662,-16.9287],[-39.1787,-16.9206],[-39.2349,-16.9193],[-39.2713,-16.8953],[-39.311,-16.8883],[-39.3796,-16.9123],[-39.402,-16.9155],[-39.4422,-16.9025],[-39.4416,-16.8943],[-39.4415,-16.8938],[-39.4691,-16.9243],[-39.4907,-16.9244],[-39.5052,-16.9022],[-39.4918,-16.891],[-39.5046,-16.872],[-39.4795,-16.8308],[-39.4856,-16.796],[-39.4707,-16.7634],[-39.4411,-16.7446],[-39.413,-16.748],[-39.3556,-16.7835],[-39.3374,-16.7845],[-39.3483,-16.7714],[-39.3751,-16.7205],[-39.3933,-16.7114],[-39.4448,-16.6379],[-39.4829,-16.6106],[-39.4733,-16.5797],[-39.4553,-16.5807],[-39.4223,-16.5516],[-39.4533,-16.5407],[-39.5095,-16.5067],[-39.519,-16.4953],[-39.5051,-16.444],[-39.4828,-16.4073],[-39.4567,-16.3918],[-39.438,-16.3839],[-39.3994,-16.389],[-39.3309,-16.3858],[-39.3074,-16.373],[-39.2394,-16.3739],[-39.1919,-16.3963],[-39.1845,-16.3839],[-39.1666,-16.3876],[-39.1134,-16.3618],[-39.1034,-16.3645],[-39.0703,-16.3528],[-39.0292,-16.352],[-39.0085,-16.3458]]]]}},{"type":"Feature","properties":{"codarea":"2925402","centroide":[-39.77229001705778,-15.681979247246232],"codigo_ibge":2925402,"nome_ig":"Sul da Bahia"},"geometry":{"type":"MultiPolygon","coordinates":[[[[-39.8301,-15.5317],[-39.791,-15.5419],[-39.7689,-15.566],[-39.7518,-15.5554],[-39.7134,-15.5649],[-39.7132,-15.592],[-39.6949,-15.5997],[-39.6839,-15.6216],[-39.6956,-15.6301],[-39.6738,-15.6365],[-39.6751,-15.6218],[-39.6498,-15.5912],[-39.6327,-15.6193],[-39.6174,-15.6205],[-39.5895,-15.5999],[-39.5829,-15.5926],[-39.5251,-15.6144],[-39.5373,-15.6253],[-39.5442,-15.6659],[-39.5347,-15.7002],[-39.5431,-15.7133],[-39.531,-15.7302],[-39.5366,-15.7518],[-39.568,-15.7652],[-39.5676,-15.7731],[-39.6003,-15.7661],[-39.6163,-15.7738],[-39.6346,-15.7646],[-39.6318,-15.7438],[-39.6478,-15.7417],[-39.6771,-15.7649],[-39.7174,-15.7796],[-39.7324,-15.7785],[-39.7487,-15.8011],[-39.7878,-15.8122],[-39.79,-15.8344],[-39.8166,-15.847],[-39.8157,-15.8665],[-39.8749,-15.8793],[-39.8859,-15.8888],[-39.9109,-15.8671],[-39.9224,-15.8524],[-39.9222,-15.8193],[-39.9133,-15.8046],[-39.9191,-15.7744],[-39.9104,-15.7343],[-39.9104,-15.7343],[-39.9172,-15.7366],[-39.9365,-15.6876],[-39.9309,-15.6734],[-39.8892,-15.6353],[-39.8946,-15.615],[-39.9343,-15.5622],[-39.9515,-15.5669],[-39.9707,-15.5483],[-39.9639,-15.5284],[-39.9706,-15.5072],[-39.9231,-15.4638],[-39.9171,-15.4839],[-39.9022,-15.4874],[-39.8846,-15.5088],[-39.8861,-15.5212],[-39.8301,-15.5317]]]]}},{"type":"Feature","properties":{"codarea":"2925501","centroide":[-39.35160796721222,-17.129488278342105],"codigo_ibge":2925501,"nome_ig":"Sul da Bahia"},"geometry":{"type":"MultiPolygon","coordinates":[[[[-39.1176,-16.8922],[-39.1521,-16.9427],[-39.1551,-16.9798],[-39.1704,-17.0058],[-39.1738,-17.0523],[-39.1851,-17.1183],[-39.1974,-17.1271],[-39.2125,-17.1636],[-39.2124,-17.2382],[-39.2215,-17.2843],[-39.2098,-17.3874],[-39.192,-17.4458],[-39.2259,-17.4221],[-39.2346,-17.432],[-39.2538,-17.4091],[-39.2561,-17.3914],[-39.2769,-17.3699],[-39.3367,-17.3512],[-39.3509,-17.3236],[-39.4009,-17.2967],[-39.4147,-17.3027],[-39.438,-17.2827],[-39.4701,-17.2671],[-39.5054,-17.2647],[-39.5363,-17.2686],[-39.545,-17.2538],[-39.5597,-17.2612],[-39.5612,-17.2857],[-39.6117,-17.2839],[-39.6322,-17.3132],[-39.6356,-17.2682],[-39.6009,-17.2051],[-39.5803,-17.1827],[-39.5676,-17.1516],[-39.5701,-17.1334],[-39.5287,-17.1185],[-39.5012,-17.1425],[-39.4851,-17.1307],[-39.4754,-17.1024],[-39.4922,-17.0873],[-39.4802,-17.0481],[-39.492,-17.0205],[-39.4858,-16.9731],[-39.4752,-16.9525],[-39.4372,-16.9811],[-39.4473,-16.9523],[-39.4486,-16.9157],[-39.4416,-16.8943],[-39.4415,-16.8938],[-39.4416,-16.8943],[-39.4422,-16.9025],[-39.402,-16.9155],[-39.3796,-16.9123],[-39.311,-16.8883],[-39.2713,-16.8953],[-39.2349,-16.9193],[-39.1787,-16.9206],[-39.1662,-16.9287],[-39.1402,-16.9094],[-39.1411,-16.8962],[-39.1176,-16.8922]]]]}},{"type":"Feature","properties":{"codarea":"2925758","centroide":[-39.41728443741687,-13.448838778674363],"codigo_ibge":2925758,"nome_ig":"Sul da Bahia"},"geometry":{"type":"MultiPolygon","coordinates":[[[[-39.3028,-13.4853],[-39.3299,-13.5171],[-39.3492,-13.5734],[-39.3743,-13.5824],[-39.3698,-13.5601],[-39.3764,-13.5318],[-39.392,-13.5409],[-39.4072,-13.5247],[-39.4443,-13.5103],[-39.469,-13.5286],[-39.4958,-13.5314],[-39.512,-13.5044],[-39.5394,-13.513],[-39.5498,-13.4953],[-39.5772,-13.5015],[-39.5693,-13.4773],[-39.5459,-13.4503],[-39.5094,-13.4181],[-39.502,-13.4194],[-39.4846,-13.3946],[-39.4844,-13.3803],[-39.465,-13.3676],[-39.4519,-13.3721],[-39.428,-13.3455],[-39.4278,-13.3301],[-39.4107,-13.327],[-39.3862,-13.3432],[-39.352,-13.338],[-39.3613,-13.3551],[-39.345,-13.3717],[-39.3039,-13.3725],[-39.295,-13.3822],[-39.3122,-13.3911],[-39.3246,-13.4392],[-39.3056,-13.4646],[-39.3028,-13.4853]]]]}},{"type":"Feature","properties":{"codarea":"2927705","centroide":[-39.20097367819185,-16.229124776570405],"codigo_ibge":2927705,"nome_ig":"Sul da Bahia"},"geometry":{"type":"MultiPolygon","coordinates":[[[[-38.9506,-16.0919],[-38.9577,-16.1285],[-38.9488,-16.1542],[-38.9767,-16.2133],[-38.9924,-16.2219],[-39.017,-16.2514],[-39.0239,-16.3053],[-39.0205,-16.3221],[-39.0055,-16.3333],[-39.0085,-16.3458],[-39.0292,-16.352],[-39.0703,-16.3528],[-39.1034,-16.3645],[-39.1134,-16.3618],[-39.1666,-16.3876],[-39.1845,-16.3839],[-39.1919,-16.3963],[-39.2394,-16.3739],[-39.3074,-16.373],[-39.3309,-16.3858],[-39.3994,-16.389],[-39.438,-16.3839],[-39.4567,-16.3918],[-39.4416,-16.3266],[-39.4387,-16.2826],[-39.398,-16.2832],[-39.3826,-16.2688],[-39.3929,-16.2645],[-39.4206,-16.2328],[-39.4026,-16.098],[-39.37,-16.1238],[-39.303,-16.1109],[-39.2794,-16.1321],[-39.2302,-16.0911],[-39.1953,-16.0734],[-39.1627,-16.0658],[-39.1505,-16.0522],[-38.9506,-16.0919]]]]}},{"type":"Feature","properties":{"codarea":"2927804","centroide":[-39.814553942252836,-14.891635307597898],"codigo_ibge":2927804,"nome_ig":"Sul da Bahia"},"geometry":{"type":"MultiPolygon","coordinates":[[[[-39.7793,-14.7418],[-39.7881,-14.7794],[-39.7837,-14.8041],[-39.8015,-14.8315],[-39.7951,-14.8502],[-39.7974,-14.8835],[-39.776,-14.8929],[-39.7743,-14.907],[-39.7367,-14.9117],[-39.7171,-14.9732],[-39.6956,-14.965],[-39.6889,-14.9526],[-39.6878,-14.9716],[-39.7332,-14.9837],[-39.7449,-14.977],[-39.7672,-14.9913],[-39.7836,-14.9897],[-39.8138,-14.9712],[-39.836,-15.0021],[-39.8541,-14.9915],[-39.8577,-15.0046],[-39.8848,-15.0129],[-39.8625,-14.9783],[-39.8817,-14.8658],[-39.8748,-14.8176],[-39.8691,-14.7918],[-39.8318,-14.7758],[-39.822,-14.7474],[-39.7793,-14.7418]]]]}},{"type":"Feature","properties":{"codarea":"2928059","centroide":[-39.26244514090866,-15.445270703599192],"codigo_ibge":2928059,"nome_ig":"Sul da Bahia"},"geometry":{"type":"MultiPolygon","coordinates":[[[[-39.0246,-15.4268],[-39.0206,-15.4371],[-39.0446,-15.4589],[-39.0888,-15.4689],[-39.1033,-15.4848],[-39.1421,-15.4934],[-39.1746,-15.5148],[-39.2077,-15.5107],[-39.1952,-15.5319],[-39.1664,-15.5366],[-39.1751,-15.5714],[-39.1545,-15.5729],[-39.15,-15.5864],[-39.1597,-15.6033],[-39.2021,-15.5921],[-39.2233,-15.6054],[-39.2846,-15.5662],[-39.2784,-15.5572],[-39.3043,-15.5501],[-39.3037,-15.5323],[-39.3429,-15.4952],[-39.3643,-15.4862],[-39.3643,-15.4722],[-39.3689,-15.4454],[-39.3799,-15.4257],[-39.4145,-15.4178],[-39.428,-15.4036],[-39.4245,-15.3897],[-39.4389,-15.3867],[-39.4527,-15.4086],[-39.4658,-15.4023],[-39.4598,-15.3646],[-39.4808,-15.3417],[-39.4606,-15.3276],[-39.4592,-15.3132],[-39.4276,-15.3171],[-39.4338,-15.3325],[-39.4034,-15.3329],[-39.3993,-15.3492],[-39.3648,-15.3525],[-39.3248,-15.3288],[-39.3135,-15.3071],[-39.2884,-15.3154],[-39.2931,-15.3308],[-39.2752,-15.3505],[-39.2597,-15.3499],[-39.2526,-15.3653],[-39.2118,-15.3715],[-39.1863,-15.3809],[-39.1639,-15.3739],[-39.1406,-15.423],[-39.1182,-15.4366],[-39.106,-15.4227],[-39.0803,-15.4198],[-39.0711,-15.4268],[-39.0246,-15.4268]]]]}},{"type":"Feature","properties":{"codarea":"2929354","centroide":[-39.35298534858462,-15.07240862040793],"codigo_ibge":2929354,"nome_ig":"Sul da Bahia"},"geometry":{"type":"MultiPolygon","coordinates":[[[[-39.2936,-15.0723],[-39.2957,-15.0874],[-39.3295,-15.113],[-39.3703,-15.1262],[-39.3993,-15.1512],[-39.4063,-15.1333],[-39.4026,-15.0958],[-39.3917,-15.0792],[-39.4086,-15.0622],[-39.405,-15.0361],[-39.4124,-15.0332],[-39.4041,-15.0236],[-39.3862,-15.0271],[-39.3666,-15.0197],[-39.366,-15.0324],[-39.3251,-15.0166],[-39.3073,-15.0213],[-39.2794,-15.058],[-39.2936,-15.0723]]]]}},{"type":"Feature","properties":{"codarea":"2931202","centroide":[-39.22724406708574,-13.57197575569195],"codigo_ibge":2931202,"nome_ig":"Sul da Bahia"},"geometry":{"type":"MultiPolygon","coordinates":[[[[-39.0705,-13.4879],[-39.0932,-13.5367],[-39.08,-13.5633],[-39.0862,-13.6003],[-39.1165,-13.5947],[-39.1643,-13.6157],[-39.1833,-13.6165],[-39.1855,-13.6283],[-39.2085,-13.6394],[-39.2148,-13.654],[-39.2435,-13.6431],[-39.2582,-13.6652],[-39.2628,-13.6915],[-39.2928,-13.6742],[-39.3546,-13.6682],[-39.3602,-13.6245],[-39.3492,-13.5734],[-39.3299,-13.5171],[-39.3028,-13.4853],[-39.2797,-13.4758],[-39.2609,-13.5139],[-39.2659,-13.5213],[-39.2106,-13.5187],[-39.22,-13.5102],[-39.2041,-13.5003],[-39.1822,-13.514],[-39.1662,-13.4833],[-39.1425,-13.4746],[-39.1155,-13.4843],[-39.0957,-13.4727],[-39.0705,-13.4879]]]]}},{"type":"Feature","properties":{"codarea":"2931608","centroide":[-39.49720541558689,-13.554460207903483],"codigo_ibge":2931608,"nome_ig":"Sul da Bahia"},"geometry":{"type":"MultiPolygon","coordinates":[[[[-39.5983,-13.4708],[-39.5693,-13.4773],[-39.5772,-13.5015],[-39.5498,-13.4953],[-39.5394,-13.513],[-39.512,-13.5044],[-39.4958,-13.5314],[-39.469,-13.5286],[-39.4443,-13.5103],[-39.4072,-13.5247],[-39.392,-13.5409],[-39.3764,-13.5318],[-39.3698,-13.5601],[-39.3743,-13.5824],[-39.3492,-13.5734],[-39.3602,-13.6245],[-39.3546,-13.6682],[-39.3913,-13.6457],[-39.3961,-13.6246],[-39.4252,-13.5963],[-39.4448,-13.599],[-39.4738,-13.6143],[-39.4919,-13.6052],[-39.5011,-13.5855],[-39.5676,-13.5739],[-39.6208,-13.56],[-39.6685,-13.5369],[-39.6403,-13.5051],[-39.6276,-13.4827],[-39.6314,-13.471],[-39.6244,-13.4821],[-39.5983,-13.4708]]]]}},{"type":"Feature","properties":{"codarea":"2932101","centroide":[-39.67956800251507,-13.275890464786029],"codigo_ibge":2932101,"nome_ig":"Sul da Bahia"},"geometry":{"type":"MultiPolygon","coordinates":[[[[-39.549,-13.1532],[-39.5389,-13.1757],[-39.6005,-13.1892],[-39.6101,-13.1839],[-39.5922,-13.2507],[-39.6115,-13.2594],[-39.6067,-13.2985],[-39.6207,-13.3118],[-39.6384,-13.3597],[-39.6293,-13.3716],[-39.6306,-13.4068],[-39.6441,-13.4203],[-39.6392,-13.4371],[-39.6487,-13.4479],[-39.6331,-13.4557],[-39.6314,-13.471],[-39.6276,-13.4827],[-39.6403,-13.5051],[-39.6685,-13.5369],[-39.6952,-13.5125],[-39.6952,-13.5124],[-39.6952,-13.5124],[-39.7086,-13.4975],[-39.7294,-13.4895],[-39.7112,-13.46],[-39.7157,-13.4272],[-39.7239,-13.4122],[-39.742,-13.4128],[-39.7409,-13.3811],[-39.7528,-13.3699],[-39.727,-13.3694],[-39.7213,-13.3446],[-39.7291,-13.3129],[-39.7572,-13.2689],[-39.759,-13.2474],[-39.7994,-13.2364],[-39.8315,-13.2055],[-39.8382,-13.1897],[-39.812,-13.1939],[-39.8093,-13.1859],[-39.7618,-13.1797],[-39.7426,-13.1912],[-39.7436,-13.1605],[-39.7604,-13.1436],[-39.7576,-13.131],[-39.7383,-13.1186],[-39.7108,-13.1322],[-39.6987,-13.1296],[-39.7026,-13.1122],[-39.653,-13.1091],[-39.6319,-13.0956],[-39.5981,-13.097],[-39.5863,-13.1415],[-39.5748,-13.1528],[-39.5535,-13.1409],[-39.549,-13.1532]]]]}},{"type":"Feature","properties":{"codarea":"2932200","centroide":[-39.42126293823479,-14.267705111388432],"codigo_ibge":2932200,"nome_ig":"Sul da Bahia"},"geometry":{"type":"MultiPolygon","coordinates":[[[[-39.4441,-14.2415],[-39.4129,-14.2362],[-39.3234,-14.2545],[-39.3177,-14.2784],[-39.3029,-14.2666],[-39.2648,-14.2906],[-39.2704,-14.306],[-39.2907,-14.3119],[-39.3433,-14.3141],[-39.3624,-14.3012],[-39.3664,-14.2785],[-39.3768,-14.2915],[-39.4071,-14.3101],[-39.4154,-14.2954],[-39.4425,-14.3044],[-39.4926,-14.2808],[-39.5756,-14.2518],[-39.5746,-14.233],[-39.5565,-14.2332],[-39.5475,-14.2109],[-39.5155,-14.2207],[-39.4956,-14.2384],[-39.462,-14.229],[-39.4441,-14.2415]]]]}},{"type":"Feature","properties":{"codarea":"2932309","centroide":[-39.52171882455666,-14.095783260200715],"codigo_ibge":2932309,"nome_ig":"Sul da Bahia"},"geometry":{"type":"MultiPolygon","coordinates":[[[[-39.5155,-14.2207],[-39.5475,-14.2109],[-39.5565,-14.2332],[-39.5746,-14.233],[-39.5761,-14.2163],[-39.5737,-14.1908],[-39.5605,-14.1463],[-39.5403,-14.1306],[-39.5541,-14.1142],[-39.5423,-14.0744],[-39.5431,-14.0576],[-39.5312,-14.047],[-39.5192,-14.0083],[-39.5316,-14.0059],[-39.5456,-13.96],[-39.5203,-13.9658],[-39.5097,-13.9507],[-39.5135,-13.933],[-39.4877,-13.9347],[-39.4908,-13.974],[-39.4801,-13.9806],[-39.4861,-14.0271],[-39.5061,-14.0421],[-39.4883,-14.0548],[-39.4995,-14.0834],[-39.4707,-14.1067],[-39.4867,-14.1194],[-39.4919,-14.1518],[-39.5156,-14.2078],[-39.5155,-14.2207]]]]}},{"type":"Feature","properties":{"codarea":"2932507","centroide":[-39.1482032069263,-15.233174854684377],"codigo_ibge":2932507,"nome_ig":"Sul da Bahia"},"geometry":{"type":"MultiPolygon","coordinates":[[[[-38.9968,-15.0851],[-38.9968,-15.2275],[-38.9904,-15.2963],[-38.986,-15.3068],[-38.9737,-15.3855],[-38.9966,-15.3871],[-39.0058,-15.3725],[-39.0238,-15.4082],[-39.0246,-15.4268],[-39.0711,-15.4268],[-39.0803,-15.4198],[-39.106,-15.4227],[-39.1182,-15.4366],[-39.1406,-15.423],[-39.1639,-15.3739],[-39.1863,-15.3809],[-39.2118,-15.3715],[-39.2526,-15.3653],[-39.2597,-15.3499],[-39.2752,-15.3505],[-39.2931,-15.3308],[-39.2884,-15.3154],[-39.3135,-15.3071],[-39.3248,-15.3288],[-39.3402,-15.3193],[-39.3333,-15.2911],[-39.3028,-15.2779],[-39.3202,-15.2639],[-39.3062,-15.2606],[-39.3084,-15.2163],[-39.2984,-15.2044],[-39.3133,-15.1748],[-39.315,-15.1574],[-39.3302,-15.1576],[-39.3244,-15.1394],[-39.3295,-15.113],[-39.2957,-15.0874],[-39.2936,-15.0723],[-39.2722,-15.0839],[-39.236,-15.0484],[-39.2194,-15.0555],[-39.205,-15.0467],[-39.1866,-15.0544],[-39.163,-15.0526],[-39.1588,-15.0588],[-39.1316,-15.0358],[-39.1193,-15.057],[-39.0815,-15.08],[-39.0823,-15.0961],[-39.0633,-15.1118],[-39.0331,-15.1057],[-39.0208,-15.0915],[-38.9968,-15.0851]]]]}},{"type":"Feature","properties":{"codarea":"2932705","centroide":[-39.23128784938801,-14.527679930216097],"codigo_ibge":2932705,"nome_ig":"Sul da Bahia"},"geometry":{"type":"MultiPolygon","coordinates":[[[[-39.0179,-14.4184],[-39.0356,-14.515],[-39.0417,-14.4981],[-39.0736,-14.5202],[-39.1452,-14.5298],[-39.1415,-14.5421],[-39.1766,-14.5687],[-39.1807,-14.5913],[-39.1944,-14.6099],[-39.2721,-14.638],[-39.3469,-14.6216],[-39.3645,-14.6089],[-39.3606,-14.5739],[-39.3729,-14.5621],[-39.3976,-14.5574],[-39.3985,-14.5472],[-39.3813,-14.5145],[-39.3939,-14.523],[-39.3714,-14.4776],[-39.3642,-14.4501],[-39.3227,-14.46],[-39.1317,-14.4888],[-39.11,-14.4525],[-39.0949,-14.4501],[-39.0932,-14.4337],[-39.0621,-14.4189],[-39.0424,-14.4015],[-39.0429,-14.4193],[-39.0179,-14.4184]]]]}},{"type":"Feature","properties":{"codarea":"2932903","centroide":[-39.19268050510975,-13.34647997500178],"codigo_ibge":2932903,"nome_ig":"Sul da Bahia"},"geometry":{"type":"MultiPolygon","coordinates":[[[[-39.1713,-13.2332],[-39.1432,-13.2237],[-39.1438,-13.2318],[-39.1037,-13.2572],[-39.092,-13.2478],[-39.0702,-13.26],[-39.0756,-13.2443],[-39.02,-13.2417],[-39.0068,-13.2266],[-38.991,-13.253],[-38.9666,-13.2253],[-38.9404,-13.2063],[-38.9206,-13.2139],[-38.9309,-13.2196],[-38.9525,-13.2536],[-38.962,-13.2789],[-38.9674,-13.3247],[-38.9644,-13.3521],[-38.9491,-13.3896],[-38.9679,-13.3881],[-38.9891,-13.372],[-39.0322,-13.3794],[-39.0416,-13.3884],[-39.0718,-13.4623],[-39.0705,-13.4879],[-39.0957,-13.4727],[-39.1155,-13.4843],[-39.1425,-13.4746],[-39.1662,-13.4833],[-39.1822,-13.514],[-39.2041,-13.5003],[-39.22,-13.5102],[-39.2106,-13.5187],[-39.2659,-13.5213],[-39.2609,-13.5139],[-39.2797,-13.4758],[-39.3028,-13.4853],[-39.3056,-13.4646],[-39.3246,-13.4392],[-39.3122,-13.3911],[-39.295,-13.3822],[-39.3039,-13.3725],[-39.345,-13.3717],[-39.3613,-13.3551],[-39.352,-13.338],[-39.3862,-13.3432],[-39.4107,-13.327],[-39.4278,-13.3301],[-39.428,-13.3455],[-39.4519,-13.3721],[-39.465,-13.3676],[-39.4798,-13.3383],[-39.4675,-13.3295],[-39.4711,-13.3053],[-39.4516,-13.3012],[-39.4447,-13.2881],[-39.4288,-13.2982],[-39.4326,-13.27],[-39.426,-13.2659],[-39.4385,-13.2369],[-39.4167,-13.2427],[-39.4124,-13.2299],[-39.3979,-13.2396],[-39.3812,-13.2329],[-39.3615,-13.2505],[-39.3469,-13.251],[-39.3344,-13.218],[-39.3361,-13.199],[-39.3154,-13.206],[-39.2667,-13.2648],[-39.2477,-13.2659],[-39.2278,-13.2929],[-39.2042,-13.2857],[-39.2181,-13.2668],[-39.2193,-13.2398],[-39.2026,-13.2222],[-39.1913,-13.239],[-39.1713,-13.2332]]]]}},{"type":"Feature","properties":{"codarea":"2933505","centroide":[-39.6192566698529,-13.628298470381129],"codigo_ibge":2933505,"nome_ig":"Sul da Bahia"},"geometry":{"type":"MultiPolygon","coordinates":[[[[-39.6952,-13.5125],[-39.6685,-13.5369],[-39.6208,-13.56],[-39.5676,-13.5739],[-39.5011,-13.5855],[-39.4919,-13.6052],[-39.4738,-13.6143],[-39.4448,-13.599],[-39.4252,-13.5963],[-39.3961,-13.6246],[-39.3913,-13.6457],[-39.4303,-13.6555],[-39.4467,-13.6894],[-39.4397,-13.7244],[-39.4804,-13.7108],[-39.5537,-13.7271],[-39.5978,-13.7193],[-39.6092,-13.7027],[-39.6516,-13.6888],[-39.678,-13.7122],[-39.6965,-13.7157],[-39.7136,-13.7351],[-39.7232,-13.7328],[-39.741,-13.7045],[-39.7394,-13.6958],[-39.765,-13.6458],[-39.7583,-13.6367],[-39.7804,-13.6107],[-39.7776,-13.5986],[-39.7969,-13.5876],[-39.7927,-13.5792],[-39.8135,-13.5635],[-39.7728,-13.5176],[-39.7437,-13.5033],[-39.7264,-13.5031],[-39.7084,-13.5194],[-39.6952,-13.5125]]]]}}]}