{"type":"FeatureCollection","features":[{"type":"Feature","properties":{"codarea":"3554102","centroide":[-45.501958927855505,-23.087493481625085],"codigo_ibge":3554102,"nome_ig":"Taubaté"},"geometry":{"type":"MultiPolygon","coordinates":[[[[-45.5036,-22.9789],[-45.4943,-23.0147],[-45.4662,-23.0381],[-45.4617,-23.0532],[-45.439,-23.0714],[-45.3932,-23.0361],[-45.3792,-23.0173],[-45.3543,-23.0067],[-45.3404,-23.0305],[-45.3081,-23.0253],[-45.2942,-23.027],[-45.289,-23.0452],[-45.3137,-23.0576],[-45.2979,-23.0815],[-45.3001,-23.0919],[-45.3285,-23.085],[-45.3499,-23.102],[-45.3438,-23.1086],[-45.3548,-23.1379],[-45.3877,-23.1588],[-45.3969,-23.1806],[-45.4455,-23.2176],[-45.4785,-23.2244],[-45.5038,-23.2193],[-45.52,-23.1994],[-45.5221,-23.1763],[-45.5455,-23.1762],[-45.554,-23.1611],[-45.5681,-23.1598],[-45.5888,-23.1794],[-45.6094,-23.1635],[-45.5941,-23.1333],[-45.6298,-23.1147],[-45.6309,-23.0813],[-45.6633,-23.0336],[-45.6969,-23.0269],[-45.7029,-23.007],[-45.7133,-23.0097],[-45.7121,-22.9894],[-45.725,-22.9694],[-45.7046,-22.9479],[-45.6769,-22.9764],[-45.6473,-22.9866],[-45.6338,-23.0011],[-45.57,-22.9872],[-45.5457,-22.9986],[-45.5036,-22.9789]]]]}}]}