{"type":"FeatureCollection","features":[{"type":"Feature","properties":{"codarea":"1508001","centroide":[-48.267681420279324,-2.636023074407401],"codigo_ibge":1508001,"nome_ig":"Tomé-Açu"},"geometry":{"type":"MultiPolygon","coordinates":[[[[-48.0537,-2.0844],[-47.9868,-2.0904],[-47.9885,-2.0966],[-47.9792,-2.1178],[-47.9828,-2.1405],[-47.9955,-2.1557],[-47.9768,-2.1644],[-47.9805,-2.185],[-47.9649,-2.2084],[-47.967,-2.2217],[-47.9948,-2.2237],[-47.986,-2.2537],[-48.0039,-2.2648],[-48.0123,-2.2906],[-48.0287,-2.2961],[-48.0241,-2.3126],[-48.04,-2.3203],[-48.0534,-2.3403],[-48.0553,-2.3599],[-48.0351,-2.3959],[-48.0222,-2.402],[-48.0497,-2.4311],[-48.0316,-2.4402],[-48.0467,-2.4733],[-48.045,-2.4982],[-48.023,-2.4946],[-48.0045,-2.5205],[-47.987,-2.5065],[-47.952,-2.517],[-47.9389,-2.4963],[-47.926,-2.5146],[-47.9319,-2.5431],[-47.9539,-2.562],[-47.9792,-2.5977],[-48.0285,-2.6245],[-48.0474,-2.6482],[-48.0351,-2.6989],[-48.0598,-2.754],[-48.0737,-2.775],[-48.0888,-2.8428],[-48.091,-2.8998],[-48.1027,-2.9219],[-48.1286,-2.9472],[-48.1798,-2.9488],[-48.2023,-2.9698],[-48.2146,-3.0122],[-48.2314,-3.0335],[-48.2481,-3.0732],[-48.2531,-3.1168],[-48.2669,-3.1203],[-48.2857,-3.0936],[-48.3053,-3.1007],[-48.3197,-3.1443],[-48.3088,-3.1644],[-48.3323,-3.1975],[-48.3619,-3.1985],[-48.399,-3.2173],[-48.4149,-3.2007],[-48.4483,-3.2376],[-48.4862,-3.2336],[-48.5305,-3.1956],[-48.5185,-3.1657],[-48.5172,-3.14],[-48.4939,-3.0976],[-48.5284,-3.0543],[-48.5165,-3.0333],[-48.5339,-3.0096],[-48.5573,-2.9622],[-48.5555,-2.9419],[-48.5329,-2.919],[-48.5277,-2.8824],[-48.5069,-2.8517],[-48.4772,-2.845],[-48.4787,-2.8315],[-48.4974,-2.8109],[-48.4843,-2.7659],[-48.4646,-2.7428],[-48.4548,-2.6885],[-48.4745,-2.6559],[-48.4633,-2.6012],[-48.492,-2.5914],[-48.4953,-2.5589],[-48.5122,-2.5195],[-48.4971,-2.5083],[-48.4981,-2.4532],[-48.4838,-2.4105],[-48.4584,-2.3901],[-48.4518,-2.3481],[-48.4576,-2.3232],[-48.4415,-2.2951],[-48.4134,-2.29],[-48.3789,-2.2607],[-48.3719,-2.2346],[-48.352,-2.2136],[-48.3397,-2.187],[-48.3093,-2.1718],[-48.2873,-2.1887],[-48.2836,-2.2224],[-48.2569,-2.2101],[-48.2421,-2.1856],[-48.2172,-2.1702],[-48.1975,-2.1767],[-48.1804,-2.1614],[-48.1638,-2.1266],[-48.1455,-2.1314],[-48.1218,-2.1216],[-48.1012,-2.0965],[-48.0709,-2.0836],[-48.0537,-2.0844]]]]}}]}