{"type":"FeatureCollection","features":[{"type":"Feature","properties":{"codarea":"3554706","centroide":[-48.16449602098388,-22.444303719805177],"codigo_ibge":3554706,"nome_ig":"Torrinha"},"geometry":{"type":"MultiPolygon","coordinates":[[[[-48.0407,-22.5058],[-48.0595,-22.5133],[-48.0738,-22.5272],[-48.0837,-22.5073],[-48.1054,-22.4984],[-48.1289,-22.504],[-48.1237,-22.5295],[-48.1416,-22.5194],[-48.1307,-22.5057],[-48.1497,-22.4809],[-48.1727,-22.476],[-48.192,-22.4892],[-48.1883,-22.5141],[-48.2077,-22.5042],[-48.2167,-22.536],[-48.2348,-22.5203],[-48.2454,-22.5143],[-48.2723,-22.5285],[-48.2894,-22.5254],[-48.2784,-22.4984],[-48.2429,-22.4791],[-48.2431,-22.4693],[-48.2688,-22.4479],[-48.2782,-22.424],[-48.2499,-22.3878],[-48.2381,-22.3932],[-48.2393,-22.3675],[-48.155,-22.3616],[-48.1345,-22.3752],[-48.1114,-22.3751],[-48.1061,-22.387],[-48.0851,-22.3945],[-48.0632,-22.412],[-48.054,-22.4403],[-48.0549,-22.4619],[-48.0423,-22.4764],[-48.0407,-22.5058]]]]}}]}