{"type":"FeatureCollection","features":[{"type":"Feature","properties":{"codarea":"1300029","centroide":[-65.32485979891048,-3.69501396279467],"codigo_ibge":1300029,"nome_ig":"Uarini"},"geometry":{"type":"Polygon","coordinates":[[[-64.7849,-3.1587],[-64.7282,-3.2076],[-64.7031,-3.2218],[-64.6745,-3.2637],[-64.6791,-3.2799],[-64.7218,-3.2781],[-64.7223,-3.2931],[-64.7784,-3.3098],[-64.7988,-3.3375],[-64.8124,-3.3413],[-64.8453,-3.378],[-64.8858,-3.3926],[-64.8928,-3.4246],[-64.9224,-3.4529],[-64.9492,-3.4906],[-64.9715,-3.4889],[-64.9808,-3.5063],[-64.9622,-3.5368],[-64.9904,-3.5671],[-64.9911,-3.5893],[-64.9719,-3.6227],[-64.9976,-3.6377],[-65.0141,-3.6559],[-65.0378,-3.6643],[-65.0141,-3.686],[-65.03,-3.7272],[-65.0194,-3.7836],[-65.0512,-3.7946],[-65.0731,-3.7875],[-65.119,-3.8333],[-65.1281,-3.8549],[-65.1187,-3.8691],[-65.1571,-3.8877],[-65.1581,-3.9054],[-65.1963,-3.9132],[-65.2053,-3.9309],[-65.2252,-3.9332],[-65.2533,-3.9535],[-65.2774,-3.9498],[-65.2854,-3.964],[-65.311,-3.9653],[-65.3877,-4.0116],[-65.4055,-4.0311],[-65.4286,-4.0278],[-65.4434,-4.0385],[-65.48,-4.0505],[-65.516,-4.088],[-65.5852,-4.1143],[-65.6149,-4.1164],[-65.6441,-4.1295],[-65.6554,-4.1277],[-65.6688,-4.1551],[-65.6943,-4.1639],[-65.7328,-4.1949],[-65.7678,-4.2154],[-65.8167,-4.2216],[-65.8459,-4.2491],[-65.8726,-4.2526],[-65.9088,-4.2926],[-65.9254,-4.2609],[-65.916,-4.2172],[-65.9028,-4.1957],[-65.8659,-4.1697],[-65.8627,-4.1462],[-65.8701,-4.1328],[-65.8587,-4.0986],[-65.8424,-4.0783],[-65.8422,-4.0532],[-65.8557,-4.0308],[-65.8633,-3.9976],[-65.8554,-3.9578],[-65.8342,-3.9228],[-65.7973,-3.8816],[-65.797,-3.8609],[-65.784,-3.8378],[-65.724,-3.8075],[-65.7169,-3.7625],[-65.7073,-3.738],[-65.683,-3.7111],[-65.6586,-3.6926],[-65.6556,-3.6384],[-65.6295,-3.6202],[-65.6047,-3.6255],[-65.5511,-3.6275],[-65.5343,-3.6191],[-65.5026,-3.581],[-65.4745,-3.6004],[-65.4261,-3.5756],[-65.4046,-3.5374],[-65.3755,-3.5071],[-65.3322,-3.4891],[-65.2851,-3.4819],[-65.25,-3.4654],[-65.2075,-3.461],[-65.1665,-3.4269],[-65.1574,-3.3893],[-65.132,-3.3872],[-65.1082,-3.3605],[-65.0677,-3.302],[-65.0522,-3.2477],[-65.0477,-3.1941],[-65.0356,-3.1713],[-65.0072,-3.1388],[-64.9747,-3.0935],[-64.9739,-3.0565],[-64.9452,-3.0604],[-64.9147,-3.0771],[-64.8965,-3.0974],[-64.8682,-3.0964],[-64.826,-3.1122],[-64.8033,-3.1493],[-64.7849,-3.1587]]]}},{"type":"Feature","properties":{"codarea":"1302801","centroide":[-65.03934677870004,-2.4269294595514896],"codigo_ibge":1302801,"nome_ig":"Uarini"},"geometry":{"type":"Polygon","coordinates":[[[-65.3111,-1.7785],[-65.2908,-1.7857],[-65.2291,-1.7759],[-65.2093,-1.7818],[-65.187,-1.8106],[-65.1771,-1.8477],[-65.1831,-1.937],[-65.1714,-1.9597],[-65.1363,-1.9747],[-65.0849,-1.9618],[-65.058,-1.9696],[-65.0415,-1.9533],[-65.0202,-1.9131],[-64.9735,-1.887],[-64.9437,-1.887],[-64.9343,-1.8996],[-64.9496,-2.0003],[-64.9282,-2.0264],[-64.9249,-2.0447],[-64.9359,-2.0942],[-64.9306,-2.11],[-64.8867,-2.1001],[-64.8669,-2.0803],[-64.8028,-2.0733],[-64.7869,-2.0468],[-64.7504,-2.0361],[-64.722,-2.0184],[-64.7044,-2.0196],[-64.6879,-2.0576],[-64.6947,-2.0896],[-64.7083,-2.1197],[-64.7118,-2.1424],[-64.701,-2.163],[-64.6659,-2.1946],[-64.6633,-2.2142],[-64.6449,-2.2121],[-64.616,-2.2413],[-64.6061,-2.2252],[-64.5902,-2.2234],[-64.5708,-2.2365],[-64.5335,-2.2453],[-64.5117,-2.2354],[-64.5039,-2.1917],[-64.4965,-2.1805],[-64.4625,-2.1854],[-64.4076,-2.2078],[-64.3673,-2.2534],[-64.3672,-2.2651],[-64.4029,-2.2713],[-64.4171,-2.2844],[-64.4503,-2.2837],[-64.448,-2.3239],[-64.5184,-2.312],[-64.5293,-2.3367],[-64.5181,-2.3772],[-64.4918,-2.43],[-64.4903,-2.4602],[-64.4613,-2.4708],[-64.4574,-2.4881],[-64.4649,-2.5223],[-64.4347,-2.5521],[-64.4374,-2.5726],[-64.4203,-2.6073],[-64.4253,-2.6391],[-64.3833,-2.6494],[-64.3587,-2.6495],[-64.339,-2.671],[-64.3376,-2.6926],[-64.3574,-2.7189],[-64.384,-2.7152],[-64.4187,-2.7183],[-64.428,-2.7344],[-64.4517,-2.7389],[-64.5031,-2.7382],[-64.4968,-2.7934],[-64.4757,-2.8003],[-64.4565,-2.8459],[-64.4427,-2.8498],[-64.4523,-2.8894],[-64.4428,-2.9174],[-64.4482,-2.9246],[-64.4359,-2.9478],[-64.4045,-2.9623],[-64.4052,-2.9739],[-64.373,-2.9927],[-64.362,-3.0121],[-64.3305,-3.0268],[-64.3402,-3.0398],[-64.3289,-3.0577],[-64.3276,-3.0903],[-64.2934,-3.1005],[-64.2881,-3.0863],[-64.2708,-3.0818],[-64.2688,-3.0982],[-64.2547,-3.0893],[-64.2454,-3.1026],[-64.2693,-3.1078],[-64.2732,-3.1379],[-64.2825,-3.1318],[-64.2913,-3.1517],[-64.2547,-3.1703],[-64.2508,-3.1858],[-64.2374,-3.1876],[-64.2374,-3.2033],[-64.217,-3.2096],[-64.2251,-3.2181],[-64.206,-3.228],[-64.194,-3.2514],[-64.1629,-3.2375],[-64.1501,-3.2703],[-64.1627,-3.2808],[-64.1526,-3.2963],[-64.1416,-3.2913],[-64.1395,-3.2672],[-64.128,-3.2902],[-64.1157,-3.2869],[-64.1086,-3.3259],[-64.1008,-3.3155],[-64.0874,-3.3303],[-64.0853,-3.3609],[-64.1129,-3.3682],[-64.1285,-3.3646],[-64.1311,-3.3905],[-64.1502,-3.4166],[-64.1528,-3.4347],[-64.1367,-3.449],[-64.1582,-3.4773],[-64.1583,-3.5112],[-64.1288,-3.5166],[-64.105,-3.5403],[-64.0873,-3.5292],[-64.0625,-3.5436],[-64.0573,-3.5582],[-64.0723,-3.5574],[-64.0701,-3.5751],[-64.0423,-3.5758],[-64.0255,-3.594],[-64.0125,-3.6272],[-63.9863,-3.6027],[-63.9722,-3.6115],[-63.9715,-3.6313],[-63.9591,-3.6305],[-63.9498,-3.5994],[-63.9377,-3.6165],[-63.9421,-3.6351],[-63.9102,-3.6645],[-63.9417,-3.6564],[-63.9421,-3.6713],[-63.9218,-3.6878],[-63.9184,-3.715],[-63.9264,-3.7368],[-63.9172,-3.7562],[-63.9009,-3.7656],[-63.8815,-3.792],[-63.8445,-3.7985],[-63.8315,-3.7801],[-63.789,-3.7797],[-63.7599,-3.7952],[-63.867,-3.8111],[-63.9421,-3.8128],[-63.9551,-3.8022],[-63.9777,-3.7645],[-63.9739,-3.7455],[-63.9878,-3.7067],[-64.0715,-3.7043],[-64.1296,-3.6877],[-64.1773,-3.6625],[-64.2157,-3.6245],[-64.2915,-3.5705],[-64.3549,-3.5367],[-64.387,-3.5034],[-64.4239,-3.4842],[-64.4441,-3.4635],[-64.4628,-3.4139],[-64.5088,-3.3512],[-64.522,-3.3269],[-64.5438,-3.3117],[-64.6206,-3.2887],[-64.6745,-3.2637],[-64.7031,-3.2218],[-64.7282,-3.2076],[-64.7849,-3.1587],[-64.7866,-3.1449],[-64.7695,-3.1321],[-64.719,-3.1194],[-64.7147,-3.1067],[-64.7331,-3.0866],[-64.758,-3.0752],[-64.7921,-3.0355],[-64.8038,-3.0145],[-64.8106,-2.9472],[-64.8167,-2.9368],[-64.8572,-2.9076],[-64.8924,-2.875],[-64.8918,-2.8439],[-64.8771,-2.8125],[-64.8663,-2.7354],[-64.8881,-2.7122],[-64.9167,-2.7104],[-64.9813,-2.7227],[-65.0036,-2.7032],[-64.9936,-2.6401],[-64.9807,-2.5956],[-64.998,-2.5603],[-65.0558,-2.507],[-65.0979,-2.4219],[-65.1163,-2.3949],[-65.139,-2.3373],[-65.1512,-2.3258],[-65.1757,-2.3256],[-65.1884,-2.3157],[-65.1932,-2.2835],[-65.2129,-2.2795],[-65.2195,-2.2905],[-65.2125,-2.3595],[-65.216,-2.3804],[-65.2294,-2.388],[-65.2553,-2.3825],[-65.2746,-2.3653],[-65.2801,-2.3166],[-65.3028,-2.3117],[-65.3094,-2.3364],[-65.3278,-2.3513],[-65.3533,-2.3428],[-65.3717,-2.328],[-65.3699,-2.3477],[-65.3795,-2.3591],[-65.3939,-2.3495],[-65.4158,-2.3514],[-65.43,-2.3648],[-65.4267,-2.3924],[-65.4721,-2.4008],[-65.475,-2.366],[-65.458,-2.3492],[-65.4574,-2.33],[-65.4886,-2.3198],[-65.5187,-2.325],[-65.5166,-2.3466],[-65.4904,-2.3456],[-65.485,-2.355],[-65.5046,-2.3887],[-65.5274,-2.3801],[-65.5366,-2.3628],[-65.555,-2.3577],[-65.5876,-2.3844],[-65.6088,-2.3831],[-65.6158,-2.3595],[-65.5954,-2.3158],[-65.6204,-2.3057],[-65.6283,-2.2907],[-65.6019,-2.2815],[-65.5851,-2.2549],[-65.616,-2.2375],[-65.6523,-2.2511],[-65.6635,-2.2756],[-65.6849,-2.2783],[-65.6983,-2.26],[-65.7301,-2.264],[-65.7634,-2.2559],[-65.8029,-2.2537],[-65.8101,-2.2671],[-65.8299,-2.251],[-65.8508,-2.248],[-65.8622,-2.2879],[-65.8962,-2.3054],[-65.9036,-2.2895],[-65.9025,-2.2599],[-65.9385,-2.2548],[-65.947,-2.2335],[-65.9574,-2.1637],[-65.9721,-2.1506],[-66.0013,-2.1448],[-66.0015,-1.4137],[-65.9819,-1.4171],[-65.9422,-1.4125],[-65.8939,-1.4325],[-65.8765,-1.4601],[-65.8605,-1.4715],[-65.8177,-1.4731],[-65.7832,-1.4942],[-65.759,-1.503],[-65.7217,-1.4977],[-65.6865,-1.5019],[-65.6623,-1.5158],[-65.6395,-1.5566],[-65.6479,-1.6056],[-65.6409,-1.6361],[-65.6048,-1.6629],[-65.5597,-1.66],[-65.5424,-1.6679],[-65.525,-1.6975],[-65.5258,-1.7672],[-65.514,-1.7929],[-65.4959,-1.7983],[-65.4667,-1.744],[-65.4389,-1.7335],[-65.4205,-1.7354],[-65.3909,-1.7544],[-65.3111,-1.7785]]]}},{"type":"Feature","properties":{"codarea":"1304203","centroide":[-65.53148105493504,-4.4698930696149315],"codigo_ibge":1304203,"nome_ig":"Uarini"},"geometry":{"type":"Polygon","coordinates":[[[-64.0715,-3.7043],[-64.0764,-3.7674],[-64.0927,-3.7528],[-64.1109,-3.7598],[-64.1598,-3.8116],[-64.1579,-3.8293],[-64.1665,-3.8655],[-64.19,-3.8719],[-64.2369,-3.8936],[-64.2509,-3.8879],[-64.27,-3.9103],[-64.2819,-3.9392],[-64.317,-3.9524],[-64.3215,-3.9628],[-64.3502,-3.9756],[-64.3872,-3.9672],[-64.4392,-3.9875],[-64.4567,-3.9847],[-64.4841,-3.9675],[-64.5258,-3.9594],[-64.5557,-3.9766],[-64.567,-4.0004],[-64.5671,-4.0332],[-64.5829,-4.0542],[-64.6112,-4.0651],[-64.6244,-4.0773],[-64.636,-4.104],[-64.6599,-4.1284],[-64.6961,-4.1166],[-64.718,-4.1425],[-64.7248,-4.1886],[-64.7315,-4.1958],[-64.777,-4.2066],[-64.7913,-4.2224],[-64.8145,-4.2671],[-64.8361,-4.2815],[-64.8639,-4.2893],[-64.8903,-4.2829],[-64.9175,-4.2949],[-64.9454,-4.298],[-64.9793,-4.2834],[-65.0033,-4.3104],[-65.0154,-4.3618],[-65.0162,-4.4053],[-65.0329,-4.4358],[-65.0474,-4.4442],[-65.0921,-4.4551],[-65.1088,-4.4734],[-65.1232,-4.5168],[-65.1848,-4.5656],[-65.2183,-4.5863],[-65.2575,-4.6201],[-65.2875,-4.6259],[-65.3188,-4.6228],[-65.3535,-4.6059],[-65.364,-4.6099],[-65.3818,-4.6537],[-65.405,-4.6663],[-65.4315,-4.6677],[-65.4466,-4.6802],[-65.463,-4.7622],[-65.4714,-4.7775],[-65.504,-4.8037],[-65.542,-4.8551],[-65.5747,-4.8844],[-65.5793,-4.9004],[-65.5709,-4.9441],[-65.5769,-4.9606],[-65.5971,-4.9812],[-65.6229,-5.0237],[-65.6669,-5.0322],[-65.6862,-5.0447],[-65.697,-5.0781],[-65.6978,-5.1054],[-65.6852,-5.1129],[-65.6599,-5.1067],[-65.6449,-5.1186],[-65.65,-5.135],[-65.6904,-5.1731],[-65.7002,-5.1892],[-65.6964,-5.2224],[-65.6784,-5.2612],[-65.6766,-5.2994],[-65.6908,-5.3107],[-65.7273,-5.2857],[-65.7701,-5.3066],[-65.8038,-5.2992],[-65.8301,-5.3076],[-65.8532,-5.3237],[-65.8713,-5.3453],[-65.889,-5.3777],[-65.9005,-5.4369],[-65.9129,-5.4383],[-65.9409,-5.407],[-65.9648,-5.3983],[-65.9978,-5.417],[-66.0313,-5.4221],[-66.0748,-5.4184],[-66.094,-5.4025],[-66.0845,-5.3791],[-66.116,-5.37],[-66.144,-5.3904],[-66.1577,-5.3698],[-66.2685,-5.3565],[-66.2943,-5.3601],[-66.3368,-5.3859],[-66.3521,-5.3819],[-66.389,-5.4141],[-66.4285,-5.432],[-66.4949,-5.4335],[-66.5178,-5.4447],[-66.5324,-5.4389],[-66.5377,-5.4211],[-66.5519,-5.412],[-66.544,-5.3951],[-66.5552,-5.371],[-66.5699,-5.3671],[-66.5764,-5.3803],[-66.5647,-5.3935],[-66.584,-5.4669],[-66.6305,-5.4871],[-66.6421,-5.5202],[-66.6695,-5.5293],[-66.6852,-5.5593],[-66.7055,-5.5598],[-66.715,-5.5458],[-66.7555,-5.5482],[-66.7697,-5.5546],[-66.7856,-5.5471],[-66.7831,-5.5311],[-66.7961,-5.5229],[-66.8097,-5.5306],[-66.8537,-5.5279],[-66.8576,-5.52],[-66.9032,-5.4969],[-66.9034,-5.4524],[-66.9413,-5.4251],[-66.9581,-5.4198],[-66.9736,-5.3924],[-66.9572,-5.3567],[-66.9541,-5.3331],[-66.9333,-5.3197],[-66.9384,-5.2775],[-66.9333,-5.2613],[-66.9095,-5.2637],[-66.8847,-5.2189],[-66.8662,-5.2028],[-66.839,-5.1935],[-66.8155,-5.1621],[-66.7909,-5.1522],[-66.7802,-5.1302],[-66.7697,-5.0845],[-66.7165,-5.0557],[-66.6571,-5.069],[-66.6257,-5.0856],[-66.6047,-5.0734],[-66.5887,-5.0532],[-66.5631,-5.0007],[-66.5482,-4.9893],[-66.5241,-4.9449],[-66.4916,-4.9215],[-66.4725,-4.9149],[-66.4607,-4.8921],[-66.4086,-4.8543],[-66.3874,-4.8243],[-66.3631,-4.828],[-66.3398,-4.8047],[-66.3047,-4.7845],[-66.2697,-4.7803],[-66.2547,-4.7685],[-66.2426,-4.7086],[-66.2456,-4.6837],[-66.2385,-4.6681],[-66.1996,-4.6389],[-66.1958,-4.6034],[-66.2062,-4.571],[-66.2037,-4.5258],[-66.2139,-4.5093],[-66.2105,-4.4924],[-66.188,-4.4816],[-66.1532,-4.4441],[-66.1507,-4.4249],[-66.125,-4.4036],[-66.1005,-4.3954],[-66.0594,-4.4008],[-66.0268,-4.3713],[-65.9753,-4.3162],[-65.9501,-4.2946],[-65.9209,-4.3045],[-65.9088,-4.2926],[-65.8726,-4.2526],[-65.8459,-4.2491],[-65.8167,-4.2216],[-65.7678,-4.2154],[-65.7328,-4.1949],[-65.6943,-4.1639],[-65.6688,-4.1551],[-65.6554,-4.1277],[-65.6441,-4.1295],[-65.6149,-4.1164],[-65.5852,-4.1143],[-65.516,-4.088],[-65.48,-4.0505],[-65.4434,-4.0385],[-65.4286,-4.0278],[-65.4055,-4.0311],[-65.3877,-4.0116],[-65.311,-3.9653],[-65.2854,-3.964],[-65.2774,-3.9498],[-65.2533,-3.9535],[-65.2252,-3.9332],[-65.2053,-3.9309],[-65.1963,-3.9132],[-65.1581,-3.9054],[-65.1571,-3.8877],[-65.1187,-3.8691],[-65.1281,-3.8549],[-65.119,-3.8333],[-65.0731,-3.7875],[-65.0512,-3.7946],[-65.0194,-3.7836],[-65.03,-3.7272],[-65.0141,-3.686],[-65.0378,-3.6643],[-65.0141,-3.6559],[-64.9976,-3.6377],[-64.9719,-3.6227],[-64.9911,-3.5893],[-64.9904,-3.5671],[-64.9622,-3.5368],[-64.9808,-3.5063],[-64.9715,-3.4889],[-64.9492,-3.4906],[-64.9224,-3.4529],[-64.8928,-3.4246],[-64.8858,-3.3926],[-64.8453,-3.378],[-64.8124,-3.3413],[-64.7988,-3.3375],[-64.7784,-3.3098],[-64.7223,-3.2931],[-64.7218,-3.2781],[-64.6791,-3.2799],[-64.6745,-3.2637],[-64.6206,-3.2887],[-64.5438,-3.3117],[-64.522,-3.3269],[-64.5088,-3.3512],[-64.4628,-3.4139],[-64.4441,-3.4635],[-64.4239,-3.4842],[-64.387,-3.5034],[-64.3549,-3.5367],[-64.2915,-3.5705],[-64.2157,-3.6245],[-64.1773,-3.6625],[-64.1296,-3.6877],[-64.0715,-3.7043]]]}},{"type":"Feature","properties":{"codarea":"1304260","centroide":[-65.41055148362616,-3.165477722921235],"codigo_ibge":1304260,"nome_ig":"Uarini"},"geometry":{"type":"Polygon","coordinates":[[[-64.7849,-3.1587],[-64.8033,-3.1493],[-64.826,-3.1122],[-64.8682,-3.0964],[-64.8965,-3.0974],[-64.9147,-3.0771],[-64.9452,-3.0604],[-64.9739,-3.0565],[-64.9747,-3.0935],[-65.0072,-3.1388],[-65.0356,-3.1713],[-65.0477,-3.1941],[-65.0522,-3.2477],[-65.0677,-3.302],[-65.1082,-3.3605],[-65.132,-3.3872],[-65.1574,-3.3893],[-65.1665,-3.4269],[-65.2075,-3.461],[-65.25,-3.4654],[-65.2851,-3.4819],[-65.3322,-3.4891],[-65.3755,-3.5071],[-65.4046,-3.5374],[-65.4261,-3.5756],[-65.4745,-3.6004],[-65.5026,-3.581],[-65.5343,-3.6191],[-65.5511,-3.6275],[-65.6047,-3.6255],[-65.6295,-3.6202],[-65.6556,-3.6384],[-65.6586,-3.6926],[-65.683,-3.7111],[-65.7073,-3.738],[-65.7169,-3.7625],[-65.724,-3.8075],[-65.784,-3.8378],[-65.797,-3.8609],[-65.7973,-3.8816],[-65.8342,-3.9228],[-65.8554,-3.9578],[-65.8633,-3.9976],[-65.8557,-4.0308],[-65.8422,-4.0532],[-65.8424,-4.0783],[-65.8587,-4.0986],[-65.8701,-4.1328],[-65.9063,-4.0694],[-65.9209,-4.0345],[-65.9436,-4.0176],[-65.9551,-3.9987],[-65.9482,-3.9577],[-65.9583,-3.9329],[-65.9809,-3.9027],[-65.9866,-3.8582],[-65.9829,-3.7934],[-65.9495,-3.7518],[-65.9615,-3.731],[-65.9915,-3.728],[-65.9932,-3.7102],[-65.9849,-3.6743],[-65.9921,-3.6503],[-65.9889,-3.5855],[-65.9845,-3.5665],[-65.9858,-3.5257],[-65.9781,-3.4873],[-65.9425,-3.4617],[-65.9214,-3.4177],[-65.9145,-3.3819],[-65.8871,-3.3623],[-65.8707,-3.3405],[-65.869,-3.3042],[-65.8394,-3.2674],[-65.8321,-3.2407],[-65.8023,-3.1837],[-65.7637,-3.1709],[-65.7523,-3.1563],[-65.7329,-3.0944],[-65.7319,-3.0763],[-65.7072,-3.0515],[-65.6782,-3.0003],[-65.6574,-2.954],[-65.6409,-2.9372],[-65.6147,-2.9288],[-65.6046,-2.9146],[-65.6043,-2.8902],[-65.5892,-2.8716],[-65.5598,-2.8885],[-65.5315,-2.8839],[-65.4971,-2.8589],[-65.4689,-2.8676],[-65.4492,-2.8552],[-65.4267,-2.8734],[-65.3811,-2.854],[-65.3461,-2.8198],[-65.3383,-2.7739],[-65.3531,-2.7583],[-65.3769,-2.7177],[-65.3862,-2.6872],[-65.3794,-2.6665],[-65.3577,-2.649],[-65.3125,-2.6382],[-65.2618,-2.6067],[-65.2541,-2.5848],[-65.2564,-2.5639],[-65.2852,-2.525],[-65.3145,-2.4766],[-65.3401,-2.4738],[-65.3383,-2.4604],[-65.3134,-2.4359],[-65.3093,-2.4102],[-65.3536,-2.3939],[-65.3876,-2.4006],[-65.3747,-2.3721],[-65.353,-2.3631],[-65.32,-2.3615],[-65.276,-2.38],[-65.2553,-2.3825],[-65.2294,-2.388],[-65.216,-2.3804],[-65.2125,-2.3595],[-65.2195,-2.2905],[-65.2129,-2.2795],[-65.1932,-2.2835],[-65.1884,-2.3157],[-65.1757,-2.3256],[-65.1512,-2.3258],[-65.139,-2.3373],[-65.1163,-2.3949],[-65.0979,-2.4219],[-65.0558,-2.507],[-64.998,-2.5603],[-64.9807,-2.5956],[-64.9936,-2.6401],[-65.0036,-2.7032],[-64.9813,-2.7227],[-64.9167,-2.7104],[-64.8881,-2.7122],[-64.8663,-2.7354],[-64.8771,-2.8125],[-64.8918,-2.8439],[-64.8924,-2.875],[-64.8572,-2.9076],[-64.8167,-2.9368],[-64.8106,-2.9472],[-64.8038,-3.0145],[-64.7921,-3.0355],[-64.758,-3.0752],[-64.7331,-3.0866],[-64.7147,-3.1067],[-64.719,-3.1194],[-64.7695,-3.1321],[-64.7866,-3.1449],[-64.7849,-3.1587]]]}}]}