{"type":"FeatureCollection","features":[{"type":"Feature","properties":{"codarea":"4300570","centroide":[-51.30534240029257,-29.361927697838297],"codigo_ibge":4300570,"nome_ig":"Vale do Sinos"},"geometry":{"type":"Polygon","coordinates":[[[-51.2697,-29.3128],[-51.2621,-29.3157],[-51.2393,-29.3543],[-51.2602,-29.3507],[-51.2819,-29.3721],[-51.2743,-29.3963],[-51.2803,-29.4048],[-51.3106,-29.4129],[-51.3301,-29.4271],[-51.332,-29.4098],[-51.3554,-29.3675],[-51.3544,-29.3518],[-51.3544,-29.3331],[-51.3364,-29.3329],[-51.2987,-29.3175],[-51.2697,-29.3128]]]}},{"type":"Feature","properties":{"codarea":"4300877","centroide":[-50.93360407550708,-29.63582254744703],"codigo_ibge":4300877,"nome_ig":"Vale do Sinos"},"geometry":{"type":"Polygon","coordinates":[[[-50.947,-29.5967],[-50.9116,-29.5992],[-50.9062,-29.6316],[-50.9084,-29.6526],[-50.9317,-29.6733],[-50.947,-29.6794],[-50.942,-29.6915],[-50.9583,-29.6775],[-50.9509,-29.6204],[-50.9602,-29.5959],[-50.947,-29.5967]]]}},{"type":"Feature","properties":{"codarea":"4301651","centroide":[-51.489835616823854,-29.384851356103404],"codigo_ibge":4301651,"nome_ig":"Vale do Sinos"},"geometry":{"type":"Polygon","coordinates":[[[-51.3971,-29.3515],[-51.4011,-29.419],[-51.4035,-29.4334],[-51.4355,-29.4318],[-51.4401,-29.4183],[-51.4743,-29.4002],[-51.5206,-29.408],[-51.5439,-29.4191],[-51.5575,-29.4012],[-51.5836,-29.4074],[-51.6079,-29.4115],[-51.6108,-29.401],[-51.6171,-29.3783],[-51.5612,-29.3747],[-51.562,-29.3587],[-51.534,-29.3517],[-51.3971,-29.3515]]]}},{"type":"Feature","properties":{"codarea":"4302352","centroide":[-51.363887467753614,-29.471436397357188],"codigo_ibge":4302352,"nome_ig":"Vale do Sinos"},"geometry":{"type":"Polygon","coordinates":[[[-51.332,-29.4098],[-51.3301,-29.4271],[-51.3402,-29.4736],[-51.3163,-29.4857],[-51.3365,-29.5165],[-51.3538,-29.5412],[-51.3725,-29.5376],[-51.3761,-29.5525],[-51.3962,-29.5254],[-51.3872,-29.5033],[-51.3991,-29.4942],[-51.3841,-29.4718],[-51.4054,-29.4454],[-51.4035,-29.4334],[-51.4011,-29.419],[-51.3613,-29.4048],[-51.332,-29.4098]]]}},{"type":"Feature","properties":{"codarea":"4302659","centroide":[-51.622600273309665,-29.536350005429636],"codigo_ibge":4302659,"nome_ig":"Vale do Sinos"},"geometry":{"type":"Polygon","coordinates":[[[-51.6017,-29.4756],[-51.5878,-29.4766],[-51.5789,-29.5105],[-51.5891,-29.5372],[-51.5699,-29.562],[-51.5833,-29.595],[-51.5755,-29.6134],[-51.591,-29.6105],[-51.6081,-29.5922],[-51.63,-29.5923],[-51.6427,-29.5746],[-51.6494,-29.5901],[-51.6627,-29.5901],[-51.6649,-29.5007],[-51.6907,-29.5007],[-51.6904,-29.4877],[-51.6693,-29.4808],[-51.6153,-29.4824],[-51.6017,-29.4756]]]}},{"type":"Feature","properties":{"codarea":"4303905","centroide":[-51.04936778590034,-29.672147146632447],"codigo_ibge":4303905,"nome_ig":"Vale do Sinos"},"geometry":{"type":"Polygon","coordinates":[[[-50.9961,-29.7063],[-51.0805,-29.7155],[-51.0757,-29.6863],[-51.0903,-29.6742],[-51.0948,-29.6422],[-51.0626,-29.6459],[-51.057,-29.6156],[-51.0348,-29.6182],[-51.0394,-29.6487],[-51.0078,-29.6524],[-51.0149,-29.6956],[-50.9961,-29.7063]]]}},{"type":"Feature","properties":{"codarea":"4304606","centroide":[-51.17970320588845,-29.911967753547774],"codigo_ibge":4304606,"nome_ig":"Vale do Sinos"},"geometry":{"type":"Polygon","coordinates":[[[-51.123,-29.8663],[-51.106,-29.9024],[-51.1259,-29.933],[-51.1272,-29.9544],[-51.1537,-29.9671],[-51.2206,-29.967],[-51.2336,-29.9377],[-51.2442,-29.9219],[-51.2495,-29.8841],[-51.2316,-29.8623],[-51.1775,-29.8666],[-51.1656,-29.8592],[-51.123,-29.8663]]]}},{"type":"Feature","properties":{"codarea":"4304689","centroide":[-51.3564295557507,-29.706118380895642],"codigo_ibge":4304689,"nome_ig":"Vale do Sinos"},"geometry":{"type":"Polygon","coordinates":[[[-51.2765,-29.6561],[-51.2876,-29.6617],[-51.2829,-29.7033],[-51.2895,-29.7324],[-51.3073,-29.7761],[-51.3337,-29.7566],[-51.3545,-29.7698],[-51.3654,-29.788],[-51.4031,-29.772],[-51.4179,-29.7546],[-51.4076,-29.729],[-51.4268,-29.7153],[-51.4366,-29.7261],[-51.4571,-29.7058],[-51.4346,-29.6977],[-51.4233,-29.6802],[-51.4279,-29.6537],[-51.4175,-29.6616],[-51.3913,-29.6532],[-51.3569,-29.6363],[-51.3376,-29.634],[-51.3338,-29.6486],[-51.3083,-29.6376],[-51.2765,-29.6561]]]}},{"type":"Feature","properties":{"codarea":"4306403","centroide":[-51.08971733895473,-29.599005796263505],"codigo_ibge":4306403,"nome_ig":"Vale do Sinos"},"geometry":{"type":"Polygon","coordinates":[[[-51.0488,-29.5617],[-51.057,-29.6156],[-51.0626,-29.6459],[-51.0948,-29.6422],[-51.1298,-29.6385],[-51.1176,-29.5509],[-51.0488,-29.5617]]]}},{"type":"Feature","properties":{"codarea":"4307609","centroide":[-51.1877034727066,-29.647862581448457],"codigo_ibge":4307609,"nome_ig":"Vale do Sinos"},"geometry":{"type":"Polygon","coordinates":[[[-51.1964,-29.6164],[-51.133,-29.628],[-51.1346,-29.638],[-51.1421,-29.637],[-51.1433,-29.6699],[-51.1772,-29.6724],[-51.1939,-29.6807],[-51.2095,-29.6941],[-51.2255,-29.6663],[-51.2314,-29.6161],[-51.1964,-29.6164]]]}},{"type":"Feature","properties":{"codarea":"4307708","centroide":[-51.17945731271295,-29.851292251547854],"codigo_ibge":4307708,"nome_ig":"Vale do Sinos"},"geometry":{"type":"Polygon","coordinates":[[[-51.1012,-29.8687],[-51.123,-29.8663],[-51.1656,-29.8592],[-51.1775,-29.8666],[-51.2316,-29.8623],[-51.2258,-29.8429],[-51.211,-29.8438],[-51.1811,-29.8295],[-51.1553,-29.837],[-51.1256,-29.8606],[-51.1012,-29.8687]]]}},{"type":"Feature","properties":{"codarea":"4308102","centroide":[-51.286026068939044,-29.456077077491614],"codigo_ibge":4308102,"nome_ig":"Vale do Sinos"},"geometry":{"type":"Polygon","coordinates":[[[-51.2262,-29.3898],[-51.1966,-29.4093],[-51.2353,-29.4227],[-51.2488,-29.4335],[-51.252,-29.4618],[-51.2729,-29.4893],[-51.2651,-29.5044],[-51.2902,-29.5253],[-51.3033,-29.5229],[-51.3267,-29.5256],[-51.3365,-29.5165],[-51.3163,-29.4857],[-51.3402,-29.4736],[-51.3301,-29.4271],[-51.3106,-29.4129],[-51.2803,-29.4048],[-51.2805,-29.4185],[-51.2636,-29.4175],[-51.2558,-29.4021],[-51.2262,-29.3898]]]}},{"type":"Feature","properties":{"codarea":"4309555","centroide":[-51.422705583615766,-29.54510366034771],"codigo_ibge":4309555,"nome_ig":"Vale do Sinos"},"geometry":{"type":"Polygon","coordinates":[[[-51.3962,-29.5254],[-51.3761,-29.5525],[-51.3954,-29.5565],[-51.3864,-29.5836],[-51.4568,-29.5648],[-51.454,-29.5438],[-51.4634,-29.5319],[-51.4511,-29.5022],[-51.4357,-29.5197],[-51.4085,-29.517],[-51.3962,-29.5254]]]}},{"type":"Feature","properties":{"codarea":"4310108","centroide":[-50.79582593020672,-29.56101427040377],"codigo_ibge":4310108,"nome_ig":"Vale do Sinos"},"geometry":{"type":"Polygon","coordinates":[[[-50.7158,-29.5171],[-50.6918,-29.5659],[-50.6956,-29.5926],[-50.7523,-29.5833],[-50.7547,-29.6035],[-50.8058,-29.617],[-50.8555,-29.5837],[-50.8562,-29.555],[-50.8985,-29.5515],[-50.9111,-29.5455],[-50.9105,-29.5162],[-50.8746,-29.5133],[-50.8636,-29.5251],[-50.8167,-29.5249],[-50.773,-29.5404],[-50.7416,-29.5353],[-50.7158,-29.5171]]]}},{"type":"Feature","properties":{"codarea":"4310801","centroide":[-51.15679429338918,-29.581751760084533],"codigo_ibge":4310801,"nome_ig":"Vale do Sinos"},"geometry":{"type":"Polygon","coordinates":[[[-51.1163,-29.544],[-51.1176,-29.5509],[-51.1298,-29.6385],[-51.1346,-29.638],[-51.133,-29.628],[-51.1964,-29.6164],[-51.1887,-29.6058],[-51.1957,-29.5861],[-51.1901,-29.5597],[-51.2043,-29.5583],[-51.1962,-29.5473],[-51.158,-29.54],[-51.1163,-29.544]]]}},{"type":"Feature","properties":{"codarea":"4311627","centroide":[-51.219210902469875,-29.582215263799352],"codigo_ibge":4311627,"nome_ig":"Vale do Sinos"},"geometry":{"type":"Polygon","coordinates":[[[-51.2043,-29.5583],[-51.1901,-29.5597],[-51.1957,-29.5861],[-51.1887,-29.6058],[-51.1964,-29.6164],[-51.2314,-29.6161],[-51.2376,-29.581],[-51.2448,-29.5839],[-51.2634,-29.5677],[-51.2238,-29.5476],[-51.2043,-29.5583]]]}},{"type":"Feature","properties":{"codarea":"4311643","centroide":[-51.216339666119474,-29.45853164666558],"codigo_ibge":4311643,"nome_ig":"Vale do Sinos"},"geometry":{"type":"Polygon","coordinates":[[[-51.1689,-29.4394],[-51.178,-29.494],[-51.2223,-29.4827],[-51.226,-29.5011],[-51.2527,-29.4977],[-51.2651,-29.5044],[-51.2729,-29.4893],[-51.252,-29.4618],[-51.2488,-29.4335],[-51.2353,-29.4227],[-51.1966,-29.4093],[-51.1689,-29.4394]]]}},{"type":"Feature","properties":{"codarea":"4311791","centroide":[-51.5506117452136,-29.549119322563826],"codigo_ibge":4311791,"nome_ig":"Vale do Sinos"},"geometry":{"type":"Polygon","coordinates":[[[-51.5216,-29.5122],[-51.512,-29.5226],[-51.5175,-29.5411],[-51.5034,-29.5775],[-51.5359,-29.5952],[-51.5405,-29.6138],[-51.5755,-29.6134],[-51.5833,-29.595],[-51.5699,-29.562],[-51.5891,-29.5372],[-51.5789,-29.5105],[-51.5878,-29.4766],[-51.5736,-29.4785],[-51.5216,-29.5122]]]}},{"type":"Feature","properties":{"codarea":"4312401","centroide":[-51.503583036253296,-29.70977501563346],"codigo_ibge":4312401,"nome_ig":"Vale do Sinos"},"geometry":{"type":"Polygon","coordinates":[[[-51.5755,-29.6134],[-51.5405,-29.6138],[-51.5359,-29.5952],[-51.5034,-29.5775],[-51.4906,-29.6051],[-51.4669,-29.6218],[-51.4277,-29.6351],[-51.4279,-29.6537],[-51.4233,-29.6802],[-51.4346,-29.6977],[-51.4571,-29.7058],[-51.4366,-29.7261],[-51.4268,-29.7153],[-51.4076,-29.729],[-51.4179,-29.7546],[-51.4031,-29.772],[-51.3654,-29.788],[-51.3674,-29.8001],[-51.3499,-29.8186],[-51.3667,-29.8373],[-51.4134,-29.8381],[-51.4381,-29.8443],[-51.452,-29.8289],[-51.4922,-29.8231],[-51.5221,-29.781],[-51.5421,-29.7737],[-51.5604,-29.7851],[-51.5865,-29.776],[-51.5883,-29.7545],[-51.5659,-29.7365],[-51.6418,-29.6357],[-51.6525,-29.6004],[-51.6627,-29.5901],[-51.6494,-29.5901],[-51.6427,-29.5746],[-51.63,-29.5923],[-51.6081,-29.5922],[-51.591,-29.6105],[-51.5755,-29.6134]]]}},{"type":"Feature","properties":{"codarea":"4312476","centroide":[-51.05575534004687,-29.52077138659648],"codigo_ibge":4312476,"nome_ig":"Vale do Sinos"},"geometry":{"type":"Polygon","coordinates":[[[-51.0631,-29.4682],[-51.0496,-29.496],[-51.0157,-29.5014],[-51.017,-29.5138],[-50.965,-29.5187],[-50.9713,-29.5414],[-50.9849,-29.5474],[-51.0437,-29.5449],[-51.0488,-29.5617],[-51.1176,-29.5509],[-51.1163,-29.544],[-51.1124,-29.5107],[-51.1061,-29.4769],[-51.0788,-29.48],[-51.0775,-29.4651],[-51.0631,-29.4682]]]}},{"type":"Feature","properties":{"codarea":"4313060","centroide":[-50.898384808857216,-29.585197626017226],"codigo_ibge":4313060,"nome_ig":"Vale do Sinos"},"geometry":{"type":"Polygon","coordinates":[[[-50.8985,-29.5515],[-50.8562,-29.555],[-50.8555,-29.5837],[-50.8598,-29.6081],[-50.8795,-29.6369],[-50.9062,-29.6316],[-50.9116,-29.5992],[-50.947,-29.5967],[-50.9469,-29.5523],[-50.9442,-29.5476],[-50.8985,-29.5515]]]}},{"type":"Feature","properties":{"codarea":"4313375","centroide":[-51.28850779913293,-29.844220214352756],"codigo_ibge":4313375,"nome_ig":"Vale do Sinos"},"geometry":{"type":"Polygon","coordinates":[[[-51.3073,-29.7761],[-51.3021,-29.7819],[-51.2514,-29.7754],[-51.1929,-29.8041],[-51.1811,-29.8295],[-51.211,-29.8438],[-51.2258,-29.8429],[-51.2316,-29.8623],[-51.2495,-29.8841],[-51.2442,-29.9219],[-51.2336,-29.9377],[-51.2656,-29.9346],[-51.3103,-29.9315],[-51.3275,-29.9096],[-51.3676,-29.8892],[-51.3535,-29.8438],[-51.3667,-29.8373],[-51.3499,-29.8186],[-51.3674,-29.8001],[-51.3654,-29.788],[-51.3545,-29.7698],[-51.3337,-29.7566],[-51.3073,-29.7761]]]}},{"type":"Feature","properties":{"codarea":"4313409","centroide":[-51.04842922689078,-29.73492126441884],"codigo_ibge":4313409,"nome_ig":"Vale do Sinos"},"geometry":{"type":"Polygon","coordinates":[[[-51.1346,-29.638],[-51.1298,-29.6385],[-51.0948,-29.6422],[-51.0903,-29.6742],[-51.0757,-29.6863],[-51.0805,-29.7155],[-50.9961,-29.7063],[-50.9569,-29.6884],[-50.9466,-29.6931],[-50.9461,-29.714],[-50.9347,-29.7646],[-50.9571,-29.7901],[-51.0755,-29.8301],[-51.0806,-29.83],[-51.0681,-29.8112],[-51.0869,-29.7621],[-51.0833,-29.748],[-51.106,-29.7281],[-51.129,-29.7431],[-51.1579,-29.7152],[-51.1595,-29.6927],[-51.1786,-29.6931],[-51.1772,-29.6724],[-51.1433,-29.6699],[-51.1421,-29.637],[-51.1346,-29.638]]]}},{"type":"Feature","properties":{"codarea":"4314035","centroide":[-51.42223139110818,-29.60963652327622],"codigo_ibge":4314035,"nome_ig":"Vale do Sinos"},"geometry":{"type":"Polygon","coordinates":[[[-51.3864,-29.5836],[-51.3793,-29.631],[-51.3891,-29.6317],[-51.3913,-29.6532],[-51.4175,-29.6616],[-51.4279,-29.6537],[-51.4277,-29.6351],[-51.4669,-29.6218],[-51.4596,-29.6094],[-51.4684,-29.583],[-51.4568,-29.5648],[-51.3864,-29.5836]]]}},{"type":"Feature","properties":{"codarea":"4314050","centroide":[-50.85644474293598,-29.659224533317644],"codigo_ibge":4314050,"nome_ig":"Vale do Sinos"},"geometry":{"type":"Polygon","coordinates":[[[-50.8058,-29.617],[-50.8004,-29.6427],[-50.8068,-29.6539],[-50.7972,-29.6754],[-50.8226,-29.6852],[-50.8392,-29.7142],[-50.8711,-29.7293],[-50.8784,-29.7133],[-50.8717,-29.693],[-50.8879,-29.7005],[-50.9165,-29.6878],[-50.9317,-29.6733],[-50.9084,-29.6526],[-50.9062,-29.6316],[-50.8795,-29.6369],[-50.8598,-29.6081],[-50.8555,-29.5837],[-50.8058,-29.617]]]}},{"type":"Feature","properties":{"codarea":"4314423","centroide":[-51.1083854042432,-29.461535791335212],"codigo_ibge":4314423,"nome_ig":"Vale do Sinos"},"geometry":{"type":"Polygon","coordinates":[[[-51.0146,-29.4457],[-51.0084,-29.4471],[-51.0126,-29.4791],[-51.0631,-29.4682],[-51.0775,-29.4651],[-51.0788,-29.48],[-51.1061,-29.4769],[-51.1124,-29.5107],[-51.1464,-29.5058],[-51.1443,-29.4975],[-51.178,-29.494],[-51.1689,-29.4394],[-51.1342,-29.4372],[-51.1245,-29.4051],[-51.0967,-29.4094],[-51.1024,-29.4393],[-51.0875,-29.4503],[-51.0477,-29.4494],[-51.0423,-29.4398],[-51.0146,-29.4457]]]}},{"type":"Feature","properties":{"codarea":"4314803","centroide":[-51.24824058868878,-29.700796615314637],"codigo_ibge":4314803,"nome_ig":"Vale do Sinos"},"geometry":{"type":"Polygon","coordinates":[[[-51.2448,-29.5839],[-51.2376,-29.581],[-51.2314,-29.6161],[-51.2255,-29.6663],[-51.2095,-29.6941],[-51.1939,-29.6807],[-51.1962,-29.7145],[-51.2101,-29.7376],[-51.1896,-29.7785],[-51.1929,-29.8041],[-51.2514,-29.7754],[-51.3021,-29.7819],[-51.3073,-29.7761],[-51.2895,-29.7324],[-51.2829,-29.7033],[-51.2876,-29.6617],[-51.2765,-29.6561],[-51.291,-29.6219],[-51.2792,-29.6103],[-51.2925,-29.5843],[-51.2672,-29.5903],[-51.2448,-29.5839]]]}},{"type":"Feature","properties":{"codarea":"4315149","centroide":[-51.17291179446123,-29.52447889546546],"codigo_ibge":4315149,"nome_ig":"Vale do Sinos"},"geometry":{"type":"Polygon","coordinates":[[[-51.1124,-29.5107],[-51.1163,-29.544],[-51.158,-29.54],[-51.1962,-29.5473],[-51.2043,-29.5583],[-51.2238,-29.5476],[-51.2365,-29.5269],[-51.178,-29.494],[-51.1443,-29.4975],[-51.1464,-29.5058],[-51.1124,-29.5107]]]}},{"type":"Feature","properties":{"codarea":"4315750","centroide":[-50.39989144952903,-29.616186100966022],"codigo_ibge":4315750,"nome_ig":"Vale do Sinos"},"geometry":{"type":"Polygon","coordinates":[[[-50.3156,-29.6796],[-50.3322,-29.6829],[-50.3376,-29.7009],[-50.3555,-29.7033],[-50.3586,-29.7157],[-50.3832,-29.7192],[-50.404,-29.7059],[-50.4502,-29.6806],[-50.4804,-29.6574],[-50.4885,-29.6317],[-50.4684,-29.6205],[-50.4798,-29.5903],[-50.4366,-29.5602],[-50.4328,-29.5385],[-50.4221,-29.5201],[-50.4062,-29.5193],[-50.3483,-29.4946],[-50.3549,-29.5265],[-50.3366,-29.5434],[-50.3547,-29.5506],[-50.3438,-29.5856],[-50.3467,-29.5974],[-50.3291,-29.6021],[-50.3593,-29.631],[-50.3497,-29.6416],[-50.3502,-29.6622],[-50.3211,-29.6564],[-50.3156,-29.6796]]]}},{"type":"Feature","properties":{"codarea":"4316006","centroide":[-50.54956437963139,-29.628336773162136],"codigo_ibge":4316006,"nome_ig":"Vale do Sinos"},"geometry":{"type":"Polygon","coordinates":[[[-50.4502,-29.6806],[-50.4608,-29.6958],[-50.4913,-29.6882],[-50.5072,-29.6958],[-50.5261,-29.7189],[-50.5476,-29.7134],[-50.5722,-29.734],[-50.5714,-29.7156],[-50.6024,-29.7072],[-50.6328,-29.6845],[-50.6806,-29.6721],[-50.6397,-29.6169],[-50.6046,-29.5903],[-50.5899,-29.5538],[-50.5729,-29.553],[-50.5529,-29.5388],[-50.4328,-29.5385],[-50.4366,-29.5602],[-50.4798,-29.5903],[-50.4684,-29.6205],[-50.4885,-29.6317],[-50.4804,-29.6574],[-50.4502,-29.6806]]]}},{"type":"Feature","properties":{"codarea":"4316501","centroide":[-51.53695864992826,-29.456638719392434],"codigo_ibge":4316501,"nome_ig":"Vale do Sinos"},"geometry":{"type":"Polygon","coordinates":[[[-51.4722,-29.4386],[-51.4579,-29.4527],[-51.4548,-29.4709],[-51.4716,-29.4809],[-51.4574,-29.4957],[-51.48,-29.4934],[-51.486,-29.5096],[-51.494,-29.4848],[-51.52,-29.5026],[-51.5216,-29.5122],[-51.5736,-29.4785],[-51.5878,-29.4766],[-51.6017,-29.4756],[-51.5694,-29.458],[-51.5922,-29.4402],[-51.6426,-29.4355],[-51.6408,-29.4172],[-51.6079,-29.4115],[-51.5836,-29.4074],[-51.5729,-29.4287],[-51.5327,-29.4319],[-51.5155,-29.426],[-51.4722,-29.4386]]]}},{"type":"Feature","properties":{"codarea":"4316956","centroide":[-50.96699195592856,-29.477318623124845],"codigo_ibge":4316956,"nome_ig":"Vale do Sinos"},"geometry":{"type":"Polygon","coordinates":[[[-50.9813,-29.3904],[-50.9565,-29.4257],[-50.9395,-29.4248],[-50.9097,-29.4509],[-50.9103,-29.5016],[-50.9105,-29.5162],[-50.9111,-29.5455],[-50.8985,-29.5515],[-50.9442,-29.5476],[-50.9469,-29.5523],[-50.9713,-29.5414],[-50.965,-29.5187],[-51.017,-29.5138],[-51.0157,-29.5014],[-51.0496,-29.496],[-51.0631,-29.4682],[-51.0126,-29.4791],[-51.0084,-29.4471],[-51.0146,-29.4457],[-51.0205,-29.4371],[-51.0043,-29.4242],[-50.991,-29.3872],[-50.9813,-29.3904]]]}},{"type":"Feature","properties":{"codarea":"4318481","centroide":[-51.25858936307861,-29.536869485361606],"codigo_ibge":4318481,"nome_ig":"Vale do Sinos"},"geometry":{"type":"Polygon","coordinates":[[[-51.178,-29.494],[-51.2365,-29.5269],[-51.2238,-29.5476],[-51.2634,-29.5677],[-51.2448,-29.5839],[-51.2672,-29.5903],[-51.2925,-29.5843],[-51.3026,-29.5803],[-51.3084,-29.5402],[-51.3033,-29.5229],[-51.2902,-29.5253],[-51.2651,-29.5044],[-51.2527,-29.4977],[-51.226,-29.5011],[-51.2223,-29.4827],[-51.178,-29.494]]]}},{"type":"Feature","properties":{"codarea":"4318614","centroide":[-51.484515751121464,-29.545965686458075],"codigo_ibge":4318614,"nome_ig":"Vale do Sinos"},"geometry":{"type":"Polygon","coordinates":[[[-51.4574,-29.4957],[-51.4511,-29.5022],[-51.4634,-29.5319],[-51.454,-29.5438],[-51.4568,-29.5648],[-51.4684,-29.583],[-51.4596,-29.6094],[-51.4669,-29.6218],[-51.4906,-29.6051],[-51.5034,-29.5775],[-51.5175,-29.5411],[-51.512,-29.5226],[-51.5216,-29.5122],[-51.52,-29.5026],[-51.494,-29.4848],[-51.486,-29.5096],[-51.48,-29.4934],[-51.4574,-29.4957]]]}},{"type":"Feature","properties":{"codarea":"4318705","centroide":[-51.14541118126269,-29.755362087064107],"codigo_ibge":4318705,"nome_ig":"Vale do Sinos"},"geometry":{"type":"Polygon","coordinates":[[[-51.0681,-29.8112],[-51.1367,-29.799],[-51.1657,-29.7991],[-51.1896,-29.7785],[-51.2101,-29.7376],[-51.1962,-29.7145],[-51.1939,-29.6807],[-51.1772,-29.6724],[-51.1786,-29.6931],[-51.1595,-29.6927],[-51.1579,-29.7152],[-51.129,-29.7431],[-51.106,-29.7281],[-51.0833,-29.748],[-51.0869,-29.7621],[-51.0681,-29.8112]]]}},{"type":"Feature","properties":{"codarea":"4319356","centroide":[-51.505105888074155,-29.419339886769215],"codigo_ibge":4319356,"nome_ig":"Vale do Sinos"},"geometry":{"type":"Polygon","coordinates":[[[-51.4355,-29.4318],[-51.4722,-29.4386],[-51.5155,-29.426],[-51.5327,-29.4319],[-51.5729,-29.4287],[-51.5836,-29.4074],[-51.5575,-29.4012],[-51.5439,-29.4191],[-51.5206,-29.408],[-51.4743,-29.4002],[-51.4401,-29.4183],[-51.4355,-29.4318]]]}},{"type":"Feature","properties":{"codarea":"4319505","centroide":[-51.33808223886193,-29.590119921189142],"codigo_ibge":4319505,"nome_ig":"Vale do Sinos"},"geometry":{"type":"Polygon","coordinates":[[[-51.3365,-29.5165],[-51.3267,-29.5256],[-51.3033,-29.5229],[-51.3084,-29.5402],[-51.3026,-29.5803],[-51.2925,-29.5843],[-51.2792,-29.6103],[-51.291,-29.6219],[-51.2765,-29.6561],[-51.3083,-29.6376],[-51.3338,-29.6486],[-51.3376,-29.634],[-51.3569,-29.6363],[-51.3913,-29.6532],[-51.3891,-29.6317],[-51.3793,-29.631],[-51.3864,-29.5836],[-51.3954,-29.5565],[-51.3761,-29.5525],[-51.3725,-29.5376],[-51.3538,-29.5412],[-51.3365,-29.5165]]]}},{"type":"Feature","properties":{"codarea":"4319752","centroide":[-51.37359856166779,-29.38367456342988],"codigo_ibge":4319752,"nome_ig":"Vale do Sinos"},"geometry":{"type":"Polygon","coordinates":[[[-51.3544,-29.3518],[-51.3554,-29.3675],[-51.332,-29.4098],[-51.3613,-29.4048],[-51.4011,-29.419],[-51.3971,-29.3515],[-51.3544,-29.3518]]]}},{"type":"Feature","properties":{"codarea":"4319901","centroide":[-50.995907107098326,-29.61315824213896],"codigo_ibge":4319901,"nome_ig":"Vale do Sinos"},"geometry":{"type":"Polygon","coordinates":[[[-50.9469,-29.5523],[-50.947,-29.5967],[-50.9602,-29.5959],[-50.9509,-29.6204],[-50.9583,-29.6775],[-50.942,-29.6915],[-50.9466,-29.6931],[-50.9569,-29.6884],[-50.9961,-29.7063],[-51.0149,-29.6956],[-51.0078,-29.6524],[-51.0394,-29.6487],[-51.0348,-29.6182],[-51.057,-29.6156],[-51.0488,-29.5617],[-51.0437,-29.5449],[-50.9849,-29.5474],[-50.9713,-29.5414],[-50.9469,-29.5523]]]}},{"type":"Feature","properties":{"codarea":"4320008","centroide":[-51.1314489301574,-29.82430341478255],"codigo_ibge":4320008,"nome_ig":"Vale do Sinos"},"geometry":{"type":"Polygon","coordinates":[[[-51.1896,-29.7785],[-51.1657,-29.7991],[-51.1367,-29.799],[-51.0681,-29.8112],[-51.0806,-29.83],[-51.1008,-29.8692],[-51.1012,-29.8687],[-51.1256,-29.8606],[-51.1553,-29.837],[-51.1811,-29.8295],[-51.1929,-29.8041],[-51.1896,-29.7785]]]}},{"type":"Feature","properties":{"codarea":"4321204","centroide":[-50.763668161967196,-29.671290506213456],"codigo_ibge":4321204,"nome_ig":"Vale do Sinos"},"geometry":{"type":"Polygon","coordinates":[[[-50.5899,-29.5538],[-50.6046,-29.5903],[-50.6397,-29.6169],[-50.6806,-29.6721],[-50.6853,-29.6989],[-50.6985,-29.7141],[-50.687,-29.7464],[-50.7126,-29.7551],[-50.6957,-29.7897],[-50.7241,-29.7691],[-50.7679,-29.7727],[-50.7878,-29.7667],[-50.8121,-29.7742],[-50.8352,-29.7656],[-50.8528,-29.7908],[-50.8741,-29.7975],[-50.9571,-29.7901],[-50.9347,-29.7646],[-50.9461,-29.714],[-50.9466,-29.6931],[-50.942,-29.6915],[-50.947,-29.6794],[-50.9317,-29.6733],[-50.9165,-29.6878],[-50.8879,-29.7005],[-50.8717,-29.693],[-50.8784,-29.7133],[-50.8711,-29.7293],[-50.8392,-29.7142],[-50.8226,-29.6852],[-50.7972,-29.6754],[-50.8068,-29.6539],[-50.8004,-29.6427],[-50.8058,-29.617],[-50.7547,-29.6035],[-50.7523,-29.5833],[-50.6956,-29.5926],[-50.6918,-29.5659],[-50.7158,-29.5171],[-50.6885,-29.4835],[-50.6738,-29.472],[-50.6743,-29.4877],[-50.661,-29.5068],[-50.6513,-29.5026],[-50.6309,-29.5591],[-50.5899,-29.5538]]]}},{"type":"Feature","properties":{"codarea":"4321709","centroide":[-50.76989282964186,-29.47741977296512],"codigo_ibge":4321709,"nome_ig":"Vale do Sinos"},"geometry":{"type":"Polygon","coordinates":[[[-50.6572,-29.4223],[-50.6831,-29.452],[-50.7157,-29.453],[-50.6878,-29.4751],[-50.6885,-29.4835],[-50.7158,-29.5171],[-50.7416,-29.5353],[-50.773,-29.5404],[-50.8167,-29.5249],[-50.8636,-29.5251],[-50.8746,-29.5133],[-50.9105,-29.5162],[-50.9103,-29.5016],[-50.8908,-29.496],[-50.8683,-29.4765],[-50.8344,-29.4755],[-50.8011,-29.4494],[-50.8092,-29.4354],[-50.7707,-29.4412],[-50.7643,-29.4128],[-50.735,-29.4147],[-50.7217,-29.404],[-50.6863,-29.4049],[-50.6796,-29.4163],[-50.6572,-29.4223]]]}},{"type":"Feature","properties":{"codarea":"4322251","centroide":[-51.4260644270753,-29.475544061594487],"codigo_ibge":4322251,"nome_ig":"Vale do Sinos"},"geometry":{"type":"Polygon","coordinates":[[[-51.4355,-29.4318],[-51.4035,-29.4334],[-51.4054,-29.4454],[-51.3841,-29.4718],[-51.3991,-29.4942],[-51.3872,-29.5033],[-51.3962,-29.5254],[-51.4085,-29.517],[-51.4357,-29.5197],[-51.4511,-29.5022],[-51.4574,-29.4957],[-51.4716,-29.4809],[-51.4548,-29.4709],[-51.4579,-29.4527],[-51.4722,-29.4386],[-51.4355,-29.4318]]]}},{"type":"Feature","properties":{"codarea":"4322541","centroide":[-51.24837810680066,-29.363966235038934],"codigo_ibge":4322541,"nome_ig":"Vale do Sinos"},"geometry":{"type":"Polygon","coordinates":[[[-51.2667,-29.295],[-51.2165,-29.3366],[-51.2275,-29.3441],[-51.2122,-29.3585],[-51.2076,-29.373],[-51.2224,-29.3744],[-51.2262,-29.3898],[-51.2558,-29.4021],[-51.2636,-29.4175],[-51.2805,-29.4185],[-51.2803,-29.4048],[-51.2743,-29.3963],[-51.2819,-29.3721],[-51.2602,-29.3507],[-51.2393,-29.3543],[-51.2621,-29.3157],[-51.2697,-29.3128],[-51.2667,-29.295]]]}}]}