{"type":"FeatureCollection","features":[{"type":"Feature","properties":{"codarea":"3550803","centroide":[-46.752649156959706,-21.754624949918522],"codigo_ibge":3550803,"nome_ig":"Vale da Grama"},"geometry":{"type":"MultiPolygon","coordinates":[[[[-46.805,-21.6601],[-46.7976,-21.6846],[-46.7699,-21.6949],[-46.7543,-21.6919],[-46.7352,-21.7069],[-46.6996,-21.7086],[-46.6892,-21.7258],[-46.6578,-21.7514],[-46.6375,-21.7491],[-46.6306,-21.7686],[-46.6539,-21.7792],[-46.6524,-21.7912],[-46.6907,-21.8376],[-46.7361,-21.8185],[-46.7505,-21.8341],[-46.7712,-21.8252],[-46.8206,-21.7715],[-46.8187,-21.7591],[-46.843,-21.7595],[-46.8718,-21.7087],[-46.8485,-21.701],[-46.8346,-21.6809],[-46.805,-21.6601]]]]}}]}