{"type":"FeatureCollection","features":[{"type":"Feature","properties":{"codarea":"3505401","centroide":[-48.4274508561915,-24.88817390527468],"codigo_ibge":3505401,"nome_ig":"Vale do Ribeira"},"geometry":{"type":"MultiPolygon","coordinates":[[[[-48.2962,-24.8012],[-48.3095,-24.8248],[-48.295,-24.8405],[-48.2691,-24.8324],[-48.3193,-24.8647],[-48.3156,-24.8751],[-48.28,-24.8831],[-48.2616,-24.8787],[-48.264,-24.894],[-48.251,-24.9115],[-48.2399,-24.9014],[-48.2111,-24.9073],[-48.2103,-24.9212],[-48.2254,-24.9343],[-48.2104,-24.9569],[-48.2396,-24.9914],[-48.2493,-24.9787],[-48.2775,-25.0159],[-48.2846,-25.0391],[-48.2928,-25.0244],[-48.3082,-25.0368],[-48.3303,-25.0697],[-48.3241,-25.0367],[-48.3512,-25.0364],[-48.3547,-25.0199],[-48.3846,-24.9953],[-48.4118,-24.9803],[-48.474,-25.0125],[-48.4832,-25.0531],[-48.4914,-25.0534],[-48.5285,-25.1007],[-48.5563,-25.0842],[-48.5579,-25.0639],[-48.5796,-25.0531],[-48.598,-25.0032],[-48.5673,-24.9722],[-48.5725,-24.954],[-48.5628,-24.9394],[-48.5664,-24.9167],[-48.5705,-24.8941],[-48.5593,-24.9011],[-48.5497,-24.8674],[-48.5666,-24.8639],[-48.5677,-24.8487],[-48.5557,-24.8062],[-48.5183,-24.781],[-48.4993,-24.7389],[-48.524,-24.7362],[-48.5381,-24.7262],[-48.529,-24.6878],[-48.5058,-24.6679],[-48.482,-24.6784],[-48.4645,-24.6599],[-48.4493,-24.6526],[-48.4065,-24.6566],[-48.4039,-24.6668],[-48.4221,-24.6866],[-48.4062,-24.7179],[-48.3841,-24.7474],[-48.3913,-24.7562],[-48.3689,-24.7674],[-48.3585,-24.7883],[-48.3426,-24.801],[-48.3291,-24.7931],[-48.3152,-24.8069],[-48.2962,-24.8012]]]]}},{"type":"Feature","properties":{"codarea":"3509254","centroide":[-48.19555167974942,-24.772441830291594],"codigo_ibge":3509254,"nome_ig":"Vale do Ribeira"},"geometry":{"type":"MultiPolygon","coordinates":[[[[-48.1289,-24.6492],[-48.1289,-24.6578],[-48.0933,-24.671],[-48.0951,-24.6863],[-48.0728,-24.7056],[-48.0476,-24.7176],[-48.0632,-24.7344],[-48.0634,-24.7501],[-48.0832,-24.7616],[-48.0963,-24.7582],[-48.1038,-24.7767],[-48.1279,-24.7961],[-48.1338,-24.841],[-48.1571,-24.8478],[-48.1694,-24.8751],[-48.1916,-24.8837],[-48.2111,-24.9073],[-48.2399,-24.9014],[-48.251,-24.9115],[-48.264,-24.894],[-48.2616,-24.8787],[-48.28,-24.8831],[-48.3156,-24.8751],[-48.3193,-24.8647],[-48.2691,-24.8324],[-48.295,-24.8405],[-48.3095,-24.8248],[-48.2962,-24.8012],[-48.304,-24.7897],[-48.2899,-24.7769],[-48.3066,-24.7324],[-48.2404,-24.697],[-48.2392,-24.6882],[-48.2068,-24.6877],[-48.2258,-24.6776],[-48.1903,-24.6601],[-48.1716,-24.6586],[-48.1647,-24.6436],[-48.1289,-24.6492]]]]}},{"type":"Feature","properties":{"codarea":"3509908","centroide":[-48.00870370641967,-25.018251854167833],"codigo_ibge":3509908,"nome_ig":"Vale do Ribeira"},"geometry":{"type":"MultiPolygon","coordinates":[[[[-48.0017,-25.2488],[-48.0017,-25.2488],[-48.0017,-25.2488],[-48.0017,-25.2488]]],[[[-47.7343,-24.8356],[-47.7748,-24.8771],[-47.8016,-24.8904],[-47.8039,-24.9064],[-47.8553,-24.9367],[-47.8618,-24.9621],[-47.8967,-24.968],[-47.8978,-25.0016],[-47.9184,-25.0204],[-47.9099,-25.0533],[-47.8952,-25.1082],[-47.9084,-25.1182],[-47.9245,-25.1613],[-48.0199,-25.2352],[-48.0976,-25.31],[-48.0967,-25.2971],[-48.0235,-25.2309],[-48.0322,-25.2184],[-48.0574,-25.2183],[-48.0621,-25.24],[-48.0924,-25.24],[-48.1129,-25.2508],[-48.1512,-25.2281],[-48.1614,-25.2109],[-48.1825,-25.2049],[-48.1933,-25.1898],[-48.1783,-25.182],[-48.1568,-25.1446],[-48.1713,-25.1422],[-48.216,-25.0766],[-48.2149,-25.0296],[-48.2329,-25.0178],[-48.2396,-24.9914],[-48.2104,-24.9569],[-48.1838,-24.969],[-48.1623,-24.9648],[-48.1379,-24.9864],[-48.0988,-24.9631],[-48.0719,-24.9531],[-48.0356,-24.9663],[-48.0258,-24.9437],[-48.0471,-24.9267],[-48.0355,-24.9167],[-48.0352,-24.8918],[-48.0439,-24.8844],[-48.0428,-24.8618],[-48.0557,-24.8515],[-48.0407,-24.8341],[-48.014,-24.8528],[-47.9915,-24.8465],[-47.983,-24.8661],[-47.9556,-24.8768],[-47.9632,-24.8602],[-47.9548,-24.8359],[-47.9155,-24.856],[-47.9126,-24.8399],[-47.9385,-24.8107],[-47.9272,-24.7806],[-47.943,-24.7671],[-47.9155,-24.7769],[-47.8917,-24.7755],[-47.8901,-24.7867],[-47.8659,-24.7993],[-47.8488,-24.7865],[-47.8532,-24.7684],[-47.8302,-24.7563],[-47.8222,-24.7771],[-47.7736,-24.8165],[-47.7786,-24.846],[-47.7616,-24.8329],[-47.7563,-24.8411],[-47.7343,-24.8356]]]]}},{"type":"Feature","properties":{"codarea":"3514809","centroide":[-48.23391725809587,-24.49494280369104],"codigo_ibge":3514809,"nome_ig":"Vale do Ribeira"},"geometry":{"type":"MultiPolygon","coordinates":[[[[-48.1395,-24.1943],[-48.1152,-24.2117],[-48.1225,-24.2326],[-48.1189,-24.2533],[-48.104,-24.2812],[-48.1173,-24.3186],[-48.0885,-24.3262],[-48.0653,-24.3252],[-48.0443,-24.3464],[-48.0379,-24.364],[-48.0145,-24.3781],[-48.0044,-24.4918],[-48.0134,-24.5098],[-48.02,-24.5296],[-48.0556,-24.5336],[-48.0815,-24.5616],[-48.0848,-24.5805],[-48.1178,-24.5869],[-48.1355,-24.5988],[-48.1269,-24.6071],[-48.1289,-24.6492],[-48.1647,-24.6436],[-48.1716,-24.6586],[-48.1903,-24.6601],[-48.2258,-24.6776],[-48.2068,-24.6877],[-48.2392,-24.6882],[-48.2404,-24.697],[-48.3066,-24.7324],[-48.2899,-24.7769],[-48.304,-24.7897],[-48.2962,-24.8012],[-48.3152,-24.8069],[-48.3291,-24.7931],[-48.3426,-24.801],[-48.3585,-24.7883],[-48.3689,-24.7674],[-48.3913,-24.7562],[-48.3841,-24.7474],[-48.4062,-24.7179],[-48.4221,-24.6866],[-48.4039,-24.6668],[-48.4065,-24.6566],[-48.4493,-24.6526],[-48.4645,-24.6599],[-48.4474,-24.5992],[-48.4221,-24.5827],[-48.4129,-24.5869],[-48.394,-24.5649],[-48.4268,-24.5542],[-48.4285,-24.5319],[-48.3963,-24.5228],[-48.3821,-24.5039],[-48.3933,-24.4819],[-48.3521,-24.4603],[-48.3483,-24.4371],[-48.3625,-24.4209],[-48.3802,-24.4333],[-48.3999,-24.4269],[-48.3603,-24.37],[-48.3628,-24.3477],[-48.3509,-24.337],[-48.3623,-24.312],[-48.3831,-24.3041],[-48.3599,-24.2823],[-48.324,-24.2949],[-48.3291,-24.3122],[-48.2996,-24.3066],[-48.2921,-24.2943],[-48.2746,-24.2959],[-48.2809,-24.2819],[-48.253,-24.2581],[-48.2049,-24.2632],[-48.1435,-24.2285],[-48.1395,-24.1943]]]]}},{"type":"Feature","properties":{"codarea":"3520301","centroide":[-47.47477343954908,-24.549522729369095],"codigo_ibge":3520301,"nome_ig":"Vale do Ribeira"},"geometry":{"type":"MultiPolygon","coordinates":[[[[-47.2474,-24.3618],[-47.2343,-24.3765],[-47.1928,-24.363],[-47.1806,-24.375],[-47.1742,-24.3649],[-47.1207,-24.3647],[-47.1103,-24.3883],[-47.1118,-24.426],[-47.0784,-24.4447],[-47.1783,-24.5175],[-47.1944,-24.5351],[-47.2285,-24.559],[-47.2279,-24.571],[-47.2456,-24.5734],[-47.3669,-24.6451],[-47.4134,-24.6789],[-47.435,-24.6767],[-47.4741,-24.7045],[-47.5078,-24.7002],[-47.5411,-24.7064],[-47.5512,-24.7217],[-47.59,-24.7467],[-47.6256,-24.7617],[-47.6661,-24.7925],[-47.6827,-24.8115],[-47.7343,-24.8356],[-47.7563,-24.8411],[-47.7616,-24.8329],[-47.7786,-24.846],[-47.7736,-24.8165],[-47.8222,-24.7771],[-47.8302,-24.7563],[-47.8063,-24.7672],[-47.7931,-24.7274],[-47.7668,-24.7089],[-47.7717,-24.6973],[-47.7608,-24.6682],[-47.7469,-24.6573],[-47.7469,-24.6415],[-47.7277,-24.6221],[-47.7119,-24.6036],[-47.6937,-24.6017],[-47.6845,-24.5502],[-47.6266,-24.5128],[-47.6453,-24.4936],[-47.6398,-24.4643],[-47.6836,-24.3791],[-47.6577,-24.3804],[-47.6262,-24.3719],[-47.5996,-24.3747],[-47.5827,-24.3665],[-47.5577,-24.3681],[-47.5419,-24.3583],[-47.5052,-24.3668],[-47.5067,-24.3761],[-47.4725,-24.3684],[-47.4629,-24.3823],[-47.4349,-24.387],[-47.4248,-24.3749],[-47.3982,-24.3853],[-47.3666,-24.3847],[-47.3588,-24.3702],[-47.3394,-24.3632],[-47.3195,-24.3395],[-47.3003,-24.3599],[-47.2773,-24.3561],[-47.2474,-24.3618]]]]}},{"type":"Feature","properties":{"codarea":"3520426","centroide":[-47.719158843694714,-24.861820275017667],"codigo_ibge":3520426,"nome_ig":"Vale do Ribeira"},"geometry":{"type":"MultiPolygon","coordinates":[[[[-47.9099,-25.0533],[-47.9184,-25.0204],[-47.8978,-25.0016],[-47.8967,-24.968],[-47.8618,-24.9621],[-47.8553,-24.9367],[-47.8039,-24.9064],[-47.8016,-24.8904],[-47.7748,-24.8771],[-47.7343,-24.8356],[-47.6827,-24.8115],[-47.6661,-24.7925],[-47.6256,-24.7617],[-47.59,-24.7467],[-47.5512,-24.7217],[-47.5411,-24.7064],[-47.5078,-24.7002],[-47.4741,-24.7045],[-47.435,-24.6767],[-47.4368,-24.6938],[-47.5227,-24.7343],[-47.5689,-24.7603],[-47.6167,-24.7922],[-47.7498,-24.8953],[-47.8418,-24.9749],[-47.8818,-25.0266],[-47.8863,-25.0515],[-47.9099,-25.0533]]]]}},{"type":"Feature","properties":{"codarea":"3521200","centroide":[-48.546493745242806,-24.51270259099889],"codigo_ibge":3521200,"nome_ig":"Vale do Ribeira"},"geometry":{"type":"MultiPolygon","coordinates":[[[[-48.4311,-24.2637],[-48.4104,-24.2678],[-48.389,-24.306],[-48.3831,-24.3041],[-48.3623,-24.312],[-48.3509,-24.337],[-48.3628,-24.3477],[-48.3603,-24.37],[-48.3999,-24.4269],[-48.3802,-24.4333],[-48.3625,-24.4209],[-48.3483,-24.4371],[-48.3521,-24.4603],[-48.3933,-24.4819],[-48.3821,-24.5039],[-48.3963,-24.5228],[-48.4285,-24.5319],[-48.4268,-24.5542],[-48.394,-24.5649],[-48.4129,-24.5869],[-48.4221,-24.5827],[-48.4474,-24.5992],[-48.4645,-24.6599],[-48.482,-24.6784],[-48.5058,-24.6679],[-48.529,-24.6878],[-48.5381,-24.7262],[-48.5601,-24.7107],[-48.579,-24.6855],[-48.604,-24.6682],[-48.6453,-24.6815],[-48.6604,-24.7067],[-48.675,-24.7017],[-48.6714,-24.6793],[-48.6896,-24.6678],[-48.6898,-24.6938],[-48.7011,-24.6803],[-48.7557,-24.6927],[-48.7588,-24.6802],[-48.7786,-24.6967],[-48.7882,-24.6811],[-48.8108,-24.6749],[-48.7834,-24.6668],[-48.76,-24.6457],[-48.7321,-24.6403],[-48.7384,-24.6133],[-48.7548,-24.5877],[-48.7796,-24.5907],[-48.7891,-24.5581],[-48.7278,-24.5275],[-48.7146,-24.5111],[-48.6878,-24.5008],[-48.6722,-24.4869],[-48.6735,-24.4733],[-48.6564,-24.4607],[-48.6315,-24.4572],[-48.6297,-24.4371],[-48.6138,-24.4535],[-48.5875,-24.4351],[-48.5495,-24.4404],[-48.5163,-24.4195],[-48.5227,-24.4112],[-48.4906,-24.3706],[-48.5142,-24.338],[-48.5352,-24.3475],[-48.5433,-24.3346],[-48.5612,-24.3407],[-48.608,-24.3385],[-48.6051,-24.3322],[-48.5572,-24.2868],[-48.5349,-24.3205],[-48.5037,-24.3025],[-48.4961,-24.28],[-48.4759,-24.2895],[-48.4525,-24.2847],[-48.4646,-24.2734],[-48.459,-24.2528],[-48.452,-24.2633],[-48.4311,-24.2637]]]]}},{"type":"Feature","properties":{"codarea":"3523305","centroide":[-47.127545728840204,-24.29259609149287],"codigo_ibge":3523305,"nome_ig":"Vale do Ribeira"},"geometry":{"type":"MultiPolygon","coordinates":[[[[-47.0674,-24.2015],[-47.0394,-24.222],[-47.0301,-24.2211],[-47.057,-24.2643],[-47.021,-24.2832],[-47.0334,-24.319],[-47.0454,-24.3346],[-47.0903,-24.3524],[-47.1111,-24.352],[-47.1207,-24.3647],[-47.1742,-24.3649],[-47.1806,-24.375],[-47.1928,-24.363],[-47.2343,-24.3765],[-47.2474,-24.3618],[-47.2332,-24.3593],[-47.2394,-24.341],[-47.2325,-24.3289],[-47.2069,-24.3229],[-47.2104,-24.3097],[-47.1966,-24.2843],[-47.1973,-24.244],[-47.1727,-24.2208],[-47.1446,-24.2137],[-47.1261,-24.1957],[-47.132,-24.2156],[-47.1049,-24.2256],[-47.0824,-24.2181],[-47.0674,-24.2015]]]]}},{"type":"Feature","properties":{"codarea":"3524600","centroide":[-48.05397676041355,-24.77765042987478],"codigo_ibge":3524600,"nome_ig":"Vale do Ribeira"},"geometry":{"type":"MultiPolygon","coordinates":[[[[-47.9181,-24.6275],[-47.9266,-24.6732],[-47.9527,-24.7074],[-47.9632,-24.7384],[-47.943,-24.7671],[-47.9272,-24.7806],[-47.9385,-24.8107],[-47.9126,-24.8399],[-47.9155,-24.856],[-47.9548,-24.8359],[-47.9632,-24.8602],[-47.9556,-24.8768],[-47.983,-24.8661],[-47.9915,-24.8465],[-48.014,-24.8528],[-48.0407,-24.8341],[-48.0557,-24.8515],[-48.0428,-24.8618],[-48.0439,-24.8844],[-48.0352,-24.8918],[-48.0355,-24.9167],[-48.0471,-24.9267],[-48.0258,-24.9437],[-48.0356,-24.9663],[-48.0719,-24.9531],[-48.0988,-24.9631],[-48.1379,-24.9864],[-48.1623,-24.9648],[-48.1838,-24.969],[-48.2104,-24.9569],[-48.2254,-24.9343],[-48.2103,-24.9212],[-48.2111,-24.9073],[-48.1916,-24.8837],[-48.1694,-24.8751],[-48.1571,-24.8478],[-48.1338,-24.841],[-48.1279,-24.7961],[-48.1038,-24.7767],[-48.0963,-24.7582],[-48.0832,-24.7616],[-48.0634,-24.7501],[-48.0632,-24.7344],[-48.0476,-24.7176],[-48.0728,-24.7056],[-48.0951,-24.6863],[-48.0933,-24.671],[-48.1289,-24.6578],[-48.1289,-24.6492],[-48.1269,-24.6071],[-48.1355,-24.5988],[-48.1178,-24.5869],[-48.0848,-24.5805],[-48.0686,-24.5852],[-48.0525,-24.5768],[-48.0151,-24.5819],[-48.0014,-24.5711],[-47.976,-24.5895],[-47.966,-24.6121],[-47.9793,-24.6227],[-47.9507,-24.6383],[-47.94,-24.6264],[-47.9181,-24.6275]]]]}},{"type":"Feature","properties":{"codarea":"3526100","centroide":[-47.651800377870885,-24.213383934611244],"codigo_ibge":3526100,"nome_ig":"Vale do Ribeira"},"geometry":{"type":"MultiPolygon","coordinates":[[[[-47.4773,-24.0813],[-47.4884,-24.0922],[-47.482,-24.1295],[-47.5196,-24.1473],[-47.5162,-24.1542],[-47.5464,-24.1771],[-47.5707,-24.1881],[-47.5485,-24.2268],[-47.5518,-24.2474],[-47.5753,-24.268],[-47.568,-24.2834],[-47.5725,-24.3093],[-47.5885,-24.3074],[-47.5591,-24.3344],[-47.5648,-24.3433],[-47.5577,-24.3681],[-47.5827,-24.3665],[-47.5996,-24.3747],[-47.6262,-24.3719],[-47.6577,-24.3804],[-47.6836,-24.3791],[-47.7169,-24.3981],[-47.7555,-24.3818],[-47.7774,-24.3568],[-47.8001,-24.3517],[-47.7935,-24.3257],[-47.8,-24.3063],[-47.7752,-24.2976],[-47.769,-24.2787],[-47.7765,-24.2689],[-47.7609,-24.2624],[-47.77,-24.2385],[-47.7617,-24.2234],[-47.7772,-24.2037],[-47.7746,-24.1878],[-47.7795,-24.1382],[-47.7727,-24.1344],[-47.7219,-24.1132],[-47.7341,-24.1054],[-47.7258,-24.0821],[-47.7036,-24.0741],[-47.6803,-24.0452],[-47.6285,-24.0367],[-47.6137,-24.0446],[-47.6303,-24.0757],[-47.6341,-24.1121],[-47.5933,-24.0825],[-47.5704,-24.078],[-47.5621,-24.0391],[-47.541,-24.0378],[-47.5021,-24.0502],[-47.4773,-24.0813]]]]}},{"type":"Feature","properties":{"codarea":"3529906","centroide":[-47.39449990274421,-24.195048496027685],"codigo_ibge":3529906,"nome_ig":"Vale do Ribeira"},"geometry":{"type":"MultiPolygon","coordinates":[[[[-47.1271,-24.0087],[-47.1632,-24.0249],[-47.1605,-24.0525],[-47.196,-24.0725],[-47.2273,-24.0821],[-47.2366,-24.0966],[-47.2535,-24.1006],[-47.2683,-24.116],[-47.2732,-24.1408],[-47.2883,-24.1716],[-47.2727,-24.1827],[-47.2901,-24.1977],[-47.2954,-24.2228],[-47.2837,-24.2499],[-47.2879,-24.2783],[-47.3147,-24.2787],[-47.3377,-24.294],[-47.3341,-24.3158],[-47.3506,-24.3224],[-47.3441,-24.3326],[-47.3195,-24.3395],[-47.3394,-24.3632],[-47.3588,-24.3702],[-47.3666,-24.3847],[-47.3982,-24.3853],[-47.4248,-24.3749],[-47.4349,-24.387],[-47.4629,-24.3823],[-47.4725,-24.3684],[-47.5067,-24.3761],[-47.5052,-24.3668],[-47.5419,-24.3583],[-47.5577,-24.3681],[-47.5648,-24.3433],[-47.5591,-24.3344],[-47.5885,-24.3074],[-47.5725,-24.3093],[-47.568,-24.2834],[-47.5753,-24.268],[-47.5518,-24.2474],[-47.5485,-24.2268],[-47.5707,-24.1881],[-47.5464,-24.1771],[-47.5162,-24.1542],[-47.5196,-24.1473],[-47.482,-24.1295],[-47.4884,-24.0922],[-47.4773,-24.0813],[-47.4486,-24.0509],[-47.4278,-24.0683],[-47.373,-24.0453],[-47.3552,-24.0217],[-47.3426,-24.0138],[-47.3163,-24.017],[-47.286,-24.0063],[-47.2723,-24.0175],[-47.2537,-24.007],[-47.2544,-24.024],[-47.2226,-24.0149],[-47.1999,-24.0005],[-47.1692,-24.0021],[-47.1378,-24.014],[-47.1271,-24.0087]]]]}},{"type":"Feature","properties":{"codarea":"3536208","centroide":[-47.849411690417895,-24.67817871303355],"codigo_ibge":3536208,"nome_ig":"Vale do Ribeira"},"geometry":{"type":"MultiPolygon","coordinates":[[[[-47.7277,-24.6221],[-47.7469,-24.6415],[-47.7469,-24.6573],[-47.7608,-24.6682],[-47.7717,-24.6973],[-47.7668,-24.7089],[-47.7931,-24.7274],[-47.8063,-24.7672],[-47.8302,-24.7563],[-47.8532,-24.7684],[-47.8488,-24.7865],[-47.8659,-24.7993],[-47.8901,-24.7867],[-47.8917,-24.7755],[-47.9155,-24.7769],[-47.943,-24.7671],[-47.9632,-24.7384],[-47.9527,-24.7074],[-47.9266,-24.6732],[-47.9181,-24.6275],[-47.8695,-24.5808],[-47.8338,-24.5765],[-47.8181,-24.5662],[-47.7838,-24.5778],[-47.7277,-24.6221]]]]}},{"type":"Feature","properties":{"codarea":"3537206","centroide":[-47.1642049767928,-24.16465626661822],"codigo_ibge":3537206,"nome_ig":"Vale do Ribeira"},"geometry":{"type":"MultiPolygon","coordinates":[[[[-46.9786,-24.0642],[-46.9786,-24.0863],[-46.9684,-24.1077],[-46.9832,-24.1232],[-47.0077,-24.1291],[-47.0139,-24.1416],[-47.0333,-24.147],[-47.0429,-24.1779],[-47.0638,-24.1865],[-47.0674,-24.2015],[-47.0824,-24.2181],[-47.1049,-24.2256],[-47.132,-24.2156],[-47.1261,-24.1957],[-47.1446,-24.2137],[-47.1727,-24.2208],[-47.1973,-24.244],[-47.1966,-24.2843],[-47.2104,-24.3097],[-47.2069,-24.3229],[-47.2325,-24.3289],[-47.2394,-24.341],[-47.2332,-24.3593],[-47.2474,-24.3618],[-47.2773,-24.3561],[-47.3003,-24.3599],[-47.3195,-24.3395],[-47.3441,-24.3326],[-47.3506,-24.3224],[-47.3341,-24.3158],[-47.3377,-24.294],[-47.3147,-24.2787],[-47.2879,-24.2783],[-47.2837,-24.2499],[-47.2954,-24.2228],[-47.2901,-24.1977],[-47.2727,-24.1827],[-47.2883,-24.1716],[-47.2732,-24.1408],[-47.2683,-24.116],[-47.2535,-24.1006],[-47.2366,-24.0966],[-47.2273,-24.0821],[-47.196,-24.0725],[-47.1605,-24.0525],[-47.1632,-24.0249],[-47.1271,-24.0087],[-47.1068,-23.9938],[-47.0923,-24.0164],[-47.0676,-24.0251],[-47.0564,-24.0095],[-47.0343,-24.0308],[-47.0268,-24.0522],[-47.0063,-24.0639],[-46.9977,-24.052],[-46.9786,-24.0642]]]]}},{"type":"Feature","properties":{"codarea":"3542602","centroide":[-47.821794452562685,-24.504635587840877],"codigo_ibge":3542602,"nome_ig":"Vale do Ribeira"},"geometry":{"type":"MultiPolygon","coordinates":[[[[-47.6836,-24.3791],[-47.6398,-24.4643],[-47.6453,-24.4936],[-47.6266,-24.5128],[-47.6845,-24.5502],[-47.6937,-24.6017],[-47.7119,-24.6036],[-47.7277,-24.6221],[-47.7838,-24.5778],[-47.8181,-24.5662],[-47.8338,-24.5765],[-47.8695,-24.5808],[-47.9181,-24.6275],[-47.94,-24.6264],[-47.9507,-24.6383],[-47.9793,-24.6227],[-47.966,-24.6121],[-47.976,-24.5895],[-48.0014,-24.5711],[-48.0151,-24.5819],[-48.0525,-24.5768],[-48.0686,-24.5852],[-48.0848,-24.5805],[-48.0815,-24.5616],[-48.0556,-24.5336],[-48.02,-24.5296],[-48.0134,-24.5098],[-47.994,-24.514],[-47.9101,-24.4685],[-47.889,-24.4373],[-47.8686,-24.4209],[-47.8452,-24.4224],[-47.8237,-24.4041],[-47.8365,-24.391],[-47.8335,-24.3707],[-47.8153,-24.3682],[-47.8001,-24.3517],[-47.7774,-24.3568],[-47.7555,-24.3818],[-47.7169,-24.3981],[-47.6836,-24.3791]]]]}},{"type":"Feature","properties":{"codarea":"3542800","centroide":[-49.03635092396141,-24.607190606250626],"codigo_ibge":3542800,"nome_ig":"Vale do Ribeira"},"geometry":{"type":"MultiPolygon","coordinates":[[[[-48.9818,-24.5237],[-48.9786,-24.5349],[-48.9176,-24.5482],[-48.9013,-24.5564],[-48.9202,-24.5782],[-48.9273,-24.5992],[-48.9472,-24.624],[-48.9305,-24.6224],[-48.9118,-24.6333],[-48.9127,-24.6735],[-48.9622,-24.6741],[-49.008,-24.6604],[-49.0043,-24.6377],[-49.0304,-24.6343],[-49.0542,-24.6823],[-49.0746,-24.6734],[-49.1115,-24.6883],[-49.1314,-24.6809],[-49.1578,-24.6719],[-49.1506,-24.6448],[-49.1714,-24.6121],[-49.1509,-24.5857],[-49.1357,-24.5865],[-49.1287,-24.5621],[-49.1324,-24.5375],[-49.0897,-24.5397],[-49.0493,-24.5537],[-49.0244,-24.5473],[-48.9999,-24.52],[-48.9818,-24.5237]]]]}},{"type":"Feature","properties":{"codarea":"3551801","centroide":[-47.93424794554843,-24.274030744184987],"codigo_ibge":3551801,"nome_ig":"Vale do Ribeira"},"geometry":{"type":"MultiPolygon","coordinates":[[[[-47.7727,-24.1344],[-47.7795,-24.1382],[-47.7746,-24.1878],[-47.7772,-24.2037],[-47.7617,-24.2234],[-47.77,-24.2385],[-47.7609,-24.2624],[-47.7765,-24.2689],[-47.769,-24.2787],[-47.7752,-24.2976],[-47.8,-24.3063],[-47.7935,-24.3257],[-47.8001,-24.3517],[-47.8153,-24.3682],[-47.8335,-24.3707],[-47.8365,-24.391],[-47.8237,-24.4041],[-47.8452,-24.4224],[-47.8686,-24.4209],[-47.889,-24.4373],[-47.9101,-24.4685],[-47.994,-24.514],[-48.0134,-24.5098],[-48.0044,-24.4918],[-48.0145,-24.3781],[-48.0379,-24.364],[-48.0443,-24.3464],[-48.0653,-24.3252],[-48.0885,-24.3262],[-48.1173,-24.3186],[-48.104,-24.2812],[-48.1189,-24.2533],[-48.1225,-24.2326],[-48.1152,-24.2117],[-48.1395,-24.1943],[-48.0939,-24.2007],[-48.0575,-24.1762],[-48.0572,-24.1466],[-48.0493,-24.1376],[-48.0087,-24.1354],[-47.9807,-24.1133],[-47.9531,-24.1198],[-47.9376,-24.0992],[-47.9173,-24.1005],[-47.8948,-24.0793],[-47.8677,-24.0768],[-47.8566,-24.1021],[-47.8631,-24.1127],[-47.8314,-24.1217],[-47.8286,-24.1329],[-47.7727,-24.1344]]]]}},{"type":"Feature","properties":{"codarea":"3553500","centroide":[-47.61888385924862,-24.008171431921337],"codigo_ibge":3553500,"nome_ig":"Vale do Ribeira"},"geometry":{"type":"MultiPolygon","coordinates":[[[[-47.574,-23.8633],[-47.5416,-23.8672],[-47.5229,-23.8965],[-47.4398,-23.9009],[-47.4359,-23.9317],[-47.4245,-23.9448],[-47.4385,-23.9515],[-47.4322,-23.9674],[-47.4064,-23.9665],[-47.3885,-23.9828],[-47.3859,-23.9954],[-47.3691,-23.9984],[-47.3552,-24.0217],[-47.373,-24.0453],[-47.4278,-24.0683],[-47.4486,-24.0509],[-47.4773,-24.0813],[-47.5021,-24.0502],[-47.541,-24.0378],[-47.5621,-24.0391],[-47.5704,-24.078],[-47.5933,-24.0825],[-47.6341,-24.1121],[-47.6303,-24.0757],[-47.6137,-24.0446],[-47.6285,-24.0367],[-47.6803,-24.0452],[-47.7036,-24.0741],[-47.7258,-24.0821],[-47.7341,-24.1054],[-47.7219,-24.1132],[-47.7727,-24.1344],[-47.8286,-24.1329],[-47.8314,-24.1217],[-47.8631,-24.1127],[-47.8566,-24.1021],[-47.8677,-24.0768],[-47.8948,-24.0793],[-47.9057,-24.0658],[-47.8799,-24.0597],[-47.8522,-24.0219],[-47.8631,-24.0047],[-47.8437,-23.9893],[-47.8272,-23.9884],[-47.8145,-23.9584],[-47.8013,-23.9529],[-47.7959,-23.9784],[-47.7575,-23.9948],[-47.7415,-23.9875],[-47.7118,-24.0056],[-47.7115,-23.992],[-47.6834,-23.992],[-47.6576,-23.9657],[-47.6277,-23.9525],[-47.6293,-23.9351],[-47.6103,-23.926],[-47.5935,-23.9046],[-47.6138,-23.895],[-47.6089,-23.8686],[-47.574,-23.8633]]]]}}]}