{"type":"FeatureCollection","features":[{"type":"Feature","properties":{"codarea":"3502507","centroide":[-45.23698850641202,-22.916686942594644],"codigo_ibge":3502507,"nome_ig":"Vale do Paraíba"},"geometry":{"type":"MultiPolygon","coordinates":[[[[-45.2343,-23.0011],[-45.2577,-23.008],[-45.278,-22.9498],[-45.2783,-22.9318],[-45.2549,-22.8965],[-45.2709,-22.8855],[-45.2782,-22.8511],[-45.2561,-22.8572],[-45.2374,-22.8243],[-45.2109,-22.8144],[-45.2143,-22.829],[-45.2002,-22.841],[-45.2077,-22.8629],[-45.2081,-22.9114],[-45.2131,-22.936],[-45.1961,-22.9457],[-45.2005,-22.9633],[-45.1884,-22.9698],[-45.2343,-23.0011]]]]}},{"type":"Feature","properties":{"codarea":"3503158","centroide":[-44.43776087201448,-22.67326746576132],"codigo_ibge":3503158,"nome_ig":"Vale do Paraíba"},"geometry":{"type":"MultiPolygon","coordinates":[[[[-44.3609,-22.6118],[-44.366,-22.6241],[-44.3841,-22.6282],[-44.3768,-22.6537],[-44.3841,-22.6564],[-44.3926,-22.6874],[-44.4157,-22.7311],[-44.4276,-22.7249],[-44.4533,-22.7401],[-44.4805,-22.741],[-44.5084,-22.7693],[-44.5275,-22.7599],[-44.5282,-22.7248],[-44.4736,-22.6858],[-44.4595,-22.669],[-44.4654,-22.6567],[-44.4533,-22.6456],[-44.452,-22.6267],[-44.4662,-22.6156],[-44.43,-22.5986],[-44.4067,-22.6084],[-44.393,-22.5731],[-44.3664,-22.5787],[-44.3664,-22.5787],[-44.3609,-22.6118]]]]}},{"type":"Feature","properties":{"codarea":"3503505","centroide":[-44.71172171397575,-22.67303017026026],"codigo_ibge":3503505,"nome_ig":"Vale do Paraíba"},"geometry":{"type":"MultiPolygon","coordinates":[[[[-44.6881,-22.5214],[-44.6698,-22.5386],[-44.6749,-22.5613],[-44.6615,-22.5509],[-44.6417,-22.5593],[-44.6458,-22.6039],[-44.6887,-22.6458],[-44.6778,-22.6528],[-44.6795,-22.6895],[-44.6655,-22.7361],[-44.6516,-22.7569],[-44.66,-22.7675],[-44.6501,-22.799],[-44.6699,-22.8211],[-44.6897,-22.8195],[-44.7237,-22.8333],[-44.7089,-22.7971],[-44.7293,-22.8007],[-44.754,-22.7886],[-44.7446,-22.7711],[-44.7654,-22.7579],[-44.7455,-22.7308],[-44.7741,-22.7038],[-44.774,-22.6754],[-44.7651,-22.6619],[-44.7634,-22.6343],[-44.7813,-22.6062],[-44.8047,-22.6202],[-44.8167,-22.6136],[-44.7881,-22.5961],[-44.79,-22.5867],[-44.732,-22.5736],[-44.7155,-22.539],[-44.6881,-22.5214]]]]}},{"type":"Feature","properties":{"codarea":"3504909","centroide":[-44.33495360682093,-22.734594524377094],"codigo_ibge":3504909,"nome_ig":"Vale do Paraíba"},"geometry":{"type":"MultiPolygon","coordinates":[[[[-44.3422,-22.5886],[-44.2952,-22.6017],[-44.2856,-22.6097],[-44.2687,-22.5987],[-44.2533,-22.6124],[-44.2257,-22.6047],[-44.221,-22.6166],[-44.1842,-22.6372],[-44.1895,-22.6491],[-44.1714,-22.6594],[-44.1613,-22.6782],[-44.1738,-22.7021],[-44.2017,-22.7154],[-44.1989,-22.7352],[-44.2268,-22.7336],[-44.2585,-22.7707],[-44.2558,-22.7883],[-44.2401,-22.7913],[-44.2593,-22.8042],[-44.2676,-22.829],[-44.2833,-22.8361],[-44.2965,-22.8278],[-44.318,-22.845],[-44.3338,-22.8428],[-44.3811,-22.8583],[-44.423,-22.8504],[-44.4332,-22.8688],[-44.4666,-22.8852],[-44.4801,-22.8665],[-44.4753,-22.8572],[-44.4946,-22.8467],[-44.5011,-22.8383],[-44.4962,-22.8093],[-44.4671,-22.7821],[-44.4721,-22.7685],[-44.4881,-22.7757],[-44.5084,-22.7693],[-44.4805,-22.741],[-44.4533,-22.7401],[-44.4276,-22.7249],[-44.4157,-22.7311],[-44.3926,-22.6874],[-44.3841,-22.6564],[-44.3768,-22.6537],[-44.3841,-22.6282],[-44.366,-22.6241],[-44.3609,-22.6118],[-44.3422,-22.5886]]]]}},{"type":"Feature","properties":{"codarea":"3508504","centroide":[-45.71363330533294,-23.10302588786774],"codigo_ibge":3508504,"nome_ig":"Vale do Paraíba"},"geometry":{"type":"MultiPolygon","coordinates":[[[[-45.6094,-23.1635],[-45.6161,-23.1809],[-45.6407,-23.196],[-45.7212,-23.2379],[-45.7509,-23.1926],[-45.7599,-23.1666],[-45.7604,-23.1286],[-45.7553,-23.1119],[-45.7927,-23.1074],[-45.8417,-23.0411],[-45.804,-23.0146],[-45.725,-22.9694],[-45.7121,-22.9894],[-45.7133,-23.0097],[-45.7029,-23.007],[-45.6969,-23.0269],[-45.6633,-23.0336],[-45.6309,-23.0813],[-45.6298,-23.1147],[-45.5941,-23.1333],[-45.6094,-23.1635]]]]}},{"type":"Feature","properties":{"codarea":"3508603","centroide":[-44.991739792920754,-22.70294212990206],"codigo_ibge":3508603,"nome_ig":"Vale do Paraíba"},"geometry":{"type":"MultiPolygon","coordinates":[[[[-44.9277,-22.6548],[-44.9126,-22.6808],[-44.9235,-22.7012],[-44.9136,-22.7086],[-44.9124,-22.7437],[-44.9205,-22.7505],[-44.9151,-22.7794],[-44.9058,-22.787],[-44.9073,-22.8179],[-44.895,-22.8445],[-44.9127,-22.855],[-44.9353,-22.8473],[-44.929,-22.8351],[-44.9493,-22.8324],[-44.9576,-22.8035],[-44.9751,-22.808],[-45.0057,-22.7738],[-45.0212,-22.738],[-45.0235,-22.6979],[-45.0403,-22.6919],[-45.046,-22.6763],[-45.0692,-22.6763],[-45.0951,-22.6649],[-45.1122,-22.6347],[-45.0946,-22.6116],[-45.1253,-22.5841],[-45.1038,-22.5626],[-45.1082,-22.5732],[-45.0847,-22.599],[-45.0392,-22.5971],[-45.002,-22.6089],[-44.9898,-22.639],[-44.9615,-22.6448],[-44.9407,-22.6602],[-44.9277,-22.6548]]]]}},{"type":"Feature","properties":{"codarea":"3509700","centroide":[-45.53355973949812,-22.702131750328075],"codigo_ibge":3509700,"nome_ig":"Vale do Paraíba"},"geometry":{"type":"MultiPolygon","coordinates":[[[[-45.4203,-22.6211],[-45.3999,-22.6536],[-45.4094,-22.6735],[-45.4219,-22.678],[-45.4388,-22.7026],[-45.4479,-22.7152],[-45.4657,-22.7145],[-45.4981,-22.7443],[-45.528,-22.7562],[-45.5381,-22.768],[-45.5808,-22.7779],[-45.5856,-22.7929],[-45.6142,-22.7971],[-45.6763,-22.7875],[-45.6586,-22.759],[-45.6592,-22.7381],[-45.6176,-22.7272],[-45.6263,-22.7182],[-45.6123,-22.6975],[-45.6201,-22.6874],[-45.6013,-22.6816],[-45.5804,-22.6529],[-45.5746,-22.6569],[-45.5249,-22.6468],[-45.501,-22.6263],[-45.4888,-22.6287],[-45.4747,-22.5995],[-45.4803,-22.5904],[-45.4738,-22.5888],[-45.4355,-22.6183],[-45.4203,-22.6211]]]]}},{"type":"Feature","properties":{"codarea":"3509957","centroide":[-45.04219418892326,-22.72930311404704],"codigo_ibge":3509957,"nome_ig":"Vale do Paraíba"},"geometry":{"type":"MultiPolygon","coordinates":[[[[-44.9751,-22.808],[-44.99,-22.809],[-45.0108,-22.7735],[-45.0319,-22.761],[-45.0589,-22.7699],[-45.061,-22.7502],[-45.0752,-22.7254],[-45.0752,-22.6784],[-45.0692,-22.6763],[-45.046,-22.6763],[-45.0403,-22.6919],[-45.0235,-22.6979],[-45.0212,-22.738],[-45.0057,-22.7738],[-44.9751,-22.808]]]]}},{"type":"Feature","properties":{"codarea":"3513405","centroide":[-45.00676366549599,-22.550866885481017],"codigo_ibge":3513405,"nome_ig":"Vale do Paraíba"},"geometry":{"type":"MultiPolygon","coordinates":[[[[-44.9658,-22.4751],[-44.9663,-22.4835],[-44.9356,-22.4914],[-44.921,-22.5335],[-44.932,-22.5654],[-44.9255,-22.5867],[-44.9054,-22.6119],[-44.9123,-22.6202],[-44.9024,-22.639],[-44.9277,-22.6548],[-44.9407,-22.6602],[-44.9615,-22.6448],[-44.9898,-22.639],[-45.002,-22.6089],[-45.0392,-22.5971],[-45.0847,-22.599],[-45.1082,-22.5732],[-45.1038,-22.5626],[-45.1121,-22.5418],[-45.1078,-22.5251],[-45.1243,-22.4972],[-45.1028,-22.4899],[-45.0284,-22.4631],[-44.9815,-22.468],[-44.9658,-22.4751]]]]}},{"type":"Feature","properties":{"codarea":"3513603","centroide":[-44.94255327142393,-23.05273342667349],"codigo_ibge":3513603,"nome_ig":"Vale do Paraíba"},"geometry":{"type":"MultiPolygon","coordinates":[[[[-44.7237,-22.8333],[-44.7247,-22.8458],[-44.7073,-22.8464],[-44.7077,-22.87],[-44.6798,-22.8994],[-44.6605,-22.8898],[-44.6549,-22.9061],[-44.6347,-22.8902],[-44.6294,-22.9049],[-44.6386,-22.9141],[-44.6591,-22.9279],[-44.6731,-22.9179],[-44.6869,-22.9359],[-44.7136,-22.9299],[-44.7438,-22.9472],[-44.751,-22.972],[-44.7648,-22.9833],[-44.7905,-22.9812],[-44.8025,-22.9987],[-44.7928,-23.0098],[-44.8012,-23.0445],[-44.8188,-23.0914],[-44.8105,-23.1155],[-44.8254,-23.1437],[-44.8244,-23.1626],[-44.8747,-23.1846],[-44.8826,-23.2027],[-44.9317,-23.2093],[-44.9433,-23.2297],[-44.9671,-23.2453],[-44.9844,-23.2295],[-45.0174,-23.2717],[-45.0103,-23.3068],[-45.034,-23.3146],[-45.0742,-23.3042],[-45.109,-23.3238],[-45.1241,-23.3167],[-45.1193,-23.2921],[-45.1006,-23.2468],[-45.1062,-23.2355],[-45.1243,-23.2383],[-45.1335,-23.2039],[-45.1462,-23.1875],[-45.1306,-23.1666],[-45.1365,-23.1271],[-45.1509,-23.1023],[-45.1316,-23.0835],[-45.1378,-23.0626],[-45.1244,-23.0487],[-45.1464,-23.0455],[-45.1643,-23.0267],[-45.1559,-23.0154],[-45.1332,-22.9999],[-45.1242,-23.0154],[-45.0949,-22.9927],[-45.0822,-22.9645],[-45.0563,-22.9445],[-45.0648,-22.9321],[-45.0417,-22.9332],[-45.0292,-22.9206],[-44.9904,-22.9108],[-44.9467,-22.9128],[-44.9277,-22.8913],[-44.9104,-22.8855],[-44.9076,-22.8968],[-44.8847,-22.8907],[-44.8553,-22.8694],[-44.8061,-22.8564],[-44.7965,-22.8318],[-44.7704,-22.8162],[-44.7805,-22.8121],[-44.7728,-22.7929],[-44.754,-22.7886],[-44.7293,-22.8007],[-44.7089,-22.7971],[-44.7237,-22.8333]]]]}},{"type":"Feature","properties":{"codarea":"3518404","centroide":[-45.23289962605645,-22.79277052596118],"codigo_ibge":3518404,"nome_ig":"Vale do Paraíba"},"geometry":{"type":"MultiPolygon","coordinates":[[[[-45.2037,-22.6559],[-45.1894,-22.6675],[-45.206,-22.6903],[-45.1806,-22.6905],[-45.1713,-22.7232],[-45.145,-22.743],[-45.1579,-22.7587],[-45.1358,-22.7716],[-45.1316,-22.8208],[-45.1185,-22.8388],[-45.1195,-22.855],[-45.1015,-22.8771],[-45.075,-22.8864],[-45.0612,-22.8749],[-45.0292,-22.9206],[-45.0417,-22.9332],[-45.0648,-22.9321],[-45.0563,-22.9445],[-45.0822,-22.9645],[-45.0949,-22.9927],[-45.1242,-23.0154],[-45.1332,-22.9999],[-45.1559,-23.0154],[-45.1915,-22.9994],[-45.2343,-23.0011],[-45.1884,-22.9698],[-45.2005,-22.9633],[-45.1961,-22.9457],[-45.2131,-22.936],[-45.2081,-22.9114],[-45.2077,-22.8629],[-45.2002,-22.841],[-45.2143,-22.829],[-45.2109,-22.8144],[-45.2374,-22.8243],[-45.2569,-22.8162],[-45.2707,-22.8258],[-45.3021,-22.8207],[-45.2979,-22.8056],[-45.3469,-22.7878],[-45.3978,-22.7825],[-45.4055,-22.7652],[-45.3968,-22.7494],[-45.4216,-22.731],[-45.4388,-22.7026],[-45.4219,-22.678],[-45.4094,-22.6735],[-45.3999,-22.6536],[-45.3609,-22.6387],[-45.3329,-22.6176],[-45.2691,-22.6114],[-45.2533,-22.632],[-45.2279,-22.6412],[-45.2239,-22.6531],[-45.2037,-22.6559]]]]}},{"type":"Feature","properties":{"codarea":"3520202","centroide":[-46.15038206268155,-23.134572917760014],"codigo_ibge":3520202,"nome_ig":"Vale do Paraíba"},"geometry":{"type":"MultiPolygon","coordinates":[[[[-46.0825,-22.9854],[-46.0654,-22.9981],[-46.0825,-23.0335],[-46.0763,-23.0369],[-46.0941,-23.0843],[-46.105,-23.0848],[-46.1009,-23.126],[-46.0916,-23.1433],[-46.1024,-23.1576],[-46.0748,-23.1808],[-46.0791,-23.2048],[-46.1137,-23.2276],[-46.1284,-23.2498],[-46.1457,-23.2568],[-46.157,-23.2543],[-46.1535,-23.2354],[-46.196,-23.219],[-46.2275,-23.1894],[-46.2621,-23.1863],[-46.2571,-23.1604],[-46.2352,-23.1354],[-46.226,-23.1368],[-46.215,-23.1084],[-46.2052,-23.0848],[-46.1816,-23.0796],[-46.1614,-23.0661],[-46.1589,-23.0499],[-46.1439,-23.0424],[-46.1255,-23.0092],[-46.1005,-23.0001],[-46.0865,-22.985],[-46.0825,-22.9854]]]]}},{"type":"Feature","properties":{"codarea":"3524402","centroide":[-45.99094528246562,-23.29842348829888],"codigo_ibge":3524402,"nome_ig":"Vale do Paraíba"},"geometry":{"type":"MultiPolygon","coordinates":[[[[-45.7937,-23.292],[-45.8061,-23.3032],[-45.803,-23.3293],[-45.8276,-23.3465],[-45.8368,-23.3353],[-45.8615,-23.3755],[-45.8995,-23.3683],[-45.897,-23.3934],[-45.9126,-23.374],[-45.9305,-23.3663],[-45.9312,-23.3964],[-45.9432,-23.3891],[-45.9802,-23.4054],[-45.9873,-23.4197],[-45.9995,-23.3884],[-46.0367,-23.3881],[-46.0682,-23.3482],[-46.0987,-23.3262],[-46.1014,-23.3085],[-46.1132,-23.2863],[-46.1392,-23.285],[-46.1535,-23.2658],[-46.1457,-23.2568],[-46.1284,-23.2498],[-46.1137,-23.2276],[-46.0791,-23.2048],[-46.0748,-23.1808],[-46.0636,-23.1722],[-46.0215,-23.2022],[-45.9977,-23.1863],[-45.9812,-23.2047],[-45.9497,-23.2084],[-45.9707,-23.2328],[-45.954,-23.2559],[-45.9212,-23.263],[-45.9064,-23.293],[-45.8479,-23.3066],[-45.8302,-23.293],[-45.7937,-23.292]]]]}},{"type":"Feature","properties":{"codarea":"3524907","centroide":[-45.709526007643646,-23.27940893938576],"codigo_ibge":3524907,"nome_ig":"Vale do Paraíba"},"geometry":{"type":"MultiPolygon","coordinates":[[[[-45.6407,-23.196],[-45.6155,-23.231],[-45.6121,-23.2471],[-45.6455,-23.2911],[-45.6677,-23.3008],[-45.7069,-23.3386],[-45.7215,-23.334],[-45.7469,-23.3527],[-45.7608,-23.3431],[-45.7823,-23.3555],[-45.803,-23.3293],[-45.8061,-23.3032],[-45.7937,-23.292],[-45.7624,-23.2512],[-45.7482,-23.2551],[-45.7212,-23.2379],[-45.6407,-23.196]]]]}},{"type":"Feature","properties":{"codarea":"3526308","centroide":[-45.20734524510988,-23.085611802126845],"codigo_ibge":3526308,"nome_ig":"Vale do Paraíba"},"geometry":{"type":"MultiPolygon","coordinates":[[[[-45.1559,-23.0154],[-45.1643,-23.0267],[-45.1464,-23.0455],[-45.1244,-23.0487],[-45.1378,-23.0626],[-45.1316,-23.0835],[-45.1509,-23.1023],[-45.1365,-23.1271],[-45.1306,-23.1666],[-45.1462,-23.1875],[-45.1859,-23.1977],[-45.1973,-23.1673],[-45.213,-23.1529],[-45.2304,-23.1577],[-45.228,-23.1304],[-45.2643,-23.1265],[-45.2736,-23.0928],[-45.3001,-23.0919],[-45.2979,-23.0815],[-45.3137,-23.0576],[-45.289,-23.0452],[-45.2942,-23.027],[-45.2577,-23.008],[-45.2343,-23.0011],[-45.1915,-22.9994],[-45.1559,-23.0154]]]]}},{"type":"Feature","properties":{"codarea":"3526605","centroide":[-44.88868742541048,-22.520078352377517],"codigo_ibge":3526605,"nome_ig":"Vale do Paraíba"},"geometry":{"type":"MultiPolygon","coordinates":[[[[-44.8439,-22.4278],[-44.8523,-22.486],[-44.8405,-22.5072],[-44.8504,-22.5232],[-44.8335,-22.5409],[-44.8326,-22.5609],[-44.8523,-22.5589],[-44.8496,-22.6022],[-44.8736,-22.6218],[-44.9054,-22.6119],[-44.9255,-22.5867],[-44.932,-22.5654],[-44.921,-22.5335],[-44.9356,-22.4914],[-44.9663,-22.4835],[-44.9658,-22.4751],[-44.9409,-22.4531],[-44.8978,-22.4529],[-44.8897,-22.4321],[-44.8595,-22.423],[-44.8439,-22.4278]]]]}},{"type":"Feature","properties":{"codarea":"3527207","centroide":[-45.0595203017316,-22.794114276824587],"codigo_ibge":3527207,"nome_ig":"Vale do Paraíba"},"geometry":{"type":"MultiPolygon","coordinates":[[[[-45.1122,-22.6347],[-45.0951,-22.6649],[-45.0692,-22.6763],[-45.0752,-22.6784],[-45.0752,-22.7254],[-45.061,-22.7502],[-45.0589,-22.7699],[-45.0319,-22.761],[-45.0108,-22.7735],[-44.99,-22.809],[-44.9751,-22.808],[-44.9576,-22.8035],[-44.9493,-22.8324],[-44.929,-22.8351],[-44.9353,-22.8473],[-44.9127,-22.855],[-44.895,-22.8445],[-44.8889,-22.8698],[-44.9104,-22.8855],[-44.9277,-22.8913],[-44.9467,-22.9128],[-44.9904,-22.9108],[-45.0292,-22.9206],[-45.0612,-22.8749],[-45.075,-22.8864],[-45.1015,-22.8771],[-45.1195,-22.855],[-45.1185,-22.8388],[-45.1316,-22.8208],[-45.1358,-22.7716],[-45.1579,-22.7587],[-45.145,-22.743],[-45.1713,-22.7232],[-45.1806,-22.6905],[-45.206,-22.6903],[-45.1894,-22.6675],[-45.2037,-22.6559],[-45.1518,-22.6583],[-45.153,-22.6397],[-45.1281,-22.6299],[-45.1122,-22.6347]]]]}},{"type":"Feature","properties":{"codarea":"3531704","centroide":[-45.803899371474074,-22.9353197215278],"codigo_ibge":3531704,"nome_ig":"Vale do Paraíba"},"geometry":{"type":"MultiPolygon","coordinates":[[[[-45.768,-22.8359],[-45.7578,-22.8368],[-45.7567,-22.8668],[-45.731,-22.8914],[-45.6699,-22.8764],[-45.6663,-22.8816],[-45.6836,-22.9104],[-45.6724,-22.9237],[-45.7046,-22.9479],[-45.725,-22.9694],[-45.804,-23.0146],[-45.8417,-23.0411],[-45.8555,-23.0428],[-45.8792,-23.028],[-45.8856,-23.0095],[-45.9234,-23.0361],[-45.9323,-23.0204],[-45.8805,-22.9654],[-45.8956,-22.9341],[-45.8774,-22.9212],[-45.8638,-22.8924],[-45.8709,-22.8714],[-45.8481,-22.8378],[-45.8233,-22.8298],[-45.8028,-22.8337],[-45.7908,-22.8586],[-45.768,-22.8359]]]]}},{"type":"Feature","properties":{"codarea":"3532306","centroide":[-45.3814864744122,-23.415047194618197],"codigo_ibge":3532306,"nome_ig":"Vale do Paraíba"},"geometry":{"type":"MultiPolygon","coordinates":[[[[-45.3809,-23.2889],[-45.3732,-23.3016],[-45.3465,-23.3036],[-45.3233,-23.2925],[-45.3412,-23.3249],[-45.3145,-23.326],[-45.2518,-23.3183],[-45.2265,-23.3317],[-45.2032,-23.306],[-45.204,-23.2955],[-45.1619,-23.287],[-45.1902,-23.3138],[-45.204,-23.3646],[-45.2044,-23.396],[-45.175,-23.3951],[-45.1665,-23.4113],[-45.1772,-23.4212],[-45.1767,-23.4405],[-45.2153,-23.453],[-45.2734,-23.4831],[-45.3089,-23.4973],[-45.3249,-23.5291],[-45.3431,-23.5483],[-45.3559,-23.5398],[-45.3843,-23.5553],[-45.4141,-23.5601],[-45.4254,-23.5484],[-45.4392,-23.553],[-45.4572,-23.5771],[-45.45,-23.5648],[-45.4834,-23.5598],[-45.4881,-23.5401],[-45.5043,-23.5324],[-45.499,-23.509],[-45.5095,-23.484],[-45.5226,-23.4788],[-45.5218,-23.4588],[-45.5527,-23.4527],[-45.5698,-23.4214],[-45.5496,-23.3963],[-45.5385,-23.3658],[-45.5571,-23.3744],[-45.5775,-23.3639],[-45.5661,-23.3324],[-45.55,-23.3389],[-45.5343,-23.3268],[-45.5169,-23.3311],[-45.5128,-23.3178],[-45.4972,-23.3262],[-45.4795,-23.3157],[-45.4617,-23.3262],[-45.4679,-23.305],[-45.4448,-23.2925],[-45.4304,-23.2953],[-45.3983,-23.2768],[-45.3809,-23.2889]]]]}},{"type":"Feature","properties":{"codarea":"3535606","centroide":[-45.641479730486374,-23.478457122754016],"codigo_ibge":3535606,"nome_ig":"Vale do Paraíba"},"geometry":{"type":"MultiPolygon","coordinates":[[[[-45.5661,-23.3324],[-45.5775,-23.3639],[-45.5571,-23.3744],[-45.5385,-23.3658],[-45.5496,-23.3963],[-45.5698,-23.4214],[-45.5527,-23.4527],[-45.5218,-23.4588],[-45.5226,-23.4788],[-45.5095,-23.484],[-45.499,-23.509],[-45.5043,-23.5324],[-45.4881,-23.5401],[-45.4834,-23.5598],[-45.45,-23.5648],[-45.4572,-23.5771],[-45.4706,-23.5823],[-45.4875,-23.5724],[-45.5239,-23.6049],[-45.544,-23.5982],[-45.5805,-23.6465],[-45.631,-23.6572],[-45.6229,-23.6286],[-45.6439,-23.6216],[-45.7025,-23.6368],[-45.6952,-23.6315],[-45.7059,-23.6015],[-45.7437,-23.602],[-45.7316,-23.5769],[-45.7462,-23.5655],[-45.7464,-23.5388],[-45.7619,-23.5184],[-45.756,-23.5111],[-45.7911,-23.5063],[-45.7887,-23.4928],[-45.777,-23.4829],[-45.7885,-23.4687],[-45.7639,-23.4341],[-45.786,-23.4191],[-45.7544,-23.3891],[-45.7563,-23.375],[-45.7832,-23.3696],[-45.7823,-23.3555],[-45.7608,-23.3431],[-45.7469,-23.3527],[-45.7215,-23.334],[-45.7069,-23.3386],[-45.6677,-23.3008],[-45.6455,-23.2911],[-45.5726,-23.3251],[-45.5661,-23.3324]]]]}},{"type":"Feature","properties":{"codarea":"3538006","centroide":[-45.458843998743596,-22.880516434497572],"codigo_ibge":3538006,"nome_ig":"Vale do Paraíba"},"geometry":{"type":"MultiPolygon","coordinates":[[[[-45.3469,-22.7878],[-45.3641,-22.798],[-45.339,-22.8164],[-45.3311,-22.8369],[-45.3468,-22.8511],[-45.3257,-22.8571],[-45.3544,-22.8727],[-45.332,-22.9127],[-45.3389,-22.9452],[-45.3216,-22.9756],[-45.3338,-22.9934],[-45.3293,-23.0136],[-45.3081,-23.0253],[-45.3404,-23.0305],[-45.3543,-23.0067],[-45.3792,-23.0173],[-45.3932,-23.0361],[-45.439,-23.0714],[-45.4617,-23.0532],[-45.4662,-23.0381],[-45.4943,-23.0147],[-45.5036,-22.9789],[-45.5217,-22.9245],[-45.5459,-22.9227],[-45.5529,-22.8993],[-45.5829,-22.8882],[-45.5955,-22.8757],[-45.6323,-22.875],[-45.6663,-22.8816],[-45.6699,-22.8764],[-45.6516,-22.8658],[-45.6291,-22.8336],[-45.6315,-22.8216],[-45.6142,-22.7971],[-45.5856,-22.7929],[-45.5808,-22.7779],[-45.5381,-22.768],[-45.528,-22.7562],[-45.4981,-22.7443],[-45.4657,-22.7145],[-45.4479,-22.7152],[-45.4388,-22.7026],[-45.4216,-22.731],[-45.3968,-22.7494],[-45.4055,-22.7652],[-45.3978,-22.7825],[-45.3469,-22.7878]]]]}},{"type":"Feature","properties":{"codarea":"3538501","centroide":[-45.17483315975286,-22.59089300663108],"codigo_ibge":3538501,"nome_ig":"Vale do Paraíba"},"geometry":{"type":"MultiPolygon","coordinates":[[[[-45.1243,-22.4972],[-45.1078,-22.5251],[-45.1121,-22.5418],[-45.1038,-22.5626],[-45.1253,-22.5841],[-45.0946,-22.6116],[-45.1122,-22.6347],[-45.1281,-22.6299],[-45.153,-22.6397],[-45.1518,-22.6583],[-45.2037,-22.6559],[-45.2239,-22.6531],[-45.2279,-22.6412],[-45.2533,-22.632],[-45.2691,-22.6114],[-45.2601,-22.582],[-45.2213,-22.5632],[-45.1915,-22.5557],[-45.1645,-22.5379],[-45.1667,-22.5307],[-45.1503,-22.5073],[-45.1243,-22.4972]]]]}},{"type":"Feature","properties":{"codarea":"3540754","centroide":[-45.302590685543265,-22.82606745052943],"codigo_ibge":3540754,"nome_ig":"Vale do Paraíba"},"geometry":{"type":"MultiPolygon","coordinates":[[[[-45.2374,-22.8243],[-45.2561,-22.8572],[-45.2782,-22.8511],[-45.3109,-22.838],[-45.3257,-22.8571],[-45.3468,-22.8511],[-45.3311,-22.8369],[-45.339,-22.8164],[-45.3641,-22.798],[-45.3469,-22.7878],[-45.2979,-22.8056],[-45.3021,-22.8207],[-45.2707,-22.8258],[-45.2569,-22.8162],[-45.2374,-22.8243]]]]}},{"type":"Feature","properties":{"codarea":"3541901","centroide":[-44.78386462128763,-22.50549718586604],"codigo_ibge":3541901,"nome_ig":"Vale do Paraíba"},"geometry":{"type":"MultiPolygon","coordinates":[[[[-44.6881,-22.5214],[-44.7155,-22.539],[-44.732,-22.5736],[-44.79,-22.5867],[-44.7881,-22.5961],[-44.8167,-22.6136],[-44.8208,-22.5993],[-44.8496,-22.6022],[-44.8523,-22.5589],[-44.8326,-22.5609],[-44.8335,-22.5409],[-44.8504,-22.5232],[-44.8405,-22.5072],[-44.8523,-22.486],[-44.8439,-22.4278],[-44.8349,-22.4311],[-44.8079,-22.4141],[-44.8094,-22.4055],[-44.7553,-22.4152],[-44.733,-22.4341],[-44.7192,-22.4634],[-44.7222,-22.4847],[-44.6881,-22.5214]]]]}},{"type":"Feature","properties":{"codarea":"3542305","centroide":[-45.52719635207589,-23.253231029487825],"codigo_ibge":3542305,"nome_ig":"Vale do Paraíba"},"geometry":{"type":"MultiPolygon","coordinates":[[[[-45.3969,-23.1806],[-45.3948,-23.2005],[-45.4268,-23.2259],[-45.4052,-23.2545],[-45.3717,-23.2719],[-45.3809,-23.2889],[-45.3983,-23.2768],[-45.4304,-23.2953],[-45.4448,-23.2925],[-45.4679,-23.305],[-45.4617,-23.3262],[-45.4795,-23.3157],[-45.4972,-23.3262],[-45.5128,-23.3178],[-45.5169,-23.3311],[-45.5343,-23.3268],[-45.55,-23.3389],[-45.5661,-23.3324],[-45.5726,-23.3251],[-45.6455,-23.2911],[-45.6121,-23.2471],[-45.6155,-23.231],[-45.6407,-23.196],[-45.6161,-23.1809],[-45.6094,-23.1635],[-45.5888,-23.1794],[-45.5681,-23.1598],[-45.554,-23.1611],[-45.5455,-23.1762],[-45.5221,-23.1763],[-45.52,-23.1994],[-45.5038,-23.2193],[-45.4785,-23.2244],[-45.4455,-23.2176],[-45.3969,-23.1806]]]]}},{"type":"Feature","properties":{"codarea":"3544301","centroide":[-45.30233221489222,-22.932467703080878],"codigo_ibge":3544301,"nome_ig":"Vale do Paraíba"},"geometry":{"type":"MultiPolygon","coordinates":[[[[-45.2782,-22.8511],[-45.2709,-22.8855],[-45.2549,-22.8965],[-45.2783,-22.9318],[-45.278,-22.9498],[-45.2577,-23.008],[-45.2942,-23.027],[-45.3081,-23.0253],[-45.3293,-23.0136],[-45.3338,-22.9934],[-45.3216,-22.9756],[-45.3389,-22.9452],[-45.332,-22.9127],[-45.3544,-22.8727],[-45.3257,-22.8571],[-45.3109,-22.838],[-45.2782,-22.8511]]]]}},{"type":"Feature","properties":{"codarea":"3546009","centroide":[-45.86394903576358,-23.425749463501877],"codigo_ibge":3546009,"nome_ig":"Vale do Paraíba"},"geometry":{"type":"MultiPolygon","coordinates":[[[[-45.7823,-23.3555],[-45.7832,-23.3696],[-45.7563,-23.375],[-45.7544,-23.3891],[-45.786,-23.4191],[-45.7639,-23.4341],[-45.7885,-23.4687],[-45.777,-23.4829],[-45.7887,-23.4928],[-45.8136,-23.4993],[-45.84,-23.4721],[-45.904,-23.5053],[-45.9393,-23.4943],[-45.9619,-23.497],[-45.9683,-23.4754],[-45.9518,-23.4513],[-45.9792,-23.4191],[-45.9873,-23.4197],[-45.9802,-23.4054],[-45.9432,-23.3891],[-45.9312,-23.3964],[-45.9305,-23.3663],[-45.9126,-23.374],[-45.897,-23.3934],[-45.8995,-23.3683],[-45.8615,-23.3755],[-45.8368,-23.3353],[-45.8276,-23.3465],[-45.803,-23.3293],[-45.7823,-23.3555]]]]}},{"type":"Feature","properties":{"codarea":"3548203","centroide":[-45.69812680009421,-22.831424782587003],"codigo_ibge":3548203,"nome_ig":"Vale do Paraíba"},"geometry":{"type":"MultiPolygon","coordinates":[[[[-45.6763,-22.7875],[-45.6142,-22.7971],[-45.6315,-22.8216],[-45.6291,-22.8336],[-45.6516,-22.8658],[-45.6699,-22.8764],[-45.731,-22.8914],[-45.7567,-22.8668],[-45.7578,-22.8368],[-45.768,-22.8359],[-45.7709,-22.8059],[-45.7549,-22.7929],[-45.7417,-22.8079],[-45.7135,-22.8147],[-45.7303,-22.7985],[-45.729,-22.7852],[-45.7122,-22.7698],[-45.6763,-22.7875]]]]}},{"type":"Feature","properties":{"codarea":"3548609","centroide":[-45.68638166468992,-22.68176795902368],"codigo_ibge":3548609,"nome_ig":"Vale do Paraíba"},"geometry":{"type":"MultiPolygon","coordinates":[[[[-45.5765,-22.6017],[-45.5553,-22.6264],[-45.5819,-22.6446],[-45.5804,-22.6529],[-45.6013,-22.6816],[-45.6201,-22.6874],[-45.6123,-22.6975],[-45.6263,-22.7182],[-45.6176,-22.7272],[-45.6592,-22.7381],[-45.6586,-22.759],[-45.6763,-22.7875],[-45.7122,-22.7698],[-45.7299,-22.7272],[-45.7564,-22.721],[-45.7956,-22.739],[-45.805,-22.7372],[-45.8199,-22.7227],[-45.8116,-22.6987],[-45.7878,-22.6933],[-45.7505,-22.6712],[-45.7428,-22.6591],[-45.7175,-22.6621],[-45.6939,-22.6517],[-45.7174,-22.621],[-45.73,-22.6187],[-45.7345,-22.5974],[-45.7184,-22.5779],[-45.6954,-22.5863],[-45.6787,-22.5732],[-45.6628,-22.5768],[-45.6588,-22.5981],[-45.681,-22.6363],[-45.6661,-22.6512],[-45.6181,-22.6379],[-45.6087,-22.624],[-45.5899,-22.619],[-45.5765,-22.6017]]]]}},{"type":"Feature","properties":{"codarea":"3549607","centroide":[-44.58693473928999,-22.748270953540768],"codigo_ibge":3549607,"nome_ig":"Vale do Paraíba"},"geometry":{"type":"MultiPolygon","coordinates":[[[[-44.4662,-22.6156],[-44.452,-22.6267],[-44.4533,-22.6456],[-44.4654,-22.6567],[-44.4595,-22.669],[-44.4736,-22.6858],[-44.5282,-22.7248],[-44.5275,-22.7599],[-44.5084,-22.7693],[-44.4881,-22.7757],[-44.4721,-22.7685],[-44.4671,-22.7821],[-44.4962,-22.8093],[-44.5011,-22.8383],[-44.4946,-22.8467],[-44.5551,-22.888],[-44.5753,-22.878],[-44.5989,-22.8903],[-44.6074,-22.8852],[-44.6294,-22.9049],[-44.6347,-22.8902],[-44.6549,-22.9061],[-44.6605,-22.8898],[-44.6798,-22.8994],[-44.7077,-22.87],[-44.7073,-22.8464],[-44.7247,-22.8458],[-44.7237,-22.8333],[-44.6897,-22.8195],[-44.6699,-22.8211],[-44.6501,-22.799],[-44.66,-22.7675],[-44.6516,-22.7569],[-44.6655,-22.7361],[-44.6795,-22.6895],[-44.6778,-22.6528],[-44.6887,-22.6458],[-44.6458,-22.6039],[-44.6227,-22.6053],[-44.6132,-22.617],[-44.5967,-22.6104],[-44.5836,-22.6262],[-44.5742,-22.6018],[-44.564,-22.6119],[-44.5502,-22.6037],[-44.5085,-22.6409],[-44.4839,-22.6039],[-44.4662,-22.6156]]]]}},{"type":"Feature","properties":{"codarea":"3549904","centroide":[-45.928241283290234,-23.090769716205106],"codigo_ibge":3549904,"nome_ig":"Vale do Paraíba"},"geometry":{"type":"MultiPolygon","coordinates":[[[[-45.8709,-22.8714],[-45.8638,-22.8924],[-45.8774,-22.9212],[-45.8956,-22.9341],[-45.8805,-22.9654],[-45.9323,-23.0204],[-45.9234,-23.0361],[-45.8856,-23.0095],[-45.8792,-23.028],[-45.8555,-23.0428],[-45.8417,-23.0411],[-45.7927,-23.1074],[-45.7553,-23.1119],[-45.7604,-23.1286],[-45.7599,-23.1666],[-45.7509,-23.1926],[-45.7212,-23.2379],[-45.7482,-23.2551],[-45.7624,-23.2512],[-45.7937,-23.292],[-45.8302,-23.293],[-45.8479,-23.3066],[-45.9064,-23.293],[-45.9212,-23.263],[-45.954,-23.2559],[-45.9707,-23.2328],[-45.9497,-23.2084],[-45.9812,-23.2047],[-45.9977,-23.1863],[-46.0215,-23.2022],[-46.0636,-23.1722],[-46.0748,-23.1808],[-46.1024,-23.1576],[-46.0916,-23.1433],[-46.1009,-23.126],[-46.105,-23.0848],[-46.0941,-23.0843],[-46.0763,-23.0369],[-46.0825,-23.0335],[-46.0654,-22.9981],[-46.0825,-22.9854],[-46.0507,-22.9664],[-46.0532,-22.9499],[-46.0411,-22.9138],[-46.0506,-22.8969],[-46.0278,-22.885],[-46.0075,-22.8891],[-45.9565,-22.8498],[-45.9386,-22.8463],[-45.9123,-22.8163],[-45.8911,-22.846],[-45.8888,-22.8759],[-45.8709,-22.8714]]]]}},{"type":"Feature","properties":{"codarea":"3550001","centroide":[-45.25366673412255,-23.239799107859216],"codigo_ibge":3550001,"nome_ig":"Vale do Paraíba"},"geometry":{"type":"MultiPolygon","coordinates":[[[[-45.3001,-23.0919],[-45.2736,-23.0928],[-45.2643,-23.1265],[-45.228,-23.1304],[-45.2304,-23.1577],[-45.213,-23.1529],[-45.1973,-23.1673],[-45.1859,-23.1977],[-45.1462,-23.1875],[-45.1335,-23.2039],[-45.1243,-23.2383],[-45.1062,-23.2355],[-45.1006,-23.2468],[-45.1193,-23.2921],[-45.1241,-23.3167],[-45.109,-23.3238],[-45.0742,-23.3042],[-45.0778,-23.3266],[-45.0675,-23.343],[-45.0984,-23.359],[-45.1397,-23.3601],[-45.1493,-23.3817],[-45.175,-23.3951],[-45.2044,-23.396],[-45.204,-23.3646],[-45.1902,-23.3138],[-45.1619,-23.287],[-45.204,-23.2955],[-45.2032,-23.306],[-45.2265,-23.3317],[-45.2518,-23.3183],[-45.3145,-23.326],[-45.3412,-23.3249],[-45.3233,-23.2925],[-45.3465,-23.3036],[-45.3732,-23.3016],[-45.3809,-23.2889],[-45.3717,-23.2719],[-45.4052,-23.2545],[-45.4268,-23.2259],[-45.3948,-23.2005],[-45.3969,-23.1806],[-45.3877,-23.1588],[-45.3548,-23.1379],[-45.3438,-23.1086],[-45.3499,-23.102],[-45.3285,-23.085],[-45.3001,-23.0919]]]]}},{"type":"Feature","properties":{"codarea":"3552007","centroide":[-44.84099035925747,-22.734739984624166],"codigo_ibge":3552007,"nome_ig":"Vale do Paraíba"},"geometry":{"type":"MultiPolygon","coordinates":[[[[-44.8167,-22.6136],[-44.8047,-22.6202],[-44.7813,-22.6062],[-44.7634,-22.6343],[-44.7651,-22.6619],[-44.774,-22.6754],[-44.7741,-22.7038],[-44.7455,-22.7308],[-44.7654,-22.7579],[-44.7446,-22.7711],[-44.754,-22.7886],[-44.7728,-22.7929],[-44.7805,-22.8121],[-44.7704,-22.8162],[-44.7965,-22.8318],[-44.8061,-22.8564],[-44.8553,-22.8694],[-44.8847,-22.8907],[-44.9076,-22.8968],[-44.9104,-22.8855],[-44.8889,-22.8698],[-44.895,-22.8445],[-44.9073,-22.8179],[-44.9058,-22.787],[-44.9151,-22.7794],[-44.9205,-22.7505],[-44.9124,-22.7437],[-44.9136,-22.7086],[-44.9235,-22.7012],[-44.9126,-22.6808],[-44.9277,-22.6548],[-44.9024,-22.639],[-44.9123,-22.6202],[-44.9054,-22.6119],[-44.8736,-22.6218],[-44.8496,-22.6022],[-44.8208,-22.5993],[-44.8167,-22.6136]]]]}},{"type":"Feature","properties":{"codarea":"3554102","centroide":[-45.501958927855505,-23.087493481625085],"codigo_ibge":3554102,"nome_ig":"Vale do Paraíba"},"geometry":{"type":"MultiPolygon","coordinates":[[[[-45.5036,-22.9789],[-45.4943,-23.0147],[-45.4662,-23.0381],[-45.4617,-23.0532],[-45.439,-23.0714],[-45.3932,-23.0361],[-45.3792,-23.0173],[-45.3543,-23.0067],[-45.3404,-23.0305],[-45.3081,-23.0253],[-45.2942,-23.027],[-45.289,-23.0452],[-45.3137,-23.0576],[-45.2979,-23.0815],[-45.3001,-23.0919],[-45.3285,-23.085],[-45.3499,-23.102],[-45.3438,-23.1086],[-45.3548,-23.1379],[-45.3877,-23.1588],[-45.3969,-23.1806],[-45.4455,-23.2176],[-45.4785,-23.2244],[-45.5038,-23.2193],[-45.52,-23.1994],[-45.5221,-23.1763],[-45.5455,-23.1762],[-45.554,-23.1611],[-45.5681,-23.1598],[-45.5888,-23.1794],[-45.6094,-23.1635],[-45.5941,-23.1333],[-45.6298,-23.1147],[-45.6309,-23.0813],[-45.6633,-23.0336],[-45.6969,-23.0269],[-45.7029,-23.007],[-45.7133,-23.0097],[-45.7121,-22.9894],[-45.725,-22.9694],[-45.7046,-22.9479],[-45.6769,-22.9764],[-45.6473,-22.9866],[-45.6338,-23.0011],[-45.57,-22.9872],[-45.5457,-22.9986],[-45.5036,-22.9789]]]]}},{"type":"Feature","properties":{"codarea":"3554805","centroide":[-45.60456834564266,-22.940676103638346],"codigo_ibge":3554805,"nome_ig":"Vale do Paraíba"},"geometry":{"type":"MultiPolygon","coordinates":[[[[-45.5036,-22.9789],[-45.5457,-22.9986],[-45.57,-22.9872],[-45.6338,-23.0011],[-45.6473,-22.9866],[-45.6769,-22.9764],[-45.7046,-22.9479],[-45.6724,-22.9237],[-45.6836,-22.9104],[-45.6663,-22.8816],[-45.6323,-22.875],[-45.5955,-22.8757],[-45.5829,-22.8882],[-45.5529,-22.8993],[-45.5459,-22.9227],[-45.5217,-22.9245],[-45.5036,-22.9789]]]]}}]}