{"type":"FeatureCollection","features":[{"type":"Feature","properties":{"codarea":"4204251","centroide":[-49.3347946900706,-28.597801956635898],"codigo_ibge":4204251,"nome_ig":"Vales da Uva Goethe"},"geometry":{"type":"MultiPolygon","coordinates":[[[[-49.2527,-28.5878],[-49.245,-28.5904],[-49.2709,-28.6005],[-49.2918,-28.6212],[-49.3315,-28.6246],[-49.3359,-28.6339],[-49.3594,-28.6365],[-49.3687,-28.6348],[-49.4022,-28.5982],[-49.386,-28.5788],[-49.3512,-28.5622],[-49.3136,-28.5654],[-49.2737,-28.5864],[-49.2527,-28.5878]]]]}},{"type":"Feature","properties":{"codarea":"4207007","centroide":[-49.27650517129955,-28.75168742542254],"codigo_ibge":4207007,"nome_ig":"Vales da Uva Goethe"},"geometry":{"type":"MultiPolygon","coordinates":[[[[-49.1752,-28.6879],[-49.174,-28.6985],[-49.1778,-28.7279],[-49.1987,-28.7368],[-49.1952,-28.7561],[-49.2047,-28.7765],[-49.2403,-28.7762],[-49.2469,-28.7947],[-49.3301,-28.8643],[-49.3511,-28.8548],[-49.357,-28.7553],[-49.3354,-28.7543],[-49.3312,-28.7176],[-49.3325,-28.6791],[-49.2743,-28.6801],[-49.2435,-28.6746],[-49.2129,-28.6706],[-49.1989,-28.683],[-49.1752,-28.6879]]]]}},{"type":"Feature","properties":{"codarea":"4211207","centroide":[-49.24176285299319,-28.638129810592503],"codigo_ibge":4211207,"nome_ig":"Vales da Uva Goethe"},"geometry":{"type":"MultiPolygon","coordinates":[[[[-49.1813,-28.6412],[-49.1754,-28.644],[-49.1752,-28.6879],[-49.1989,-28.683],[-49.2129,-28.6706],[-49.2435,-28.6746],[-49.2909,-28.6376],[-49.3353,-28.6451],[-49.3594,-28.6365],[-49.3359,-28.6339],[-49.3315,-28.6246],[-49.2918,-28.6212],[-49.2709,-28.6005],[-49.245,-28.5904],[-49.2428,-28.5895],[-49.201,-28.6188],[-49.1813,-28.6412]]]]}},{"type":"Feature","properties":{"codarea":"4211603","centroide":[-49.58437736785448,-28.6847754003769],"codigo_ibge":4211603,"nome_ig":"Vales da Uva Goethe"},"geometry":{"type":"MultiPolygon","coordinates":[[[[-49.4515,-28.6336],[-49.4595,-28.6808],[-49.476,-28.7128],[-49.4754,-28.7218],[-49.5124,-28.7209],[-49.526,-28.751],[-49.5706,-28.7502],[-49.5715,-28.7633],[-49.5955,-28.7757],[-49.6054,-28.7524],[-49.6272,-28.7504],[-49.6342,-28.7607],[-49.6497,-28.748],[-49.6707,-28.7534],[-49.6818,-28.7376],[-49.6734,-28.7285],[-49.6739,-28.7012],[-49.7122,-28.6656],[-49.7043,-28.63],[-49.7031,-28.6289],[-49.685,-28.621],[-49.4515,-28.6336]]]]}},{"type":"Feature","properties":{"codarea":"4211702","centroide":[-49.37224195427847,-28.280206571228423],"codigo_ibge":4211702,"nome_ig":"Vales da Uva Goethe"},"geometry":{"type":"MultiPolygon","coordinates":[[[[-49.4411,-28.1322],[-49.4308,-28.1503],[-49.3984,-28.1586],[-49.3958,-28.195],[-49.3486,-28.2398],[-49.3169,-28.2413],[-49.2909,-28.2537],[-49.2759,-28.248],[-49.2335,-28.2565],[-49.2059,-28.2735],[-49.2024,-28.2875],[-49.2178,-28.29],[-49.2134,-28.3344],[-49.2215,-28.3377],[-49.2168,-28.3629],[-49.2274,-28.3696],[-49.2142,-28.3883],[-49.191,-28.3893],[-49.2118,-28.4001],[-49.1962,-28.4234],[-49.2217,-28.4326],[-49.2247,-28.4176],[-49.2594,-28.4208],[-49.2873,-28.4128],[-49.2883,-28.3963],[-49.3294,-28.4069],[-49.3364,-28.4181],[-49.3396,-28.3732],[-49.3586,-28.3652],[-49.3581,-28.3437],[-49.409,-28.3343],[-49.4315,-28.3162],[-49.4591,-28.3211],[-49.4844,-28.3039],[-49.524,-28.308],[-49.5278,-28.2681],[-49.5482,-28.2723],[-49.5323,-28.2541],[-49.5339,-28.2419],[-49.5507,-28.2395],[-49.5303,-28.2261],[-49.5305,-28.1877],[-49.5147,-28.1759],[-49.5107,-28.1551],[-49.4956,-28.1474],[-49.4884,-28.1273],[-49.4745,-28.1255],[-49.4742,-28.1344],[-49.4411,-28.1322]]]]}},{"type":"Feature","properties":{"codarea":"4212403","centroide":[-49.20445639120647,-28.477937123121077],"codigo_ibge":4212403,"nome_ig":"Vales da Uva Goethe"},"geometry":{"type":"MultiPolygon","coordinates":[[[[-49.1378,-28.4136],[-49.1235,-28.42],[-49.1119,-28.4437],[-49.1247,-28.454],[-49.1231,-28.4751],[-49.1388,-28.4725],[-49.1842,-28.4989],[-49.2428,-28.5895],[-49.245,-28.5904],[-49.2527,-28.5878],[-49.2523,-28.5356],[-49.2671,-28.5321],[-49.2902,-28.503],[-49.2806,-28.4853],[-49.2583,-28.4748],[-49.2552,-28.462],[-49.2217,-28.4326],[-49.1962,-28.4234],[-49.2118,-28.4001],[-49.191,-28.3893],[-49.191,-28.4075],[-49.18,-28.4132],[-49.1559,-28.4008],[-49.1378,-28.4136]]]]}},{"type":"Feature","properties":{"codarea":"4218400","centroide":[-49.15406141262564,-28.56434826433887],"codigo_ibge":4218400,"nome_ig":"Vales da Uva Goethe"},"geometry":{"type":"MultiPolygon","coordinates":[[[[-49.03,-28.5498],[-49.1032,-28.5929],[-49.1813,-28.6412],[-49.201,-28.6188],[-49.2428,-28.5895],[-49.1842,-28.4989],[-49.1391,-28.4978],[-49.0562,-28.5566],[-49.03,-28.5498]]]]}},{"type":"Feature","properties":{"codarea":"4219002","centroide":[-49.329615887617095,-28.49299189665131],"codigo_ibge":4219002,"nome_ig":"Vales da Uva Goethe"},"geometry":{"type":"MultiPolygon","coordinates":[[[[-49.2217,-28.4326],[-49.2552,-28.462],[-49.2583,-28.4748],[-49.2806,-28.4853],[-49.2902,-28.503],[-49.2671,-28.5321],[-49.2523,-28.5356],[-49.2527,-28.5878],[-49.2737,-28.5864],[-49.3136,-28.5654],[-49.3512,-28.5622],[-49.386,-28.5788],[-49.3908,-28.5562],[-49.4226,-28.5367],[-49.4292,-28.4591],[-49.3991,-28.4642],[-49.3816,-28.4563],[-49.3685,-28.4377],[-49.3646,-28.4143],[-49.3364,-28.4181],[-49.3294,-28.4069],[-49.2883,-28.3963],[-49.2873,-28.4128],[-49.2594,-28.4208],[-49.2247,-28.4176],[-49.2217,-28.4326]]]]}}]}