{"type":"FeatureCollection","features":[{"type":"Feature","properties":{"codarea":"3205069","centroide":[-41.14013447744866,-20.37055661690473],"codigo_ibge":3205069,"nome_ig":"Venda Nova do Imigrante"},"geometry":{"type":"MultiPolygon","coordinates":[[[[-41.1366,-20.2876],[-41.1048,-20.3042],[-41.0984,-20.344],[-41.0871,-20.3529],[-41.0924,-20.3803],[-41.0714,-20.3898],[-41.0523,-20.4392],[-41.0528,-20.4599],[-41.0678,-20.4602],[-41.0756,-20.4452],[-41.1013,-20.4336],[-41.0977,-20.4088],[-41.1112,-20.4053],[-41.1144,-20.4197],[-41.1424,-20.4315],[-41.1654,-20.4256],[-41.1663,-20.4458],[-41.1911,-20.4455],[-41.1995,-20.4231],[-41.1764,-20.3974],[-41.2029,-20.3811],[-41.2047,-20.3636],[-41.2185,-20.3562],[-41.2097,-20.3361],[-41.2171,-20.3278],[-41.1896,-20.3072],[-41.1797,-20.3124],[-41.158,-20.2824],[-41.1366,-20.2876]]]]}}]}