{"type":"FeatureCollection","features":[{"type":"Feature","properties":{"codarea":"2314102","centroide":[-41.135836895297295,-3.5453394816697257],"codigo_ibge":2314102,"nome_ig":"Viçosa do Ceará"},"geometry":{"type":"MultiPolygon","coordinates":[[[[-40.8888,-3.5224],[-40.8768,-3.5325],[-40.9073,-3.5621],[-40.986,-3.624],[-41.0165,-3.64],[-41.0387,-3.6648],[-41.0514,-3.6651],[-41.0805,-3.691],[-41.132,-3.712],[-41.1468,-3.6962],[-41.1933,-3.7038],[-41.1963,-3.696],[-41.2204,-3.7188],[-41.2392,-3.7127],[-41.2793,-3.7007],[-41.3076,-3.6848],[-41.3341,-3.6839],[-41.3417,-3.6807],[-41.3313,-3.6246],[-41.3439,-3.5904],[-41.368,-3.5785],[-41.367,-3.5614],[-41.3368,-3.5538],[-41.3256,-3.5364],[-41.326,-3.5082],[-41.303,-3.4921],[-41.2873,-3.4793],[-41.2513,-3.4872],[-41.2337,-3.4635],[-41.2258,-3.4668],[-41.17,-3.2876],[-41.1491,-3.3632],[-41.1271,-3.3612],[-41.0881,-3.3717],[-41.0566,-3.3903],[-41.0519,-3.4026],[-41.0239,-3.4084],[-41.0004,-3.4262],[-40.8888,-3.5224]]]]}}]}